{"type":"FeatureCollection","name":"COM_33447","crs":{"type":"name","properties":{"name":"urn:ogc:def:crs:OGC:1.3:CRS84"}},"features":[{"type":"Feature","properties":{"fid":4151,"ID":"COMMUNE_0000000009754984","NOM":"Saint-Médard-de-Guizières","NOM_M":"SAINT-MEDARD-DE-GUIZIERES","INSEE_COM":"33447","STATUT":"Commune simple","POPULATION":2408,"INSEE_CAN":"21","INSEE_ARR":"5","INSEE_DEP":"33","INSEE_REG":"75","SIREN_EPCI":"200070092"},"geometry":{"type":"MultiPolygon","coordinates":[[[[-0.104934453340961,44.99971329232074],[-0.104665121059324,44.99982623511985],[-0.10373491968439,44.99990805983942],[-0.102328965700155,45.000182459033624],[-0.100505383757563,45.001538951698876],[-0.099462755809569,45.00220596395806],[-0.097493481432174,45.003158279320715],[-0.09566721186732,45.00557261681796],[-0.095458880195949,45.00566401526443],[-0.094712204986324,45.00656333010049],[-0.093735430706989,45.00752850886452],[-0.093262551139669,45.00832648792295],[-0.093324256380538,45.008891544098496],[-0.092294182234226,45.00916887404902],[-0.089758754151034,45.01066390257289],[-0.088961752873681,45.01093022223524],[-0.088629983304861,45.0128370795301],[-0.088436449163916,45.01345067204954],[-0.088350191136053,45.015202938983954],[-0.087944491892091,45.01583953961097],[-0.087645460981385,45.015876672089114],[-0.087610871999501,45.016769688669875],[-0.08816904535352,45.01795261909314],[-0.089391283048714,45.017977260992446],[-0.089746983791647,45.01846026939879],[-0.092082205956379,45.020694032868555],[-0.092585306164089,45.0215676069051],[-0.092700227489931,45.022060903222034],[-0.092959588561184,45.02480016097508],[-0.092662697767416,45.025543686655865],[-0.092055668883578,45.026354398441505],[-0.091719625265114,45.02671154825002],[-0.091125262252398,45.02708488284856],[-0.090289969291177,45.02709906941444],[-0.088185727899667,45.026821380124524],[-0.084680744892469,45.026810455895806],[-0.082705788738418,45.02657233185853],[-0.08186502375662,45.026394679596166],[-0.081040482579591,45.02611925675984],[-0.080174038756751,45.02554403163546],[-0.079546372615343,45.02485136202142],[-0.079371831185806,45.024288520365936],[-0.079360673440919,45.02300030535379],[-0.079234799038178,45.022328890513215],[-0.07884775039966,45.02166740524972],[-0.078266085741963,45.02114015496146],[-0.077980054561911,45.02092910828038],[-0.077583187846034,45.02080492527037],[-0.075914575002722,45.02068075965066],[-0.074861841980997,45.020389075410314],[-0.074540341423888,45.020156473925596],[-0.07410599727668,45.01965036290948],[-0.073191781747368,45.01917372359536],[-0.072457423352937,45.01921923219618],[-0.071589142178194,45.01957929877665],[-0.071274979217015,45.02003579753817],[-0.070431720362734,45.02182514775822],[-0.069982353342618,45.02231871218887],[-0.069404292557835,45.022782485091334],[-0.068024690997477,45.0232494332994],[-0.066907787110808,45.023479354158816],[-0.063226751584321,45.02391503187671],[-0.061944414559073,45.02386201813777],[-0.06132612137247,45.023707827366444],[-0.060877637392123,45.02345254968328],[-0.060613911924016,45.0231372246464],[-0.059673482233974,45.021366378350436],[-0.059253109480182,45.02095083517093],[-0.058429596650221,45.02057430408643],[-0.056844079214237,45.020202483276535],[-0.055866907147386,45.02010587762385],[-0.053599970653719,45.0202140615112],[-0.050988983115284,45.020792971278645],[-0.04964124020166,45.020890284925024],[-0.048372727488842,45.02076285212399],[-0.047797103435238,45.020620935203965],[-0.045997296448451,45.01988179607375],[-0.043787526427438,45.01961608188614],[-0.04332519146834,45.019641341855305],[-0.042782717279347,45.01985170407384],[-0.042520038611565,45.02032472842566],[-0.042465568790386,45.020958753731065],[-0.040935013219965,45.0208483121936],[-0.041283107852319,45.02005308555727],[-0.041459401906087,45.019252642037024],[-0.042072784864207,45.0183600566833],[-0.042171279812089,45.017858183516864],[-0.042081394340851,45.01730289243946],[-0.041127521541277,45.01623058981184],[-0.041250162699471,45.01612632062631],[-0.042922062443934,45.016151794666044],[-0.044486249413182,45.01592519415866],[-0.045738649397237,45.01582874772869],[-0.04344079221808,45.01216398911701],[-0.043703989457042,45.00987894348888],[-0.043312076465466,45.009889664336136],[-0.043226657063982,45.00668247578065],[-0.043301054008117,45.005691092972555],[-0.04423432195136,45.005639428878766],[-0.044282270520925,45.00376484355618],[-0.044912750140552,45.00139225679491],[-0.044724784870193,45.00057474788003],[-0.044814054528657,45.00006771957519],[-0.044750264556515,44.99891793105785],[-0.0443751915834,44.997601860361065],[-0.04799063875796,44.99774072665052],[-0.050467511048311,44.99798278930525],[-0.051398337188481,44.995814570270646],[-0.054950090547461,44.9956720259902],[-0.05514402887308,44.995758606192],[-0.056657020489205,44.99772277362933],[-0.056780806491967,44.99773378878752],[-0.058566974407541,45.000372522501394],[-0.059725416148728,45.00007395370204],[-0.061843836283181,44.99974985428897],[-0.062775950550828,44.9994700971635],[-0.062939967546733,44.99935745479995],[-0.06316430407941,44.999418856371],[-0.065197242708034,45.0000395475905],[-0.0658698529313,45.000355302663316],[-0.066224881268146,45.00080865892194],[-0.066556941864084,45.002141175477746],[-0.0667956302443,45.00237157284526],[-0.067472906472248,45.00267908132662],[-0.068891848598541,45.00310128649896],[-0.070154046941536,45.00360619206015],[-0.071883219961793,45.0044270762526],[-0.072530676027333,45.00425962050115],[-0.072751344904722,45.00411476272236],[-0.073113594305576,45.00270811687688],[-0.075464056929884,45.002445828576086],[-0.07920962883961,45.0024485392739],[-0.079595071470735,45.00179000717978],[-0.079642884344717,45.00143546792217],[-0.079199753495006,45.00016732884184],[-0.078729049637616,44.999737036183625],[-0.078631137007947,44.9991342342709],[-0.079085001517133,44.99886577115961],[-0.079727283930497,44.99775140120697],[-0.080040671951485,44.99742284792762],[-0.080415014842868,44.99720974338736],[-0.080854407891405,44.997047998333585],[-0.083551596389687,44.997805840634065],[-0.084100033619846,44.99803302135061],[-0.084784113536048,44.998486208646575],[-0.085748983681506,44.998826178896024],[-0.087569923211594,44.999743391816644],[-0.088996480543365,44.99733218691175],[-0.089373407096527,44.99654500217506],[-0.089456021079263,44.996085868522265],[-0.089842097041867,44.995948094538925],[-0.090025093389489,44.99555915796337],[-0.090277897539051,44.99549176335317],[-0.090603973534388,44.99569355238694],[-0.090874535974139,44.99553375448714],[-0.091301447459691,44.99585978947627],[-0.091701847017433,44.99556752883648],[-0.092283552031121,44.995982968213],[-0.092709989432335,44.99602427490452],[-0.092960282164439,44.995934417371394],[-0.092858379521644,44.995721896469455],[-0.093332729843615,44.99559607251761],[-0.093237187512537,44.99549871136216],[-0.092902198298224,44.9954116128694],[-0.092994118875526,44.99525948010528],[-0.093290200706987,44.99526296024055],[-0.093562586529249,44.995366215773636],[-0.094414214836346,44.99510464528102],[-0.095000783138178,44.99512526884382],[-0.095749831518816,44.995627041721654],[-0.09546968779057,44.99602680201162],[-0.096360843786924,44.996594899700845],[-0.096389218587426,44.99685541909712],[-0.096993325644067,44.99733058321451],[-0.097030423864159,44.997404338853876],[-0.096896666253012,44.997557640066134],[-0.096991200878863,44.99770548621823],[-0.097309773765867,44.997747976776445],[-0.097509605370627,44.99789379154745],[-0.097793943115925,44.99793723409947],[-0.097887290819192,44.997673324830636],[-0.098212086468269,44.99782827295608],[-0.098289023867547,44.997589149203066],[-0.098430394295147,44.99757349749326],[-0.098590495020729,44.99768978078595],[-0.098601228001556,44.99795259357757],[-0.099039213415913,44.997880921401666],[-0.099159327596573,44.998215475389536],[-0.09937322951159,44.99824826146767],[-0.099578941367932,44.99815602687134],[-0.099883252777769,44.99826198238355],[-0.100091549706065,44.9981705758447],[-0.100048945247568,44.99802038372315],[-0.100384636927726,44.997637985219264],[-0.100755046417376,44.99763036342031],[-0.102041339912837,44.99803962716292],[-0.102027851786538,44.99814002201008],[-0.101803898881852,44.99826971374702],[-0.101931211403095,44.99836708328535],[-0.102765665254636,44.99846004818007],[-0.103001766396654,44.99861835793047],[-0.103516502578879,44.998694104684915],[-0.103551322880074,44.99909320835199],[-0.103953185957019,44.9990342386357],[-0.104202727505305,44.999091251074866],[-0.104515540272963,44.99939609372777],[-0.104729628422857,44.99945499559304],[-0.104934453340961,44.99971329232074]]]]}}]}