{"type":"FeatureCollection","name":"COM_40243","crs":{"type":"name","properties":{"name":"urn:ogc:def:crs:OGC:1.3:CRS84"}},"features":[{"type":"Feature","properties":{"fid":4205,"ID":"COMMUNE_0000000009758671","NOM":"Rion-des-Landes","NOM_M":"RION-DES-LANDES","INSEE_COM":"40243","STATUT":"Commune simple","POPULATION":3115,"INSEE_CAN":"13","INSEE_ARR":"1","INSEE_DEP":"40","INSEE_REG":"75","SIREN_EPCI":"244000766"},"geometry":{"type":"MultiPolygon","coordinates":[[[[-0.946635390803895,43.888950715830475],[-0.953042343544145,43.882608661590645],[-0.962126044953551,43.88206193616936],[-0.985139060212531,43.88128846637653],[-0.989063976641351,43.88108462587669],[-0.989358095070691,43.88074767917222],[-0.989408145971084,43.880394428475746],[-0.989299155812542,43.87894227485265],[-0.989663073880065,43.87849915059635],[-0.990281815203086,43.87724654719879],[-0.993640037517613,43.87713715129805],[-0.994091508005616,43.87734048246497],[-0.994266921870132,43.87751517543805],[-0.994803549703895,43.87761806879741],[-0.994961020780389,43.87780332983586],[-0.995353315302461,43.87796196755705],[-0.995451657521289,43.878654899560374],[-0.995634584137902,43.8789545656771],[-0.995845438880649,43.878870249433234],[-0.99647624814497,43.87894805892555],[-0.996733407036989,43.87888457130365],[-0.997167848207679,43.878986692740625],[-0.997399148203668,43.87890973388258],[-0.997857497321849,43.87899746019984],[-0.998604366999626,43.87900702668993],[-1.000056468799956,43.87997831370417],[-1.000448333824587,43.88011262089249],[-1.000756554918598,43.88010221707634],[-1.003227511418923,43.87908073556273],[-1.006413807397414,43.87957287772637],[-1.022008465025096,43.88229695345527],[-1.030889121963845,43.88399481152029],[-1.026156514442782,43.89567308415306],[-1.019483850770432,43.91118928118736],[-1.008608459016364,43.94848545449934],[-1.007484720030692,43.95171488051627],[-1.00724991918229,43.95197671302615],[-1.006313563963285,43.955513745962506],[-1.006333242781515,43.95570496419323],[-1.005938187706839,43.95663319868183],[-1.00406316257917,43.963751485054],[-0.995428493522785,43.986971728157194],[-0.993884600013776,43.99062100358787],[-0.976425552723192,43.988069501331374],[-0.974580331803508,43.98689938635132],[-0.973591448509711,43.98771662599335],[-0.915947634274753,43.979216884772605],[-0.908960436119601,43.97864709734312],[-0.90494205582222,43.978424046946614],[-0.875899285926005,43.97602780387256],[-0.87541571955603,43.97612785519083],[-0.875090606563428,43.97597088782541],[-0.856410111155078,43.97071193003292],[-0.856441123039083,43.96202653707556],[-0.85656822432027,43.957010441713855],[-0.857050276723337,43.953848781996044],[-0.857885332319467,43.94973036485281],[-0.870240425466227,43.94556828914237],[-0.878661629776995,43.93771692674126],[-0.870180487622582,43.92710631094429],[-0.869491655676769,43.9251124137326],[-0.869096670548728,43.92362709583803],[-0.867616488505377,43.91983395215847],[-0.862884418057824,43.906322187923216],[-0.862739899616298,43.90571551143692],[-0.862678694124847,43.90466438709078],[-0.862498940541724,43.89595432179545],[-0.864024736150239,43.89055548905157],[-0.864400322564006,43.890380004002864],[-0.866601530491489,43.88796749033651],[-0.869183038579115,43.88539727962611],[-0.870710491541669,43.88337888760352],[-0.871520246569993,43.88258969823566],[-0.873229432236798,43.8806450085463],[-0.873506143913028,43.88011529928278],[-0.879565093534797,43.8729324433802],[-0.914340804721719,43.88125794004393],[-0.915002083536443,43.88136395707445],[-0.922432924307413,43.88323156558095],[-0.929915369437535,43.88493644271504],[-0.946635390803895,43.888950715830475]]]]}}]}