{"type":"FeatureCollection","name":"COM_17089","crs":{"type":"name","properties":{"name":"urn:ogc:def:crs:OGC:1.3:CRS84"}},"features":[{"type":"Feature","properties":{"fid":4011,"ID":"COMMUNE_0000000009751920","NOM":"La Chapelle-des-Pots","NOM_M":"LA CHAPELLE-DES-POTS","INSEE_COM":"17089","STATUT":"Commune simple","POPULATION":1007,"INSEE_CAN":"02","INSEE_ARR":"4","INSEE_DEP":"17","INSEE_REG":"75","SIREN_EPCI":"200036473"},"geometry":{"type":"MultiPolygon","coordinates":[[[[-0.516710776488649,45.753315421329425],[-0.517944245563421,45.75272799093208],[-0.520362702063555,45.75226849738374],[-0.522167888220876,45.751561305521115],[-0.523611676650889,45.7515071678339],[-0.526243343605975,45.75104087981859],[-0.529026629597124,45.75087264852579],[-0.530077924312379,45.750963219223955],[-0.531989451272799,45.75075370716987],[-0.532455045915018,45.75042363031461],[-0.532946011897904,45.74952397898602],[-0.53393421990096,45.74893053229233],[-0.535875562335473,45.748343235258844],[-0.537059212304755,45.74766610841989],[-0.538278088907355,45.74727811085333],[-0.539074651401468,45.74721163755202],[-0.540928219656515,45.74746620395287],[-0.541055758441902,45.746282272213485],[-0.541294169048101,45.74612515011199],[-0.542545873852901,45.745868578006224],[-0.542583127195182,45.74638931467847],[-0.542823888081893,45.74687120438938],[-0.543022397361429,45.74709572151936],[-0.543789175319453,45.74746822915761],[-0.544093365879088,45.74781471576259],[-0.544254784354088,45.74828377415136],[-0.544209458964792,45.74844023949291],[-0.544875033502813,45.74960284173964],[-0.54515838151586,45.74988508105606],[-0.545128169476733,45.75021684375481],[-0.544843611503531,45.75075851849874],[-0.545026472937075,45.75116019864052],[-0.545196379023499,45.751239586122196],[-0.546261525366927,45.75112405285607],[-0.546856088038436,45.75123965356747],[-0.547207546507921,45.75161980023371],[-0.547618333246344,45.75252269221049],[-0.548188887443468,45.753086135515154],[-0.550220258012933,45.7541399093266],[-0.550763330838015,45.754094860506555],[-0.551319828638181,45.75451901535301],[-0.551542991847362,45.7549257269951],[-0.551525458794159,45.75567444130431],[-0.551838563450961,45.7562982605111],[-0.552950301923456,45.75654536450538],[-0.553426634470669,45.75678364412283],[-0.55367444182608,45.75763306488282],[-0.553707455293869,45.75810616116576],[-0.554064009600774,45.75802370994571],[-0.554363645144506,45.7583775277298],[-0.556229788365391,45.75888024744012],[-0.556760113302665,45.75893653030202],[-0.557585964311746,45.75888252779656],[-0.558070791064413,45.759152070161925],[-0.55802580236526,45.75939326339588],[-0.558198626063251,45.759677159231224],[-0.557984139393815,45.75986601232015],[-0.558862615513871,45.760548589754784],[-0.559859083392029,45.76178270049005],[-0.560348062743715,45.76199621604502],[-0.561582734942129,45.76215011835302],[-0.562564637001783,45.762697796941765],[-0.5627817475922,45.763048794266666],[-0.562598144448413,45.76315735654839],[-0.562620887716161,45.76325038408286],[-0.562863226794876,45.76349331679336],[-0.563140986223881,45.76342684867812],[-0.564438220335193,45.7647091080745],[-0.564676411750258,45.76498732337029],[-0.564911437284936,45.76559555340438],[-0.565478246702101,45.766375375705074],[-0.565539013432058,45.76803474835793],[-0.565085535836063,45.76843218605367],[-0.564366272133452,45.76868298214302],[-0.563814470805296,45.76973253545094],[-0.563507580047446,45.76994685424473],[-0.563574089980123,45.77003939995027],[-0.56349073648984,45.770124963697334],[-0.562864713749174,45.76992480351961],[-0.561881247981181,45.77035339518097],[-0.562843579888231,45.77191307253345],[-0.561623538161972,45.772249079615655],[-0.559901563402867,45.77247201956032],[-0.557860469786751,45.77284021279904],[-0.556916896679914,45.7731295849524],[-0.555699984643952,45.77329506215546],[-0.553621451606864,45.774223226583864],[-0.553001436821203,45.774597014748494],[-0.551335546535173,45.775853762899416],[-0.5510196263447,45.77634956654033],[-0.550729596893561,45.77736826760297],[-0.549896853094822,45.77751977924163],[-0.549091703973886,45.77755954398517],[-0.54843801073202,45.77516526628831],[-0.548136640992489,45.77462489575308],[-0.547890891373843,45.77368706053389],[-0.547241695396917,45.77298546427803],[-0.546953887296036,45.772956659024494],[-0.545843184036102,45.77311147704621],[-0.544659138304885,45.772966621411236],[-0.544666522586827,45.77286092581447],[-0.543769705144815,45.77289632498342],[-0.542674024926062,45.7735464073401],[-0.542658250711487,45.77398317867962],[-0.542841131285802,45.774143289954594],[-0.542850093220248,45.77426289409687],[-0.542076230508755,45.77519130494384],[-0.540355892234361,45.77514076716113],[-0.539082148693174,45.775305142266284],[-0.538687642584067,45.77519944017053],[-0.537949908938533,45.774823270883275],[-0.536947566406189,45.77461945062725],[-0.535802873383394,45.77424431368819],[-0.535567677420545,45.774252589553925],[-0.534514192810597,45.77538260925277],[-0.533692239929745,45.77590413460038],[-0.533089628879962,45.77612943500955],[-0.532628660826727,45.776112327722494],[-0.53116664127159,45.77571012697717],[-0.530565167061507,45.77567127074788],[-0.526290831727588,45.77609075170479],[-0.525077059029935,45.77602504043887],[-0.524585208426554,45.776089089213244],[-0.523936483909348,45.77633921683482],[-0.521914412891209,45.777798633034585],[-0.521555109537919,45.77798201826333],[-0.520683119981091,45.7781859160016],[-0.519666963062962,45.77853311959875],[-0.516399695273166,45.77933631932435],[-0.515954859466613,45.77939075086215],[-0.513650186505462,45.777993326831435],[-0.512332166192214,45.77734212389291],[-0.512146007871423,45.77672416623321],[-0.511422056950448,45.775913835288556],[-0.508158166737925,45.77362676614352],[-0.507719933573634,45.77313562705872],[-0.510256940491824,45.76996675086158],[-0.510483402677404,45.76937560661148],[-0.510947781295552,45.76715817573167],[-0.512037526825708,45.76477073319971],[-0.511807056577261,45.76381974512578],[-0.511905238894375,45.76297389652577],[-0.511446533753298,45.76228150241009],[-0.511003255949597,45.76189239125839],[-0.510449999424137,45.761110096254775],[-0.510536300031334,45.760462021483974],[-0.510203620948343,45.75990811702565],[-0.510267868329528,45.759662744238014],[-0.510118305989713,45.75929513157054],[-0.510066668479073,45.758745996838364],[-0.510430449871068,45.75800635535103],[-0.511536671342789,45.75721744806797],[-0.512151342208091,45.75649522327671],[-0.512504441851677,45.755892015037276],[-0.512964158163451,45.75544683002862],[-0.513907202840604,45.7549279878943],[-0.514800582700953,45.75472166238647],[-0.515233236673484,45.754539613046035],[-0.516722470689993,45.75339798363841],[-0.516710776488649,45.753315421329425]]]]}}]}