{"type":"FeatureCollection","name":"COM_79139","crs":{"type":"name","properties":{"name":"urn:ogc:def:crs:OGC:1.3:CRS84"}},"features":[{"type":"Feature","properties":{"fid":4284,"ID":"COMMUNE_0000000009748816","NOM":"Les Groseillers","NOM_M":"LES GROSEILLERS","INSEE_COM":"79139","STATUT":"Commune simple","POPULATION":54,"INSEE_CAN":"06","INSEE_ARR":"3","INSEE_DEP":"79","INSEE_REG":"75","SIREN_EPCI":"200069748"},"geometry":{"type":"MultiPolygon","coordinates":[[[[-0.409444062238002,46.545451951998736],[-0.408380045997608,46.54625426166463],[-0.406841512621299,46.54705176865963],[-0.406043635969775,46.54774518332088],[-0.404713089686404,46.549112383209966],[-0.40431527671127,46.549017873116014],[-0.401980826839007,46.54799317805622],[-0.401173876717113,46.54751786853267],[-0.400525451906164,46.54631771949944],[-0.400040298494508,46.5457445096497],[-0.399438611750994,46.54418335610335],[-0.398830172997155,46.54374809659563],[-0.398633044027163,46.54370798957901],[-0.397735788322469,46.544044688650025],[-0.397538659084998,46.544004579750435],[-0.396981197425334,46.5432974134704],[-0.396371484422863,46.5428621795455],[-0.394979045000776,46.54240061049653],[-0.393582798128937,46.54231767380841],[-0.394424085708653,46.541586106912355],[-0.396280953334742,46.54046837304168],[-0.398011244018468,46.539144369871714],[-0.396250699019927,46.53786818556787],[-0.395754248781085,46.537069976424775],[-0.395213013738675,46.53699862319712],[-0.395034220176258,46.53704268638451],[-0.394598672033831,46.53615253703313],[-0.395040114399725,46.53575458650059],[-0.394095309726862,46.53465603729352],[-0.393811889552118,46.53413179477124],[-0.39354494133533,46.533892767540294],[-0.393524352288458,46.53375097684496],[-0.394126722498521,46.53228925259897],[-0.393941470341145,46.531684586666245],[-0.393956076881155,46.53120647613802],[-0.394344810666652,46.53050816339423],[-0.394768524518779,46.52917701448726],[-0.394549356954059,46.52836335848689],[-0.395542385584735,46.52774443574986],[-0.395947477023883,46.52762334980052],[-0.396278282404139,46.527399920659875],[-0.396408106703661,46.526780490471616],[-0.396837483838734,46.52623237441867],[-0.396972128409474,46.5257741290463],[-0.397506611709263,46.524943490181485],[-0.397822339479932,46.52487642534617],[-0.398086131910175,46.5250443348746],[-0.398227678983424,46.52486437804257],[-0.399285077719028,46.52494380132739],[-0.399572029444578,46.524855055151505],[-0.399776468177835,46.52467863381253],[-0.400529652882238,46.52450752243059],[-0.401068231727842,46.52455909800237],[-0.401127996266965,46.52417788037996],[-0.401664403656414,46.52415290867406],[-0.4020205985161,46.52362587510646],[-0.402586658415661,46.523448601005086],[-0.402969800002944,46.523165009725474],[-0.403178750160392,46.52266398548876],[-0.403367129340492,46.52260700453609],[-0.403444085983587,46.52248033643595],[-0.403643871108431,46.52250142710518],[-0.404180986196115,46.52215376239477],[-0.40411862838215,46.52186630709486],[-0.404459749591244,46.52149563555939],[-0.404203789313093,46.52118149932218],[-0.404226644414416,46.521024896613206],[-0.404775844035535,46.52072463669032],[-0.405307213268068,46.5209746886782],[-0.405575569032552,46.5209648921623],[-0.405702576418945,46.52078265418083],[-0.405698428359286,46.52031951735231],[-0.405965956990681,46.52012948745944],[-0.406474147783054,46.51988361641885],[-0.406766734310365,46.519906442465086],[-0.407031349619343,46.519628170723486],[-0.407392291614848,46.51959578203658],[-0.407527997679435,46.51932315383833],[-0.407717871371953,46.519311184961076],[-0.407861668586281,46.51946011698575],[-0.408344936768448,46.51929609589473],[-0.408614320531126,46.51896900848894],[-0.408609066557169,46.51865551743292],[-0.408870128263813,46.518299836215604],[-0.409365553878403,46.518163387741666],[-0.409924285502595,46.518120585129886],[-0.410191530760136,46.51786385770038],[-0.410597827141279,46.51772195094268],[-0.410964926193706,46.517391941824094],[-0.411279857702816,46.517479883269644],[-0.411553550052784,46.5173887969863],[-0.411995356690929,46.5171052242588],[-0.412226825405694,46.51671526744387],[-0.413120242746767,46.516763402075256],[-0.413569049268739,46.51669592327989],[-0.414081239418466,46.51649406007744],[-0.414256503677833,46.51660328915694],[-0.414406307603021,46.51659791338978],[-0.414843951909985,46.51633157782351],[-0.415703316487802,46.516169807470554],[-0.416027788565047,46.5159726429581],[-0.416551974423807,46.515983114366506],[-0.416674459966096,46.51579198484424],[-0.417192431784214,46.515724226666805],[-0.417403740661662,46.51580443348164],[-0.41767930209123,46.5156393701743],[-0.418339266428698,46.515753928638425],[-0.419493890745536,46.515658106479975],[-0.419873156987963,46.51589731957622],[-0.420217948803349,46.51600327039569],[-0.420629974633719,46.51591162773684],[-0.422322103967401,46.51578887563974],[-0.422595452033153,46.51702267435231],[-0.422932293727761,46.51733435037623],[-0.423425356495628,46.51757645393782],[-0.423324942838232,46.51768220859828],[-0.423448090936374,46.518291400529826],[-0.423332897111849,46.51913846130023],[-0.424077583637636,46.52045457987418],[-0.423979373898126,46.520574689624645],[-0.423666255936152,46.520620119199755],[-0.422848121438026,46.52098170178408],[-0.421631967810345,46.5217418461574],[-0.420695011098454,46.52254049005297],[-0.420191512049991,46.52275654234538],[-0.41927825099704,46.52333004297269],[-0.418778427718931,46.523521643840986],[-0.418569302765467,46.52366399221968],[-0.418141745119735,46.52423737893721],[-0.417959431657575,46.525035965009934],[-0.417452572749693,46.52632283686324],[-0.417140201189153,46.527962606055816],[-0.417281544184209,46.52904984293549],[-0.416953349294373,46.53087484730216],[-0.416105846946328,46.533248927715164],[-0.415700562483486,46.53386670027738],[-0.414492551203799,46.534533679662545],[-0.413990522747706,46.53523364714909],[-0.413756435874474,46.53527037816539],[-0.412817587115101,46.535940117824474],[-0.412451107062164,46.53661530232101],[-0.411754713968538,46.53738234562937],[-0.411625639663098,46.53742765557884],[-0.411652413083577,46.537688229484765],[-0.411302763755698,46.53798617016097],[-0.410680626302564,46.53956394908783],[-0.410973541095408,46.540528599786676],[-0.410875013056511,46.54087402643666],[-0.410541778213829,46.54162211624158],[-0.409448110225543,46.543242787116355],[-0.409266790144452,46.54391424041503],[-0.409444062238002,46.545451951998736]]]]}}]}