{"type":"FeatureCollection","name":"COM_40058","crs":{"type":"name","properties":{"name":"urn:ogc:def:crs:OGC:1.3:CRS84"}},"features":[{"type":"Feature","properties":{"fid":4270,"ID":"COMMUNE_0000000009758237","NOM":"Cachen","NOM_M":"CACHEN","INSEE_COM":"40058","STATUT":"Commune simple","POPULATION":230,"INSEE_CAN":"08","INSEE_ARR":"2","INSEE_DEP":"40","INSEE_REG":"75","SIREN_EPCI":"200035541"},"geometry":{"type":"MultiPolygon","coordinates":[[[[-0.43608804029781,44.05188191031945],[-0.436077980010765,44.05212906465341],[-0.436539970020431,44.05256048646424],[-0.436760802621961,44.05303191284931],[-0.436895892016822,44.053076316742796],[-0.437839686395142,44.05298450750122],[-0.438041180966202,44.0530322288193],[-0.440012853597287,44.05432246929469],[-0.440379482050385,44.05474606438935],[-0.440883058734881,44.054914008315734],[-0.440654898971505,44.05527252360986],[-0.441080319671922,44.05549067066728],[-0.441135252428818,44.0555934445847],[-0.441118268775888,44.05580838680241],[-0.440774085558962,44.05641739067075],[-0.440930074010018,44.05717913017302],[-0.440746648253472,44.05732723613394],[-0.440019450167453,44.0576347757534],[-0.4385156857738,44.05898380226724],[-0.437709126949427,44.05917760661061],[-0.437647427916665,44.05960385676919],[-0.438189657799034,44.05991474039359],[-0.4381397684793,44.06024692902109],[-0.437640734889423,44.060320262529785],[-0.437471384526726,44.06045350651944],[-0.437559498583211,44.0605885725517],[-0.437488650260224,44.06067728206463],[-0.436599939193315,44.06097996129739],[-0.436823927729705,44.06282692863616],[-0.436898216338796,44.06293990772691],[-0.437209156268069,44.06299950960788],[-0.437270104661396,44.06307777330355],[-0.437194174272871,44.063330601738386],[-0.43674449304931,44.06382849480408],[-0.436729324321575,44.063949688584145],[-0.437242241588966,44.0641056476113],[-0.437460427756046,44.064222214786255],[-0.437542855769321,44.06436646866276],[-0.437461270819754,44.06448434350002],[-0.436869122327057,44.0647128453035],[-0.43665785115775,44.06489695258765],[-0.436665892919508,44.06507147017389],[-0.437115167142035,44.065228527820956],[-0.437263860714596,44.065456284207414],[-0.437113093397023,44.06560786229814],[-0.436742619832458,44.06567985545066],[-0.436646672431606,44.06589097102965],[-0.436733220033742,44.06602068226071],[-0.437347681612586,44.0664094828187],[-0.43746887524772,44.06698854451328],[-0.437864404658576,44.06735178725505],[-0.437873512795736,44.06779203086874],[-0.43831725774282,44.06818799127893],[-0.438282781695993,44.068258442057996],[-0.438109383292066,44.068283708582996],[-0.438090420644136,44.068404121204814],[-0.438570375844479,44.06867552292382],[-0.438619892029753,44.06916404585491],[-0.439132471093834,44.06962360541627],[-0.439762004740428,44.069992101964694],[-0.43981511706734,44.070519249941604],[-0.440041124048749,44.07086799494267],[-0.440062800235361,44.0711231640259],[-0.439900481187748,44.07131114452332],[-0.439253740204438,44.07167110081347],[-0.439223937758438,44.071818880951774],[-0.439491775955872,44.07195010134177],[-0.440160864632939,44.071959703746465],[-0.440306828524139,44.07222447975144],[-0.440239677385925,44.07243649596635],[-0.43986394796384,44.07279424355574],[-0.439371157415343,44.07291062821591],[-0.439587695295785,44.07335066149588],[-0.439709994341655,44.07417472952239],[-0.441077005021391,44.075950647665664],[-0.441778621492398,44.07651776783916],[-0.441917175304153,44.07678367684328],[-0.441940860530015,44.077278419106996],[-0.441834095621606,44.077641229511144],[-0.44340395820475,44.08132063080468],[-0.444845559226768,44.081537434581634],[-0.44568574408411,44.08189387053579],[-0.446004461111032,44.08222437472049],[-0.446367243283488,44.08243637518131],[-0.447716745619144,44.082865048658135],[-0.448107585631615,44.08292120677808],[-0.448773095875739,44.08338492297482],[-0.449944036722197,44.08348586522084],[-0.450866183538774,44.08385319420338],[-0.452753375901489,44.08420269620242],[-0.453234902855047,44.08422894947575],[-0.453899871119191,44.08414761221476],[-0.454393150597217,44.08426448003289],[-0.45475311390921,44.08424411225976],[-0.455340342006619,44.083870626555914],[-0.456401521401951,44.083954244185755],[-0.456923255804606,44.08390173468905],[-0.457817354732574,44.08368340869377],[-0.458844027520444,44.0836311561825],[-0.459298447591395,44.08368436519119],[-0.459478432690061,44.08384894733104],[-0.472351297915559,44.086750421041494],[-0.476397922394612,44.087334618196344],[-0.469912849760452,44.10133955750885],[-0.466316443767565,44.10955085009603],[-0.463748061703237,44.11505020234383],[-0.460545231354311,44.12231821840574],[-0.438015346530688,44.11736812178984],[-0.434095588793757,44.11665504198873],[-0.434869749147951,44.11307581512533],[-0.436217234491595,44.105847081951886],[-0.437876075460043,44.10511844745304],[-0.437916384518027,44.10330367669851],[-0.437139714453808,44.10023798507527],[-0.436096766314027,44.09539148004052],[-0.436351646955118,44.0950789800565],[-0.436456901871086,44.094669374690355],[-0.437512343580904,44.09240113373839],[-0.440120914147213,44.08793456949085],[-0.439386696541151,44.08782250368751],[-0.439001533132297,44.08742649995972],[-0.438448026536022,44.087119564986985],[-0.43828668254051,44.08684896020561],[-0.437988326561609,44.08697904875889],[-0.437207628093679,44.0882278690232],[-0.436383951915332,44.089076236029506],[-0.436120395436642,44.08912054338431],[-0.435866591082883,44.08903661789749],[-0.435584230811277,44.089307637022806],[-0.435222917506233,44.08920275954212],[-0.434922824500281,44.08959415136861],[-0.434139536123891,44.090015113288345],[-0.433552162597173,44.0904515469501],[-0.433036936292486,44.09123435878543],[-0.432415943880037,44.090844825104725],[-0.430801281029283,44.09074588455162],[-0.426084385377084,44.092080950838955],[-0.426030235404327,44.09224030010479],[-0.425521931704811,44.092558901174456],[-0.425355535726431,44.0928262643381],[-0.425111042781415,44.0929176950101],[-0.424503871343601,44.09294389358391],[-0.424275682261665,44.0932230973163],[-0.423809352643633,44.09349172957788],[-0.423786398739869,44.09398252861431],[-0.422919634214665,44.0952411372316],[-0.422512234548221,44.095243061225794],[-0.422441669200326,44.09517139427121],[-0.422542267305243,44.09501509953851],[-0.422487161544424,44.09495105737272],[-0.42222964000057,44.09501315932485],[-0.42093430180359,44.09450950225406],[-0.419889346259625,44.09421962799734],[-0.418854745814543,44.09349879910387],[-0.417799026385417,44.092966904964825],[-0.415428178594067,44.091370652902064],[-0.413663554642098,44.09070948545325],[-0.411738935633666,44.09058929863586],[-0.411042959128767,44.0903848632219],[-0.40975569633508,44.089574532272316],[-0.409437339725363,44.08945562111235],[-0.402435375865505,44.0878680902273],[-0.399433455934915,44.08743342916219],[-0.398463568095954,44.08965085099504],[-0.394332395480281,44.08876732747334],[-0.393440967177859,44.08880486957915],[-0.383411482136352,44.09207549942201],[-0.376899087511419,44.093167493468044],[-0.373133101960011,44.09555193902712],[-0.366176254420122,44.096303833249294],[-0.371053844333325,44.09100988014468],[-0.371403760017488,44.09039733353268],[-0.376297317691778,44.08551523439522],[-0.377408216251647,44.08414409723557],[-0.377914483946699,44.083367253418636],[-0.37801606616188,44.08080568667768],[-0.378266164913435,44.07849358097086],[-0.372166637763037,44.07533138056245],[-0.371534067481865,44.07522114361855],[-0.370227948662825,44.0743298873472],[-0.363856930448095,44.07104049140934],[-0.361422639194549,44.06885686483873],[-0.358557431633043,44.066883700542526],[-0.358838456491009,44.06671292540955],[-0.358821577959971,44.06651165535869],[-0.358510672118517,44.06613383548412],[-0.358977101782558,44.06520967399588],[-0.359036053778693,44.064853835040815],[-0.358877167402281,44.064617286717535],[-0.358541889073559,44.06444020171683],[-0.356984228673233,44.06399973756032],[-0.356304575890786,44.06332153348428],[-0.356299435211617,44.0631072920429],[-0.356438551154984,44.06294537919272],[-0.356767160428887,44.06286143194221],[-0.357993632159019,44.0628346165558],[-0.358250281868316,44.06267449987486],[-0.358395573034564,44.062469154697254],[-0.35806537674639,44.06142530801353],[-0.35799695155792,44.060879699119525],[-0.357048914826927,44.05969626048366],[-0.35649781584232,44.0594600302374],[-0.356355668677466,44.059252693869595],[-0.356365043987935,44.05892450256803],[-0.35740497395338,44.058786303886194],[-0.358799854291431,44.05875701240193],[-0.35937146024233,44.05881153352428],[-0.359504990074428,44.05777237419827],[-0.359650364537,44.05735713021424],[-0.359564471331905,44.056769720272364],[-0.360096584352437,44.05465353711884],[-0.360735174935262,44.050999063024925],[-0.369122780851429,44.051384315524835],[-0.375797940095716,44.05134613134627],[-0.376602323518514,44.05166182902099],[-0.377530725399324,44.05164668766754],[-0.394315752788815,44.05062189983299],[-0.397427427828632,44.05029200444737],[-0.403011177186561,44.0514913819244],[-0.409842923585824,44.053064191120015],[-0.419681940823807,44.05310126427148],[-0.426262633105169,44.052899003257565],[-0.42688385969458,44.05273991463667],[-0.426994943244989,44.052551758040686],[-0.431857450315965,44.05146965947628],[-0.432704733463931,44.05116561359751],[-0.434895492490362,44.05174278383013],[-0.43608804029781,44.05188191031945]]]]}}]}