{"type":"FeatureCollection","name":"COM_19138","crs":{"type":"name","properties":{"name":"urn:ogc:def:crs:OGC:1.3:CRS84"}},"features":[{"type":"Feature","properties":{"fid":4139,"ID":"COMMUNE_0000000009754935","NOM":"Meyssac","NOM_M":"MEYSSAC","INSEE_COM":"19138","STATUT":"Commune simple","POPULATION":1290,"INSEE_CAN":"10","INSEE_ARR":"1","INSEE_DEP":"19","INSEE_REG":"75","SIREN_EPCI":"200066769"},"geometry":{"type":"MultiPolygon","coordinates":[[[[1.667496470525039,45.03658298909279],[1.667250962315329,45.03718609557157],[1.667249428201586,45.0377840172452],[1.66790058749145,45.039828767320195],[1.667962502641416,45.04058954057479],[1.667217096089251,45.04058242318386],[1.66729080950335,45.042127685187616],[1.667995429111952,45.04406321352121],[1.668247174660825,45.045281017041155],[1.668095717251463,45.04684159765673],[1.668522722335603,45.048702663263036],[1.668421472566678,45.04927418014312],[1.668232636964339,45.049682557158356],[1.668101414810185,45.0496449674881],[1.667937619159351,45.050335504708706],[1.667990778932522,45.051037641731256],[1.667855222798334,45.051555617898],[1.668125517665498,45.05263586670074],[1.668142798535802,45.05335108274862],[1.668337292766869,45.054093632085234],[1.668643940687759,45.054768181956945],[1.669331668354623,45.0553923524688],[1.669398533522869,45.05840447779283],[1.669509883339162,45.058744402034876],[1.668453890064283,45.05939186381168],[1.667943902173664,45.06047989541401],[1.667192964370476,45.06122734867131],[1.66714491507499,45.062177720705186],[1.667368718599978,45.06281076067759],[1.667443649787182,45.06350595647765],[1.667066289403599,45.064251574076685],[1.666711533090087,45.06458142153475],[1.667731757777589,45.065601306513074],[1.667856195432014,45.0658720495551],[1.667527308180524,45.06676953605377],[1.667584535846812,45.067354657327314],[1.668514781279163,45.06911458636862],[1.670020762919858,45.07060762348054],[1.670649198055597,45.07106178053238],[1.670965812267641,45.07110788189556],[1.671934550563073,45.07093212458478],[1.671600121496576,45.071582815493706],[1.670796008858648,45.072103631999944],[1.670926144604358,45.072670710670586],[1.67240276643403,45.073051223079354],[1.672661645849777,45.07269229837246],[1.672849243751688,45.07287373627787],[1.673929130947609,45.072835263435216],[1.673997380352839,45.07247586798384],[1.67548218329803,45.073048247267664],[1.675821370412442,45.0726245321649],[1.676740356816708,45.072134761172265],[1.677418316664741,45.07162591286485],[1.67857586797651,45.07114976490843],[1.678919761920816,45.07074050510178],[1.679345956026769,45.070828405060155],[1.679497082274658,45.071048121476345],[1.680481655321783,45.07181622029017],[1.680989380957101,45.071572788353976],[1.681942167127055,45.07153363409839],[1.682574549396624,45.07171671371341],[1.683016529368447,45.07194436631189],[1.683207125662452,45.07194571836949],[1.684038139575453,45.07141072317085],[1.685547948815618,45.07070542953196],[1.686779320467719,45.07043718707068],[1.686855471117511,45.06930433486473],[1.687603877914084,45.06914565677748],[1.687954121538281,45.06922092242267],[1.689000312027145,45.06855604951585],[1.688956170722182,45.06886710843924],[1.689210083525703,45.068823269078344],[1.689869425077363,45.068505937951095],[1.690188152359258,45.0692760237027],[1.690618311821992,45.06935762344578],[1.691162912224296,45.06905604595388],[1.691205399635566,45.0684892206189],[1.691109192541623,45.06820172673824],[1.691342830126406,45.06810091196299],[1.692197688359229,45.06822531475767],[1.692099341200882,45.06781172464555],[1.692715658420344,45.06753979826279],[1.693607561783731,45.067274702293474],[1.694188050130681,45.066468343094705],[1.695065075223776,45.06711258030585],[1.695560842643979,45.06699591589512],[1.695769918183402,45.066748921240674],[1.695726695044271,45.066095542935344],[1.695527696347011,45.06591040893283],[1.69651011563051,45.065740003440155],[1.697041739290272,45.0661019246534],[1.697827107121545,45.06620836196393],[1.698454106469888,45.06640389557306],[1.698770493664645,45.06640488961664],[1.699157032946021,45.06595734594392],[1.70012966095588,45.065715653841],[1.699965613916621,45.06533822603678],[1.700602599476108,45.06515835039854],[1.700828118584521,45.06491333951582],[1.69965897112656,45.06366059502695],[1.699480927396111,45.063011048587725],[1.699243627895728,45.06266968569477],[1.700203955096,45.06262686330752],[1.703890890672803,45.06270133585012],[1.704135934327084,45.06342279433179],[1.704941808679626,45.06374013983567],[1.704844481985695,45.06311405370772],[1.704974605519175,45.06221325439743],[1.704914953861639,45.0614417237687],[1.70516474123057,45.06113485162918],[1.70524077704346,45.0601001483872],[1.705074701941292,45.058766363555876],[1.705237089900648,45.05745890978112],[1.704967689243628,45.05729638801495],[1.704991368095004,45.05698688797429],[1.705054586546533,45.05683543676868],[1.705372211572235,45.05667073333872],[1.705630554278307,45.05516898455116],[1.705737638443936,45.05388970518217],[1.705680004846368,45.05325057487398],[1.705866453736606,45.05238465107757],[1.706041491902928,45.05217686615818],[1.706089793575458,45.051900971234794],[1.705970338068293,45.05047407930195],[1.706149511926548,45.05014207236682],[1.706694677902612,45.05002413375241],[1.706401379385391,45.04930302321796],[1.706062996085851,45.048883958704174],[1.705915905416676,45.04854275850335],[1.704990342707986,45.048576125732026],[1.704764368571199,45.04867975801316],[1.703951093888151,45.04830739286305],[1.703232273135433,45.04775151735221],[1.702807851800564,45.04622291613317],[1.701531737349338,45.04548944079782],[1.701226163624405,45.04502751947697],[1.700590469000572,45.044997591824725],[1.699727155204366,45.04454086420945],[1.698079620851989,45.0446521906169],[1.697328184131122,45.04462899578604],[1.695651077344157,45.043828626033566],[1.695032484205569,45.043392737530155],[1.694667730351349,45.04356496257734],[1.694184186126932,45.04283978788827],[1.693099116180861,45.04171133014129],[1.693142027315054,45.04139665585159],[1.692836242391291,45.04089328509665],[1.693949400030473,45.04000043465834],[1.693937281620361,45.03872337294677],[1.694109646171364,45.038466948767415],[1.693740713316535,45.038166354884936],[1.693182799140562,45.037038677636396],[1.693199064377306,45.035689008697446],[1.693075601074769,45.03537418339144],[1.692027724544445,45.03450909996606],[1.692505149662359,45.03418692253215],[1.693631801312439,45.033635528637966],[1.694191667209637,45.032936098936574],[1.69453595629676,45.03265827763243],[1.693528543142679,45.03191074877256],[1.691320052549421,45.03082671933925],[1.690378928047236,45.030505879881794],[1.689519798183561,45.02988342742318],[1.688762167286021,45.02953681792364],[1.688439421648739,45.02916561011792],[1.688728362997494,45.028865542856224],[1.688740581213667,45.02796428044992],[1.688591930726375,45.02780494117468],[1.688796544359695,45.02720131078966],[1.688532608218157,45.026542634178405],[1.688698827655931,45.02530099433291],[1.688635430118981,45.0249175329857],[1.686396363135034,45.02499019268865],[1.685130773752294,45.02475733066057],[1.683208845466482,45.024087151897675],[1.681932774220846,45.02386943780311],[1.681436951534155,45.023679863339744],[1.681249600780546,45.024248565149904],[1.680831701493604,45.02436248108636],[1.681213161917338,45.025202670219585],[1.68096323091683,45.02557071810997],[1.68180160658233,45.027391566478684],[1.68123067015567,45.02747845807705],[1.681224316342108,45.028017786546435],[1.679598877084262,45.027857142232094],[1.678624013405086,45.02800226508535],[1.67803459923964,45.02784938609317],[1.677890189271954,45.0278881942167],[1.677347415897165,45.0276962430453],[1.676908624785703,45.02777927930836],[1.676284644465377,45.028390511553795],[1.675784332303028,45.02822877431374],[1.674697184012779,45.02812758919499],[1.671851564151156,45.02763982414303],[1.671761667329788,45.028003457831915],[1.671699242747218,45.03004596846589],[1.671283502721939,45.0300662222592],[1.671055717052471,45.03046062847913],[1.671114070644579,45.03212186511763],[1.670660764218731,45.03281434957962],[1.669599911867415,45.033901202984374],[1.669406964035693,45.03432483914602],[1.668774562080956,45.03490981677669],[1.668628425804757,45.03528718485314],[1.668143529705785,45.03554343506556],[1.667496470525039,45.03658298909279]]]]}}]}