{"type":"FeatureCollection","name":"COM_16011","crs":{"type":"name","properties":{"name":"urn:ogc:def:crs:OGC:1.3:CRS84"}},"features":[{"type":"Feature","properties":{"fid":4177,"ID":"COMMUNE_0000000009752151","NOM":"Anais","NOM_M":"ANAIS","INSEE_COM":"16011","STATUT":"Commune simple","POPULATION":566,"INSEE_CAN":"05","INSEE_ARR":"3","INSEE_DEP":"16","INSEE_REG":"75","SIREN_EPCI":"200072023"},"geometry":{"type":"MultiPolygon","coordinates":[[[[0.228375556195697,45.75385592375234],[0.227302693959424,45.75353580576326],[0.224676693411672,45.75220793389419],[0.223060952962348,45.75183206073125],[0.221728750302757,45.751423505069084],[0.221046110583932,45.75084442890103],[0.219350406666007,45.752314576878945],[0.217830492536995,45.75287357530215],[0.217064482687793,45.753464680246665],[0.216651136361719,45.75367253080762],[0.216035514847772,45.7538330364529],[0.214634520680313,45.75399756738791],[0.213943223156886,45.75415258817321],[0.21352818171573,45.75431713546718],[0.212932833383277,45.75478988871424],[0.211849996470048,45.75489827517407],[0.210438150862803,45.754155128813295],[0.210081375517607,45.75408322784784],[0.209317631961536,45.754092259869466],[0.20854658728132,45.7539145883687],[0.208166155101001,45.75390336705049],[0.207727412610527,45.75407811913488],[0.207393307921618,45.754652825061704],[0.207124390981189,45.754930896724524],[0.206010890856988,45.75508532267877],[0.203978919110512,45.75563505437462],[0.202326189281709,45.75591393304366],[0.20231963829353,45.7557128355007],[0.202134928326542,45.75547127515044],[0.201020775405049,45.754647091291204],[0.200327021768596,45.75434152993094],[0.199772374198227,45.754262880538704],[0.198915708443585,45.75387036703394],[0.198270380842374,45.75390479236597],[0.198178709794537,45.753656526293575],[0.197635963028182,45.75296274092006],[0.196854985536846,45.75270274522398],[0.196079474941649,45.75225906443894],[0.195827487649926,45.751974371109156],[0.195320533677999,45.75050024783313],[0.195379436917596,45.74997369410467],[0.195305383806634,45.7496069240966],[0.195024133107567,45.749544061563306],[0.194877725212688,45.749334978020975],[0.193535615779383,45.749202460788375],[0.193082512376787,45.749456992692636],[0.192445384355177,45.75006556127781],[0.191291018972894,45.750872990944934],[0.190288540540036,45.75170491924051],[0.189879480912358,45.75228221472787],[0.188424253347488,45.75333441486849],[0.188206904164572,45.753659683552115],[0.188833308004143,45.754528606265],[0.189096802044779,45.75549750661732],[0.189375916643133,45.755855877488216],[0.189338305278432,45.75641810188154],[0.188394752903773,45.7569748603746],[0.188958594717633,45.75737907706811],[0.189337990193614,45.75738583153284],[0.189903695666818,45.757601768370904],[0.190113698128259,45.75752230219576],[0.19063430892745,45.756878402649804],[0.192931956304286,45.75579038132988],[0.194772865196827,45.7569273761912],[0.192872978412553,45.76171426902593],[0.192739454274496,45.76261921157122],[0.191129268209755,45.76600584258535],[0.189681802824768,45.76983442588418],[0.189641243975745,45.77068221341248],[0.181869215964949,45.771697509277146],[0.181335916052753,45.77208065055607],[0.18089184669373,45.77220381041355],[0.181266569307731,45.77318722516918],[0.181504062700603,45.773150810156416],[0.182397987880537,45.776375521967076],[0.183930691814818,45.77634351492278],[0.184009978368591,45.77741505521183],[0.184154087896423,45.777821427580385],[0.185001920333382,45.77813993950589],[0.185792887911263,45.778336283896174],[0.189678504662863,45.778478210285826],[0.189857282224551,45.77853312356258],[0.189981702452742,45.78132680567059],[0.190489064880959,45.781403418182826],[0.190711023368919,45.78220458166688],[0.191184670276793,45.78274169368698],[0.1918342729064,45.78285788366625],[0.191741697340477,45.78326015479596],[0.192179052348515,45.78506865437705],[0.193225868562798,45.78583357180562],[0.193437292927045,45.786108248252205],[0.193485948460149,45.78634193181613],[0.193313134927631,45.78700531726234],[0.193330060091112,45.787508529170594],[0.194331716307354,45.78916345829136],[0.197002007567253,45.78900546789167],[0.198765435714054,45.78907809902876],[0.19909378269518,45.78895289457585],[0.199462662891796,45.78942519472339],[0.200057025339525,45.78974360253615],[0.200384243813997,45.79019954748675],[0.201378659529676,45.78994398995803],[0.203073915596011,45.78971030527209],[0.206761123331871,45.78984400072534],[0.207510683885381,45.789692256303084],[0.208705130636452,45.789708297650954],[0.210686407757072,45.789268026141784],[0.21132891217633,45.78904242696291],[0.211786237961551,45.78909157400342],[0.212601842149854,45.78661040932128],[0.213048508334246,45.78605378216986],[0.213305015296526,45.78587089778305],[0.214779032094897,45.785321615346945],[0.216601813567593,45.784470057741196],[0.216953953719275,45.78366690003167],[0.217028216535751,45.78173327857664],[0.217200658894463,45.780611221367515],[0.217543022201814,45.780078136231836],[0.218294545587818,45.7796028962784],[0.218120536755615,45.77917150815617],[0.218174607946315,45.77843037766704],[0.218078145923881,45.777737795619444],[0.218337730677777,45.776751242016154],[0.218000725066643,45.77666724271929],[0.218269398795369,45.776088187420406],[0.218976783188122,45.77503067999877],[0.218877893764005,45.774488514016696],[0.219564393080413,45.774484714633374],[0.220201125322035,45.77457429456404],[0.22052412951429,45.77455251995094],[0.220759537990739,45.77445470022195],[0.221032483488211,45.77399468286105],[0.222010594249344,45.77308258958408],[0.224065850535725,45.77010567694633],[0.223971648840623,45.76849589277978],[0.224061424527475,45.767247451168664],[0.224013586939898,45.766201060800654],[0.223706176689385,45.765119447100965],[0.224015721556082,45.76167516198933],[0.224251955032911,45.76112413109146],[0.224937317272414,45.76001198986144],[0.225528953860466,45.759663427107064],[0.226815010751754,45.75968785389116],[0.227656159159683,45.759522921954385],[0.227854545878319,45.7593917416058],[0.227869677796114,45.75898754498686],[0.227292271955732,45.75897605181276],[0.227054190333487,45.75510201587176],[0.227205676966612,45.75452006280974],[0.227539109428437,45.75421109463244],[0.228375556195697,45.75385592375234]]]]}}]}