{"type":"FeatureCollection","name":"COM_33044","crs":{"type":"name","properties":{"name":"urn:ogc:def:crs:OGC:1.3:CRS84"}},"features":[{"type":"Feature","properties":{"fid":4210,"ID":"COMMUNE_0000000009755862","NOM":"Bellefond","NOM_M":"BELLEFOND","INSEE_COM":"33044","STATUT":"Commune simple","POPULATION":211,"INSEE_CAN":"12","INSEE_ARR":"3","INSEE_DEP":"33","INSEE_REG":"75","SIREN_EPCI":"200069599"},"geometry":{"type":"MultiPolygon","coordinates":[[[[-0.189921066151715,44.770142213473754],[-0.188010184713934,44.77043869699163],[-0.186769421457937,44.77028427366225],[-0.18648583622722,44.770190612601716],[-0.185386707780663,44.77030331417691],[-0.184163558179819,44.77030333482404],[-0.183250521283238,44.76999438507778],[-0.182709826295153,44.77000631532901],[-0.181260097929139,44.77051739599352],[-0.180516120268559,44.77087124060159],[-0.17961545382375,44.771518811005706],[-0.178824998171631,44.77192353479705],[-0.178652880627917,44.771765384762524],[-0.17809268271301,44.77208150202347],[-0.177095413790151,44.772117312758546],[-0.177002196256184,44.77221369396666],[-0.17710470525676,44.772527920421766],[-0.177033429985552,44.77267683377799],[-0.176822015544426,44.77280814048761],[-0.17683296143472,44.773046602171156],[-0.176561781915841,44.77317241367761],[-0.17641247389042,44.77337312102181],[-0.176002043421762,44.773429939045336],[-0.17461720599891,44.77401745941473],[-0.174543561897451,44.77437097476265],[-0.173878949789188,44.77537034572289],[-0.171418732180972,44.777481644561],[-0.169883470728892,44.77773732049332],[-0.169516563000411,44.77762437428497],[-0.169248586124474,44.77778521586304],[-0.169086297010325,44.777711467337],[-0.168578437431578,44.77783591807429],[-0.168443004519792,44.77790196247328],[-0.168341838826786,44.778284192059225],[-0.16819908903125,44.77840000241359],[-0.167814850642854,44.7785407375449],[-0.167685750522315,44.77844981941743],[-0.16636580339644,44.7792047715581],[-0.166193004158793,44.77851771307271],[-0.166529501048666,44.777776455541],[-0.165782878421735,44.77730041800389],[-0.165437230652466,44.77639664284268],[-0.165303029911338,44.77625991516457],[-0.165361528906715,44.77624292636787],[-0.165333682422141,44.77617524318717],[-0.1656575884012,44.77601912057869],[-0.16552147018219,44.77524181180184],[-0.164730379559859,44.7750986200792],[-0.163979169590986,44.774697489171444],[-0.163285136220529,44.77412082158197],[-0.162688305590063,44.77396756439459],[-0.162041323623886,44.77391214595527],[-0.161874452672153,44.773216805478604],[-0.162608886754309,44.77244348090541],[-0.162890059408392,44.7719777295806],[-0.16274139136457,44.77149361379206],[-0.162167586840816,44.770939639024135],[-0.161801306149992,44.770386947663894],[-0.161595848694299,44.77019728706529],[-0.160973047023134,44.77000872204469],[-0.1601756060538,44.769525992957135],[-0.159704815853857,44.769431297372336],[-0.159598984043129,44.76930366622933],[-0.157853335524354,44.76867045689851],[-0.157679367593519,44.768523141546574],[-0.158152655816514,44.76791947611355],[-0.158628948883074,44.76682916683666],[-0.159094545955641,44.76649422315203],[-0.159634364903001,44.7657021405026],[-0.160042567151598,44.76535891819363],[-0.160386278217455,44.765240989544075],[-0.161240847802838,44.765211200321595],[-0.1616139524307,44.76509873619355],[-0.162786919788592,44.7630622627327],[-0.16293641226717,44.76250476184584],[-0.163679121676503,44.7621060209661],[-0.163934123018135,44.761648222638065],[-0.165075552380175,44.761548037328524],[-0.165927143811286,44.76157866452421],[-0.16596534862966,44.7614036735796],[-0.166890324926793,44.76031221381518],[-0.16781882612567,44.75986758548773],[-0.168534148848346,44.7592533460672],[-0.169319636029368,44.75945793426871],[-0.16961554074011,44.75923321963498],[-0.169471574306942,44.758877827365325],[-0.169551380867544,44.75870074354878],[-0.169325591566203,44.75853150301529],[-0.169396316604529,44.75839522560992],[-0.169774783406456,44.75793027562241],[-0.17022364043374,44.757659734549065],[-0.170549124545567,44.757219724966646],[-0.171221554411293,44.75678780219856],[-0.171442428898309,44.75767710433878],[-0.171548214966218,44.75780382407504],[-0.172258979821093,44.75793934897984],[-0.173581095566472,44.7579276061671],[-0.175109313442817,44.75791534596751],[-0.175459218364759,44.75797559594214],[-0.17469662409367,44.75909491550425],[-0.174916945729311,44.76010767089202],[-0.175214009542339,44.76039649745503],[-0.175197249414584,44.760883536875696],[-0.175937955883002,44.76085419294989],[-0.176227332298286,44.76093960345892],[-0.176412892327314,44.761090161761004],[-0.177765798540334,44.76137573126462],[-0.177972693465943,44.76156802381504],[-0.179549438421404,44.761539896357064],[-0.181044274921045,44.761427598976546],[-0.181720350604791,44.760971178270566],[-0.182231602882194,44.760932164042224],[-0.183033229966139,44.76104068347459],[-0.183510769567978,44.76062960191535],[-0.184279849211426,44.76038674129784],[-0.184954479382594,44.76095482348792],[-0.186474482011042,44.7613985715642],[-0.188148310291921,44.76167748698086],[-0.188056568600525,44.76309296067529],[-0.188438131947054,44.764491208781145],[-0.18846929902218,44.765932881093555],[-0.188935720272758,44.76595009099099],[-0.188407212653007,44.76771512939863],[-0.18877692535978,44.767833337451215],[-0.18841524564956,44.76834743079189],[-0.188581793224874,44.76854086699097],[-0.188050241563846,44.76898145732908],[-0.188207005957975,44.769203108038035],[-0.188560183840406,44.769364142053035],[-0.189829687111874,44.76971324405425],[-0.189943815511143,44.769829796914635],[-0.189921066151715,44.770142213473754]]]]}}]}