{"type":"FeatureCollection","features":[{"type":"Feature","properties":{"fid":234,"ID":"COMMUNE_0000000009761330","NOM":"Ponson-Debat-Pouts","NOM_M":"PONSON-DEBAT-POUTS","INSEE_COM":"64451","STATUT":"Commune simple","POPULATION":98,"INSEE_CAN":"23","INSEE_ARR":"3","INSEE_DEP":"64","INSEE_REG":"75","SIREN_EPCI":"200072106"},"geometry":{"type":"MultiPolygon","coordinates":[[[[-0.025558142650631,43.329791009599994],[-0.025877976600598,43.32890701797897],[-0.026059778504595,43.32783693738054],[-0.027340882616166,43.32525247389785],[-0.027922888182056,43.32356261861315],[-0.029092031085749,43.32377743212881],[-0.029755738296133,43.32364270098548],[-0.03055557630849,43.323118844433985],[-0.032778360802152,43.322782832216056],[-0.034757895576231,43.323143191957534],[-0.041934136715158,43.32398038122782],[-0.046412822726763,43.324379108161814],[-0.047084226060061,43.324297167737],[-0.048868611435829,43.32366979389318],[-0.049861149448963,43.32350495741836],[-0.050327830536876,43.323282930971985],[-0.05073970466628,43.32319028527387],[-0.05255905173581,43.32334058270814],[-0.053004363594201,43.32327399172439],[-0.053675645994042,43.323329752331475],[-0.054379594485304,43.322629271356256],[-0.058976678880634,43.322749553081046],[-0.060168075410869,43.321616618075275],[-0.061808770198572,43.32060958374705],[-0.063464112677846,43.31994870766439],[-0.065395318932611,43.32016313600778],[-0.067637733689259,43.3177228384452],[-0.068339794606513,43.31845012589918],[-0.069135576970892,43.31876062935322],[-0.069535963045339,43.3192867151267],[-0.069359685376717,43.319634719761396],[-0.069466837121392,43.31986394418701],[-0.069321575629351,43.32021556941056],[-0.069645643414124,43.3210679166346],[-0.069191913687598,43.321253650505604],[-0.069252542614816,43.321442784393575],[-0.069164410175294,43.321593829840154],[-0.06844914664895,43.3219625367182],[-0.068764755046416,43.32219304695965],[-0.068661015340372,43.322629918007934],[-0.06877032418752,43.322899594282596],[-0.068477254000622,43.323416561697805],[-0.068634629437307,43.323685774156985],[-0.068946390688263,43.3237975589976],[-0.068991507745765,43.32401954328883],[-0.06865595489852,43.324618741262036],[-0.068030047479969,43.32462840442042],[-0.067846860890621,43.32477764527732],[-0.06833373962372,43.32528327893452],[-0.06834712418587,43.32541883881578],[-0.068111983091886,43.32556505347064],[-0.068395106890117,43.32560203092973],[-0.068431654361481,43.3256631117661],[-0.068381374548134,43.325853594279295],[-0.068621169977035,43.32614207439515],[-0.06845376434664,43.32656454873616],[-0.068475651714767,43.32674398036784],[-0.068761344719023,43.327037459588055],[-0.068659280994837,43.32727442561291],[-0.068666532504873,43.32794311677593],[-0.068283066856198,43.32819887295107],[-0.06782965951897,43.328391793379495],[-0.06761962763953,43.32866243127352],[-0.067727132913788,43.32882863066999],[-0.068247804817282,43.32890298116965],[-0.068239826275564,43.329031045362626],[-0.067496726589653,43.32934201797982],[-0.067091492973566,43.329397628162056],[-0.067088411593302,43.329478739493574],[-0.067445973873328,43.32980169337546],[-0.067060860070759,43.32993415538775],[-0.066922694912331,43.329910166697566],[-0.066714465819293,43.33002950704223],[-0.066933560223365,43.330206946271225],[-0.066977117737765,43.33035335428763],[-0.066713123275511,43.33069934316121],[-0.066652005491602,43.33101076846399],[-0.066472187169669,43.33103837551825],[-0.066244413056465,43.33092960160178],[-0.065924049689678,43.331004406461915],[-0.065971145170662,43.331217334301705],[-0.066265357143493,43.33139264486211],[-0.066042447133808,43.331885110680695],[-0.06569875726679,43.332286472914134],[-0.065369407321744,43.332401142540874],[-0.065437507493533,43.33256846192351],[-0.065670282311801,43.33253935512941],[-0.06572313909042,43.332628783348326],[-0.0649741092523,43.33313076260129],[-0.064641260782654,43.3334579921727],[-0.064609708460619,43.33362993733853],[-0.064729253399695,43.33390653202939],[-0.065425710703824,43.334479164640804],[-0.065267931957221,43.33529207911965],[-0.065482525468129,43.335801849403836],[-0.065263692544541,43.3362554874214],[-0.065493974062775,43.33650373512391],[-0.065476172752757,43.336702299203914],[-0.065355245950244,43.33679395403873],[-0.065154628103449,43.33666280039558],[-0.064925518604015,43.33722476159346],[-0.065414638605636,43.3374233596719],[-0.065422483302103,43.33757078163618],[-0.064921369248667,43.33781905762069],[-0.064827664435755,43.33798196186822],[-0.064849652228698,43.33827932822948],[-0.064452771854827,43.33821495428786],[-0.064023631110008,43.33900494966747],[-0.064202014016858,43.339181749463584],[-0.064872153239136,43.33930499957208],[-0.065155738066301,43.33965076790701],[-0.065145993444393,43.33976897975967],[-0.064845571384112,43.34003407287561],[-0.064942388239073,43.34011505395876],[-0.065257267904146,43.340144839986536],[-0.065101885979151,43.34067860476742],[-0.065111464269701,43.34088179487731],[-0.065233286039853,43.341038590202686],[-0.065142183589325,43.34120412204947],[-0.06226131280315,43.34130645155857],[-0.054126175446042,43.340902738919205],[-0.052525577443891,43.34070126172271],[-0.048064753005037,43.339592834010205],[-0.046543462760157,43.338907393625476],[-0.045081676428582,43.338063611914485],[-0.044821978268522,43.3378872718118],[-0.045068352398093,43.33769487980578],[-0.044759084154515,43.33765407459365],[-0.044428032689831,43.337341102687375],[-0.043174730558988,43.33722063861216],[-0.042253068139141,43.33726097874958],[-0.041223942120633,43.33743847234357],[-0.040099586204004,43.3374241774993],[-0.039778314575027,43.33769338486395],[-0.039224829985797,43.33774585420122],[-0.038880715114535,43.3379094702926],[-0.038138235927332,43.33807347599376],[-0.037677343206536,43.3379405831233],[-0.034831976881001,43.3375199387957],[-0.033751761627108,43.33768799141026],[-0.033387128042662,43.33767301422619],[-0.033650466459001,43.336958924967654],[-0.03274607243951,43.33540614802008],[-0.030399679819317,43.334339417794304],[-0.030299832958859,43.33436382230276],[-0.028944032129281,43.333840055257305],[-0.026280904433331,43.33223476167775],[-0.025573647840385,43.33050897353077],[-0.025396303026084,43.33037259741282],[-0.025558142650631,43.329791009599994]]]]}},{"type":"Feature","properties":{"fid":358,"ID":"COMMUNE_0000000009761046","NOM":"Maure","NOM_M":"MAURE","INSEE_COM":"64372","STATUT":"Commune simple","POPULATION":88,"INSEE_CAN":"23","INSEE_ARR":"3","INSEE_DEP":"64","INSEE_REG":"75","SIREN_EPCI":"200072106"},"geometry":{"type":"MultiPolygon","coordinates":[[[[-0.078660963152207,43.365205243655616],[-0.082728823836122,43.36653077208592],[-0.082005979610258,43.36725090012745],[-0.081536995290519,43.36826449197966],[-0.081555384345177,43.36856196707875],[-0.080571855684919,43.36870071533259],[-0.082502173025857,43.369926856976655],[-0.081875961934834,43.37028591174435],[-0.08212439644844,43.3704543927989],[-0.081704404671422,43.37118479720404],[-0.082656367540008,43.37117028023556],[-0.082959094134763,43.371246282200296],[-0.083460471595638,43.37122929241696],[-0.083699864776893,43.37134400980617],[-0.084955077574123,43.371346036959295],[-0.086680961043564,43.371817184286144],[-0.089610037413282,43.373067827019554],[-0.09204027017213,43.37357639503293],[-0.093014047464206,43.37405903465629],[-0.091866772025122,43.37558543822887],[-0.091296863318873,43.376625373833406],[-0.090881199520902,43.37764199393771],[-0.090604857242293,43.378931928749935],[-0.090583175193578,43.38059722231907],[-0.090775451282814,43.38169551216965],[-0.091000750352879,43.382029394429445],[-0.091247255028274,43.38296497985499],[-0.091219835686201,43.38318994112986],[-0.090849572594915,43.38365067463906],[-0.089849543975871,43.38433736375552],[-0.088688864867535,43.38490618633773],[-0.08810489720969,43.38504259484428],[-0.08785377968549,43.38461851111966],[-0.087915281830331,43.383855091789684],[-0.088150451193066,43.38301559198245],[-0.087965211931558,43.382254713480236],[-0.086057318636868,43.38136471897978],[-0.085668424287366,43.38104089477495],[-0.08520137429012,43.38105511310198],[-0.084691362064124,43.380774352625195],[-0.084701131459962,43.38127914735199],[-0.084073432022468,43.38202719072351],[-0.083038296305083,43.38441009850361],[-0.081760145460432,43.38518386120795],[-0.078958654895379,43.38611890308863],[-0.077372506050067,43.386513341875364],[-0.075461076978916,43.386781055322324],[-0.075400617023113,43.386827789018525],[-0.075526548657571,43.38835293496085],[-0.074927963736399,43.38877148318895],[-0.073600272211471,43.38943041394092],[-0.072856490154437,43.38962709639883],[-0.072239929904796,43.389640100181474],[-0.072223316077509,43.389236333118326],[-0.069749746410577,43.389058042283004],[-0.067260044398841,43.38848401790223],[-0.065418157934386,43.38795010915364],[-0.0652982559736,43.38729808374051],[-0.064313532236014,43.38728185759643],[-0.064422500535691,43.38629113875602],[-0.064711090942475,43.386147020153736],[-0.064741990130262,43.385846344053554],[-0.065030158587422,43.385624810438244],[-0.064973580463412,43.38530410446877],[-0.064531440808782,43.385346336670224],[-0.064482510531186,43.38523878572648],[-0.064921179326596,43.38489955211005],[-0.065127455932304,43.3845542953343],[-0.065087870362465,43.38418179113969],[-0.065216950350294,43.38407910156329],[-0.064959615636413,43.38358132132157],[-0.063209481476905,43.38154398281198],[-0.063205210102956,43.38113896897093],[-0.063783744703528,43.38022769192169],[-0.064040539830315,43.379973738467164],[-0.064229572332272,43.37881780370922],[-0.065487591774127,43.37752535273606],[-0.065691240123737,43.377015415943106],[-0.066446032059486,43.37577682442194],[-0.067052331451201,43.37599101543196],[-0.067358261611529,43.37559431439943],[-0.069998512025696,43.37647914820531],[-0.070331417557857,43.37596373352834],[-0.070104087476283,43.375797327054904],[-0.069969669699088,43.37556796384194],[-0.07000691131496,43.37538684741448],[-0.070720253434902,43.37499297995564],[-0.071129729468887,43.37438626017902],[-0.07107042926363,43.37422318888988],[-0.070685119497822,43.373964036056364],[-0.07059853797842,43.373752222538634],[-0.070876707562294,43.37343732585987],[-0.071063903739406,43.37248129839134],[-0.071710520267245,43.37201729437146],[-0.072080234697265,43.371614267164546],[-0.07223565353581,43.37103456419006],[-0.07204907785812,43.3706140222385],[-0.072507399403543,43.37034532251598],[-0.073079781128705,43.37020212320843],[-0.073260142966115,43.36988189600848],[-0.073588637347688,43.36967809971387],[-0.073639806550289,43.36929582070625],[-0.073466485574948,43.36914679431443],[-0.073468123993167,43.36890006675609],[-0.0737674416301,43.36858906334237],[-0.073756645385965,43.368317480886056],[-0.073966567545831,43.368135058245066],[-0.0743916202352,43.368260724669945],[-0.074470801633221,43.36803340050322],[-0.074404412268931,43.36755272901356],[-0.074592550919234,43.36733221151684],[-0.075249179330357,43.36701104806824],[-0.075435664279124,43.366736558365226],[-0.076318051266756,43.36641437155911],[-0.076324400667934,43.366279146730164],[-0.075949985919325,43.36603861138744],[-0.075930874697317,43.365750160229844],[-0.076010721541936,43.36567406564453],[-0.076643701999648,43.36578840816317],[-0.076822502329958,43.365716700919265],[-0.076961278469645,43.3655425979185],[-0.077475350821731,43.36564861390294],[-0.077819339701257,43.36536603783057],[-0.078377991956602,43.36519799162734],[-0.078660963152207,43.365205243655616]]]]}},{"type":"Feature","properties":{"fid":433,"ID":"COMMUNE_0000000009761042","NOM":"Bentayou-Sérée","NOM_M":"BENTAYOU-SEREE","INSEE_COM":"64111","STATUT":"Commune simple","POPULATION":108,"INSEE_CAN":"23","INSEE_ARR":"3","INSEE_DEP":"64","INSEE_REG":"75","SIREN_EPCI":"200072106"},"geometry":{"type":"MultiPolygon","coordinates":[[[[-0.069359154495353,43.411596803096536],[-0.069123438882312,43.41111371053763],[-0.069083994730702,43.41049000537656],[-0.067137813264104,43.41039931020106],[-0.065031311412775,43.40933897380236],[-0.06430796780945,43.40934504638879],[-0.062818289224793,43.40970951753278],[-0.061935173790868,43.410055012698464],[-0.060364196863913,43.41102766275218],[-0.059264954574517,43.4112342937875],[-0.05713667883581,43.41187692074474],[-0.055204607111848,43.41207551373756],[-0.052790396075829,43.4119158382935],[-0.052691703801289,43.41177817204887],[-0.051618076057819,43.4114672214416],[-0.049348609211365,43.41054262548485],[-0.04693808635537,43.40968137542305],[-0.044193290922148,43.409502906523194],[-0.04471656927569,43.408749936270574],[-0.044346028177059,43.40842184093462],[-0.044591395645274,43.408041311979524],[-0.044465752514197,43.40795391435981],[-0.04444576049303,43.40778611881163],[-0.045047167707087,43.40727313315751],[-0.044879400735134,43.4071130956838],[-0.044625052117872,43.407043723423925],[-0.044516142984284,43.40689913590057],[-0.044491266805253,43.40642897430388],[-0.044757249241013,43.406018155316545],[-0.045725004811339,43.4053814221035],[-0.045293983804878,43.40458687312214],[-0.045275259190449,43.40434971881134],[-0.046282146262645,43.40393965727431],[-0.046567144714828,43.40365524206574],[-0.046368649160417,43.40296129012888],[-0.046513151583568,43.402518773945715],[-0.046469576791128,43.40204553898475],[-0.046640141727005,43.40176884589952],[-0.045733509223264,43.40145944709274],[-0.045519142309423,43.400745234819695],[-0.045421689836805,43.3998836845259],[-0.046314774622751,43.39914461152709],[-0.045865552907949,43.398705301407034],[-0.045870831286375,43.39852509217412],[-0.046695195100759,43.39760788926845],[-0.046682284347653,43.39729404692968],[-0.046217739478701,43.396495049611815],[-0.045902393456033,43.39632206361047],[-0.044033866416326,43.39586866298158],[-0.043406241889767,43.39560361891358],[-0.043211858229479,43.39538310937294],[-0.042910069337494,43.39469566289453],[-0.042767925049277,43.39359499224825],[-0.042878310265105,43.39327768451875],[-0.044242285365391,43.39198971206194],[-0.045670685668455,43.39047393406939],[-0.046897115319463,43.38882877889748],[-0.048090614697066,43.387588770737054],[-0.048379560177167,43.3871241811515],[-0.048423463807047,43.386717810875695],[-0.048273127595654,43.38604682354739],[-0.04862769696719,43.38567941753262],[-0.048855476661825,43.385225553098266],[-0.049374790156398,43.38472926201752],[-0.049332398738945,43.38448827708974],[-0.049554377082128,43.38380860069059],[-0.04947935488576,43.38369727776194],[-0.050703939491046,43.383745587598725],[-0.051943557526323,43.3821450184057],[-0.052481227460998,43.38122775662298],[-0.052248692002214,43.38082288170604],[-0.05285410263373,43.379973030232286],[-0.053368995516915,43.37832446872835],[-0.0542777831975,43.37823849941968],[-0.054693357678622,43.37841762992935],[-0.055189709376897,43.3784675366452],[-0.055603329546956,43.37833071574623],[-0.055776778298972,43.37808723940363],[-0.056448091675735,43.3785499354655],[-0.056922961214176,43.37856713023569],[-0.056997288428395,43.37882791639465],[-0.057300230063575,43.37895440119403],[-0.059288374308342,43.37939066814434],[-0.061549810449781,43.379487857668956],[-0.061787288737507,43.38030941200312],[-0.063473145888852,43.380189670626464],[-0.063783744703528,43.38022769192169],[-0.063205210102956,43.38113896897093],[-0.063209481476905,43.38154398281198],[-0.064959615636413,43.38358132132157],[-0.065216950350294,43.38407910156329],[-0.065087870362465,43.38418179113969],[-0.065127455932304,43.3845542953343],[-0.064921179326596,43.38489955211005],[-0.064482510531186,43.38523878572648],[-0.064531440808782,43.385346336670224],[-0.064973580463412,43.38530410446877],[-0.065030158587422,43.385624810438244],[-0.064741990130262,43.385846344053554],[-0.064711090942475,43.386147020153736],[-0.064422500535691,43.38629113875602],[-0.064313532236014,43.38728185759643],[-0.0652982559736,43.38729808374051],[-0.065418157934386,43.38795010915364],[-0.067260044398841,43.38848401790223],[-0.069749746410577,43.389058042283004],[-0.072223316077509,43.389236333118326],[-0.072239929904796,43.389640100181474],[-0.072856490154437,43.38962709639883],[-0.073600272211471,43.38943041394092],[-0.074927963736399,43.38877148318895],[-0.075526548657571,43.38835293496085],[-0.075400617023113,43.386827789018525],[-0.075461076978916,43.386781055322324],[-0.077372506050067,43.386513341875364],[-0.078958654895379,43.38611890308863],[-0.081760145460432,43.38518386120795],[-0.083038296305083,43.38441009850361],[-0.084073432022468,43.38202719072351],[-0.084701131459962,43.38127914735199],[-0.084691362064124,43.380774352625195],[-0.08520137429012,43.38105511310198],[-0.085668424287366,43.38104089477495],[-0.086057318636868,43.38136471897978],[-0.087965211931558,43.382254713480236],[-0.088150451193066,43.38301559198245],[-0.087915281830331,43.383855091789684],[-0.08785377968549,43.38461851111966],[-0.08810489720969,43.38504259484428],[-0.087558747134121,43.38537779057334],[-0.087188597754024,43.38574937683651],[-0.08629595492904,43.387933791175826],[-0.086184308731599,43.389120888867566],[-0.085732544937561,43.389559620395666],[-0.085339606507369,43.3898292142808],[-0.084969791957362,43.390530298803554],[-0.084461308519957,43.39108588213517],[-0.083742360191647,43.39266751823687],[-0.083788560503453,43.39286157043608],[-0.084090087015168,43.393120372241576],[-0.084173907636424,43.39339438083598],[-0.083992580385513,43.393765977093665],[-0.084021465520112,43.39490405560244],[-0.083839356684818,43.395537666705785],[-0.083032044226927,43.39613957141311],[-0.082504389576264,43.39594662734591],[-0.081450269694824,43.39579027891592],[-0.08107758167085,43.39602416787807],[-0.080257366962514,43.39703156126518],[-0.080205242001049,43.39725722381658],[-0.080710417381087,43.397560658058346],[-0.080715229604586,43.39765055290613],[-0.079865067125769,43.39798355737304],[-0.078855081145907,43.398860391961456],[-0.078273070216652,43.39968273105147],[-0.077784112148672,43.40009817800137],[-0.077539895489385,43.40014923773113],[-0.076655211484445,43.39962969607375],[-0.076379072100317,43.400400114302364],[-0.076286736263522,43.40112119271344],[-0.075835100149468,43.40211987678007],[-0.074900909194133,43.40335464732008],[-0.074603337121637,43.40390959406636],[-0.074366193242685,43.404139608972606],[-0.073821945546238,43.40437654389011],[-0.073831484746861,43.40460135295201],[-0.074167161484101,43.405267960798135],[-0.073994108457631,43.40554207110074],[-0.072985067904573,43.406463838765916],[-0.07305385394557,43.406641950207934],[-0.074372714045841,43.40719691323833],[-0.075007221262713,43.407631753144415],[-0.075202937263575,43.407897190523045],[-0.07521962542016,43.40830186171401],[-0.075048922389981,43.408620023277116],[-0.073772433135183,43.40936753079354],[-0.0714029992555,43.41018475078198],[-0.070925115369513,43.41055573607707],[-0.070750749936244,43.41082897829306],[-0.070714066847183,43.411414328336186],[-0.069359154495353,43.411596803096536]]]]}},{"type":"Feature","properties":{"fid":1514,"ID":"COMMUNE_0000000009761038","NOM":"Pontiacq-Viellepinte","NOM_M":"PONTIACQ-VIELLEPINTE","INSEE_COM":"64454","STATUT":"Commune simple","POPULATION":176,"INSEE_CAN":"23","INSEE_ARR":"3","INSEE_DEP":"64","INSEE_REG":"75","SIREN_EPCI":"200072106"},"geometry":{"type":"MultiPolygon","coordinates":[[[[-0.06306176289095,43.347521780353084],[-0.06305065984299,43.347684144589536],[-0.06325682049747,43.34794208619933],[-0.062986068745636,43.348441306187624],[-0.062941367789621,43.349085370129885],[-0.062955163960198,43.34990153123695],[-0.063118693500862,43.35065673451745],[-0.063327889315936,43.351389037937246],[-0.064020964803368,43.351430623617325],[-0.064848859382778,43.35217420397906],[-0.065162565820697,43.353571552461936],[-0.065216354207477,43.354605352141085],[-0.06504112645684,43.35495242529511],[-0.068825613595475,43.355078284672594],[-0.069693207456009,43.35489791508013],[-0.069759246036982,43.3565534653474],[-0.070011361314583,43.35653820702],[-0.069980551112042,43.35667772552377],[-0.070147708061682,43.35689715203691],[-0.07026220572702,43.35740166332777],[-0.070159792770136,43.35760983565564],[-0.070275895805456,43.357866722831105],[-0.070190537907686,43.35807080997011],[-0.070489582765349,43.358310800370695],[-0.070834237392007,43.35843425839877],[-0.070493356903567,43.35875183395458],[-0.070650216235438,43.35877799077367],[-0.070640760995517,43.35920229464179],[-0.070814255749293,43.35930900491616],[-0.070679507576622,43.35948928677778],[-0.070902355168098,43.35948025929853],[-0.071161573767627,43.35966736178572],[-0.071188051133213,43.359955602572015],[-0.07130037436679,43.359910099723415],[-0.07162374473036,43.36030514698978],[-0.07161211728246,43.36050354074825],[-0.071839579498367,43.360742860220114],[-0.071752120132548,43.36106944811513],[-0.072023491984799,43.36127601029071],[-0.073338246315415,43.361288178649886],[-0.073643024746507,43.361912423019284],[-0.073693387431098,43.36225490312021],[-0.076217867249004,43.36306092462039],[-0.076108442438382,43.363322420484266],[-0.076172228327988,43.363592495075935],[-0.076482866334276,43.36393297463156],[-0.076857987444064,43.36457951992521],[-0.078377991956602,43.36519799162734],[-0.077819339701257,43.36536603783057],[-0.077475350821731,43.36564861390294],[-0.076961278469645,43.3655425979185],[-0.076822502329958,43.365716700919265],[-0.076643701999648,43.36578840816317],[-0.076010721541936,43.36567406564453],[-0.075930874697317,43.365750160229844],[-0.075949985919325,43.36603861138744],[-0.076324400667934,43.366279146730164],[-0.076318051266756,43.36641437155911],[-0.075435664279124,43.366736558365226],[-0.075249179330357,43.36701104806824],[-0.074592550919234,43.36733221151684],[-0.074404412268931,43.36755272901356],[-0.074470801633221,43.36803340050322],[-0.0743916202352,43.368260724669945],[-0.073966567545831,43.368135058245066],[-0.073756645385965,43.368317480886056],[-0.0737674416301,43.36858906334237],[-0.073468123993167,43.36890006675609],[-0.073466485574948,43.36914679431443],[-0.073639806550289,43.36929582070625],[-0.073588637347688,43.36967809971387],[-0.073260142966115,43.36988189600848],[-0.073079781128705,43.37020212320843],[-0.072507399403543,43.37034532251598],[-0.07204907785812,43.3706140222385],[-0.07223565353581,43.37103456419006],[-0.072080234697265,43.371614267164546],[-0.071710520267245,43.37201729437146],[-0.071063903739406,43.37248129839134],[-0.070876707562294,43.37343732585987],[-0.07059853797842,43.373752222538634],[-0.070685119497822,43.373964036056364],[-0.07107042926363,43.37422318888988],[-0.071129729468887,43.37438626017902],[-0.070720253434902,43.37499297995564],[-0.07000691131496,43.37538684741448],[-0.069969669699088,43.37556796384194],[-0.070104087476283,43.375797327054904],[-0.070331417557857,43.37596373352834],[-0.069998512025696,43.37647914820531],[-0.067358261611529,43.37559431439943],[-0.067052331451201,43.37599101543196],[-0.066446032059486,43.37577682442194],[-0.065691240123737,43.377015415943106],[-0.065487591774127,43.37752535273606],[-0.064229572332272,43.37881780370922],[-0.064040539830315,43.379973738467164],[-0.063783744703528,43.38022769192169],[-0.063473145888852,43.380189670626464],[-0.061787288737507,43.38030941200312],[-0.061549810449781,43.379487857668956],[-0.059288374308342,43.37939066814434],[-0.057300230063575,43.37895440119403],[-0.056997288428395,43.37882791639465],[-0.056922961214176,43.37856713023569],[-0.056448091675735,43.3785499354655],[-0.055776778298972,43.37808723940363],[-0.055603329546956,43.37833071574623],[-0.055189709376897,43.3784675366452],[-0.054693357678622,43.37841762992935],[-0.0542777831975,43.37823849941968],[-0.053368995516915,43.37832446872835],[-0.053108711406013,43.378303904502786],[-0.053237316405134,43.377400883117886],[-0.053498781191379,43.37742051329352],[-0.054027397420656,43.37479834845262],[-0.053902954576632,43.373685500820635],[-0.053938523091508,43.37256453630992],[-0.053651520370561,43.371900121442174],[-0.053642805359983,43.37101448350343],[-0.053511464021664,43.37098127881976],[-0.053489768387748,43.3704093080284],[-0.053754251061078,43.36988147648724],[-0.05350296227338,43.36849402494156],[-0.051196598749994,43.36798291634995],[-0.049447764322067,43.36832842087867],[-0.048951010128747,43.36859540227916],[-0.048025375853831,43.36857016972638],[-0.046446423786104,43.36874518616805],[-0.046535305630137,43.369841929882796],[-0.044107586007255,43.369719408484755],[-0.044284839714595,43.36910402885484],[-0.04419152548209,43.36817936374712],[-0.043208458638051,43.368141301864966],[-0.040093179819308,43.367732837089356],[-0.040369618106078,43.36717229638048],[-0.036671315635567,43.36707901199682],[-0.033856424009944,43.36623340686538],[-0.034117457683028,43.36603522729625],[-0.034892556747264,43.363814111086924],[-0.0369042007336,43.35930489709258],[-0.039367326344609,43.35501073457652],[-0.041974129540719,43.35423793762968],[-0.042133762507757,43.354293765938934],[-0.043279492224829,43.35365565071913],[-0.046333697152654,43.351687198525596],[-0.050880671712819,43.34928133662468],[-0.053179073029983,43.34867901036707],[-0.055537717594836,43.347887675248856],[-0.060501788168268,43.34709910731219],[-0.060960063082618,43.34713385152567],[-0.061489226510684,43.34741146195223],[-0.06306176289095,43.347521780353084]]]]}},{"type":"Feature","properties":{"fid":1535,"ID":"COMMUNE_0000000009761041","NOM":"Casteide-Doat","NOM_M":"CASTEIDE-DOAT","INSEE_COM":"64173","STATUT":"Commune simple","POPULATION":159,"INSEE_CAN":"23","INSEE_ARR":"3","INSEE_DEP":"64","INSEE_REG":"75","SIREN_EPCI":"200072106"},"geometry":{"type":"MultiPolygon","coordinates":[[[[0.004584105796453,43.371479136364],[0.004617943406679,43.37161151163407],[0.005756825571536,43.37104526292873],[0.006565927232968,43.37036544858421],[0.00726855716521,43.36954944523144],[0.006896980485375,43.3691484525826],[0.008463771105258,43.36830143210584],[0.008294160977916,43.36781330266549],[0.008710852989933,43.367037098886144],[0.005507767821761,43.36332944506507],[0.003342639911693,43.36249256572639],[0.002194997047971,43.36176036655815],[0.001257942446749,43.36217371945286],[0.000742483849822,43.3614572273446],[-0.000542252511716,43.36016033629006],[-0.002564960698105,43.36083161751592],[-0.003884361622057,43.36105245992118],[-0.004357239715623,43.36138952820621],[-0.00462891304909,43.36120463109827],[-0.005943504556808,43.361687558437026],[-0.006189710261089,43.36162940152483],[-0.006438440693549,43.360886975575525],[-0.007386801922006,43.36085431111393],[-0.007345689259647,43.36110662699839],[-0.008188545649573,43.36122723247895],[-0.008154754526544,43.36133620359951],[-0.009940349650016,43.36280347568669],[-0.010702736119389,43.36355558627643],[-0.010735966443926,43.363860751327884],[-0.011012214875727,43.3639286846384],[-0.010399287766692,43.36490272498719],[-0.011172881545832,43.36523139757366],[-0.011509058566449,43.36547771491691],[-0.012463965636326,43.36667729093329],[-0.013140480762799,43.366541415270966],[-0.013617364436956,43.36657584571319],[-0.014086201989834,43.36645655244776],[-0.01570420031166,43.36570745006144],[-0.016763976918453,43.36560948084221],[-0.017999790111759,43.36571545252355],[-0.019495940656681,43.36542072613271],[-0.020189671869811,43.36547248149135],[-0.020551552759067,43.365619924845184],[-0.02110203229267,43.3654578088466],[-0.022365324427284,43.36561697963531],[-0.025377463288515,43.36557059321588],[-0.027920844227874,43.36564437705669],[-0.027929384018365,43.36557211616391],[-0.033856424009944,43.36623340686538],[-0.033015484439834,43.36706543571694],[-0.032700166506133,43.368482308714796],[-0.032106890535423,43.36951895280332],[-0.031428997530518,43.37117555585964],[-0.030046185030093,43.3738602133427],[-0.02609894562365,43.37476743445785],[-0.025802795445507,43.375097116618875],[-0.025498618885202,43.375227160505744],[-0.024694093558425,43.37515962694869],[-0.02395058872298,43.3754784018769],[-0.022547813216711,43.37555811140168],[-0.022087812470195,43.37575281705092],[-0.021611589620368,43.37617934507105],[-0.021475364241042,43.37657026879195],[-0.020846978146245,43.377178397264004],[-0.020067623193157,43.37773221786673],[-0.019041539796747,43.37925351420873],[-0.018038825320754,43.37997380124712],[-0.017098469957251,43.38009455496169],[-0.016643491145673,43.38099851608347],[-0.015075669155281,43.381841660952965],[-0.01471978795547,43.38216397330049],[-0.014610390278768,43.382526232364874],[-0.013265907332532,43.38277974718466],[-0.012720377752114,43.383016405513175],[-0.011696074254372,43.383892981063596],[-0.011580945563076,43.38407534067385],[-0.011434255741637,43.3850229153472],[-0.010078109899668,43.38500753026326],[-0.009751109499349,43.38604834525599],[-0.007852078843683,43.38662870903593],[-0.006472426741681,43.38755832322061],[-0.006122154082053,43.388060506338654],[-0.004648432842561,43.38818245871042],[-0.004744774025051,43.39083200680204],[-0.004592147872592,43.391644696098986],[-0.00528417887793,43.391989195003966],[-0.005249658723742,43.392628453141654],[-0.004293230290206,43.393368030036996],[-0.00392676714178,43.39346642961942],[-0.00353124820557,43.393717781881016],[-0.002038565980119,43.394307467250314],[-0.001311869291033,43.39483718082887],[0.001784044380309,43.39562700733752],[0.001937677783766,43.39564026592881],[0.003244143378633,43.394781569299255],[0.004551506138193,43.39445044656305],[0.005178423667881,43.39419411106202],[0.004949126713921,43.39378444134189],[0.00435096936206,43.39332224907615],[0.004057704181941,43.392955820765444],[0.001441374737451,43.39097207343395],[-0.000297744576862,43.38914312429205],[-0.002038891989036,43.387142137559195],[-0.001981075105745,43.38686195489901],[-0.001514572909843,43.38655619715618],[-9.9631095951e-05,43.38588691661024],[0.000682787711315,43.38560611296193],[0.000883018382993,43.385506330366],[0.000956266212714,43.38521397074856],[0.001020206560327,43.38370238310012],[-3.1687834691e-05,43.38228590503322],[-0.001519227622166,43.38067997974448],[-0.002357986762473,43.38007783510277],[-0.003488642565861,43.37910927350274],[-0.004153767767355,43.37887024226874],[-0.004654384998742,43.377962371920184],[-0.004984799616631,43.37530730026956],[-0.004837266755239,43.374561473156234],[-0.00589868472969,43.37319148867335],[-0.005619781985036,43.37304979247925],[-0.004807999902798,43.372203582556885],[-0.004223899949762,43.372716751131016],[-0.003860843727891,43.3725467782638],[-0.003410728086625,43.372198267405466],[0.00151531926503,43.36912636371814],[0.00170466102991,43.36928195529681],[0.001757796513858,43.369659737829004],[0.002386498195807,43.36962494447814],[0.002710441946006,43.3694943791243],[0.002930298139791,43.36956168788417],[0.003253429622388,43.369494116815524],[0.003421828894606,43.369649125161274],[0.003446073131775,43.370108030307996],[0.004657322270315,43.37085458051314],[0.004681078749988,43.37134678174005],[0.004584105796453,43.371479136364]]]]}},{"type":"Feature","properties":{"fid":2282,"ID":"COMMUNE_0000000009761039","NOM":"Lamayou","NOM_M":"LAMAYOU","INSEE_COM":"64309","STATUT":"Commune simple","POPULATION":211,"INSEE_CAN":"23","INSEE_ARR":"3","INSEE_DEP":"64","INSEE_REG":"75","SIREN_EPCI":"200072106"},"geometry":{"type":"MultiPolygon","coordinates":[[[[-0.053368995516915,43.37832446872835],[-0.05285410263373,43.379973030232286],[-0.052248692002214,43.38082288170604],[-0.052481227460998,43.38122775662298],[-0.051943557526323,43.3821450184057],[-0.050703939491046,43.383745587598725],[-0.04947935488576,43.38369727776194],[-0.049554377082128,43.38380860069059],[-0.049332398738945,43.38448827708974],[-0.049374790156398,43.38472926201752],[-0.048855476661825,43.385225553098266],[-0.04862769696719,43.38567941753262],[-0.048273127595654,43.38604682354739],[-0.048423463807047,43.386717810875695],[-0.048379560177167,43.3871241811515],[-0.048090614697066,43.387588770737054],[-0.046897115319463,43.38882877889748],[-0.045670685668455,43.39047393406939],[-0.044242285365391,43.39198971206194],[-0.042878310265105,43.39327768451875],[-0.042767925049277,43.39359499224825],[-0.042910069337494,43.39469566289453],[-0.041799079146552,43.39402105884147],[-0.041618869542662,43.394115253118926],[-0.041144949327145,43.39488932335269],[-0.040846070104794,43.39512099525621],[-0.039873668799526,43.39545711400527],[-0.039412116520126,43.39522699604662],[-0.038490939174821,43.396065830676925],[-0.037568750230557,43.39721348811484],[-0.03654004568378,43.39683451850167],[-0.03616361130367,43.39697742271447],[-0.035212296388061,43.397808070856094],[-0.035175212897172,43.398392504155396],[-0.035058896727585,43.398574925276804],[-0.034440005247959,43.39849864679759],[-0.033919054672703,43.399319917937255],[-0.032830628069598,43.39914335257812],[-0.032578904725303,43.39970859047651],[-0.032205442007735,43.399627222916855],[-0.031955817584174,43.39985748956895],[-0.031374224270456,43.39992689699668],[-0.03122762300535,43.39969872580784],[-0.030861898535554,43.39952980809985],[-0.027401593464531,43.39855439501467],[-0.026877020681491,43.39851054695587],[-0.026491565596232,43.398200820705185],[-0.025903963527371,43.3979678680556],[-0.025861806745436,43.398551537122835],[-0.025417161492451,43.3996992384914],[-0.025669405312321,43.40010542327827],[-0.025373198485721,43.40027215488826],[-0.025006848284544,43.401007132013056],[-0.024666223423203,43.40131554911877],[-0.023806301735302,43.40137558683065],[-0.023322332853566,43.40161147871339],[-0.022703424289456,43.401535132985785],[-0.022283409543779,43.401813348605046],[-0.021972721729328,43.40177520762993],[-0.021158366569237,43.40143332078123],[-0.020665055199656,43.40144438763884],[-0.01980992644637,43.401642904981344],[-0.019068807431392,43.40161406242109],[-0.018125766933556,43.401454900889696],[-0.016753656181654,43.401071813914776],[-0.013123741512286,43.40069756711076],[-0.012691665655604,43.400557444943935],[-0.011508223547257,43.40045173284464],[-0.009921848938151,43.399960185963614],[-0.008949777540995,43.399835064127785],[-0.007158217834451,43.39924384826591],[-0.005633343689384,43.398888276048005],[-0.004815168125926,43.39858869038125],[-0.004388736885644,43.39824851630003],[-0.004088672545515,43.39817671955918],[-0.00273789182175,43.39744175794772],[-0.002351287572137,43.39705995903883],[-0.000391173905344,43.39624013912717],[-0.001112642284367,43.3957753971735],[-0.002327193764834,43.39534378802829],[-0.00324792618686,43.395456886724496],[-0.003518484100703,43.39527112289017],[-0.004595443638941,43.395042268437706],[-0.004293230290206,43.393368030036996],[-0.005249658723742,43.392628453141654],[-0.00528417887793,43.391989195003966],[-0.004592147872592,43.391644696098986],[-0.004744774025051,43.39083200680204],[-0.004648432842561,43.38818245871042],[-0.006122154082053,43.388060506338654],[-0.006472426741681,43.38755832322061],[-0.007852078843683,43.38662870903593],[-0.009751109499349,43.38604834525599],[-0.010078109899668,43.38500753026326],[-0.011434255741637,43.3850229153472],[-0.011580945563076,43.38407534067385],[-0.011696074254372,43.383892981063596],[-0.012720377752114,43.383016405513175],[-0.013265907332532,43.38277974718466],[-0.014610390278768,43.382526232364874],[-0.01471978795547,43.38216397330049],[-0.015075669155281,43.381841660952965],[-0.016643491145673,43.38099851608347],[-0.017098469957251,43.38009455496169],[-0.018038825320754,43.37997380124712],[-0.019041539796747,43.37925351420873],[-0.020067623193157,43.37773221786673],[-0.020846978146245,43.377178397264004],[-0.021475364241042,43.37657026879195],[-0.021611589620368,43.37617934507105],[-0.022087812470195,43.37575281705092],[-0.022547813216711,43.37555811140168],[-0.02395058872298,43.3754784018769],[-0.024694093558425,43.37515962694869],[-0.025498618885202,43.375227160505744],[-0.025802795445507,43.375097116618875],[-0.02609894562365,43.37476743445785],[-0.030046185030093,43.3738602133427],[-0.031428997530518,43.37117555585964],[-0.032106890535423,43.36951895280332],[-0.032700166506133,43.368482308714796],[-0.033015484439834,43.36706543571694],[-0.033856424009944,43.36623340686538],[-0.036671315635567,43.36707901199682],[-0.040369618106078,43.36717229638048],[-0.040093179819308,43.367732837089356],[-0.043208458638051,43.368141301864966],[-0.04419152548209,43.36817936374712],[-0.044284839714595,43.36910402885484],[-0.044107586007255,43.369719408484755],[-0.046535305630137,43.369841929882796],[-0.046446423786104,43.36874518616805],[-0.048025375853831,43.36857016972638],[-0.048951010128747,43.36859540227916],[-0.049447764322067,43.36832842087867],[-0.051196598749994,43.36798291634995],[-0.05350296227338,43.36849402494156],[-0.053754251061078,43.36988147648724],[-0.053489768387748,43.3704093080284],[-0.053511464021664,43.37098127881976],[-0.053642805359983,43.37101448350343],[-0.053651520370561,43.371900121442174],[-0.053938523091508,43.37256453630992],[-0.053902954576632,43.373685500820635],[-0.054027397420656,43.37479834845262],[-0.053498781191379,43.37742051329352],[-0.053237316405134,43.377400883117886],[-0.053108711406013,43.378303904502786],[-0.053368995516915,43.37832446872835]]]]}},{"type":"Feature","properties":{"fid":2439,"ID":"COMMUNE_0000000009760786","NOM":"Monségur","NOM_M":"MONSEGUR","INSEE_COM":"64395","STATUT":"Commune simple","POPULATION":134,"INSEE_CAN":"23","INSEE_ARR":"3","INSEE_DEP":"64","INSEE_REG":"75","SIREN_EPCI":"200072106"},"geometry":{"type":"MultiPolygon","coordinates":[[[[-0.002456093692595,43.445169959653754],[-0.001457222614399,43.445042787541055],[-0.000877415857979,43.445108369056705],[-0.00102990308706,43.44421823498906],[-0.00161314820439,43.4436978984255],[-0.001310924997002,43.44335244949073],[-0.000756960583849,43.442065944604835],[-0.000724659299648,43.44125745856383],[-0.00089475829998,43.44089442180923],[-0.000919030661763,43.43998623509776],[-0.001079863894095,43.43939837717599],[-0.001905141871859,43.4381663895271],[-0.002477565955822,43.43554682601344],[-0.002762896275667,43.43500143099143],[-0.003302038166143,43.434584943835624],[-0.003131338881725,43.434557266192265],[-0.003920184757573,43.434143754894166],[-0.004343058709489,43.43365396096112],[-0.004700892407203,43.43154091389542],[-0.005144520986384,43.43159072573002],[-0.005516413616297,43.43109513955486],[-0.006372418848696,43.43050238518189],[-0.007710256459274,43.42889510088576],[-0.008488723277505,43.42771838305603],[-0.008909767827282,43.427407783048956],[-0.010016172698349,43.42680984169535],[-0.011622954418246,43.42541200588157],[-0.013012083050299,43.42528423234105],[-0.013800036089283,43.42495169891128],[-0.014965105480744,43.42479142254846],[-0.016461866409109,43.42490279021824],[-0.017811988394087,43.42473822817124],[-0.018373339998354,43.4245605266112],[-0.019126517019259,43.4250959205926],[-0.019828335921426,43.42526451541127],[-0.020591120023322,43.42579423034198],[-0.021023794161462,43.4262710290496],[-0.021151927042943,43.426664491547925],[-0.021095625429648,43.42738000942038],[-0.021379163551777,43.427839360755975],[-0.021881463350991,43.428089136559095],[-0.022782126329141,43.42882026258964],[-0.023715249037983,43.42915793880285],[-0.024467851657966,43.42979775310137],[-0.024838580607377,43.43001157702324],[-0.024647492248551,43.43044186312757],[-0.022620809677431,43.432473740800376],[-0.022391507610465,43.43288258165252],[-0.022225105382029,43.43333648322225],[-0.021980116155459,43.436668191441775],[-0.020697259246692,43.43696597107403],[-0.019280463046933,43.438525213436435],[-0.018524858211776,43.43966537034791],[-0.016954808571512,43.440778693166365],[-0.01695829102268,43.44086862806233],[-0.017276152522993,43.44108665432164],[-0.016446359031037,43.443923266107],[-0.015821549523205,43.44397847736121],[-0.015321779272218,43.44363766466196],[-0.013604762368703,43.44317586794259],[-0.013129390803658,43.44311166523235],[-0.010693778923241,43.443721382001904],[-0.008800474651453,43.44383341033575],[-0.006321052467918,43.44384283249413],[-0.006015963492773,43.4439395305894],[-0.005302093493231,43.44458415858164],[-0.004998232735071,43.44468081963152],[-0.003461023813404,43.4448215879031],[-0.002456093692595,43.445169959653754]]]]}},{"type":"Feature","properties":{"fid":2865,"ID":"COMMUNE_0000000009761331","NOM":"Montaner","NOM_M":"MONTANER","INSEE_COM":"64398","STATUT":"Commune simple","POPULATION":416,"INSEE_CAN":"23","INSEE_ARR":"3","INSEE_DEP":"64","INSEE_REG":"75","SIREN_EPCI":"200072106"},"geometry":{"type":"MultiPolygon","coordinates":[[[[0.024019074713141,43.338562424032915],[0.021650374591054,43.33721527508925],[0.016277501364673,43.33222389487693],[0.014644081369693,43.33035583738892],[0.01274323638838,43.32770166725139],[0.010034387727305,43.32524747632933],[0.006685078021023,43.326059522330546],[0.006997511018763,43.3269765059459],[0.004565014951691,43.328723104928116],[0.001787495449022,43.330485294753615],[0.000654374834491,43.33116865374974],[-0.000594393967706,43.331680447920746],[-0.001946019986745,43.33201202559402],[-0.00332711295539,43.33210420485093],[-0.00352285905088,43.33202674803343],[-0.007369997312016,43.33201613166986],[-0.012346829490394,43.33165252226311],[-0.012455289771023,43.33153336892794],[-0.015345856729584,43.33181378853193],[-0.016868036533036,43.33153816134495],[-0.016892883714539,43.33144744350494],[-0.018115393762219,43.33161947981955],[-0.018137957459818,43.33155583274756],[-0.018520972754524,43.33156944662408],[-0.018597290168855,43.3311901129242],[-0.019150912346545,43.33116475168658],[-0.021189950983576,43.32903452560595],[-0.023007660227841,43.329152060473135],[-0.025558142650631,43.329791009599994],[-0.025396303026084,43.33037259741282],[-0.025573647840385,43.33050897353077],[-0.026280904433331,43.33223476167775],[-0.028944032129281,43.333840055257305],[-0.030299832958859,43.33436382230276],[-0.030399679819317,43.334339417794304],[-0.03274607243951,43.33540614802008],[-0.033650466459001,43.336958924967654],[-0.033387128042662,43.33767301422619],[-0.033751761627108,43.33768799141026],[-0.034831976881001,43.3375199387957],[-0.037677343206536,43.3379405831233],[-0.038138235927332,43.33807347599376],[-0.038880715114535,43.3379094702926],[-0.039224829985797,43.33774585420122],[-0.039778314575027,43.33769338486395],[-0.040099586204004,43.3374241774993],[-0.041223942120633,43.33743847234357],[-0.042253068139141,43.33726097874958],[-0.043174730558988,43.33722063861216],[-0.044428032689831,43.337341102687375],[-0.044759084154515,43.33765407459365],[-0.045068352398093,43.33769487980578],[-0.044821978268522,43.3378872718118],[-0.045081676428582,43.338063611914485],[-0.046543462760157,43.338907393625476],[-0.048064753005037,43.339592834010205],[-0.052525577443891,43.34070126172271],[-0.054126175446042,43.340902738919205],[-0.06226131280315,43.34130645155857],[-0.065142183589325,43.34120412204947],[-0.065233286039853,43.341038590202686],[-0.065447239958972,43.34118827224576],[-0.065364055044479,43.3415489391427],[-0.065278523653067,43.341587374690576],[-0.064270788201824,43.34135575771433],[-0.064143522304698,43.341583532007306],[-0.064173187137157,43.34170062713692],[-0.064358659217115,43.34173228244746],[-0.064335984392643,43.342048020591825],[-0.064196926899212,43.342286032190216],[-0.064296616902145,43.34232822090131],[-0.064356829351926,43.34290358995168],[-0.064461505897442,43.34306267285979],[-0.063978580450475,43.3430277426335],[-0.064067683762967,43.34340423318511],[-0.063840194588437,43.343579930401724],[-0.063644436199787,43.34393478297952],[-0.063783565028733,43.34402266919784],[-0.064329516893776,43.3440828228085],[-0.064385251555558,43.344226187639975],[-0.06422951698343,43.344660932037996],[-0.063681179626155,43.345159015719375],[-0.063259619305969,43.345095334957925],[-0.063040411348886,43.34517176565399],[-0.06275917712429,43.345520035063515],[-0.062786451209526,43.34559218486684],[-0.063131626460619,43.345611216950616],[-0.063594688508674,43.34606084106212],[-0.063248911447597,43.34607693815793],[-0.06330863927159,43.346643320219734],[-0.063174738161477,43.34670022938284],[-0.062914773470347,43.346659878060265],[-0.062739177200077,43.346907025500556],[-0.063060242316676,43.34721482921785],[-0.06306176289095,43.347521780353084],[-0.061489226510684,43.34741146195223],[-0.060960063082618,43.34713385152567],[-0.060501788168268,43.34709910731219],[-0.055537717594836,43.347887675248856],[-0.053179073029983,43.34867901036707],[-0.050880671712819,43.34928133662468],[-0.046333697152654,43.351687198525596],[-0.043279492224829,43.35365565071913],[-0.042133762507757,43.354293765938934],[-0.041974129540719,43.35423793762968],[-0.039367326344609,43.35501073457652],[-0.0369042007336,43.35930489709258],[-0.034892556747264,43.363814111086924],[-0.034117457683028,43.36603522729625],[-0.033856424009944,43.36623340686538],[-0.027929384018365,43.36557211616391],[-0.027920844227874,43.36564437705669],[-0.025377463288515,43.36557059321588],[-0.022365324427284,43.36561697963531],[-0.02110203229267,43.3654578088466],[-0.020551552759067,43.365619924845184],[-0.020189671869811,43.36547248149135],[-0.019495940656681,43.36542072613271],[-0.017999790111759,43.36571545252355],[-0.016763976918453,43.36560948084221],[-0.01570420031166,43.36570745006144],[-0.014086201989834,43.36645655244776],[-0.013617364436956,43.36657584571319],[-0.013140480762799,43.366541415270966],[-0.012463965636326,43.36667729093329],[-0.011509058566449,43.36547771491691],[-0.011172881545832,43.36523139757366],[-0.010399287766692,43.36490272498719],[-0.011012214875727,43.3639286846384],[-0.010735966443926,43.363860751327884],[-0.010702736119389,43.36355558627643],[-0.009940349650016,43.36280347568669],[-0.008154754526544,43.36133620359951],[-0.008188545649573,43.36122723247895],[-0.007345689259647,43.36110662699839],[-0.007386801922006,43.36085431111393],[-0.006438440693549,43.360886975575525],[-0.006189710261089,43.36162940152483],[-0.005943504556808,43.361687558437026],[-0.00462891304909,43.36120463109827],[-0.004357239715623,43.36138952820621],[-0.003884361622057,43.36105245992118],[-0.002564960698105,43.36083161751592],[-0.000542252511716,43.36016033629006],[0.000742483849822,43.3614572273446],[0.001257942446749,43.36217371945286],[0.002194997047971,43.36176036655815],[0.003342639911693,43.36249256572639],[0.005507767821761,43.36332944506507],[0.008227701412129,43.361302607888085],[0.012087083537789,43.359996784647976],[0.013920756506387,43.35799394842318],[0.01448243264853,43.356393505792596],[0.015016418692692,43.355778970203964],[0.018049232758422,43.35248490455637],[0.019988215972208,43.35117987992061],[0.021138776298073,43.34985221092384],[0.02311082999125,43.349216926305346],[0.023604372424592,43.349095474273135],[0.024139984781588,43.34906700208427],[0.026558681725654,43.34838092909361],[0.029793991601401,43.346114815709186],[0.027622873350739,43.342699088901526],[0.025674986994544,43.34036343812249],[0.024019074713141,43.338562424032915]]]]}},{"type":"Feature","properties":{"fid":3739,"ID":"COMMUNE_0000000009761044","NOM":"Sedze-Maubecq","NOM_M":"SEDZE-MAUBECQ","INSEE_COM":"64515","STATUT":"Commune simple","POPULATION":228,"INSEE_CAN":"23","INSEE_ARR":"3","INSEE_DEP":"64","INSEE_REG":"75","SIREN_EPCI":"200072106"},"geometry":{"type":"MultiPolygon","coordinates":[[[[-0.107349523001635,43.37095541481647],[-0.106772551915899,43.36966293267906],[-0.106850493607276,43.369071891059654],[-0.106497403267296,43.36890917129729],[-0.106763517325397,43.36848918716499],[-0.106811806302381,43.368217707340776],[-0.106423841581277,43.36736275085638],[-0.107078343909423,43.36615914745491],[-0.106712175367312,43.36575372162808],[-0.10714233660134,43.36510394859482],[-0.106886878073241,43.364623319184325],[-0.106425103657209,43.364229642165256],[-0.106403347345543,43.36318591112576],[-0.105980989252715,43.362539015469835],[-0.106153498671913,43.362282876578064],[-0.106053908705966,43.36171764361664],[-0.10547737695953,43.36150642013499],[-0.104359808530677,43.36135303696698],[-0.104264263933099,43.36058781977966],[-0.10411941116092,43.360235456656476],[-0.10445082342195,43.35967676027558],[-0.104050713266258,43.35964772958069],[-0.104363561332531,43.35917959666026],[-0.103117344682182,43.35874449881231],[-0.10454028469928,43.358131974179685],[-0.105159481090518,43.35776218151815],[-0.104819546798716,43.35697247215809],[-0.105194046463783,43.35652687552335],[-0.105513681270205,43.35593340293626],[-0.105869389393933,43.35594029465596],[-0.105751129358344,43.35505149243167],[-0.105917057649929,43.35446783441845],[-0.10642878966886,43.35347901290816],[-0.106389306959755,43.3524267966559],[-0.106174145365168,43.352417671379065],[-0.106277102654688,43.351261431844904],[-0.106673529329866,43.35115461324576],[-0.106815836516099,43.35102538378147],[-0.108006873703193,43.349023110268206],[-0.108706843989741,43.34564938659872],[-0.108654103582775,43.34485504183703],[-0.108847460869192,43.34439213342],[-0.108853242978406,43.34413358265482],[-0.10864248514753,43.34372550627931],[-0.108793339727959,43.342475162950336],[-0.108743064219441,43.3416807493384],[-0.109115870340661,43.341160464996534],[-0.109229142785921,43.34131655977635],[-0.109975238002925,43.34183888085876],[-0.110322063904281,43.34255094087506],[-0.110774472994639,43.34270538165602],[-0.111217253341957,43.342704346707556],[-0.111344545356795,43.34295996905156],[-0.11109149373206,43.34300236131984],[-0.111013850566261,43.34325487707724],[-0.112048776488987,43.34314046967437],[-0.113227192710073,43.343170469996934],[-0.114177678176076,43.343251136495496],[-0.115635580776568,43.34361337362595],[-0.116045794805884,43.34362586158828],[-0.116465584645339,43.34354174019172],[-0.116975910371168,43.34332986611432],[-0.117392685377598,43.3433268547351],[-0.118472948992186,43.343024716794964],[-0.11914378644642,43.34270196791064],[-0.119580368753938,43.34238147165859],[-0.120132378212164,43.341504860092456],[-0.120659227838798,43.34105211176468],[-0.121247661362648,43.34073442837558],[-0.121375151887829,43.340492169299885],[-0.121559502501296,43.34038871503045],[-0.122463790640691,43.33841166117597],[-0.123426878391844,43.337542967461154],[-0.126208909310674,43.33757780371316],[-0.126257716015581,43.337408937163936],[-0.127558235918835,43.33753157945368],[-0.127610765458387,43.337590379975005],[-0.126941325913627,43.33941394093081],[-0.127300717999592,43.339535891049564],[-0.127048599187612,43.3402085041393],[-0.12713730372278,43.340524645023336],[-0.127308044788955,43.34071597245756],[-0.127767272832036,43.34108621783699],[-0.129526368336304,43.34161061276091],[-0.129882011215645,43.34189021648178],[-0.130278313354385,43.34203269645711],[-0.130800272044967,43.34199057603129],[-0.131547149919233,43.342092290148635],[-0.132010099512001,43.342031165812706],[-0.132691278891662,43.34233104128423],[-0.133185481981309,43.342821793338395],[-0.133426382708503,43.34403022470193],[-0.133319334900537,43.34426200416677],[-0.133383163036925,43.344550953412856],[-0.13374859683042,43.34507784663081],[-0.134735410224046,43.34577939377846],[-0.135503076390481,43.346171279297714],[-0.135976642145915,43.34625928195243],[-0.136295998005821,43.34650570789185],[-0.136972429048394,43.346649043572086],[-0.13738713601657,43.3468566881534],[-0.137991660928047,43.346948085258106],[-0.138912256002949,43.347451650306915],[-0.138926140914646,43.348113875830244],[-0.138564855602314,43.348434068749405],[-0.138474643900687,43.34874819443873],[-0.138222299722229,43.34887165764403],[-0.137942459324371,43.349305625076965],[-0.137454431057468,43.3493602987143],[-0.137203633516344,43.349557540086764],[-0.137407081612286,43.3498046254406],[-0.137182801839413,43.35039813478686],[-0.137549222833739,43.350987112493364],[-0.13728249446273,43.351503526803334],[-0.136524700549324,43.35222324903587],[-0.136337559542806,43.352660826308416],[-0.13647157543916,43.352810893284065],[-0.136485992002973,43.35300764372172],[-0.13635935354509,43.353310220219704],[-0.13608973155064,43.35359263433509],[-0.136173986680332,43.353871088919966],[-0.136130050198096,43.354378339213206],[-0.136483485788574,43.35452474468489],[-0.136635908695339,43.35517125153604],[-0.136983015696455,43.355541117270675],[-0.137020610969266,43.355687678501425],[-0.136921712791713,43.35584270021201],[-0.137173771647702,43.35607577348281],[-0.137614308278372,43.35675623762967],[-0.137664745343615,43.35711580126241],[-0.137911123595062,43.35726710927331],[-0.13782159209542,43.35770726063715],[-0.137598238557172,43.357955925355135],[-0.13755826707648,43.35812814509296],[-0.137837788361279,43.35850267108009],[-0.13749647451265,43.35871514373621],[-0.136780711706639,43.35889435972652],[-0.136668565482654,43.359010151650956],[-0.136689888125874,43.35933364752731],[-0.137019822038021,43.36013526536791],[-0.136769833993672,43.36041621205753],[-0.136729255051673,43.360622661400996],[-0.136367846106129,43.360896934747],[-0.136281494726655,43.36121455000825],[-0.135761273753085,43.36169959886672],[-0.135728888836373,43.36226053598993],[-0.135461475654062,43.36231240346468],[-0.134930567673373,43.36221615209186],[-0.134586351400201,43.36233056461616],[-0.134386262687505,43.362485815651546],[-0.13431579395766,43.36273274425338],[-0.133971750898809,43.363145155208464],[-0.13394861320763,43.36333219157044],[-0.134435198851911,43.364132881903885],[-0.13436478739641,43.364607590064125],[-0.134466037189516,43.36492607050656],[-0.134228808355936,43.3652606608849],[-0.133860058846094,43.36567288733984],[-0.133739051339392,43.36571690734951],[-0.133554185222827,43.36560792198048],[-0.133204241384965,43.36557214218672],[-0.132982810146316,43.365698298184626],[-0.133108244096146,43.365917044327674],[-0.133015692572485,43.36603046429992],[-0.131947766318617,43.36627116348205],[-0.131680037341562,43.36654450899349],[-0.131775183546549,43.3669324934531],[-0.131627142952084,43.367137550672716],[-0.131555336665942,43.36736020790456],[-0.130622374421045,43.36770052313421],[-0.130387306298442,43.36787118396749],[-0.130005831647761,43.367891225378045],[-0.128860314134179,43.36827188699656],[-0.128540122224377,43.368443205034],[-0.128231596891439,43.36873842888247],[-0.128125889792621,43.36851910655641],[-0.127616381810055,43.3680224569432],[-0.126819681989594,43.367941050946165],[-0.125720695304637,43.36808805159595],[-0.124918906656244,43.3682993820757],[-0.124631019049224,43.36849766491035],[-0.124212378090516,43.3690382428393],[-0.123652824876283,43.36948385293949],[-0.123131335483489,43.36972128793935],[-0.122302747691707,43.36993967426407],[-0.12190667505076,43.37019148974324],[-0.119846792966139,43.3720110351392],[-0.11963961006634,43.37281109067679],[-0.119330247067124,43.37254541370107],[-0.115206053318023,43.37403543028986],[-0.11400038796913,43.374403256848964],[-0.112656538023146,43.37420154344543],[-0.112213880552241,43.374049520015255],[-0.109647031612778,43.374785960381196],[-0.109295961790049,43.37427296706922],[-0.109334146993152,43.37411161354779],[-0.109140658902415,43.37384257808209],[-0.109360884068876,43.37348692688199],[-0.109073640948237,43.372990105514425],[-0.109047658836894,43.37276037175129],[-0.108367146960738,43.372088485063635],[-0.108005304351702,43.37146686108468],[-0.107641155514449,43.3714197019397],[-0.107349523001635,43.37095541481647]]]]}},{"type":"Feature","properties":{"fid":3797,"ID":"COMMUNE_0000000009761040","NOM":"Castéra-Loubix","NOM_M":"CASTERA-LOUBIX","INSEE_COM":"64174","STATUT":"Commune simple","POPULATION":51,"INSEE_CAN":"23","INSEE_ARR":"3","INSEE_DEP":"64","INSEE_REG":"75","SIREN_EPCI":"200072106"},"geometry":{"type":"MultiPolygon","coordinates":[[[[-0.044193290922148,43.409502906523194],[-0.043799573681089,43.40962381508358],[-0.043366110942274,43.41009065824636],[-0.042861340792126,43.41042355711098],[-0.042761818661734,43.41064332912898],[-0.042998956925726,43.411017495021646],[-0.043000036354828,43.41129476035226],[-0.042569344986299,43.41169760040389],[-0.042372966470544,43.41228111891086],[-0.042633665728414,43.41291391378908],[-0.04271891597097,43.41345170496615],[-0.042525776192821,43.41379294936371],[-0.042104608294519,43.41388581267785],[-0.041914672075145,43.41407751411937],[-0.041793368773905,43.414726446221714],[-0.041405845818602,43.415058744800056],[-0.041424329958689,43.41538503903377],[-0.04132834612119,43.41555519354537],[-0.041157508678171,43.41566442869521],[-0.040891656431132,43.41568179943989],[-0.04006238550434,43.415367470842064],[-0.03913501309318,43.41544032315294],[-0.038355921725837,43.41577189724921],[-0.03802980002993,43.41619159097928],[-0.038015719416527,43.416345939410405],[-0.038359431322258,43.41672702977841],[-0.038899138079275,43.41707740955579],[-0.039036853116849,43.41736974705649],[-0.038120923170823,43.41843171267249],[-0.038061121054358,43.4187025844142],[-0.037951314264353,43.41877498960419],[-0.036764407662715,43.418307711745385],[-0.036204640726641,43.41818566259561],[-0.034715606944526,43.41798432433087],[-0.032123891676514,43.417951599499915],[-0.030436353071976,43.417404641273514],[-0.028573302638665,43.41643222031666],[-0.028448906083284,43.41589911662828],[-0.026134182688605,43.41448553643689],[-0.026417015777056,43.4141571218366],[-0.025906122271588,43.41371854864341],[-0.026072486046379,43.413265546991454],[-0.025138730985753,43.41305216149091],[-0.025127017207183,43.41278239761264],[-0.025960138366454,43.41204517381967],[-0.026773393608378,43.41081333195322],[-0.026761719915644,43.410544467681476],[-0.026063478548337,43.410065219679275],[-0.026056488934857,43.40988535457497],[-0.026890687748959,43.40919310869528],[-0.027299719923784,43.40832998535504],[-0.027325119471682,43.407474888870595],[-0.027198318038945,43.40738840471962],[-0.025778338133268,43.407320067914874],[-0.024766444892383,43.40702783990965],[-0.024811300201246,43.406307247143076],[-0.024557663160642,43.40613337398357],[-0.024554170939399,43.40604344164302],[-0.025674481494629,43.404804832742656],[-0.0256709876094,43.40471490052711],[-0.021130958660113,43.40408635605908],[-0.020926219628665,43.4035969072244],[-0.020239752772866,43.40338648757217],[-0.020156648686186,43.40257944095399],[-0.019841347658385,43.402406378281874],[-0.018898292047062,43.4022472233837],[-0.018457344969857,43.40203264637603],[-0.018125766933556,43.401454900889696],[-0.019068807431392,43.40161406242109],[-0.01980992644637,43.401642904981344],[-0.020665055199656,43.40144438763884],[-0.021158366569237,43.40143332078123],[-0.021972721729328,43.40177520762993],[-0.022283409543779,43.401813348605046],[-0.022703424289456,43.401535132985785],[-0.023322332853566,43.40161147871339],[-0.023806301735302,43.40137558683065],[-0.024666223423203,43.40131554911877],[-0.025006848284544,43.401007132013056],[-0.025373198485721,43.40027215488826],[-0.025669405312321,43.40010542327827],[-0.025417161492451,43.3996992384914],[-0.025861806745436,43.398551537122835],[-0.025903963527371,43.3979678680556],[-0.026491565596232,43.398200820705185],[-0.026877020681491,43.39851054695587],[-0.027401593464531,43.39855439501467],[-0.030861898535554,43.39952980809985],[-0.03122762300535,43.39969872580784],[-0.031374224270456,43.39992689699668],[-0.031955817584174,43.39985748956895],[-0.032205442007735,43.399627222916855],[-0.032578904725303,43.39970859047651],[-0.032830628069598,43.39914335257812],[-0.033919054672703,43.399319917937255],[-0.034440005247959,43.39849864679759],[-0.035058896727585,43.398574925276804],[-0.035175212897172,43.398392504155396],[-0.035212296388061,43.397808070856094],[-0.03616361130367,43.39697742271447],[-0.03654004568378,43.39683451850167],[-0.037568750230557,43.39721348811484],[-0.038490939174821,43.396065830676925],[-0.039412116520126,43.39522699604662],[-0.039873668799526,43.39545711400527],[-0.040846070104794,43.39512099525621],[-0.041144949327145,43.39488932335269],[-0.041618869542662,43.394115253118926],[-0.041799079146552,43.39402105884147],[-0.042910069337494,43.39469566289453],[-0.043211858229479,43.39538310937294],[-0.043406241889767,43.39560361891358],[-0.044033866416326,43.39586866298158],[-0.045902393456033,43.39632206361047],[-0.046217739478701,43.396495049611815],[-0.046682284347653,43.39729404692968],[-0.046695195100759,43.39760788926845],[-0.045870831286375,43.39852509217412],[-0.045865552907949,43.398705301407034],[-0.046314774622751,43.39914461152709],[-0.045421689836805,43.3998836845259],[-0.045519142309423,43.400745234819695],[-0.045733509223264,43.40145944709274],[-0.046640141727005,43.40176884589952],[-0.046469576791128,43.40204553898475],[-0.046513151583568,43.402518773945715],[-0.046368649160417,43.40296129012888],[-0.046567144714828,43.40365524206574],[-0.046282146262645,43.40393965727431],[-0.045275259190449,43.40434971881134],[-0.045293983804878,43.40458687312214],[-0.045725004811339,43.4053814221035],[-0.044757249241013,43.406018155316545],[-0.044491266805253,43.40642897430388],[-0.044516142984284,43.40689913590057],[-0.044625052117872,43.407043723423925],[-0.044879400735134,43.4071130956838],[-0.045047167707087,43.40727313315751],[-0.04444576049303,43.40778611881163],[-0.044465752514197,43.40795391435981],[-0.044591395645274,43.408041311979524],[-0.044346028177059,43.40842184093462],[-0.04471656927569,43.408749936270574],[-0.044193290922148,43.409502906523194]]]]}},{"type":"Feature","properties":{"fid":4235,"ID":"COMMUNE_0000000009760787","NOM":"Labatut-Figuières","NOM_M":"LABATUT-FIGUIERES","INSEE_COM":"64293","STATUT":"Commune simple","POPULATION":170,"INSEE_CAN":"23","INSEE_ARR":"3","INSEE_DEP":"64","INSEE_REG":"75","SIREN_EPCI":"200072106"},"geometry":{"type":"MultiPolygon","coordinates":[[[[-0.037951314264353,43.41877498960419],[-0.037353697869158,43.418965516525894],[-0.037249254221493,43.41918632224185],[-0.037296169052034,43.41925613096118],[-0.03745227634706,43.41926525642569],[-0.037768517780504,43.419149246962746],[-0.038419575447874,43.419549624681814],[-0.038592966182815,43.41986256978554],[-0.038458646032391,43.42017244617396],[-0.038102703112928,43.42042551911964],[-0.037613589944078,43.42026188007352],[-0.037342403889982,43.42031900500456],[-0.037277340603702,43.420911436402776],[-0.037101740577797,43.42118825705309],[-0.036461780772765,43.42123231472211],[-0.035673108339403,43.42157133951371],[-0.035103966097691,43.42157649068616],[-0.034941827508646,43.421663864314596],[-0.034979583969812,43.421981517262175],[-0.03533426824014,43.422102120718435],[-0.035864138248443,43.42214848720979],[-0.035823249468102,43.42249715518122],[-0.03593117129298,43.42281013996696],[-0.035823349012933,43.42338846457785],[-0.03556647296351,43.423763895276494],[-0.034945363003762,43.42388484193699],[-0.034740425893744,43.42414447474262],[-0.034684018965156,43.42431621526267],[-0.035085204947315,43.42470921298129],[-0.035010816054025,43.42521907641638],[-0.034740025180367,43.42570563423926],[-0.034486124485914,43.425856800271],[-0.03446633258669,43.42637143582259],[-0.03407204626466,43.426741710488024],[-0.034030574351345,43.42707959110204],[-0.033678688119798,43.42759812903694],[-0.033374202706317,43.42777411771662],[-0.032983093248019,43.42780668030556],[-0.032525653533638,43.42796354213773],[-0.032518150498992,43.42810240111253],[-0.032757437173461,43.42830637422047],[-0.033686527279651,43.428730509316274],[-0.034196997940703,43.42911054720741],[-0.034413041837969,43.42962307744447],[-0.034211687090659,43.42990421699343],[-0.034253465627946,43.43076645287832],[-0.033989601837442,43.4318065127743],[-0.033510358789355,43.431878458814744],[-0.033402560704276,43.43196610841279],[-0.033264797127047,43.43275054495502],[-0.032498468521663,43.433399529407545],[-0.032363517758286,43.43365179664881],[-0.032287789773258,43.433715138808154],[-0.031770390690515,43.43364949567934],[-0.031139300727314,43.43372388090818],[-0.030859797995572,43.43367138191222],[-0.028444662895572,43.43266486395934],[-0.027978548015929,43.43237629074911],[-0.02788292990582,43.43178025273974],[-0.027118140998609,43.43098054366577],[-0.024838580607377,43.43001157702324],[-0.024467851657966,43.42979775310137],[-0.023715249037983,43.42915793880285],[-0.022782126329141,43.42882026258964],[-0.021881463350991,43.428089136559095],[-0.021379163551777,43.427839360755975],[-0.021095625429648,43.42738000942038],[-0.021151927042943,43.426664491547925],[-0.021023794161462,43.4262710290496],[-0.020591120023322,43.42579423034198],[-0.019828335921426,43.42526451541127],[-0.019126517019259,43.4250959205926],[-0.018373339998354,43.4245605266112],[-0.017811988394087,43.42473822817124],[-0.016461866409109,43.42490279021824],[-0.014965105480744,43.42479142254846],[-0.013800036089283,43.42495169891128],[-0.013012083050299,43.42528423234105],[-0.011622954418246,43.42541200588157],[-0.010016172698349,43.42680984169535],[-0.008909767827282,43.427407783048956],[-0.008488723277505,43.42771838305603],[-0.007710256459274,43.42889510088576],[-0.006372418848696,43.43050238518189],[-0.005516413616297,43.43109513955486],[-0.005144520986384,43.43159072573002],[-0.004700892407203,43.43154091389542],[-0.001378058366863,43.429463318941565],[0.000875188359085,43.42787548906377],[0.007675780174946,43.42373678463288],[0.008501144810442,43.4231617929825],[0.009650610427504,43.42219691599416],[0.00899507856376,43.42164403508426],[0.008785187505148,43.42073974290066],[0.008005066122559,43.42018431427062],[0.007711640810494,43.41981788852794],[0.007807814432349,43.41896616732461],[0.007587623617435,43.418331677171],[0.00680338144817,43.41759516681948],[0.006577377182237,43.41709645832346],[0.006619256136969,43.4160541770245],[0.00647448202253,43.415062553967104],[0.006514788149288,43.41407424824053],[0.006647299956137,43.413544939904966],[0.005710221042078,43.41313640349422],[0.005382744478198,43.4129031734921],[0.004880923149726,43.4121996690974],[0.00447473420105,43.41191294207304],[0.003749373095439,43.41116273386398],[0.001569646118259,43.408012589460185],[0.000432983752188,43.4068395336634],[-0.000973651137117,43.405682389205005],[-0.00141330084882,43.40490225400473],[-0.001473589283495,43.404637698217186],[-0.001462911791275,43.40336768834113],[-0.001282039295027,43.401864723236834],[-0.001507224652263,43.40156588625704],[-0.002361430973137,43.40118298207623],[-0.002516183935214,43.40097792570071],[-0.002390453912744,43.40043764056851],[-0.001809529691489,43.399455336484166],[-0.001835063175065,43.399092713917526],[-0.00212124196512,43.398827295407216],[-0.004088672545515,43.39817671955918],[-0.004388736885644,43.39824851630003],[-0.004815168125926,43.39858869038125],[-0.005633343689384,43.398888276048005],[-0.007158217834451,43.39924384826591],[-0.008949777540995,43.399835064127785],[-0.009921848938151,43.399960185963614],[-0.011508223547257,43.40045173284464],[-0.012691665655604,43.400557444943935],[-0.013123741512286,43.40069756711076],[-0.016753656181654,43.401071813914776],[-0.018125766933556,43.401454900889696],[-0.018457344969857,43.40203264637603],[-0.018898292047062,43.4022472233837],[-0.019841347658385,43.402406378281874],[-0.020156648686186,43.40257944095399],[-0.020239752772866,43.40338648757217],[-0.020926219628665,43.4035969072244],[-0.021130958660113,43.40408635605908],[-0.0256709876094,43.40471490052711],[-0.025674481494629,43.404804832742656],[-0.024554170939399,43.40604344164302],[-0.024557663160642,43.40613337398357],[-0.024811300201246,43.406307247143076],[-0.024766444892383,43.40702783990965],[-0.025778338133268,43.407320067914874],[-0.027198318038945,43.40738840471962],[-0.027325119471682,43.407474888870595],[-0.027299719923784,43.40832998535504],[-0.026890687748959,43.40919310869528],[-0.026056488934857,43.40988535457497],[-0.026063478548337,43.410065219679275],[-0.026761719915644,43.410544467681476],[-0.026773393608378,43.41081333195322],[-0.025960138366454,43.41204517381967],[-0.025127017207183,43.41278239761264],[-0.025138730985753,43.41305216149091],[-0.026072486046379,43.413265546991454],[-0.025906122271588,43.41371854864341],[-0.026417015777056,43.4141571218366],[-0.026134182688605,43.41448553643689],[-0.028448906083284,43.41589911662828],[-0.028573302638665,43.41643222031666],[-0.030436353071976,43.417404641273514],[-0.032123891676514,43.417951599499915],[-0.034715606944526,43.41798432433087],[-0.036204640726641,43.41818566259561],[-0.036764407662715,43.418307711745385],[-0.037951314264353,43.41877498960419]]]]}}]}