{"type":"FeatureCollection","name":"COM_17141","crs":{"type":"name","properties":{"name":"urn:ogc:def:crs:OGC:1.3:CRS84"}},"features":[{"type":"Feature","properties":{"fid":3914,"ID":"COMMUNE_0000000009752174","NOM":"Dompierre-sur-Charente","NOM_M":"DOMPIERRE-SUR-CHARENTE","INSEE_COM":"17141","STATUT":"Commune simple","POPULATION":483,"INSEE_CAN":"02","INSEE_ARR":"4","INSEE_DEP":"17","INSEE_REG":"75","SIREN_EPCI":"200036473"},"geometry":{"type":"MultiPolygon","coordinates":[[[[-0.498256391099112,45.6996325067922],[-0.502680507670444,45.70038914976891],[-0.505478697603255,45.70098261990922],[-0.506366814130023,45.7008891713126],[-0.507348905128909,45.70065487864597],[-0.508125857540432,45.70039091270045],[-0.509179190072408,45.69990109787194],[-0.509997209723206,45.6997169625248],[-0.512416592935181,45.699672175122316],[-0.513638534179521,45.69987292128883],[-0.514208012363531,45.700089509968],[-0.515184523970149,45.70065844962972],[-0.51565759980317,45.70115927056737],[-0.515676412134193,45.701414674782264],[-0.515525264034392,45.70182952040008],[-0.515121372488929,45.70233608296922],[-0.514471657287855,45.7029016939537],[-0.514305868701828,45.70316736570444],[-0.514340659459521,45.70347184719236],[-0.514565772502355,45.70389658245857],[-0.514929661984952,45.704278227055795],[-0.515424194286857,45.704589992223404],[-0.516400878299695,45.704957911470494],[-0.518008338173916,45.705311529540595],[-0.521084628939252,45.706386289718864],[-0.522271634257932,45.70672234613337],[-0.524160901911861,45.70701478561375],[-0.525136561965928,45.70708250363845],[-0.525186103489679,45.70745592866939],[-0.524838650549496,45.70852412603066],[-0.524385529916478,45.70934774799398],[-0.523944836585589,45.709700456891234],[-0.523923212839203,45.71018878176466],[-0.52368005988006,45.71045148027912],[-0.523757187279903,45.71063204819351],[-0.523567502585375,45.71078490767821],[-0.523336835382814,45.71150601870501],[-0.523158508581631,45.71167564837886],[-0.52302594349023,45.71300753182635],[-0.522553418633697,45.713345906254354],[-0.522580292379852,45.71372725214873],[-0.522360611820478,45.71381344353235],[-0.522563299086361,45.71408653392173],[-0.522649187237585,45.71446513294942],[-0.522379086678129,45.71489091956496],[-0.522457751962344,45.71515617037893],[-0.522254699690199,45.715543804622264],[-0.522367649082682,45.71574128118325],[-0.521959444537578,45.71605961341761],[-0.521549337933166,45.716105786003126],[-0.521257287872041,45.716470060257734],[-0.52096858460312,45.717109150598446],[-0.520900685945578,45.71731588657312],[-0.52121907435553,45.71758716605893],[-0.521236617773267,45.71800395771585],[-0.521462517754191,45.718499867747546],[-0.520662377583992,45.719837289444904],[-0.52021284457146,45.72007307724029],[-0.520205043629695,45.72039511436687],[-0.520436634827654,45.720818738142995],[-0.520408315241238,45.721263103112214],[-0.520246195446621,45.721465571712024],[-0.519815077032615,45.72166743094438],[-0.519322592878686,45.72225970092412],[-0.519219497728319,45.72249998478189],[-0.51925047463358,45.72280458550892],[-0.518900209729057,45.723185092807284],[-0.518805246465487,45.72383615214249],[-0.518562451292895,45.724166429647305],[-0.518311611337192,45.72424907792661],[-0.517464470297346,45.723738306684076],[-0.514675181394218,45.72245526045447],[-0.513395340918781,45.721999422288114],[-0.51271145078301,45.72152498998376],[-0.510153155986084,45.720187764536895],[-0.509583979273086,45.71949250877992],[-0.508450442841158,45.71844075738734],[-0.50760670594653,45.71783877293485],[-0.506581087915053,45.716722351236406],[-0.50554702952514,45.715817105817116],[-0.505044773240816,45.7140651404463],[-0.504330338261795,45.713207628162046],[-0.501519793949508,45.714216232388246],[-0.499297324368632,45.71549132995235],[-0.496987845339711,45.71665370634303],[-0.495960413346134,45.71678654978817],[-0.495483156754176,45.716971718731514],[-0.495317171135713,45.71713460868504],[-0.494991050127389,45.7178378798932],[-0.494654695993696,45.71819624309006],[-0.494695231506482,45.718532097583555],[-0.494187805866859,45.71876957437001],[-0.493800612255415,45.718771668279025],[-0.493103129082923,45.71858778569444],[-0.49151710522235,45.71802672758151],[-0.488683847519048,45.71613420455567],[-0.487201547976074,45.715604128866104],[-0.486004394457186,45.71582055402174],[-0.482325289174887,45.715590026947105],[-0.482087800269605,45.716783561256314],[-0.481441317480865,45.71771481976756],[-0.481638530898691,45.71843522285692],[-0.481583462578896,45.719706042957455],[-0.48144243463611,45.72028637180589],[-0.481166397625675,45.72076631427821],[-0.480954802118914,45.72094140715626],[-0.481111470907197,45.721283590707735],[-0.480939792160478,45.722623812769925],[-0.480842952103569,45.722802570443406],[-0.480395192778351,45.721802371458004],[-0.480020148868064,45.72148676270086],[-0.478133030233039,45.72100692697287],[-0.477453608311542,45.72055739071567],[-0.477333612283832,45.720634104799394],[-0.476854137747345,45.720212645106415],[-0.475725546143495,45.71996624615872],[-0.476911349773992,45.719240114642524],[-0.477145029783775,45.718822783412875],[-0.475384206135406,45.71852829248603],[-0.474898637451985,45.71833686008979],[-0.47522336983896,45.717668850822555],[-0.475627579345608,45.71724175531064],[-0.475770935620883,45.71657483316673],[-0.476280156994141,45.71613998799252],[-0.477399136342414,45.71480298613443],[-0.476474069975085,45.714497134836584],[-0.475197026755938,45.714261625293155],[-0.473428584580535,45.71365907933217],[-0.47252019123892,45.713269757867046],[-0.471940750560015,45.71283243377339],[-0.475622373873284,45.71009864564203],[-0.475198891423317,45.708560474147106],[-0.475338511433674,45.70771159326706],[-0.476181988284112,45.70690588854635],[-0.476092905037973,45.70507978096187],[-0.472578763650202,45.70346929840392],[-0.470352649385884,45.70261943384799],[-0.471400738466726,45.70146674716693],[-0.472763930081475,45.70058014829766],[-0.473887128036234,45.699436837371415],[-0.474211575951003,45.69874540232319],[-0.474511200455627,45.69765903608994],[-0.474690408637881,45.69621223601142],[-0.475251291506135,45.695271937515095],[-0.475801876651999,45.69404532175782],[-0.475944279177287,45.69399856224288],[-0.477270062490931,45.69260288724185],[-0.477798298020274,45.69288312044532],[-0.478283433912257,45.69294835652466],[-0.478741789021637,45.69289453713876],[-0.479419994910837,45.692266967436844],[-0.481454297422093,45.69313879880817],[-0.482663551538297,45.69377562257358],[-0.483335117590068,45.694247894796135],[-0.484508477298117,45.69529412771863],[-0.485689355735464,45.69656095107827],[-0.486236774314605,45.69702172752676],[-0.486867486985819,45.697375364346804],[-0.48723792619188,45.69745673394083],[-0.487975473377069,45.69736268395194],[-0.488600629363664,45.69697556200311],[-0.489056843322712,45.69656122180291],[-0.490612270553315,45.69454894253484],[-0.491530846336642,45.694002178633916],[-0.492263419403424,45.69374871137276],[-0.493453675864214,45.69355314992006],[-0.494438833330119,45.6936740111017],[-0.495618023934839,45.69438194050783],[-0.496028340241047,45.69501277895734],[-0.496153554110586,45.6959760595194],[-0.495907971625304,45.697747661499726],[-0.496158507088004,45.69847540017849],[-0.496691959031184,45.69897802575439],[-0.498256391099112,45.6996325067922]]]]}}]}