{"type":"FeatureCollection","name":"COM_33289","crs":{"type":"name","properties":{"name":"urn:ogc:def:crs:OGC:1.3:CRS84"}},"features":[{"type":"Feature","properties":{"fid":4288,"ID":"COMMUNE_0000000009756530","NOM":"Monségur","NOM_M":"MONSEGUR","INSEE_COM":"33289","STATUT":"Commune simple","POPULATION":1585,"INSEE_CAN":"27","INSEE_ARR":"3","INSEE_DEP":"33","INSEE_REG":"75","SIREN_EPCI":"200044394"},"geometry":{"type":"MultiPolygon","coordinates":[[[[0.115839760656347,44.63940118950203],[0.115129074535579,44.63753406538046],[0.115164558745355,44.637284550353925],[0.114723312134868,44.63609470017188],[0.114422954712573,44.63614541633578],[0.114324378391008,44.63513837649583],[0.112868584168358,44.635405756602665],[0.112519240520238,44.63436874204283],[0.110978775512341,44.63412219216717],[0.109376973321657,44.63438300713796],[0.108200165038987,44.634696358477264],[0.107797447108172,44.634701136933614],[0.106852036809662,44.63448811461812],[0.105834197632501,44.63443264166355],[0.106230797659511,44.634153845833914],[0.106910528119989,44.63391398994871],[0.103612014842029,44.63237810731451],[0.103946954337189,44.63177699454004],[0.10495274837093,44.6309853534942],[0.103612753814079,44.62990884266932],[0.102431873275078,44.630572462187665],[0.100014137163136,44.63124506573452],[0.099516103366314,44.631459918249696],[0.097648988112063,44.62967042210027],[0.097401927386558,44.62956844183436],[0.094965657012223,44.63069809201115],[0.093741299349908,44.63117489929952],[0.093622620245932,44.63127447835242],[0.093789563499119,44.63153561704078],[0.092894387512677,44.63218502968091],[0.091878789071682,44.63140247976594],[0.091330055979318,44.63110786885286],[0.090645420018632,44.631075436120355],[0.089904350504573,44.63115862714475],[0.089051988084977,44.630807362768856],[0.088661368570995,44.63074932815635],[0.088391532428781,44.6330664815104],[0.087777795933321,44.63515296112167],[0.087602143652977,44.636354609022035],[0.086990719699764,44.63739432804274],[0.085992827612276,44.639953552021865],[0.085782114639798,44.63995340273311],[0.085079160675517,44.63951686080001],[0.083430523796203,44.638312141105324],[0.082856585138282,44.638187089433174],[0.082582953237379,44.63711142349427],[0.082143860378848,44.63611246882387],[0.081356342339023,44.63582411670352],[0.079264347999613,44.634778791658455],[0.077763898571804,44.63624450887929],[0.075884062720155,44.637311892739675],[0.075429055716768,44.637326882185704],[0.073591820724227,44.63711069512581],[0.073242048341682,44.63714017292133],[0.072613796524406,44.63738119023702],[0.071575650755756,44.63820142627684],[0.070403471831604,44.63875954722939],[0.069579070339178,44.6351287464447],[0.06870550894196,44.63533170660371],[0.067767947987198,44.63620682545997],[0.067251884772649,44.63691024086359],[0.066524667228151,44.63745219758539],[0.06445918125809,44.63844509928661],[0.064132791305569,44.63882471450283],[0.06266766697537,44.639796591942215],[0.062513932826176,44.6398168309752],[0.061803302792221,44.64049883827794],[0.061690849347677,44.640767918364105],[0.061088927915867,44.64149425224748],[0.059572369945548,44.642530490722194],[0.057334987259181,44.64439256429652],[0.056952674442902,44.64456076452507],[0.056854218457916,44.644754538448716],[0.056891428914434,44.64525012000937],[0.056358488005139,44.647359340787474],[0.056869932685467,44.647304488674436],[0.05757461985591,44.64695658115708],[0.058073841355987,44.64686986700101],[0.058999862537812,44.64706837660966],[0.059788965190487,44.64735152481147],[0.061281966672462,44.647567794262784],[0.061409506158005,44.647832443262004],[0.061296754567598,44.64793755360909],[0.060623968845128,44.648085433493826],[0.06050939882548,44.64817698134868],[0.060473839491662,44.64847152913934],[0.060705911388961,44.64881283153573],[0.061964764056732,44.64996249788054],[0.062184211062192,44.650086346074055],[0.062377270798818,44.65008697118412],[0.063068693907711,44.6495819204272],[0.063283522517224,44.649503843648525],[0.063784365071998,44.649531559725546],[0.064120640558746,44.64969003773717],[0.06480201954097,44.65022524096395],[0.06596879574012,44.650648998273276],[0.066217210623692,44.65118621560583],[0.066159741081683,44.65221711370831],[0.066471216124479,44.65333707973884],[0.066901266654681,44.653173715123316],[0.067241178790687,44.65326291078511],[0.068437910500622,44.65464057922351],[0.068648570635524,44.654739856893585],[0.069046162723462,44.65471526158297],[0.069440126360082,44.65459056964387],[0.071211485974977,44.65387534767265],[0.071666674455809,44.65385947583091],[0.071945895876987,44.65414524547759],[0.072047771877494,44.654492083553606],[0.071736394203351,44.655140587814955],[0.071738846424576,44.65538479435944],[0.07197182450413,44.65554051179281],[0.072339722062416,44.65562592786094],[0.073435686413703,44.65564232702283],[0.073760693432758,44.655581559708786],[0.074479252419277,44.6550393182093],[0.075222206830092,44.65468330110393],[0.075608971363204,44.6543809218884],[0.076401017517079,44.654173040646405],[0.076883795590227,44.65416057944883],[0.077191099506385,44.654294827299495],[0.077280308988552,44.654448534669406],[0.077259494472099,44.655117345046044],[0.077577027198019,44.655200511402974],[0.078052341922158,44.65506442585782],[0.078879568058675,44.65434845454206],[0.079103074793852,44.65424895494031],[0.083217090789126,44.65372242807047],[0.085948574211271,44.65369264726121],[0.087502162177893,44.65344980102253],[0.087874375744477,44.654306435708556],[0.089446547165875,44.65487664847361],[0.089639749802394,44.65502137074432],[0.08969001415031,44.65517224041667],[0.089536245267129,44.655388008898505],[0.088956732524556,44.655611488518254],[0.087926052781383,44.657384318604],[0.087453237078713,44.658863733277926],[0.087176358796934,44.65943390865288],[0.08718755040491,44.66139002862475],[0.087322606531118,44.66158547476971],[0.087641748923424,44.661760543962416],[0.088688364593631,44.66185476721437],[0.089461072125701,44.66238861164508],[0.090527901556342,44.662604968741164],[0.091135144628426,44.662847965957525],[0.09157548229463,44.66309648018859],[0.092092766988819,44.6636884515648],[0.092370454768614,44.663786742145795],[0.09259375656311,44.663740361438],[0.093403209241581,44.66326975505216],[0.094300671188814,44.66314829618787],[0.095114275713779,44.66244986337815],[0.09565365916139,44.662295564778326],[0.09599954074641,44.66234428674016],[0.096654935553955,44.66270653324096],[0.09846841832174,44.662739713533625],[0.10130909281695,44.66319618031458],[0.101974546204288,44.66319199910489],[0.102400443817403,44.66340315442826],[0.102670281242398,44.66365436285888],[0.102877273497773,44.66399851685694],[0.102984295324782,44.66442113110569],[0.103792678344324,44.66450986975634],[0.104778169208548,44.664149195120366],[0.106088808390696,44.66301235439453],[0.107287266926862,44.662854523865114],[0.107903309340407,44.66300126321756],[0.108203861954697,44.662949664568686],[0.108441896793028,44.662812648815276],[0.109275701719921,44.66191374904068],[0.109520029770043,44.661530956055735],[0.109590193244773,44.66119676251882],[0.109601208373349,44.65734129694034],[0.109160784223649,44.65586405849053],[0.109186541747661,44.65568185404476],[0.108801016795488,44.65490603013087],[0.108672397806763,44.653649549068675],[0.108927155486934,44.652620203827304],[0.108782302368321,44.65121285339436],[0.108871404000689,44.6509521278796],[0.109466767939573,44.650269516296994],[0.10932154152198,44.6499269909908],[0.108134469688152,44.649155431002505],[0.107894864820272,44.64888160419172],[0.107343858727663,44.64865098002316],[0.106413946151018,44.6480825189178],[0.10561049110011,44.647411057007965],[0.105908806123839,44.64580449963847],[0.105408150263337,44.64400496015574],[0.105117759007441,44.64336944785218],[0.105500314443606,44.64324253174227],[0.105367016975942,44.642226460381565],[0.106361351509852,44.64222636569247],[0.107297006418326,44.642459854292944],[0.10862036953813,44.642441321859096],[0.109890953761877,44.642197076976274],[0.110782085822336,44.641945604265004],[0.110973770728338,44.639954285560215],[0.110894246211007,44.639954909870646],[0.110982152439419,44.63969235152192],[0.111425843149507,44.639701243322136],[0.112259317197272,44.63985995073385],[0.113159302768957,44.63987805136987],[0.114307488461323,44.63963236336123],[0.115511329658678,44.63950703047719],[0.115839760656347,44.63940118950203]]]]}}]}