{"type":"FeatureCollection","name":"COM_16088","crs":{"type":"name","properties":{"name":"urn:ogc:def:crs:OGC:1.3:CRS84"}},"features":[{"type":"Feature","properties":{"fid":4292,"ID":"COMMUNE_0000000009752166","NOM":"Chassors","NOM_M":"CHASSORS","INSEE_COM":"16088","STATUT":"Commune simple","POPULATION":1103,"INSEE_CAN":"15","INSEE_ARR":"2","INSEE_DEP":"16","INSEE_REG":"75","SIREN_EPCI":"200070514"},"geometry":{"type":"MultiPolygon","coordinates":[[[[-0.224513324923665,45.719194888402164],[-0.223217828151801,45.718954377402056],[-0.22168514075839,45.719257771514634],[-0.22053722897559,45.71982772689312],[-0.218966506329215,45.72042867652514],[-0.218930500493913,45.720760458523074],[-0.218563996565928,45.72127201556376],[-0.218283358324016,45.72244082261806],[-0.217974739914866,45.72308500790491],[-0.21826861261521,45.723182058957505],[-0.21801613023336,45.72361915931011],[-0.218113100654358,45.724135501109494],[-0.217945266963451,45.72454585017455],[-0.216858240568045,45.725434864685944],[-0.216304921499253,45.725589450130194],[-0.215260707603299,45.72604283124643],[-0.214672028308133,45.72649672565349],[-0.213689377492428,45.72707991506317],[-0.213334370335134,45.72741448318493],[-0.21307215631197,45.72748594789614],[-0.212725403423588,45.72780766130641],[-0.213548047028728,45.728920658750965],[-0.214110300182121,45.72995906619937],[-0.215478412347792,45.73115652936371],[-0.215935490480814,45.73177975771167],[-0.209395946551389,45.73232037421872],[-0.20860630117873,45.732329341463895],[-0.205824901562605,45.73214534053152],[-0.204164150967231,45.73215652344944],[-0.201388627837447,45.73202902401117],[-0.200019303418984,45.73220580349927],[-0.198230293962972,45.73231336719314],[-0.196620945699268,45.731989526587164],[-0.196630075763954,45.7320361313285],[-0.196316726339084,45.73202519239223],[-0.195254389164748,45.731880481018685],[-0.193496340188598,45.73147699899991],[-0.19197764479652,45.73122893102935],[-0.191876572225936,45.73117231313602],[-0.191915558382549,45.730978347105975],[-0.187550787711572,45.73002403227143],[-0.18753653210603,45.72970990932841],[-0.18657130113502,45.72968583848007],[-0.185924649208686,45.730165547365374],[-0.184953600018654,45.72932602289823],[-0.184193554942383,45.728217372637275],[-0.182500885788886,45.724319655217855],[-0.182159851767177,45.72288823890543],[-0.181355083175079,45.72187186014633],[-0.1809175021466,45.72057294296986],[-0.18083249979106,45.71876029074639],[-0.180971504670656,45.71786686458945],[-0.181249783535065,45.71706863952023],[-0.18247924675097,45.71511612455922],[-0.18279388296708,45.71381038320278],[-0.182765742017192,45.7117573025297],[-0.1822142783933,45.70970819227871],[-0.18470242854246,45.710316493982525],[-0.188110815027834,45.71144484195167],[-0.189273346654238,45.71161651252567],[-0.190787052558668,45.706727780148185],[-0.193586685121184,45.707050385432076],[-0.194305818631613,45.705626790463285],[-0.194485886778656,45.70498091432234],[-0.194527589688453,45.70436690003337],[-0.194417460882936,45.703841005610556],[-0.19395911070926,45.70314293922597],[-0.193137652149368,45.70225960086996],[-0.193039047580174,45.70126474352025],[-0.192858308584492,45.70065162908065],[-0.192207267225161,45.69975624460118],[-0.191616048696541,45.69929535279968],[-0.190879298904314,45.6990314427061],[-0.190736640585968,45.698654267990456],[-0.190209362399062,45.698231211723154],[-0.189614414486501,45.6961887747381],[-0.189620414562244,45.69591373268619],[-0.189709968529082,45.6952812434634],[-0.190636969110665,45.695076542333304],[-0.191034691037531,45.69474804387607],[-0.191032544800062,45.69459940328786],[-0.191287622452293,45.694406523817655],[-0.191438318278001,45.69434367399206],[-0.191644080910749,45.694544222264675],[-0.193327698512894,45.69408013017192],[-0.193588206991818,45.69411510031354],[-0.192524963759016,45.69238245835145],[-0.192096877646255,45.6920061674335],[-0.193267369646173,45.69083023364641],[-0.194100191981832,45.69015412955726],[-0.195057859891559,45.69048204288762],[-0.197186977180447,45.69100921031908],[-0.197713080659942,45.690211108853084],[-0.198175577269886,45.68980323845943],[-0.197630372110586,45.689336567180256],[-0.198588664511967,45.687829541446945],[-0.198582143666702,45.687694543130235],[-0.197207673886833,45.68714057314583],[-0.197328266440916,45.6869578055901],[-0.197696899043247,45.68672834035463],[-0.19808241710834,45.68683545177878],[-0.199981540554981,45.686989679667086],[-0.200145328562042,45.687487006848414],[-0.201387270556165,45.68781670011461],[-0.204167844780576,45.68935711523327],[-0.205579672376208,45.68962154783562],[-0.206539483206902,45.68969696053678],[-0.209207691592862,45.690116625542395],[-0.210298769623739,45.69050369576136],[-0.211886808360379,45.690723373230966],[-0.21522074470819,45.69199720165615],[-0.217953277324602,45.692745580589325],[-0.218482740797948,45.69300442450514],[-0.218969887637799,45.692757081243414],[-0.219917595691003,45.69246862953553],[-0.220765915295507,45.691909037015535],[-0.221547047073113,45.692492322777596],[-0.223709982576332,45.693659710840386],[-0.223883135194653,45.693894482709986],[-0.224588340203598,45.69445378692897],[-0.225529866148367,45.69485310852999],[-0.227078970373992,45.69581270706049],[-0.228091766360208,45.69628657143291],[-0.229263210080443,45.69745073315595],[-0.230751393263632,45.69914834464125],[-0.232031654785744,45.69979565281481],[-0.235247699558878,45.7016527010513],[-0.232715542095458,45.7040578185207],[-0.23194243220681,45.70520114776499],[-0.231579406374114,45.70587848138032],[-0.231867008255036,45.7062875039945],[-0.231225827080256,45.70724589250784],[-0.231399156994287,45.707328340511125],[-0.230044496586801,45.70873527599354],[-0.229637466027001,45.70903444217442],[-0.229379146614887,45.71077853647671],[-0.229227597042733,45.7112893775144],[-0.229003859198603,45.71159950866547],[-0.228690532086386,45.71171934188932],[-0.228485336046223,45.711950532652196],[-0.226612551926121,45.713300170386034],[-0.224765854189928,45.714128112510686],[-0.22495284143432,45.714819416486044],[-0.224551891501429,45.71586371168136],[-0.225911541844248,45.71610236842028],[-0.225293150425979,45.718006364886335],[-0.224513324923665,45.719194888402164]]]]}}]}