{"type":"FeatureCollection","name":"COM_16155","crs":{"type":"name","properties":{"name":"urn:ogc:def:crs:OGC:1.3:CRS84"}},"features":[{"type":"Feature","properties":{"fid":4262,"ID":"COMMUNE_0000000009751113","NOM":"Les Gours","NOM_M":"LES GOURS","INSEE_COM":"16155","STATUT":"Commune simple","POPULATION":93,"INSEE_CAN":"08","INSEE_ARR":"3","INSEE_DEP":"16","INSEE_REG":"75","SIREN_EPCI":"200072023"},"geometry":{"type":"MultiPolygon","coordinates":[[[[-0.103119180851384,45.96966129552086],[-0.101410768331561,45.97014519841518],[-0.099813644860263,45.97049445354991],[-0.097398970266542,45.97131304981942],[-0.09584629876933,45.97187911771875],[-0.094543894654071,45.97257530149238],[-0.087292630674045,45.97512179565977],[-0.085547878383951,45.97588490669859],[-0.083389676174621,45.97732071811193],[-0.082062383278148,45.978039056717336],[-0.080995157855546,45.978439394300054],[-0.079988425039691,45.978650630508575],[-0.076913779658327,45.97949033118728],[-0.07526276375017,45.98045529517584],[-0.07294432269214,45.97847438828514],[-0.072635936717807,45.978738692911215],[-0.07262119989689,45.979632157060685],[-0.072318693464089,45.98016394986534],[-0.072068193369555,45.980377117001794],[-0.069884888760533,45.980538177360756],[-0.066355673222346,45.980972667607574],[-0.064185014689619,45.98166316298212],[-0.063034827797958,45.981853796286686],[-0.062588246628024,45.98147116582275],[-0.062485777280704,45.98125585467867],[-0.062853988522977,45.98027713505263],[-0.06279443979634,45.98002011028567],[-0.062726188479433,45.979931839800464],[-0.061939382288155,45.97975306425097],[-0.062734771428379,45.979017820873636],[-0.06560774223673,45.97594726403935],[-0.065771367274424,45.97326995723092],[-0.065647372594971,45.97280740980258],[-0.065285415721414,45.97213322333666],[-0.06390669494426,45.97141897594368],[-0.062700066811273,45.96975562958717],[-0.062291388099601,45.96903043145805],[-0.061805461654883,45.96761342097998],[-0.062090040525391,45.96555105398758],[-0.062082834763057,45.96511958843408],[-0.061783745920954,45.96422651027025],[-0.054467015526213,45.96017341780569],[-0.052969230942767,45.95942441376134],[-0.051789241523298,45.95774132382013],[-0.05057929527432,45.956752027122185],[-0.049823615822674,45.955775708515475],[-0.049362559632426,45.954636445850724],[-0.048184664194057,45.95228730732124],[-0.047721224981395,45.95108051655906],[-0.04718827688458,45.9502513817417],[-0.04710240868055,45.949143460699915],[-0.046434919842933,45.94847384773845],[-0.041558877617399,45.94575105806122],[-0.038454344500452,45.94225687416922],[-0.027298959940045,45.93600364316005],[-0.026093879971617,45.93541499280069],[-0.0257729688075,45.93507483082686],[-0.02940713179542,45.93523528943395],[-0.033821436580904,45.93577121988829],[-0.034844070606488,45.936328639138765],[-0.038258014014469,45.93759864534083],[-0.046409922467241,45.93947730590399],[-0.058860822987931,45.94311636754487],[-0.060115546317669,45.94328699987216],[-0.064008574404358,45.945672464203625],[-0.066813150216164,45.94694913262735],[-0.074081376922043,45.9505413204237],[-0.074333085937034,45.950768786948245],[-0.074920459669759,45.95108445812166],[-0.075648169898309,45.951830678685624],[-0.076228654292835,45.952600723824986],[-0.076673318485691,45.952928377157264],[-0.077024813628498,45.95306841428543],[-0.078385378435639,45.95313954742259],[-0.080275734731725,45.95256541806678],[-0.081948609841044,45.952376576565285],[-0.08304982071067,45.951992412332146],[-0.085478595220835,45.950952930885265],[-0.086175525258264,45.950986191670644],[-0.086479057558648,45.95091573045349],[-0.088041933815875,45.95074782124308],[-0.090253463553637,45.95067392215921],[-0.090877269257769,45.95071636064957],[-0.091140273176441,45.95066051163687],[-0.091170256373506,45.95087237170787],[-0.092334325635857,45.95105684650143],[-0.092125709619357,45.95194300439281],[-0.09263318390631,45.95246714138864],[-0.093189616897013,45.953632482226396],[-0.092832025584005,45.95559241925228],[-0.093457979221215,45.9559709280944],[-0.093259738658176,45.958329339216974],[-0.093513185942976,45.96028699237314],[-0.093632834832399,45.96066852716204],[-0.093953355757911,45.96085351904165],[-0.094684914670599,45.96237364019349],[-0.096062928655373,45.96210704729667],[-0.098765786983748,45.960423549624174],[-0.100073133612793,45.959958777584795],[-0.101623013589331,45.95973967510576],[-0.103474090903357,45.9593167330914],[-0.10588024548339,45.95895332496956],[-0.106570473176787,45.95893437824168],[-0.106388231068126,45.95941430831028],[-0.10601743662966,45.95998773007412],[-0.105454587906973,45.96063851615594],[-0.104489360796098,45.9620366099136],[-0.10362162227563,45.96301026421452],[-0.103448665668564,45.9645722613508],[-0.103511097851718,45.9676273811444],[-0.103155835126606,45.968752793785605],[-0.103119180851384,45.96966129552086]]]]}}]}