{"type":"FeatureCollection","name":"COM_24401","crs":{"type":"name","properties":{"name":"urn:ogc:def:crs:OGC:1.3:CRS84"}},"features":[{"type":"Feature","properties":{"fid":4196,"ID":"COMMUNE_0000000009754319","NOM":"Sainte-Eulalie-d'Ans","NOM_M":"SAINTE-EULALIE-D'ANS","INSEE_COM":"24401","STATUT":"Commune simple","POPULATION":296,"INSEE_CAN":"05","INSEE_ARR":"4","INSEE_DEP":"24","INSEE_REG":"75","SIREN_EPCI":"200041150"},"geometry":{"type":"MultiPolygon","coordinates":[[[[1.038379179072168,45.22567952094527],[1.038212004359195,45.22572162051853],[1.031866158492199,45.22416077068537],[1.031076146077784,45.2241189277441],[1.030404632796682,45.22418635234152],[1.029066046337872,45.224051056403],[1.028382454142006,45.22388317176257],[1.02814225465847,45.22375553560418],[1.027583050763379,45.22367450781002],[1.026940483609249,45.22368027397146],[1.025249469405492,45.22388818063749],[1.023886631504514,45.22389830802195],[1.022730954158761,45.22410483688492],[1.021824275835038,45.22404645207407],[1.020972158478627,45.2245339542917],[1.020495313065586,45.224682228902935],[1.019830217116828,45.2247118742973],[1.018398195443316,45.22738680517438],[1.017855846871996,45.22772755966065],[1.017525819237068,45.22779646259257],[1.016979231692864,45.2282920597566],[1.016172692464713,45.228856897002395],[1.014844767954036,45.22945840191034],[1.014569055583018,45.22968408430786],[1.014364054654052,45.230143406056115],[1.014403565020523,45.23064490313383],[1.014757848946934,45.231650086644315],[1.015075725653724,45.23321306274189],[1.014787651684603,45.23521833120122],[1.014603647790824,45.235552828459554],[1.014233724023361,45.23577413467672],[1.013617921487201,45.235955040424635],[1.012789302275775,45.23595471792083],[1.012530660544203,45.23602217463193],[1.011078176109461,45.23803734381225],[1.010605455833094,45.237851488157844],[1.00897909845045,45.238126961837274],[1.009477803537663,45.23969227932337],[1.009553464822416,45.24039438213292],[1.009851488797341,45.24047444951136],[1.009333075235559,45.2418541159715],[1.008917124468189,45.242684369475654],[1.008565696943645,45.24292130020095],[1.008178721267554,45.24304680841179],[1.007391911116112,45.24315798086274],[1.00607237758976,45.24322721808941],[1.006071324204859,45.243934260642],[1.00688149136216,45.246487829232805],[1.006845692077246,45.246740291800684],[1.006564545817334,45.24686498030635],[1.006051442703488,45.24727195745392],[1.005441549603153,45.24742590527295],[1.005153882906372,45.24759010550326],[1.005670018597756,45.248738722968746],[1.006226504632392,45.24954398418928],[1.00631786263151,45.25312325970649],[1.005501450638546,45.25498488790679],[1.005793786215389,45.25504774992449],[1.005097326077083,45.255979273839394],[1.004288587046392,45.2565196791959],[1.003515977419869,45.25726158455522],[1.001588852632133,45.25808373082594],[1.000796745498766,45.25876312044011],[0.998231488420836,45.262046273862474],[0.99809673256872,45.26292206355642],[0.997692210948087,45.26363809774027],[0.996821469853789,45.26465652653117],[0.996460473587769,45.26604167260464],[0.996821408282774,45.26639762065558],[0.99798731773218,45.26834875244093],[0.998548592622513,45.268987505757046],[0.999009257675708,45.27029729477569],[0.999607429503738,45.27115287608757],[0.99966872136544,45.271542183883504],[1.000103253115107,45.272408345382075],[1.004548585846238,45.26995854712231],[1.00590229870308,45.269058561359955],[1.006859503262375,45.26893691930399],[1.007414186447051,45.26865677499111],[1.00911835603183,45.268334953945114],[1.013076963883882,45.26853417975195],[1.014760759803767,45.26838935255936],[1.015592554140759,45.26863650468545],[1.016111643324615,45.268602482688344],[1.017522241811984,45.268930145491915],[1.01746503833874,45.26931914137621],[1.020938360340373,45.27194411554361],[1.02239326963559,45.27372265184953],[1.02308748346048,45.2735358701735],[1.023223904903984,45.27335813902964],[1.023870240973567,45.2731542932779],[1.024795200471637,45.272683350408506],[1.026312149644437,45.27235345550471],[1.027927442752932,45.272308099223494],[1.029071604443402,45.27205806003171],[1.029578210878282,45.2718003780803],[1.029561154508799,45.27170550256794],[1.030261267210687,45.271350347881956],[1.031905540913156,45.27077222334941],[1.033026315741435,45.26991825574931],[1.035463905308132,45.26756702346262],[1.033771553555659,45.26748683261815],[1.030351191001007,45.26714470239683],[1.029462854077783,45.26694440205646],[1.028733413218039,45.26665142085432],[1.028369059157818,45.26642251965518],[1.028174845441869,45.2660714191567],[1.028332894613301,45.26567789304797],[1.027847193394099,45.26408407145327],[1.028298174418486,45.26337776149804],[1.02848576973752,45.26254520910275],[1.028257054981061,45.26208811700007],[1.027773516329092,45.26151574129646],[1.026639787441233,45.26054007751089],[1.026527082478791,45.26037325748563],[1.02655158506687,45.26007735571578],[1.030649444950437,45.257221413997186],[1.032458500592817,45.25778018745093],[1.033404631309996,45.25724200001578],[1.033306599032501,45.25705653041698],[1.033760655809738,45.25694652551481],[1.034155257399761,45.25707596261523],[1.034898539648682,45.25704579825899],[1.036905757473613,45.2555994022816],[1.04124894090338,45.25393903348131],[1.044242927398952,45.25496332367028],[1.04460104204484,45.25475161829282],[1.045631406166473,45.2544976258835],[1.046034673064437,45.254234464637854],[1.046166828581948,45.25395665541206],[1.046017741686698,45.252570565554684],[1.046116973067355,45.25217689067674],[1.046339636320784,45.2518997629366],[1.04578908280153,45.25156318208944],[1.045223026892571,45.25086874729673],[1.044308352030664,45.250552810999714],[1.043243500539233,45.24990187748762],[1.042231580734379,45.249777872942026],[1.041125682744233,45.24880825039837],[1.040137707631821,45.24814872595404],[1.03894851227166,45.247192932214446],[1.037381788842005,45.2452271088563],[1.037621192173178,45.24353258103545],[1.037506746633126,45.243415280902255],[1.037202043719956,45.24236420975465],[1.037022515616879,45.24087218949174],[1.037569705951987,45.23905336835948],[1.038152909223535,45.23780442359311],[1.038842307154127,45.236833856757805],[1.038884436593287,45.23665085247687],[1.038253786810307,45.23319638967013],[1.038284915076316,45.23191253257195],[1.037647377190546,45.2303233039744],[1.037623664229571,45.228497161673836],[1.038364132889694,45.227086154234954],[1.038379179072168,45.22567952094527]]]]}}]}