{"type":"FeatureCollection","name":"COM_16013","crs":{"type":"name","properties":{"name":"urn:ogc:def:crs:OGC:1.3:CRS84"}},"features":[{"type":"Feature","properties":{"fid":4166,"ID":"COMMUNE_0000000009752667","NOM":"Angeac-Charente","NOM_M":"ANGEAC-CHARENTE","INSEE_COM":"16013","STATUT":"Commune simple","POPULATION":296,"INSEE_CAN":"07","INSEE_ARR":"2","INSEE_DEP":"16","INSEE_REG":"75","SIREN_EPCI":"200070514"},"geometry":{"type":"MultiPolygon","coordinates":[[[[-0.069049529485785,45.64100721715779],[-0.06852703776985,45.640504201562074],[-0.067934614422547,45.63952727777468],[-0.067559246162162,45.63711158834068],[-0.067687368202664,45.636178097213666],[-0.067650271159486,45.63567085424926],[-0.067416486844961,45.63550871173428],[-0.066687400510231,45.63551867550256],[-0.066347884764599,45.63541888950584],[-0.066210415366278,45.63527935188561],[-0.066181086165608,45.63514407612168],[-0.066389846168504,45.63476170143179],[-0.066428603348058,45.63446416345055],[-0.066059301072412,45.63401193410511],[-0.065313820846371,45.63386463343261],[-0.064348742909311,45.63404322117232],[-0.063094656206128,45.63398996176755],[-0.062551513023311,45.63408675441893],[-0.062222174435017,45.63449583360798],[-0.062006087930375,45.63560563364815],[-0.060939719293473,45.63520750362697],[-0.060218253460555,45.634820709103955],[-0.059453088388375,45.63431704713122],[-0.058559599927338,45.63351317956628],[-0.05843655193058,45.6333552179288],[-0.058440712564822,45.6329189452326],[-0.058638026615278,45.63218905111757],[-0.058687156992686,45.631357750478536],[-0.058945227947197,45.63084428347787],[-0.058896929963939,45.63048152971669],[-0.058670351346039,45.630332691807205],[-0.057880577368459,45.63026584988221],[-0.057457140413384,45.63013407573391],[-0.056239132476316,45.62922006016513],[-0.055618545268498,45.62854122792655],[-0.055294180964182,45.62759751831241],[-0.054550099552883,45.626448929549674],[-0.05429760268405,45.626295380555234],[-0.053433293517798,45.62601695965555],[-0.053059175095082,45.625730635341945],[-0.052841612498185,45.62527875457485],[-0.052839349316139,45.62498143550249],[-0.053578379157447,45.62366371439866],[-0.053777864483087,45.622693163413864],[-0.053978770644585,45.622307421860846],[-0.054678732547605,45.621865773031196],[-0.055980049529809,45.62143031084102],[-0.056588246615928,45.62072259873889],[-0.057575556308362,45.62078768069469],[-0.058006396048322,45.62098503538632],[-0.058325789765119,45.62097815329296],[-0.058758713970519,45.62060862187153],[-0.05811266145745,45.619002308755],[-0.059057388865703,45.61862246290933],[-0.061233072066934,45.618139721228225],[-0.062588463346677,45.61773244528791],[-0.064866509387252,45.61687286364001],[-0.065028752372902,45.617043266686515],[-0.06555511598077,45.61678560767182],[-0.066259104663715,45.616605108750655],[-0.066426765805492,45.616757338983284],[-0.067719615015386,45.61577856757085],[-0.069131781267179,45.6141035324292],[-0.07046230630786,45.613065123128926],[-0.071270365513647,45.612632128282314],[-0.072172628030923,45.6123930067664],[-0.07329529682464,45.61235422034703],[-0.07434017851182,45.61172368391627],[-0.075618879353087,45.611650869719504],[-0.076192299803928,45.61154867352585],[-0.077887613022357,45.61074711031854],[-0.079856782679622,45.61029938667994],[-0.080373301600114,45.610836751125554],[-0.081180166807845,45.61112284405273],[-0.083772682173593,45.61137800122716],[-0.08428248251691,45.611286519605855],[-0.083103336374864,45.60977966427871],[-0.083079697201669,45.60923961335636],[-0.083572788310285,45.608779114835734],[-0.084395150259565,45.60853667627481],[-0.084454298853469,45.60839987898141],[-0.083981851576255,45.6078703358698],[-0.083968164315604,45.607555303399124],[-0.085015885947393,45.60658754844884],[-0.084755715791174,45.60650366853815],[-0.084682828840324,45.60632453382804],[-0.086179339698756,45.60534715770393],[-0.087163647845139,45.603611525179886],[-0.093844536199703,45.604894092249054],[-0.094884844742072,45.60490060817051],[-0.095935783194311,45.604752721650314],[-0.096206846464392,45.60487052044899],[-0.097812569745995,45.605207487913965],[-0.09904686349259,45.60565199743474],[-0.100728197078457,45.6061003882028],[-0.10036130531991,45.606817024447984],[-0.101138460725988,45.60716777780635],[-0.101213884515073,45.60707017328885],[-0.102108513905443,45.60743209896696],[-0.102123491366223,45.6077912539673],[-0.102904201973511,45.60804457099229],[-0.103301455119266,45.60830576269657],[-0.103443451652049,45.60861725468471],[-0.104295800961384,45.60904882026891],[-0.104617641646868,45.60908679591554],[-0.105056498379594,45.60885298938156],[-0.106371481637817,45.60958897761645],[-0.106655567851586,45.61021285353291],[-0.109093428070651,45.61025001234516],[-0.109085830307746,45.61151006765291],[-0.109470547797112,45.61150123261261],[-0.110031745826167,45.61170830398858],[-0.108938558657928,45.61286680587563],[-0.11112511510725,45.615560334762804],[-0.111581564045795,45.61573064570122],[-0.112246767633782,45.616256550629046],[-0.11259630925377,45.6169236622626],[-0.113822335657735,45.61707716849891],[-0.113451386723276,45.617400147800986],[-0.111974861406518,45.61827370353914],[-0.110517009682518,45.61884032164256],[-0.106503715188127,45.621242037269],[-0.104709071632532,45.62272175768602],[-0.104452507247009,45.6227270371553],[-0.103657830287155,45.62215959978951],[-0.103467904892913,45.62220809695408],[-0.100873174061866,45.62447041758177],[-0.100121039555565,45.6248462129542],[-0.099547576005957,45.62494943101443],[-0.098715013999825,45.62496696347392],[-0.097853023247867,45.62723643073275],[-0.097115051038355,45.628601302387665],[-0.096032620175883,45.62941151533531],[-0.094403235672616,45.63020342075396],[-0.091594562424748,45.631936999059256],[-0.09057399778519,45.63215518891486],[-0.08963008062852,45.63206666878336],[-0.08879486997132,45.63252216600338],[-0.08841367793896,45.63250469556329],[-0.086276249866894,45.634717148612374],[-0.085200715340088,45.6364859040654],[-0.085291837326309,45.6370376237244],[-0.084843933443652,45.63720670932137],[-0.084778968065176,45.63749325978765],[-0.084215885088679,45.63836210364405],[-0.083225120988272,45.639440922277814],[-0.082952463356871,45.63964304610984],[-0.082233203401221,45.639899759734924],[-0.082063820551824,45.64006480764097],[-0.081454018667062,45.64131881291895],[-0.081558604102018,45.64172057256261],[-0.080100917260812,45.64346098787708],[-0.079293924768903,45.644289619769275],[-0.078510176700088,45.64553665153576],[-0.077237682419376,45.645712040656434],[-0.076790277781944,45.645221425091535],[-0.076121950407627,45.64482426088116],[-0.075180905649231,45.64467515765248],[-0.074324351480269,45.64440478456948],[-0.073558129776275,45.643748041975925],[-0.072928740743748,45.64344982546066],[-0.071940093778905,45.64274327504633],[-0.071840181181593,45.64251710746611],[-0.072065843903662,45.6420459462503],[-0.072013878798985,45.64180405109522],[-0.07175095928524,45.641511142163715],[-0.071264292017971,45.64121442776273],[-0.070455137966381,45.640338053646836],[-0.070273380903395,45.640025804662976],[-0.069766777404012,45.640087389640975],[-0.069550137992732,45.64032760228719],[-0.069471686290243,45.640882154682785],[-0.069316479591352,45.64097920843784],[-0.069049529485785,45.64100721715779]]]]}}]}