{"type":"FeatureCollection","features":[{"type":"Feature","properties":{"fid":155,"ID":"COMMUNE_0000000009749919","NOM":"Saint-Clément-des-Baleines","NOM_M":"SAINT-CLEMENT-DES-BALEINES","INSEE_COM":"17318","STATUT":"Commune simple","POPULATION":712,"INSEE_CAN":"05","INSEE_ARR":"3","INSEE_DEP":"17","INSEE_REG":"75","SIREN_EPCI":"241700459"},"geometry":{"type":"MultiPolygon","coordinates":[[[[-1.523483403425354,46.25124371823869],[-1.521553361870479,46.25035539295413],[-1.521902095561058,46.24906886095617],[-1.520942514794727,46.24873721901963],[-1.51982728729129,46.24869316775142],[-1.519166360830649,46.247837327065724],[-1.519179912337495,46.24767082840704],[-1.518900068571565,46.247414972584245],[-1.518850335220373,46.24719055828771],[-1.518511887202129,46.246933423158275],[-1.518460724792642,46.24297586850115],[-1.518232819499716,46.24257724243852],[-1.517993979989003,46.24247128439933],[-1.51796035995179,46.2416861147501],[-1.517585454471472,46.24145928977148],[-1.51728127054614,46.24068757795955],[-1.51714402184946,46.240583895172946],[-1.51666708375135,46.24045943512071],[-1.516189065989676,46.240510897304496],[-1.515590422930008,46.240455306700085],[-1.515167853877037,46.24021774042752],[-1.514788677462891,46.239734019729006],[-1.514773618517026,46.23951995269086],[-1.515109893337719,46.239263068830546],[-1.515764997353354,46.23850646291749],[-1.515792720236673,46.23706223340428],[-1.515917154303339,46.23672717428821],[-1.515879676666354,46.23661952662641],[-1.515515480391831,46.23642744723015],[-1.514809647731731,46.23557607862683],[-1.514819017435086,46.23507512161596],[-1.515007571535254,46.23506041643941],[-1.515086253814242,46.23497431116605],[-1.515126378813176,46.234720169915406],[-1.514751462346478,46.23100998863547],[-1.514868042610312,46.23094222086964],[-1.51595583406231,46.2308944949671],[-1.515892683951573,46.23061739781789],[-1.516203916755645,46.230593305818246],[-1.516615510362292,46.23025765766187],[-1.517462396488755,46.23012568643811],[-1.517585227014856,46.22947229719244],[-1.51805544844906,46.229044116992576],[-1.5180757661444,46.22884938847683],[-1.5179122457478,46.22844279242019],[-1.518213200189333,46.22816835880509],[-1.518467712455202,46.22811855424105],[-1.519536602870301,46.22822036632052],[-1.520991581315143,46.2291573583879],[-1.521155653417808,46.22974341893744],[-1.521553579687702,46.23035986242001],[-1.521661875254855,46.23077406328649],[-1.521893228303422,46.230868584370526],[-1.522413352847193,46.230824438796105],[-1.522708162417191,46.23071168835877],[-1.523403820552799,46.230243847211966],[-1.52416123770269,46.22917103281237],[-1.524194752455315,46.22899471819824],[-1.523993714150449,46.22865366179716],[-1.524116983950079,46.22836824492763],[-1.524435529193979,46.228228387590846],[-1.525317434150058,46.22826904046552],[-1.525816084549637,46.22860996927893],[-1.525865670568369,46.22891105404622],[-1.52626681349161,46.229062844095836],[-1.526388352093097,46.22957392639511],[-1.526663789079592,46.229981467260025],[-1.526921035252765,46.23012184913668],[-1.527240830775451,46.23015420926756],[-1.527850463710888,46.23007670815063],[-1.529301743205927,46.22934872215997],[-1.529512741512523,46.229338509341304],[-1.53008970672901,46.229588809048934],[-1.531497746008032,46.23001883734637],[-1.53400561852447,46.22770629164646],[-1.534404616189494,46.22723578113635],[-1.534733193291703,46.22709188551454],[-1.533299589842966,46.22525404557707],[-1.534447873782519,46.22446320859912],[-1.534512415467751,46.22453639865933],[-1.535609078711645,46.2240326306441],[-1.535958166908991,46.22423066030407],[-1.537118919226889,46.22334007950698],[-1.53777332494773,46.22367834643573],[-1.538506119307252,46.224272345037505],[-1.53896312975728,46.22337376845706],[-1.539217695575169,46.22310563653853],[-1.540210295850281,46.222476093899715],[-1.54100508323848,46.222281981712534],[-1.541348390329769,46.22209688763722],[-1.541822481847493,46.22145197071059],[-1.542306441039182,46.22103575824504],[-1.542374774097603,46.220778670128915],[-1.542828703381695,46.22023557507659],[-1.543074720475793,46.220131032248396],[-1.543101191593243,46.219980246169605],[-1.543474083379011,46.21985439426979],[-1.543999657747682,46.22050354598766],[-1.54407810790468,46.22055633134562],[-1.544181576801886,46.220503487056945],[-1.544302911334566,46.220603263989744],[-1.54440822482868,46.22076050595671],[-1.544240828887138,46.220732023208704],[-1.54419849362652,46.220675989780595],[-1.544164494270168,46.22068907507434],[-1.544411119462769,46.220936275367436],[-1.544695533981464,46.220918587062435],[-1.544661529611679,46.2209785754242],[-1.544924759531886,46.221097030131176],[-1.544929670857637,46.22129707227146],[-1.545095299493501,46.22133554650709],[-1.545127371212017,46.22142446129406],[-1.545108242062514,46.22142883430946],[-1.545079199274745,46.22143901569028],[-1.54512825765237,46.22152905501554],[-1.5452070880552,46.22153943162551],[-1.545194504889426,46.221591347540105],[-1.545315312369864,46.22177863628395],[-1.545479138525053,46.22193624293873],[-1.545499589314233,46.22191648341136],[-1.545711592834785,46.222012632240684],[-1.545584984641489,46.222052873814754],[-1.545852065249897,46.2223741172379],[-1.546158367174015,46.222526023507335],[-1.54628834361228,46.22274541575619],[-1.546477086552927,46.222858729483946],[-1.546404969617896,46.2229761657281],[-1.546557230263069,46.22299442743293],[-1.546669183497098,46.22310630324254],[-1.54661706624269,46.22324548885411],[-1.546936875957646,46.22338783309466],[-1.547014729796721,46.22352723032034],[-1.546900422192818,46.2235904324683],[-1.547204936107024,46.223814565980796],[-1.547175435929599,46.22396006268493],[-1.547363386584918,46.22409505431958],[-1.547872496940262,46.224982972160724],[-1.548988255511891,46.22613343591914],[-1.548995401730614,46.22623507336691],[-1.549335310620624,46.226446961534236],[-1.549334088070336,46.226541718168086],[-1.549535480149497,46.22661934405868],[-1.549480427860433,46.22673880507476],[-1.549765366922764,46.226883440339186],[-1.549735249676476,46.22699017751272],[-1.549927402312593,46.227081702360756],[-1.550200461153969,46.22745862076445],[-1.550712262281303,46.22786205837126],[-1.55205445856264,46.229233434285135],[-1.554544432479622,46.23119921368448],[-1.555616452840558,46.23197705276033],[-1.557150081581676,46.232772454954166],[-1.560450414795281,46.23658175318141],[-1.560580372316999,46.236612618428694],[-1.560745291398001,46.236813457849095],[-1.561247593968174,46.23774038677389],[-1.561908910630967,46.24052804208598],[-1.562127113187979,46.24094682618332],[-1.562316380979481,46.240971701641925],[-1.562042755738233,46.241104451136884],[-1.56243573801816,46.24318308944185],[-1.562507504959802,46.24423102205186],[-1.562435230804426,46.24462718822719],[-1.56219150565843,46.244838112020204],[-1.561626302028431,46.24499789421847],[-1.559951488060225,46.24510296781639],[-1.559671296135683,46.24501679194041],[-1.558601987863642,46.24497759451282],[-1.557332638230707,46.244721812989866],[-1.557029146962151,46.244574328134426],[-1.555743133902364,46.24421186178311],[-1.55318975657958,46.24367916411998],[-1.553096094627647,46.24372530845459],[-1.552603452372193,46.24367919384323],[-1.551030993354586,46.24342014893897],[-1.550805866820514,46.24346433838302],[-1.550734055050829,46.243382427177785],[-1.55030425869817,46.243404141266375],[-1.550216102459274,46.24325072580278],[-1.549482618950439,46.24316913880744],[-1.548230886026764,46.2431398520369],[-1.547807566745931,46.24320820032985],[-1.547723533718799,46.24296351873534],[-1.545892604377509,46.24301961161927],[-1.545458144573374,46.243094710401884],[-1.54536263234696,46.24288385951956],[-1.543847753932001,46.243113990667595],[-1.543841888010477,46.24319991257152],[-1.543735738769467,46.24301744689348],[-1.543325147852776,46.24308256366714],[-1.543093760230198,46.24295741704307],[-1.542786152710514,46.243010298481906],[-1.542573021604544,46.242948461341754],[-1.541873149930705,46.243130662524955],[-1.541518408051932,46.243116873745265],[-1.540778830895178,46.24333763498727],[-1.540529080228266,46.2435081612931],[-1.539852516800714,46.24356404465232],[-1.537177984074818,46.24454663084971],[-1.530445214709373,46.24735777362113],[-1.528182474792823,46.248513136166586],[-1.52811641836958,46.24850043368799],[-1.528073053503831,46.248573415813006],[-1.527962249804773,46.24860127976137],[-1.527959118122006,46.248641992782375],[-1.527910749588145,46.24870164467529],[-1.527101198126561,46.24908384369959],[-1.525993716633374,46.24974668123777],[-1.525588885193539,46.25008659982033],[-1.525414207509944,46.2501124937343],[-1.523483403425354,46.25124371823869]]]]}},{"type":"Feature","properties":{"fid":213,"ID":"COMMUNE_0000000009749921","NOM":"Ars-en-Ré","NOM_M":"ARS-EN-RE","INSEE_COM":"17019","STATUT":"Commune simple","POPULATION":1306,"INSEE_CAN":"05","INSEE_ARR":"3","INSEE_DEP":"17","INSEE_REG":"75","SIREN_EPCI":"241700459"},"geometry":{"type":"MultiPolygon","coordinates":[[[[-1.47712693792587,46.20742096564267],[-1.476608761360866,46.20702559397021],[-1.47638689967154,46.20694955427048],[-1.476247898000432,46.20656810233279],[-1.475693350309642,46.20614078861305],[-1.475516767634556,46.20582395176852],[-1.474845860790887,46.20537145459394],[-1.474479032051253,46.205715107753484],[-1.474119981794142,46.20585191113226],[-1.473639500922128,46.205822128335896],[-1.47335453207404,46.20568904071499],[-1.474499539493846,46.20327908688228],[-1.474417227471357,46.20297116277613],[-1.475918494860038,46.202664893021755],[-1.47756775261497,46.2025006868008],[-1.477678687180036,46.20217342222151],[-1.479550640188621,46.20204821086709],[-1.481652216531665,46.2017290127773],[-1.482626543413126,46.20146057592653],[-1.482769889783274,46.20121229842049],[-1.483830237219277,46.20113798030028],[-1.484306115029598,46.20103260974892],[-1.484463317759166,46.20089021139179],[-1.485661771087232,46.2008528148327],[-1.486176485275286,46.20074590264389],[-1.486274908866783,46.20048857083878],[-1.489055529536401,46.20002425774918],[-1.490760037869917,46.199267802167064],[-1.491445926053172,46.19876175295769],[-1.492509008549527,46.19778710435609],[-1.493835949568912,46.19691023884136],[-1.493820691263297,46.196835079213216],[-1.493962807289989,46.19682584886232],[-1.494765078583126,46.19631427053885],[-1.495378198742662,46.19603024673315],[-1.49869034074175,46.19508285146155],[-1.500190753285445,46.19437491408852],[-1.501238216589515,46.19400329477337],[-1.502388773370984,46.19378000809775],[-1.504599298811126,46.193653576335464],[-1.505195694521877,46.19335663035863],[-1.505418908600747,46.193465029953806],[-1.505907166330903,46.19392189162708],[-1.50780072052531,46.19515188205943],[-1.51089876818667,46.19696989406623],[-1.511515592188821,46.197252061154984],[-1.511747810080039,46.197201347623476],[-1.513732473856142,46.198257159946735],[-1.515838543685536,46.19906729132428],[-1.516071432407263,46.199024660072396],[-1.516131492420309,46.19917019338866],[-1.516479970658459,46.1993006514887],[-1.517938712260466,46.199647621176425],[-1.519368018956177,46.20012562625904],[-1.522814227433208,46.20097611307071],[-1.523616065680038,46.20107496933162],[-1.523910832536051,46.20086930851391],[-1.524320981851113,46.200802463539155],[-1.526130735935661,46.20129319458993],[-1.526843512284051,46.20130447861848],[-1.527415774031845,46.201470182907826],[-1.528131188353019,46.20179613995295],[-1.528516323802921,46.20189804273324],[-1.52877541908382,46.2018895175183],[-1.529089563278728,46.20207542562871],[-1.529791834370154,46.202242248778596],[-1.532064318431404,46.202389727879066],[-1.532580280394019,46.20234569068784],[-1.533052413825083,46.202399910798135],[-1.533346185762813,46.20233948118513],[-1.534059262242781,46.2024796902921],[-1.534686837241093,46.20237165854692],[-1.534801103723627,46.202433842868864],[-1.535151517097676,46.20282213262693],[-1.535286341492323,46.203728642186356],[-1.53548960159584,46.20397127499583],[-1.535616625702454,46.20465801499745],[-1.53574514453434,46.20479810101122],[-1.535946482683097,46.20545661851653],[-1.536087608971348,46.205576357492546],[-1.536076187604286,46.20573646238608],[-1.536236066987524,46.20584733468489],[-1.536211950058495,46.205995318945384],[-1.536385821296781,46.20611825997331],[-1.536377643794644,46.20625478414136],[-1.536585153057383,46.20639171520961],[-1.536588824159406,46.20654580568202],[-1.536802706039255,46.206696913479334],[-1.536771130850424,46.20680190111563],[-1.537004797774653,46.2070036308583],[-1.536930464107975,46.20712565965816],[-1.537187766914979,46.207314719559214],[-1.537118337700626,46.20754298523703],[-1.537391794734891,46.207770184405625],[-1.537411380245108,46.208131994761686],[-1.537835436024387,46.2087184767767],[-1.537746209441826,46.20873917811937],[-1.537742611864745,46.20878983223057],[-1.537987061558454,46.20893340352344],[-1.538180412420474,46.209197173833374],[-1.538035579111823,46.209220998543465],[-1.538103822152122,46.20938603942846],[-1.538330529718466,46.20948792612316],[-1.538220516453697,46.20958702773218],[-1.538290435393789,46.209834983025246],[-1.538441793642097,46.20970175877169],[-1.53894312469535,46.21073433286947],[-1.539545928595521,46.21151751452301],[-1.539515389896814,46.211681991764586],[-1.539789352160962,46.21177387019505],[-1.539791402496193,46.21198665386839],[-1.540516518330492,46.21270902175241],[-1.541056248831026,46.213561463636104],[-1.541191826209597,46.21398989424134],[-1.541286679046752,46.215211885320215],[-1.541443393093951,46.214814165068574],[-1.541499864329993,46.214884065820925],[-1.541513739017662,46.21547430406233],[-1.541343876667404,46.21555685908217],[-1.54135026570957,46.21577488133907],[-1.541423573473328,46.21584410923354],[-1.541488930222736,46.21580181014586],[-1.541571216839935,46.21579130538459],[-1.541648225982793,46.21592081744642],[-1.541957588283292,46.21706568419613],[-1.541727722985009,46.217004518309054],[-1.541744563911973,46.21712921952087],[-1.541964418242178,46.217508280370105],[-1.542038863852744,46.21732490979707],[-1.542445396595437,46.21815290653967],[-1.542338329540996,46.21830330640669],[-1.542392737387478,46.21837960318714],[-1.542557216273263,46.21837302795536],[-1.542563176510755,46.21866412735024],[-1.542750778828849,46.21876396241347],[-1.542772125185648,46.218927268345475],[-1.542907923812783,46.219029174209865],[-1.542841099493818,46.219038159612374],[-1.543474083379011,46.21985439426979],[-1.543101191593243,46.219980246169605],[-1.543074720475793,46.220131032248396],[-1.542828703381695,46.22023557507659],[-1.542374774097603,46.220778670128915],[-1.542306441039182,46.22103575824504],[-1.541822481847493,46.22145197071059],[-1.541348390329769,46.22209688763722],[-1.54100508323848,46.222281981712534],[-1.540210295850281,46.222476093899715],[-1.539217695575169,46.22310563653853],[-1.53896312975728,46.22337376845706],[-1.538506119307252,46.224272345037505],[-1.53777332494773,46.22367834643573],[-1.537118919226889,46.22334007950698],[-1.535958166908991,46.22423066030407],[-1.535609078711645,46.2240326306441],[-1.534512415467751,46.22453639865933],[-1.534447873782519,46.22446320859912],[-1.533299589842966,46.22525404557707],[-1.534733193291703,46.22709188551454],[-1.534404616189494,46.22723578113635],[-1.53400561852447,46.22770629164646],[-1.531497746008032,46.23001883734637],[-1.53008970672901,46.229588809048934],[-1.529512741512523,46.229338509341304],[-1.529301743205927,46.22934872215997],[-1.527850463710888,46.23007670815063],[-1.527240830775451,46.23015420926756],[-1.526921035252765,46.23012184913668],[-1.526663789079592,46.229981467260025],[-1.526388352093097,46.22957392639511],[-1.52626681349161,46.229062844095836],[-1.525865670568369,46.22891105404622],[-1.525816084549637,46.22860996927893],[-1.525317434150058,46.22826904046552],[-1.524435529193979,46.228228387590846],[-1.524116983950079,46.22836824492763],[-1.523993714150449,46.22865366179716],[-1.524194752455315,46.22899471819824],[-1.52416123770269,46.22917103281237],[-1.523403820552799,46.230243847211966],[-1.522708162417191,46.23071168835877],[-1.522413352847193,46.230824438796105],[-1.521893228303422,46.230868584370526],[-1.521661875254855,46.23077406328649],[-1.521553579687702,46.23035986242001],[-1.521155653417808,46.22974341893744],[-1.520991581315143,46.2291573583879],[-1.519536602870301,46.22822036632052],[-1.518467712455202,46.22811855424105],[-1.518213200189333,46.22816835880509],[-1.5179122457478,46.22844279242019],[-1.5180757661444,46.22884938847683],[-1.51805544844906,46.229044116992576],[-1.517585227014856,46.22947229719244],[-1.517462396488755,46.23012568643811],[-1.516615510362292,46.23025765766187],[-1.516203916755645,46.230593305818246],[-1.515892683951573,46.23061739781789],[-1.515840486263776,46.230551825085016],[-1.51537749659543,46.23053233768295],[-1.51510750699618,46.230378907729474],[-1.514914741956664,46.23007448887074],[-1.515002401058647,46.22965610720743],[-1.514817189103275,46.22961656304956],[-1.514632069468211,46.22943630994921],[-1.513929856956739,46.227981388007144],[-1.513921308828482,46.22768859224026],[-1.514709534590928,46.227807007680255],[-1.514929601032253,46.22756014924384],[-1.514856411094531,46.227145451476694],[-1.514611122931451,46.22642461183454],[-1.514067222055618,46.226053866344714],[-1.513279911971678,46.22392856235866],[-1.512784752708457,46.22325011371484],[-1.515988911152533,46.22247342016961],[-1.517223117220361,46.22262730701188],[-1.517340789289461,46.22257302179321],[-1.517358345792011,46.22245506943957],[-1.517118140702229,46.22228422629035],[-1.516570792131821,46.22217068835218],[-1.516453271079315,46.22202202649912],[-1.517028322517869,46.2208176062334],[-1.516821348758461,46.22081320583673],[-1.516652366041757,46.22115905829125],[-1.515770823589729,46.22171993354536],[-1.515589463815541,46.22177404203351],[-1.515366563886918,46.22170262499257],[-1.515091019260592,46.2217334163515],[-1.514989635218573,46.221827640101495],[-1.515081810318112,46.22203142769547],[-1.515008733043514,46.22210648763788],[-1.513956987363169,46.222258308372254],[-1.513117190858665,46.22256946549168],[-1.512832399968113,46.22234626722003],[-1.512388624574994,46.221660365239465],[-1.511274319349549,46.22103716145646],[-1.511364049147263,46.22091183550488],[-1.511891000154103,46.22077817013041],[-1.511881368775727,46.22066129853147],[-1.51100067264261,46.220128934168706],[-1.510152951868706,46.21934992366547],[-1.509286684802883,46.21872407368152],[-1.508559838859029,46.218418290743614],[-1.507571867809428,46.21864960176401],[-1.506532051534341,46.21839320083211],[-1.506347239072371,46.216984467843716],[-1.505863262086587,46.21602955428642],[-1.505815722744121,46.215688698322616],[-1.505917294253738,46.21567565097771],[-1.506549289387823,46.21593470151954],[-1.507924599088099,46.21622649635206],[-1.508295072700068,46.216402109804726],[-1.509389158556825,46.21611877602475],[-1.509770234889696,46.215839379795824],[-1.510133934686101,46.215207106210045],[-1.510901368330679,46.21430264853424],[-1.510900064855186,46.2141764267556],[-1.510731671621736,46.2141668767964],[-1.51056835423011,46.214266261470435],[-1.510198813876132,46.214795946104864],[-1.509736341020611,46.21503347716207],[-1.509519968500969,46.21537217946571],[-1.508826233213541,46.215925548271215],[-1.50854446136513,46.21599084607792],[-1.507130302023272,46.215637463284466],[-1.507032469416921,46.215301308326666],[-1.507133077767604,46.21533970928014],[-1.507181920210554,46.215554240153374],[-1.508675115217366,46.21592072128037],[-1.509463169907329,46.2153609043644],[-1.509747655424729,46.21485534336129],[-1.508564177651486,46.21421051211578],[-1.507527074066713,46.21510670977213],[-1.507220217615661,46.21508821609591],[-1.507180847515872,46.21520973732528],[-1.506999538148534,46.2151853609177],[-1.506883020413022,46.214985239705946],[-1.506952547214694,46.2148986004692],[-1.50667163278032,46.21464276521032],[-1.507041797381016,46.21434126224383],[-1.508083227958659,46.2137344236002],[-1.511145107620189,46.21238804482908],[-1.511868302474311,46.21142039394288],[-1.51160504484706,46.21133163294055],[-1.5120739610107,46.21076281936118],[-1.512084940566303,46.21065956047569],[-1.511932426678412,46.210606088256874],[-1.512239153878897,46.21027641882674],[-1.512177006474305,46.20997943798709],[-1.511531752224901,46.209480124911835],[-1.511182033814686,46.209303699226155],[-1.510972118654683,46.2094680721523],[-1.510843977464783,46.20977351060408],[-1.510801824507262,46.21072854959178],[-1.511166933159392,46.210776288166976],[-1.511385241290314,46.21047719061064],[-1.511514917952137,46.210426943653154],[-1.5118642278738,46.2104879346498],[-1.51181092052879,46.21058205094665],[-1.511572615649421,46.21063841574071],[-1.510377320062472,46.21238876212854],[-1.507684911637674,46.213583365507226],[-1.505576788939554,46.214806144172464],[-1.504124161590687,46.215090125586734],[-1.503247930558845,46.21546308700106],[-1.502019974341206,46.2155090412025],[-1.500952625789084,46.216023044398156],[-1.50082552194699,46.216341956690485],[-1.500148485963258,46.216609591989105],[-1.499377397613138,46.21650754156172],[-1.498291318382353,46.21611400068402],[-1.49808557720411,46.2159345407823],[-1.496407092567433,46.215462512820025],[-1.496033802353714,46.21498301871625],[-1.496426351629083,46.21462113864249],[-1.495992248680359,46.21444530042876],[-1.493662043934429,46.212965394463914],[-1.49351874510896,46.21280239852329],[-1.493466180230411,46.21260514807232],[-1.493555354611811,46.212441075580344],[-1.494973665500313,46.21216670357924],[-1.494359566686287,46.211744534844236],[-1.493941036249472,46.210792402998244],[-1.49566240451449,46.20977906614823],[-1.496329416639022,46.20918444572777],[-1.49558780061891,46.20863294130776],[-1.495381921454187,46.20857795160832],[-1.495218178964046,46.20837157166006],[-1.49404434602221,46.20768202447145],[-1.493611942721437,46.20732031205752],[-1.493492499030675,46.20709955064011],[-1.493059415903882,46.20710946370657],[-1.492801987350646,46.206996078199076],[-1.492040354554191,46.20708662550039],[-1.491502844225436,46.20769233529335],[-1.491312663767231,46.20774946057165],[-1.489632504871126,46.20780775168319],[-1.488837598935921,46.20766689126319],[-1.488487585912622,46.20751746895087],[-1.488087381188771,46.20723112977047],[-1.487656193479688,46.20669347023319],[-1.487477373569477,46.205509974055055],[-1.487710738795686,46.205203115820446],[-1.48785183277838,46.20375443898919],[-1.486860167898719,46.20335166027515],[-1.486555603398761,46.20313820442226],[-1.486375009595784,46.20282063874396],[-1.486202730931028,46.20214467487183],[-1.485114044847184,46.20200006049565],[-1.484871644645572,46.2020538256501],[-1.484909596350539,46.20215244240176],[-1.484644205404522,46.20206821632799],[-1.483487885297408,46.2023032662241],[-1.483373036944508,46.202947272062545],[-1.483256107042995,46.20293114222125],[-1.483352296731877,46.20266217667094],[-1.483268811288885,46.202642021130146],[-1.482636380166353,46.20278693599025],[-1.482872229359877,46.20300221136552],[-1.483227182112195,46.20300624253991],[-1.483374336635329,46.20310596162222],[-1.483554673937313,46.20415050253626],[-1.483715439925948,46.20417843110479],[-1.484554099209229,46.20401364478539],[-1.484649283815083,46.204287683990295],[-1.48491363725973,46.204311521603564],[-1.485137475296745,46.20444338684165],[-1.485152185329098,46.20484507029694],[-1.485447978993144,46.204983113554405],[-1.485368278367801,46.20529472306696],[-1.485653399666564,46.206143012430815],[-1.485647709486032,46.206406602969906],[-1.485141534927553,46.207221194406955],[-1.485509559940106,46.20754308748749],[-1.485297596903026,46.20784187982167],[-1.482849360519446,46.209753203444215],[-1.482674216588305,46.209740271290265],[-1.482120881670508,46.20931293793045],[-1.48168730810758,46.20914243924408],[-1.481277927311116,46.209219918793444],[-1.48062335329685,46.20953976590066],[-1.480350190535249,46.20955144023169],[-1.479283474512375,46.20908931987024],[-1.478324399360981,46.20821166587578],[-1.47758190250954,46.20786933475236],[-1.477320109443564,46.20767040376636],[-1.477375299803304,46.20755097752541],[-1.477282898091481,46.20745360259418],[-1.47712693792587,46.20742096564267]]]]}},{"type":"Feature","properties":{"fid":370,"ID":"COMMUNE_0000000009749920","NOM":"Les Portes-en-Ré","NOM_M":"LES PORTES-EN-RE","INSEE_COM":"17286","STATUT":"Commune simple","POPULATION":582,"INSEE_CAN":"05","INSEE_ARR":"3","INSEE_DEP":"17","INSEE_REG":"75","SIREN_EPCI":"241700459"},"geometry":{"type":"MultiPolygon","coordinates":[[[[-1.523483403425354,46.25124371823869],[-1.521851821829839,46.252283634884826],[-1.519705989904764,46.254040278409995],[-1.51857118127661,46.25508294340177],[-1.517638106438968,46.255750485036494],[-1.516849497703737,46.256199418422646],[-1.515991235719348,46.256497779966324],[-1.51585620567364,46.256610475051495],[-1.515987590389883,46.256626904114384],[-1.515986339014729,46.25667475735634],[-1.515455821225011,46.256989862195844],[-1.515146833327829,46.25693268120556],[-1.515148676055986,46.257128331854595],[-1.514794653154375,46.25729752433967],[-1.514640684276299,46.25732257836958],[-1.514487846244377,46.25721951001711],[-1.513907248319537,46.25752667380552],[-1.513083827106807,46.25777492351417],[-1.51190800606864,46.257944248979776],[-1.511438380011391,46.25792590173416],[-1.509288991188223,46.257642258129025],[-1.508821808913661,46.25749572657425],[-1.508418990523983,46.257467502473965],[-1.508066050523818,46.25730290926912],[-1.507261343505923,46.257178771506666],[-1.506884708738649,46.257136876980546],[-1.50673466146478,46.25720956798411],[-1.505918221788759,46.257021847656475],[-1.504948107829523,46.25695746297807],[-1.503958988000282,46.257088643204526],[-1.503261401704858,46.257238935829854],[-1.502623979007622,46.25747252654734],[-1.502502077043119,46.25744488333209],[-1.50144030365434,46.25778365909258],[-1.501358813506227,46.257994332020836],[-1.500556361287353,46.25794491912224],[-1.50046810685991,46.25802597912872],[-1.500082228441512,46.25787168501354],[-1.499974892109537,46.25775236643948],[-1.499192066209167,46.257482995388024],[-1.49843568063178,46.25748766564093],[-1.49842910715191,46.2573760848588],[-1.497834566391627,46.2572616058638],[-1.497462900523667,46.25701113539362],[-1.497057403256813,46.25690270463974],[-1.496725946569502,46.2569040872438],[-1.496558006287788,46.25675920218479],[-1.496027936894415,46.25668545788251],[-1.495866956304793,46.25656194329529],[-1.4949952764329,46.25638174215721],[-1.494896912109702,46.25627649570767],[-1.494347242846131,46.256122344049324],[-1.49412503265685,46.255949836704126],[-1.493579351437801,46.25541670949455],[-1.493464043166184,46.25512092047734],[-1.493135631507355,46.25484257166041],[-1.493045599105888,46.25461703674378],[-1.492787742506763,46.254437818246195],[-1.491905026989846,46.25415430829364],[-1.489941412478097,46.253706934997815],[-1.489061768254873,46.25328618841531],[-1.488912561967768,46.25257684343938],[-1.488680933200761,46.252209880263116],[-1.488749303594731,46.2520448326384],[-1.488678891866759,46.25167781845526],[-1.488340527599701,46.251293421935685],[-1.488506976982914,46.25124626411741],[-1.488519305011361,46.25114295672178],[-1.488376991322123,46.25045408384042],[-1.487934389335547,46.24981314180882],[-1.487284052315508,46.249270590871014],[-1.486556284365812,46.248893440552486],[-1.485409068972527,46.2484426409282],[-1.482907721145639,46.24798209580662],[-1.482260975852736,46.24751423767039],[-1.482127898639227,46.24730211832363],[-1.481701695954789,46.2456855205094],[-1.481746489028902,46.24497844366746],[-1.481657756671608,46.244641011167936],[-1.481879628243067,46.2439215417983],[-1.482034753343211,46.24173635672261],[-1.48184918384293,46.24107353686664],[-1.481971744836817,46.2409352187704],[-1.481662455743847,46.24020602380325],[-1.480418878717626,46.239004064187355],[-1.478229948462937,46.23778071409647],[-1.478150726581934,46.23751145200857],[-1.477885921291801,46.23727746054885],[-1.477090813158498,46.23691643978485],[-1.477033861383125,46.23661743826991],[-1.476211036216118,46.2356153297924],[-1.475121263522485,46.23490873613146],[-1.474796017349476,46.23445975317827],[-1.474169780505578,46.23307920053782],[-1.474223141532162,46.232793894534595],[-1.474405408066392,46.232591001181746],[-1.475224455093593,46.232133045425066],[-1.476257364905256,46.231779402191556],[-1.477289465240114,46.23125711991568],[-1.478387125754144,46.23053562326452],[-1.478860433221035,46.230332076958966],[-1.479685152126762,46.230230125922624],[-1.480210622189342,46.23006059505715],[-1.480578120565245,46.22981882113549],[-1.480873676604186,46.22947615992603],[-1.481058032963596,46.22877530493578],[-1.484014513231745,46.22834572975586],[-1.484712438774343,46.228314584367745],[-1.485150080071044,46.22834241120369],[-1.486157569187837,46.2285840520217],[-1.486806927029405,46.228483557896126],[-1.487979967239545,46.22854096553334],[-1.491117059597374,46.229141301616586],[-1.491825431021956,46.22936404719455],[-1.492376782589353,46.22966875809007],[-1.492671497536311,46.22998180741443],[-1.492967265149579,46.23052931910171],[-1.493324237961769,46.23129989584036],[-1.493357037104111,46.23171529591602],[-1.493736778791461,46.23206647097727],[-1.494725403801498,46.23239356839506],[-1.494882195759864,46.23254610974821],[-1.495053087954797,46.23304443901214],[-1.494846627115435,46.233521613530556],[-1.494915519906355,46.23496199599646],[-1.49613420550888,46.23498775620725],[-1.49765674218269,46.23485175817363],[-1.498562560780218,46.23496112529335],[-1.499383044451392,46.2354553858431],[-1.500117425794181,46.235234199630604],[-1.499918518484334,46.23485423791939],[-1.499927947232775,46.234652730908486],[-1.500936467035232,46.23458844750809],[-1.501066281088918,46.234238763766804],[-1.501410372636458,46.234218823797164],[-1.501725419033047,46.234082780111386],[-1.500492507858914,46.23279311615864],[-1.500218753902231,46.23221408294752],[-1.500243801990145,46.23171251148623],[-1.502573199375073,46.23021592578902],[-1.503809834274469,46.22922890309945],[-1.504382225919136,46.22903033941552],[-1.504466524653772,46.22855437743439],[-1.504224616384823,46.227967777007365],[-1.5042499045333,46.22778548316553],[-1.50469411699224,46.2274981945304],[-1.504954706343304,46.22749057127904],[-1.506276801887105,46.22656416820182],[-1.508464627376702,46.22669837575355],[-1.509106616819039,46.22726639029021],[-1.509478066562656,46.22767376572336],[-1.509913713179916,46.22838706031189],[-1.510777176219001,46.23011250273636],[-1.511263316113273,46.229939875778975],[-1.511674914633851,46.23026627983417],[-1.51222927753951,46.231031677862106],[-1.512539020117488,46.23201423531377],[-1.513663587699869,46.23195515065857],[-1.514497192079676,46.233852226358046],[-1.514583968201581,46.2350619086781],[-1.514819017435086,46.23507512161596],[-1.514809647731731,46.23557607862683],[-1.515515480391831,46.23642744723015],[-1.515879676666354,46.23661952662641],[-1.515917154303339,46.23672717428821],[-1.515792720236673,46.23706223340428],[-1.515764997353354,46.23850646291749],[-1.515109893337719,46.239263068830546],[-1.514773618517026,46.23951995269086],[-1.514788677462891,46.239734019729006],[-1.515167853877037,46.24021774042752],[-1.515590422930008,46.240455306700085],[-1.516189065989676,46.240510897304496],[-1.51666708375135,46.24045943512071],[-1.51714402184946,46.240583895172946],[-1.51728127054614,46.24068757795955],[-1.517585454471472,46.24145928977148],[-1.51796035995179,46.2416861147501],[-1.517993979989003,46.24247128439933],[-1.518232819499716,46.24257724243852],[-1.518460724792642,46.24297586850115],[-1.518511887202129,46.246933423158275],[-1.518850335220373,46.24719055828771],[-1.518900068571565,46.247414972584245],[-1.519179912337495,46.24767082840704],[-1.519166360830649,46.247837327065724],[-1.51982728729129,46.24869316775142],[-1.520942514794727,46.24873721901963],[-1.521902095561058,46.24906886095617],[-1.521553361870479,46.25035539295413],[-1.523483403425354,46.25124371823869]]]]}},{"type":"Feature","properties":{"fid":425,"ID":"COMMUNE_0000000009750162","NOM":"La Couarde-sur-Mer","NOM_M":"LA COUARDE-SUR-MER","INSEE_COM":"17121","STATUT":"Commune simple","POPULATION":1112,"INSEE_CAN":"05","INSEE_ARR":"3","INSEE_DEP":"17","INSEE_REG":"75","SIREN_EPCI":"241700459"},"geometry":{"type":"MultiPolygon","coordinates":[[[[-1.400181379486031,46.200593789788435],[-1.401871422936853,46.20037048545854],[-1.403577263866949,46.200295354211086],[-1.403273170124788,46.1992916187871],[-1.403124166387393,46.19921532281883],[-1.403241316637335,46.19913772920402],[-1.403026838506293,46.19806919154557],[-1.405396885174855,46.19779151319108],[-1.40536427178786,46.19686924584102],[-1.405217860966503,46.19627607103068],[-1.405400798851073,46.194788077818046],[-1.405075125779974,46.194307376141026],[-1.406179159137446,46.1935340256977],[-1.406394630047467,46.19316130431677],[-1.407828129118113,46.19351333782641],[-1.408110361704975,46.193195742830895],[-1.408381877064859,46.19303549165774],[-1.40861034310646,46.19204987821473],[-1.40886057922812,46.191480091827096],[-1.408946624199351,46.19079041381947],[-1.409523315297363,46.19009792199085],[-1.410540756134224,46.18933149264873],[-1.410979612523366,46.188637129407724],[-1.411482646215142,46.18841737176725],[-1.411562788506661,46.18805801170958],[-1.411828965447391,46.18779965203411],[-1.411709858721102,46.18751386966554],[-1.411679890563564,46.18648056408902],[-1.412021519559462,46.18559516341413],[-1.41224272979359,46.185326824487134],[-1.412175485265424,46.18505616370058],[-1.412457995336815,46.184452644410314],[-1.414956350859725,46.185388215029526],[-1.420203903268886,46.18770940632352],[-1.420334380005809,46.187733188843524],[-1.419564764366475,46.187287840764824],[-1.421621692532375,46.188092539920056],[-1.421295270624337,46.18811877614174],[-1.421533529678064,46.18820690566789],[-1.424369775989717,46.188916278786216],[-1.4246319483114,46.18894665089985],[-1.424754574791951,46.188857094982154],[-1.424788913915221,46.18899284593908],[-1.425282097064382,46.18911793486427],[-1.426139011616662,46.18927664809945],[-1.426271385436335,46.18914702698168],[-1.429595227356,46.189942793105054],[-1.430373476573584,46.190091916744905],[-1.430590786232534,46.1900491674523],[-1.43120845718228,46.190300151326966],[-1.433836531906126,46.19180388038766],[-1.434079162844012,46.191913460078254],[-1.434296767938305,46.19187429996685],[-1.434718042339121,46.19204093911405],[-1.438381725430844,46.19380536862766],[-1.441459408154848,46.19495495365863],[-1.444429397792398,46.19616820032294],[-1.451446823753416,46.19871009400042],[-1.451420555030557,46.19864257776237],[-1.451475404127293,46.19861427278882],[-1.451679936723228,46.19874966214632],[-1.454650677086378,46.199822831630726],[-1.454278845437969,46.19954699474488],[-1.454591623098662,46.19960778510764],[-1.455843695969471,46.20013410306745],[-1.455458773120426,46.20008065526462],[-1.454848984989893,46.19986556226127],[-1.455278457607186,46.20009945237351],[-1.45827456713576,46.20125902402552],[-1.460678884849736,46.202056639875074],[-1.462964280024748,46.20260543915595],[-1.463176943191805,46.2027125304385],[-1.464019204739328,46.20281472510446],[-1.467570085144918,46.20350941794675],[-1.468182834994205,46.20353672896813],[-1.468695998009038,46.20345791900755],[-1.468861794947894,46.20326109041696],[-1.468640157076725,46.20321930102995],[-1.469336450898264,46.20317206714627],[-1.470341045046893,46.2032416731911],[-1.472002522862153,46.20322678841659],[-1.474417227471357,46.20297116277613],[-1.474499539493846,46.20327908688228],[-1.47335453207404,46.20568904071499],[-1.473639500922128,46.205822128335896],[-1.474119981794142,46.20585191113226],[-1.474479032051253,46.205715107753484],[-1.474845860790887,46.20537145459394],[-1.475516767634556,46.20582395176852],[-1.475693350309642,46.20614078861305],[-1.476247898000432,46.20656810233279],[-1.47638689967154,46.20694955427048],[-1.476608761360866,46.20702559397021],[-1.47712693792587,46.20742096564267],[-1.47702612440341,46.20761795192371],[-1.478240252369724,46.20831058761907],[-1.479202330328065,46.20917730074413],[-1.479863348792599,46.20944436684823],[-1.480247900138088,46.20968264668323],[-1.480481561140144,46.209950326172795],[-1.480205699534019,46.21010371015817],[-1.480200620040377,46.21020041740464],[-1.479087269895378,46.21075661259231],[-1.478852456143275,46.21064951993746],[-1.478653017227517,46.210323666532716],[-1.478185426225761,46.210118418244775],[-1.477316973271592,46.2100949214095],[-1.475641731557581,46.20988042543052],[-1.475375242970431,46.20992609816648],[-1.47516237160766,46.20989660197084],[-1.473493319160055,46.210409688432904],[-1.472669193703589,46.210435820633535],[-1.471846364640912,46.21085964633458],[-1.471254315004424,46.21095961096155],[-1.469726479963989,46.21100709909837],[-1.469378126064834,46.2113391829824],[-1.468869592980693,46.2115711385324],[-1.467353333977758,46.211904049159564],[-1.466418297695172,46.211876772627434],[-1.464466230819231,46.21102360817408],[-1.463990402497587,46.21090791750015],[-1.46363300267974,46.21103379742321],[-1.462518602118803,46.21183428537816],[-1.462196770795061,46.211934411527764],[-1.459768503405602,46.21207665010832],[-1.458648137567919,46.212214419995426],[-1.458207879553984,46.212168561042944],[-1.457362430976662,46.21188515747493],[-1.456722484734037,46.211764150021146],[-1.456030833935593,46.211821942861164],[-1.454225423816795,46.21217864159606],[-1.453812119589407,46.212384245852334],[-1.453601321912944,46.21261979161754],[-1.453575519558903,46.21297345239274],[-1.453766015229355,46.213334869522996],[-1.453797062508463,46.213748534253064],[-1.453323638921446,46.21404578240176],[-1.452503325098133,46.21389574297081],[-1.450972651207803,46.21376540934407],[-1.449620540293789,46.2137858978631],[-1.446630573326749,46.214179833994656],[-1.444805301561489,46.214277404618684],[-1.444300556928956,46.2142213874524],[-1.443854512552611,46.21402417818253],[-1.443700504677321,46.21419164317535],[-1.440922673910332,46.21419021167276],[-1.440732526666274,46.21299900695675],[-1.439966166225314,46.21306503210732],[-1.438916342814148,46.21336850501136],[-1.438517488981795,46.21341655474637],[-1.4381288231047,46.21336589729249],[-1.43742311777952,46.213010149414586],[-1.437648183119143,46.21272537623951],[-1.439523883396958,46.21107105972539],[-1.4393569373944,46.21014951975532],[-1.438864266686692,46.210177787683634],[-1.437734564549146,46.2098476262416],[-1.436960871124208,46.20937367733706],[-1.436863374062014,46.20943701055967],[-1.437175065855121,46.21002911546238],[-1.436876856918135,46.21026082624828],[-1.435995053395874,46.209959748945586],[-1.435504008537843,46.210328859017864],[-1.435202861710467,46.21028379491866],[-1.434894907008864,46.21049152912596],[-1.433506361472103,46.20970785093062],[-1.433359470898282,46.20965856656183],[-1.433119897362263,46.20974818391393],[-1.432148633729728,46.20922419074228],[-1.431726172157597,46.20891598500822],[-1.431807623434417,46.208606160867795],[-1.431980843617956,46.208419023295264],[-1.43192315029046,46.20826795030562],[-1.432309890787149,46.207910140254285],[-1.431904826949621,46.207736542250046],[-1.431438116960722,46.207330852667724],[-1.431950636901743,46.20684187112697],[-1.431786032970467,46.206685949591055],[-1.432231532986718,46.20655673449128],[-1.432463774388365,46.20640878082794],[-1.432508086765845,46.20608958192867],[-1.432364145618737,46.20602845685507],[-1.432125970777584,46.20629569308795],[-1.430974062769119,46.20682945617558],[-1.430717477054024,46.20670868714508],[-1.430279462809062,46.2062721115738],[-1.429811486953254,46.206203776890725],[-1.429128276884044,46.205481835820024],[-1.429056032008049,46.2052952530123],[-1.42908632027425,46.20504334360203],[-1.429493729792849,46.205133884142256],[-1.429756524564294,46.20504246650747],[-1.429874787218776,46.20486649381765],[-1.428783139955971,46.20383218466735],[-1.428609949472699,46.20379474300538],[-1.428424764386233,46.20360895495604],[-1.427953917798932,46.20377792542169],[-1.428077563913331,46.20435934164482],[-1.427992328063017,46.20446187296402],[-1.428139445112152,46.204546328862726],[-1.428151875541557,46.2047000694103],[-1.428449037815352,46.20484090761281],[-1.428629961113378,46.20508638738021],[-1.42854599991958,46.20584725722559],[-1.428575706181524,46.20592546655873],[-1.428880545440131,46.206032634321154],[-1.428999117262869,46.206213803635514],[-1.428957609794804,46.20647156173022],[-1.427033717643267,46.206133475190235],[-1.426950934545086,46.20572002312517],[-1.426836598740783,46.205607231315895],[-1.426198944062006,46.20520728128274],[-1.425889298297985,46.205104803454894],[-1.425835984551802,46.20500767147397],[-1.425408359375559,46.204907984679664],[-1.424789121636699,46.20504123409716],[-1.421334886138145,46.204571445379855],[-1.419972051340994,46.2045847920539],[-1.41937389618553,46.20473793497853],[-1.418340951919582,46.20449311330689],[-1.417331915526271,46.204383539006706],[-1.416124064729714,46.204546840983845],[-1.414660657567138,46.204440474107535],[-1.413425350354402,46.204537172118876],[-1.408555324733796,46.20332382089915],[-1.406595592744075,46.20323119995323],[-1.405177446923892,46.20302465187298],[-1.401379313819158,46.20305552223997],[-1.400568535091776,46.20318162883544],[-1.400552517860228,46.20325710558954],[-1.400493025425514,46.20326031191165],[-1.400369444241891,46.20241732843332],[-1.400408145100556,46.2015410025019],[-1.400181379486031,46.200593789788435]]]]}},{"type":"Feature","properties":{"fid":1190,"ID":"COMMUNE_0000000009750161","NOM":"La Flotte","NOM_M":"LA FLOTTE","INSEE_COM":"17161","STATUT":"Commune simple","POPULATION":3131,"INSEE_CAN":"05","INSEE_ARR":"3","INSEE_DEP":"17","INSEE_REG":"75","SIREN_EPCI":"241700459"},"geometry":{"type":"MultiPolygon","coordinates":[[[[-1.352823095022657,46.16597339725262],[-1.353220591219147,46.166892479045586],[-1.354294563549235,46.16874519284623],[-1.354039674395622,46.168935339175405],[-1.352915463886589,46.170421414755566],[-1.352496256838886,46.17184437954651],[-1.35198917778435,46.17142551507484],[-1.349354588222115,46.172005350156915],[-1.349575277963986,46.17279052709239],[-1.348994657371266,46.17486358051654],[-1.34902518560108,46.175150102270074],[-1.34868013604356,46.17654405332268],[-1.348574719865402,46.17678617934006],[-1.348389919407941,46.176796863595754],[-1.348685190793817,46.177213034174684],[-1.349851712344671,46.17792500970058],[-1.350689774923586,46.17904547268049],[-1.352004812213366,46.17995916495191],[-1.349468933093697,46.18061005748112],[-1.348936320390858,46.18093347794168],[-1.348391274628603,46.18100214764953],[-1.347799771360502,46.181188932193265],[-1.347172546621701,46.18167829917673],[-1.346769550643047,46.18180284891009],[-1.346982425704613,46.182554961043564],[-1.346458120382137,46.18354000885802],[-1.346155361071284,46.18442097930105],[-1.345477849541691,46.18571761105216],[-1.343957659361367,46.187408112160824],[-1.344194376343294,46.18746218757458],[-1.345008838199835,46.18705676463553],[-1.347065691243745,46.187941233978336],[-1.348071807940258,46.18821656538905],[-1.350971448944232,46.18808658260464],[-1.35130492400688,46.188492267054684],[-1.35091851952136,46.189463935987646],[-1.350955433280332,46.18968347588554],[-1.350459331220117,46.18966640502935],[-1.348823221448667,46.18986343689467],[-1.34801901014815,46.189841918616615],[-1.348082429701736,46.19078823812717],[-1.34851888648162,46.19085540136923],[-1.348438318176716,46.19134548555972],[-1.34824607003357,46.19168833401306],[-1.347533911445562,46.19243436954732],[-1.347277420844861,46.19357149943948],[-1.347243251322331,46.19425370413579],[-1.349095836893185,46.19539126883816],[-1.348224409054066,46.19656907835633],[-1.346922503033647,46.19808350986091],[-1.344716340010891,46.19987330421668],[-1.344474810324459,46.19993935772468],[-1.343117026564949,46.19996512166309],[-1.3423295864456,46.2002224888944],[-1.341187140727528,46.19990090413387],[-1.340024911154194,46.19913274892621],[-1.339176638827353,46.198441873788155],[-1.338144489993324,46.19806915152131],[-1.338147384756057,46.19795811412935],[-1.337980554010998,46.19798342375486],[-1.337522699009036,46.19772855010066],[-1.337231784621112,46.197318496740515],[-1.335960534572626,46.19613961875834],[-1.334506934125927,46.194542919225036],[-1.331994488772931,46.192758425329004],[-1.330765413903661,46.19201167374025],[-1.329597798906706,46.19133561639056],[-1.329217047832159,46.19125002497574],[-1.327736059544975,46.19025582075847],[-1.327570290375171,46.19024500186015],[-1.326581000102603,46.18975421328056],[-1.326477173620733,46.18965626057426],[-1.326526944191037,46.189513678072586],[-1.324011429644375,46.18850652539492],[-1.323799576445396,46.1885533694843],[-1.323349626629347,46.1889068822098],[-1.322995594608817,46.18901144301699],[-1.322420730744956,46.18901618665085],[-1.322397534009688,46.18898550519863],[-1.322444867362517,46.188976489196776],[-1.322813088655933,46.188985923180084],[-1.323279610437072,46.18887527755432],[-1.323548248825622,46.188725267316364],[-1.32375071722765,46.18851013767723],[-1.323202583744712,46.188475088959585],[-1.323139962653296,46.18838909262707],[-1.323809787962791,46.188419509026815],[-1.324007110327619,46.188172108648644],[-1.323940677360519,46.18815299370871],[-1.324309895893586,46.18741836972878],[-1.323823165093772,46.18727276622616],[-1.323186708351777,46.18825744902278],[-1.323154855662324,46.18811707325584],[-1.321258236336234,46.187184605118446],[-1.318488474819752,46.186803864639415],[-1.317632512687173,46.18686616801741],[-1.316664776406629,46.18705896952067],[-1.315838670145252,46.18728606135097],[-1.314937625502083,46.18768283256318],[-1.314959463119113,46.1877622658401],[-1.314631509677454,46.18811561650492],[-1.313051539023983,46.18849848017718],[-1.311709886039457,46.18893991148872],[-1.310705262965216,46.1893577135939],[-1.309218154187468,46.19027809324604],[-1.308358573269653,46.19057583824544],[-1.307755708439152,46.19063748235479],[-1.305992944825149,46.19054650306257],[-1.303664525681867,46.189949363922345],[-1.302573623601952,46.18979860465276],[-1.300033597056537,46.189019125142586],[-1.298831377596747,46.18897174553755],[-1.29806761149171,46.188720183982944],[-1.296233109883959,46.18842525445749],[-1.295238600520687,46.18811206057512],[-1.294014075876181,46.18786256553387],[-1.293275217613756,46.18753067161298],[-1.291902815501441,46.18673573467227],[-1.290836221712298,46.18565056872511],[-1.290640723189591,46.184679484640306],[-1.290761430262686,46.18431419817964],[-1.290721359780268,46.18393514585099],[-1.290287424158834,46.18316876332594],[-1.288874542579682,46.18203714405183],[-1.288503938497733,46.18197989594747],[-1.287936045856605,46.18135924751979],[-1.287634968782647,46.18131109520681],[-1.287687702405869,46.18108906166797],[-1.287123261307672,46.18047910128479],[-1.287572701499434,46.180349407035855],[-1.287492513774143,46.17985553502426],[-1.288529336590401,46.18024745314022],[-1.288738046331085,46.18006101211777],[-1.288253641966628,46.17990976355942],[-1.288179973532313,46.180013548525416],[-1.28805558017303,46.179966842164866],[-1.28916367671102,46.178449626682],[-1.289321690736583,46.17804685973342],[-1.287235047172727,46.176515016807315],[-1.287149507415885,46.17633427623312],[-1.287290760252028,46.17614858053561],[-1.287216110245492,46.175907909155015],[-1.286598788215794,46.1751854143229],[-1.284800611535189,46.174119702073135],[-1.284854343012881,46.17402659145753],[-1.28465133177711,46.17380428971484],[-1.284523183909692,46.173211223436645],[-1.28726837225874,46.171266102217054],[-1.287691426435501,46.17071715524318],[-1.287827329153957,46.17033055554531],[-1.289601490357641,46.170592705342195],[-1.29144674934909,46.17100003890969],[-1.294829585634118,46.172111232367776],[-1.295021427135759,46.17169364824744],[-1.295057826930937,46.17104837251218],[-1.295374863345505,46.17034017494734],[-1.294926853846526,46.16972494721717],[-1.294903758976353,46.16914865656094],[-1.294759737744815,46.168934060508896],[-1.293604379168292,46.168236462384236],[-1.293102616263238,46.16763047607849],[-1.297264510060777,46.16843256628648],[-1.297244896091463,46.16809963498781],[-1.297668319559275,46.16755694482783],[-1.299224242679438,46.16715534610837],[-1.300625043598982,46.16720870901324],[-1.301302328049864,46.1658988557982],[-1.302832202529138,46.16625752779817],[-1.302878790278026,46.166354962833246],[-1.302710792001861,46.16664540435888],[-1.303903213678013,46.166970858094295],[-1.305924130095937,46.16781319200876],[-1.307058713222886,46.16814531694321],[-1.307355271138245,46.16714566420897],[-1.307859076740295,46.166305886617124],[-1.30974851721609,46.16673018483604],[-1.311000481842892,46.16685490306329],[-1.312838614006434,46.16735234432685],[-1.315860030825042,46.16799146248974],[-1.316600812057921,46.16805258234291],[-1.318029865908894,46.16844735485514],[-1.319273855176462,46.1686182810021],[-1.321349031754846,46.1685808015153],[-1.322398363679112,46.168406484586306],[-1.326442998217497,46.168061242264564],[-1.327364769099444,46.16766898492383],[-1.328634353904667,46.16755565563314],[-1.331321715830571,46.16682277816839],[-1.333910006089163,46.16552725845433],[-1.334564030083748,46.16564027213164],[-1.335566707564096,46.16551721254154],[-1.335986450916825,46.16553996175617],[-1.337759948925756,46.16759606178434],[-1.338959144667079,46.16846290747801],[-1.339691485750067,46.16841688077806],[-1.340965640311631,46.168525093371244],[-1.342285781804218,46.16818151050965],[-1.342719294581758,46.16798455977332],[-1.343339358809417,46.167897711245764],[-1.343443896272464,46.16687462198509],[-1.343775390894839,46.16676634341704],[-1.344123588025693,46.16631201614453],[-1.344286546233317,46.16633734544927],[-1.344876888211462,46.16679273538763],[-1.345556789155347,46.16718246703279],[-1.345852918333596,46.1674957985854],[-1.346288306859795,46.167699183759815],[-1.34680677297,46.16750978676168],[-1.347721715407179,46.166869610420406],[-1.349042657997227,46.16779662633574],[-1.350215201777614,46.16807997985378],[-1.350831546751783,46.167439494023014],[-1.351045463021409,46.16699479861352],[-1.351312992316872,46.166702265000936],[-1.352647148401631,46.16589897598661],[-1.352823095022657,46.16597339725262]]]]}},{"type":"Feature","properties":{"fid":2292,"ID":"COMMUNE_0000000009750158","NOM":"Rivedoux-Plage","NOM_M":"RIVEDOUX-PLAGE","INSEE_COM":"17297","STATUT":"Commune simple","POPULATION":2428,"INSEE_CAN":"05","INSEE_ARR":"3","INSEE_DEP":"17","INSEE_REG":"75","SIREN_EPCI":"241700459"},"geometry":{"type":"MultiPolygon","coordinates":[[[[-1.284523183909692,46.173211223436645],[-1.284173564937221,46.17287360997112],[-1.28365081185842,46.172579501561515],[-1.28368826869629,46.1724608529225],[-1.283122782349808,46.17218458707851],[-1.282815079711414,46.17193466817701],[-1.2825753453191,46.17147476842536],[-1.281896146772539,46.170955689652246],[-1.281916556945445,46.170685278471375],[-1.282135492369368,46.1703640934297],[-1.282730087322634,46.169800580654176],[-1.282585653921743,46.16967977486131],[-1.282591420803916,46.16935490520369],[-1.283142913866983,46.16820683763364],[-1.28305660978517,46.168065803427254],[-1.283122225857101,46.16795871797294],[-1.282651273751982,46.167197317863675],[-1.281758181461277,46.1660496293838],[-1.28167299519103,46.16577328053657],[-1.281693116536372,46.165150271976266],[-1.281523452655417,46.1647228992679],[-1.280417335519435,46.16385468099219],[-1.279238411850246,46.163150621502105],[-1.278379147457604,46.16285023880604],[-1.27760084637806,46.16307165212039],[-1.277264339087123,46.16300046252358],[-1.277300455053752,46.162947698734115],[-1.27756736429921,46.163025117805276],[-1.278379783784158,46.16274199770809],[-1.277938713157369,46.162428556765335],[-1.277773888303882,46.16246182183899],[-1.277695146315076,46.16240076041568],[-1.277767525221935,46.162330397494905],[-1.277288076746399,46.16194084482633],[-1.276505200759607,46.161072137192974],[-1.275152388853071,46.16049994092084],[-1.274880643722115,46.16029374041401],[-1.274555248263111,46.160248277529035],[-1.274192755947722,46.16005992135022],[-1.273393285339872,46.15987629090536],[-1.272820253868582,46.15983383219595],[-1.27060813975519,46.159841319783084],[-1.267959441955177,46.160041932174764],[-1.266049878990122,46.16038514943621],[-1.263334471361977,46.16119687430807],[-1.261473923208506,46.16193766828007],[-1.260037460914737,46.16264177598802],[-1.25691151987413,46.16458697051909],[-1.255540836888307,46.164986448743775],[-1.25484789092013,46.1650214379413],[-1.254833780086067,46.1649065370503],[-1.254996763646952,46.16471556097976],[-1.254905823087936,46.16453049411411],[-1.254642699291683,46.164752276680474],[-1.254343335942379,46.16479145048305],[-1.254319144396886,46.16452993483636],[-1.254360180670592,46.16447338765791],[-1.254388130386328,46.16444889365526],[-1.254332952579154,46.164373406990165],[-1.25441136786772,46.1635777912516],[-1.254139242157989,46.16273038203989],[-1.254044508907279,46.1626635918634],[-1.252860804859315,46.16282968228259],[-1.252896732322335,46.162958194695015],[-1.253150706419879,46.16283595617233],[-1.253145656394701,46.16290468168402],[-1.253088438489644,46.16290321803948],[-1.252832611758345,46.163018311457044],[-1.252708858437952,46.16257746121802],[-1.253082726107539,46.162612152675564],[-1.253022069725342,46.16266672902998],[-1.252801807510789,46.16263800672245],[-1.25283312342534,46.16274053988214],[-1.254115770068282,46.162561724241826],[-1.254273421444069,46.16243587801736],[-1.254425765511926,46.16205772795957],[-1.25432572327063,46.16195596701213],[-1.254743671981206,46.16188980356573],[-1.256487330850934,46.16109669264249],[-1.257745224373477,46.160716759755815],[-1.257930944223773,46.16060157857722],[-1.258223812128975,46.16056263799893],[-1.260117837331771,46.15966823690072],[-1.261851219574933,46.15854446328462],[-1.263834012953367,46.15755828614151],[-1.264073424764065,46.15736622782056],[-1.264321927936255,46.15732442816905],[-1.265043684414378,46.15687707340741],[-1.265194443094154,46.15689665944747],[-1.265798795850067,46.15659168631236],[-1.266173639948027,46.156489222874605],[-1.266481575352729,46.15617734937895],[-1.266792983793415,46.156160233801366],[-1.267148830955051,46.155997158429514],[-1.268255122053566,46.15525576674022],[-1.271433683007821,46.15291505651031],[-1.272260531899806,46.152402373771096],[-1.272471855682964,46.15203369709348],[-1.272443016536214,46.15186343942625],[-1.272533851636009,46.15179689384498],[-1.272617154771544,46.15186680447051],[-1.273423045309054,46.15143516196803],[-1.273493274681737,46.15132069376829],[-1.273760863631094,46.15124117947488],[-1.27475191449966,46.15042199194064],[-1.275469990170898,46.14959684509],[-1.27604352344176,46.148732048085655],[-1.276038633864031,46.148436439043515],[-1.276293283888321,46.14764227111959],[-1.27691884984894,46.14709565013556],[-1.277239217430168,46.14661193070515],[-1.277687992682134,46.145529077690874],[-1.278387520861623,46.14465049853628],[-1.278716167321776,46.144372976368224],[-1.279916312274808,46.14419064766765],[-1.281251421724378,46.144623661453906],[-1.281892176359934,46.144920533403834],[-1.28394237275208,46.14550509438458],[-1.283878390792897,46.145798795304906],[-1.284018527175212,46.14599821738165],[-1.284200276630838,46.14687964342115],[-1.283356160838888,46.147351588821245],[-1.282779661660904,46.147545590809536],[-1.283242203913396,46.14873295827482],[-1.283774578237206,46.14958491977826],[-1.284134152791691,46.15050021606814],[-1.286246470491883,46.149519553994956],[-1.287474489575909,46.14931084531786],[-1.288040517425845,46.149314712939955],[-1.289508631424378,46.14970383356234],[-1.290586521286816,46.1498317317619],[-1.290664187374308,46.15006146474389],[-1.29104538880003,46.15027340990563],[-1.291746820785034,46.150979165839516],[-1.292821738864689,46.15352132552993],[-1.293106843494137,46.153930790311556],[-1.293516507238363,46.15380978253064],[-1.293635221934777,46.15386751756804],[-1.293725114397142,46.1555288756899],[-1.294375274377862,46.157434174810845],[-1.294716082175476,46.15777569653832],[-1.294906492510347,46.15813553321784],[-1.295939490254507,46.15803602336678],[-1.296198607756769,46.15895779777285],[-1.297463336148499,46.158503204920656],[-1.299095887591958,46.15807254422705],[-1.300151125493735,46.157611424223724],[-1.302611927797117,46.15710243771931],[-1.302404290507847,46.157730762990795],[-1.303531790603871,46.1575293025624],[-1.304462441041811,46.15791156196711],[-1.305394366149737,46.15811159695869],[-1.304779108668461,46.158952886486595],[-1.304624097439979,46.15968924352535],[-1.304718842784541,46.16049909771017],[-1.304514153063992,46.160983023247354],[-1.303456081642278,46.162896228145925],[-1.302533086772311,46.16416671146124],[-1.30187151173036,46.16475001071632],[-1.301302328049864,46.1658988557982],[-1.300625043598982,46.16720870901324],[-1.299224242679438,46.16715534610837],[-1.297668319559275,46.16755694482783],[-1.297244896091463,46.16809963498781],[-1.297264510060777,46.16843256628648],[-1.293102616263238,46.16763047607849],[-1.293604379168292,46.168236462384236],[-1.294759737744815,46.168934060508896],[-1.294903758976353,46.16914865656094],[-1.294926853846526,46.16972494721717],[-1.295374863345505,46.17034017494734],[-1.295057826930937,46.17104837251218],[-1.295021427135759,46.17169364824744],[-1.294829585634118,46.172111232367776],[-1.29144674934909,46.17100003890969],[-1.289601490357641,46.170592705342195],[-1.287827329153957,46.17033055554531],[-1.287691426435501,46.17071715524318],[-1.28726837225874,46.171266102217054],[-1.284523183909692,46.173211223436645]]]]}},{"type":"Feature","properties":{"fid":3046,"ID":"COMMUNE_0000000009750159","NOM":"Saint-Martin-de-Ré","NOM_M":"SAINT-MARTIN-DE-RE","INSEE_COM":"17369","STATUT":"Commune simple","POPULATION":2309,"INSEE_CAN":"05","INSEE_ARR":"3","INSEE_DEP":"17","INSEE_REG":"75","SIREN_EPCI":"241700459"},"geometry":{"type":"MultiPolygon","coordinates":[[[[-1.350955433280332,46.18968347588554],[-1.352239469942923,46.18976234382479],[-1.353286799614509,46.18973844015912],[-1.355190682523198,46.18933266768556],[-1.355596105596808,46.18931982660932],[-1.357396808167011,46.18973956448849],[-1.35854139109274,46.190170926792305],[-1.359747816193586,46.190497994504135],[-1.361729791411674,46.190649169006065],[-1.362193844721519,46.190818032627796],[-1.363448288136551,46.19153552765961],[-1.363758462184856,46.19163093295981],[-1.365812388554259,46.19162505554908],[-1.366921187506941,46.191540945492584],[-1.368743366780224,46.19126705246258],[-1.368871958037371,46.1924724079477],[-1.368620423626313,46.1925262738691],[-1.368978312923965,46.19315463568349],[-1.369532153834473,46.19371593584966],[-1.37143340635062,46.1932441572013],[-1.373917936439692,46.192791372184914],[-1.373925543479784,46.19290291078776],[-1.374553246680113,46.19282733118983],[-1.375921948288177,46.19251757719243],[-1.380083977595395,46.19186653806208],[-1.379846135967295,46.19644458741774],[-1.380013133482331,46.19874423174613],[-1.380190767575569,46.199796178745466],[-1.381203966044682,46.199667821938625],[-1.383941060507165,46.19957665690318],[-1.389969670562306,46.19978125431895],[-1.390816069683137,46.19990546926459],[-1.39204764428608,46.20021680756954],[-1.394299692437777,46.2004579997514],[-1.396645892203624,46.20057735780074],[-1.397734910879676,46.20053610648025],[-1.400181379486031,46.200593789788435],[-1.400408145100556,46.2015410025019],[-1.400369444241891,46.20241732843332],[-1.400493025425514,46.20326031191165],[-1.399050647488505,46.203253041050594],[-1.397388932540243,46.20352300272087],[-1.394890996948767,46.20326251872072],[-1.392559050588554,46.20340321191493],[-1.389861668893789,46.20374917593765],[-1.38916948273198,46.203880537936456],[-1.38882095523106,46.20405363457947],[-1.388589239555429,46.204079721437125],[-1.388370462025643,46.20400790548908],[-1.386558525231992,46.20418700793746],[-1.383074902645804,46.20470746224977],[-1.380865091860583,46.20486574682259],[-1.376910206146264,46.20558545495597],[-1.376913722192472,46.20567821192298],[-1.37420277088025,46.205872805560084],[-1.372601123848852,46.205839763338574],[-1.372501075406222,46.205709235905985],[-1.369155929341047,46.20622572921684],[-1.368184888428372,46.20745442807077],[-1.367202506233425,46.20738487168641],[-1.366751321669416,46.20746083450664],[-1.365372073037308,46.208164979781465],[-1.365315685073454,46.2081094271948],[-1.366618168827666,46.20740372359874],[-1.367164242885865,46.20734485680677],[-1.367123479243762,46.207240905828954],[-1.366386982049956,46.207257488407535],[-1.366276929934846,46.20718055025554],[-1.366463877334294,46.20680450434005],[-1.367100725578698,46.20653201512248],[-1.367057282936455,46.20649219931097],[-1.367698965848283,46.20641071545778],[-1.36786657590858,46.206476420850066],[-1.367636782582787,46.20677114527723],[-1.368067742367289,46.20697914106816],[-1.369532006929527,46.20515969321703],[-1.368470470916819,46.20474868191684],[-1.368161631889713,46.20473620644045],[-1.367592258358115,46.20486090887683],[-1.367788933409791,46.20517711646861],[-1.368335072284233,46.20505420839325],[-1.368832279363754,46.20526235928149],[-1.368047212245231,46.20624942174506],[-1.367352441698447,46.20631671485349],[-1.367030724960725,46.20627316583382],[-1.367045064658176,46.205931710852155],[-1.366962146170515,46.20582036157048],[-1.367004195140664,46.205696092100695],[-1.367536976777419,46.205242718099434],[-1.367486530310197,46.205033621616685],[-1.367367201345691,46.20495433565552],[-1.366668166055491,46.20514714791337],[-1.366424304663973,46.20557498424016],[-1.366429739575907,46.20593642183943],[-1.366380444569133,46.20598611501267],[-1.366413387813486,46.20600829733507],[-1.366057189828242,46.20701493547785],[-1.365782503827153,46.20726809148876],[-1.365638470958489,46.207270018523225],[-1.365640443216761,46.20740882932261],[-1.364695921391567,46.20752087431873],[-1.36467699249934,46.20754414799665],[-1.364644192344645,46.20752376338929],[-1.36355489157807,46.20643827966076],[-1.360470523384864,46.20631590191033],[-1.359321914685985,46.20606687564469],[-1.359294917646876,46.206282553473635],[-1.358546186147142,46.2068307485803],[-1.358460178568107,46.20674566605993],[-1.358700662015679,46.20663362883981],[-1.358643079956054,46.20653032067019],[-1.35887650549127,46.20626433629085],[-1.358930576554339,46.20599711592052],[-1.358626933642769,46.20593571475488],[-1.358351373682018,46.205982360139906],[-1.358523360517071,46.20654393200384],[-1.358408721172486,46.20662138013597],[-1.35795976457657,46.20620300522603],[-1.357967699735797,46.20599256836539],[-1.356758643239525,46.206126418520206],[-1.354540362503045,46.20598329201087],[-1.354682605139861,46.205958901181155],[-1.354910360459161,46.20555606105685],[-1.354387980910063,46.20486722598613],[-1.353646590019221,46.20452768254879],[-1.353667516442549,46.20426804865525],[-1.353462388321961,46.20431829629667],[-1.352606664132342,46.20417432051419],[-1.352556124878281,46.204110421486526],[-1.349704626538985,46.203401651183576],[-1.345794812935115,46.20166370781831],[-1.345450797606419,46.20146944186719],[-1.344703898088235,46.20081350591265],[-1.344207224642232,46.200544810304216],[-1.34321709273797,46.20026070929959],[-1.3423295864456,46.2002224888944],[-1.343117026564949,46.19996512166309],[-1.344474810324459,46.19993935772468],[-1.344716340010891,46.19987330421668],[-1.346922503033647,46.19808350986091],[-1.348224409054066,46.19656907835633],[-1.349095836893185,46.19539126883816],[-1.347243251322331,46.19425370413579],[-1.347277420844861,46.19357149943948],[-1.347533911445562,46.19243436954732],[-1.34824607003357,46.19168833401306],[-1.348438318176716,46.19134548555972],[-1.34851888648162,46.19085540136923],[-1.348082429701736,46.19078823812717],[-1.34801901014815,46.189841918616615],[-1.348823221448667,46.18986343689467],[-1.350459331220117,46.18966640502935],[-1.350955433280332,46.18968347588554]]]]}},{"type":"Feature","properties":{"fid":3138,"ID":"COMMUNE_0000000009750160","NOM":"Sainte-Marie-de-Ré","NOM_M":"SAINTE-MARIE-DE-RE","INSEE_COM":"17360","STATUT":"Commune simple","POPULATION":3392,"INSEE_CAN":"05","INSEE_ARR":"3","INSEE_DEP":"17","INSEE_REG":"75","SIREN_EPCI":"241700459"},"geometry":{"type":"MultiPolygon","coordinates":[[[[-1.352823095022657,46.16597339725262],[-1.352647148401631,46.16589897598661],[-1.351312992316872,46.166702265000936],[-1.351045463021409,46.16699479861352],[-1.350831546751783,46.167439494023014],[-1.350215201777614,46.16807997985378],[-1.349042657997227,46.16779662633574],[-1.347721715407179,46.166869610420406],[-1.34680677297,46.16750978676168],[-1.346288306859795,46.167699183759815],[-1.345852918333596,46.1674957985854],[-1.345556789155347,46.16718246703279],[-1.344876888211462,46.16679273538763],[-1.344286546233317,46.16633734544927],[-1.344123588025693,46.16631201614453],[-1.343775390894839,46.16676634341704],[-1.343443896272464,46.16687462198509],[-1.343339358809417,46.167897711245764],[-1.342719294581758,46.16798455977332],[-1.342285781804218,46.16818151050965],[-1.340965640311631,46.168525093371244],[-1.339691485750067,46.16841688077806],[-1.338959144667079,46.16846290747801],[-1.337759948925756,46.16759606178434],[-1.335986450916825,46.16553996175617],[-1.335566707564096,46.16551721254154],[-1.334564030083748,46.16564027213164],[-1.333910006089163,46.16552725845433],[-1.331321715830571,46.16682277816839],[-1.328634353904667,46.16755565563314],[-1.327364769099444,46.16766898492383],[-1.326442998217497,46.168061242264564],[-1.322398363679112,46.168406484586306],[-1.321349031754846,46.1685808015153],[-1.319273855176462,46.1686182810021],[-1.318029865908894,46.16844735485514],[-1.316600812057921,46.16805258234291],[-1.315860030825042,46.16799146248974],[-1.312838614006434,46.16735234432685],[-1.311000481842892,46.16685490306329],[-1.30974851721609,46.16673018483604],[-1.307859076740295,46.166305886617124],[-1.307355271138245,46.16714566420897],[-1.307058713222886,46.16814531694321],[-1.305924130095937,46.16781319200876],[-1.303903213678013,46.166970858094295],[-1.302710792001861,46.16664540435888],[-1.302878790278026,46.166354962833246],[-1.302832202529138,46.16625752779817],[-1.301302328049864,46.1658988557982],[-1.30187151173036,46.16475001071632],[-1.302533086772311,46.16416671146124],[-1.303456081642278,46.162896228145925],[-1.304514153063992,46.160983023247354],[-1.304718842784541,46.16049909771017],[-1.304624097439979,46.15968924352535],[-1.304779108668461,46.158952886486595],[-1.305394366149737,46.15811159695869],[-1.304462441041811,46.15791156196711],[-1.303531790603871,46.1575293025624],[-1.302404290507847,46.157730762990795],[-1.302611927797117,46.15710243771931],[-1.300151125493735,46.157611424223724],[-1.299095887591958,46.15807254422705],[-1.297463336148499,46.158503204920656],[-1.296198607756769,46.15895779777285],[-1.295939490254507,46.15803602336678],[-1.294906492510347,46.15813553321784],[-1.294716082175476,46.15777569653832],[-1.294375274377862,46.157434174810845],[-1.293725114397142,46.1555288756899],[-1.293635221934777,46.15386751756804],[-1.293516507238363,46.15380978253064],[-1.293106843494137,46.153930790311556],[-1.292821738864689,46.15352132552993],[-1.291746820785034,46.150979165839516],[-1.29104538880003,46.15027340990563],[-1.290664187374308,46.15006146474389],[-1.290586521286816,46.1498317317619],[-1.289508631424378,46.14970383356234],[-1.288040517425845,46.149314712939955],[-1.287474489575909,46.14931084531786],[-1.286246470491883,46.149519553994956],[-1.284134152791691,46.15050021606814],[-1.283774578237206,46.14958491977826],[-1.283242203913396,46.14873295827482],[-1.282779661660904,46.147545590809536],[-1.283356160838888,46.147351588821245],[-1.284200276630838,46.14687964342115],[-1.284018527175212,46.14599821738165],[-1.283878390792897,46.145798795304906],[-1.28394237275208,46.14550509438458],[-1.285911003493502,46.14599169695906],[-1.286883929835343,46.145972987799794],[-1.287831079249341,46.14577397910518],[-1.288353765472969,46.14525732950118],[-1.288378162751564,46.14532043660349],[-1.288447314888786,46.14530880543895],[-1.288559585124977,46.14500245449683],[-1.289461701471976,46.144775373060085],[-1.290097580392553,46.14479372310277],[-1.292300650510623,46.145109026323404],[-1.29313341792653,46.14500718548272],[-1.293323850497624,46.144920621487344],[-1.293451572748754,46.14472911301731],[-1.294687660606155,46.144873529601114],[-1.295613053102325,46.14486105268954],[-1.296142006879158,46.14474002649163],[-1.296605771200127,46.14453218542328],[-1.296598020818055,46.14443327845898],[-1.298203534454079,46.144308454316786],[-1.29978197593396,46.144500271193],[-1.301012859227124,46.144478880879404],[-1.301833771676759,46.14430888586527],[-1.303678221517514,46.14372401343137],[-1.304991451386346,46.14313220732851],[-1.307523302903663,46.14328864739476],[-1.309904885129017,46.143299231048616],[-1.310121997805388,46.143172845713494],[-1.310571480864936,46.143394758802394],[-1.312255841558989,46.14382767798751],[-1.313854247430713,46.143942788147264],[-1.314053051863604,46.143913587074316],[-1.314203761424348,46.143784306882935],[-1.314343446501756,46.14391066425603],[-1.31573722766962,46.144475425512994],[-1.316729073456223,46.14501036792532],[-1.316993087179672,46.1450183621609],[-1.317085807150238,46.14512485897065],[-1.317814486231274,46.1453162838982],[-1.318431467948758,46.14540734171876],[-1.321277528083222,46.145284580459986],[-1.323420781545442,46.14580898810698],[-1.323601637899399,46.14583185891434],[-1.323812792007482,46.145679520296454],[-1.323991733574053,46.145678113777954],[-1.324349552823884,46.14587190321797],[-1.324947206099067,46.14645787070262],[-1.324702693475376,46.14641758717174],[-1.324446032420368,46.14610811617414],[-1.324081689596949,46.145897440585706],[-1.324908372840695,46.1466893195616],[-1.32645316804145,46.1474060232899],[-1.327323530123661,46.1479121419233],[-1.327559599736448,46.14777958862906],[-1.327537281539424,46.147891366043915],[-1.327810750196802,46.148018920061425],[-1.327921384941052,46.14820408788226],[-1.328114113731536,46.1482950390704],[-1.328154509991164,46.1482150383819],[-1.328457118710228,46.14853086638347],[-1.328403644088761,46.148609562273656],[-1.328480845088635,46.14866704140354],[-1.328659267622986,46.14869180109774],[-1.328718223336136,46.14881400668637],[-1.329616838409669,46.149430860212895],[-1.330481722211906,46.14986682218374],[-1.331405087828857,46.15010665002678],[-1.331365499959808,46.1500161727949],[-1.331103768052126,46.149922448813726],[-1.331753135946932,46.150044667576324],[-1.331647561662978,46.150120844292374],[-1.331799503336648,46.15018809470994],[-1.332136476672562,46.150133748515714],[-1.33209959580518,46.15022534056669],[-1.332344314421885,46.150300773063336],[-1.332553057802049,46.15018368190272],[-1.333002308191457,46.15026934220703],[-1.333122250293599,46.15035855497435],[-1.333222619172731,46.15031504195533],[-1.333604542734765,46.15038613531827],[-1.33532737201501,46.150840706530964],[-1.336861578063647,46.151371000441195],[-1.33807820727902,46.15146248941213],[-1.339611212938568,46.15119014884901],[-1.340611863986698,46.15129077008977],[-1.343006841637885,46.15195670802729],[-1.343749568052099,46.15225746172733],[-1.344996228362378,46.152940244952234],[-1.345573443681514,46.15314992332835],[-1.346212817078994,46.15327605216447],[-1.3474722462834,46.15374277844216],[-1.348388307399651,46.15428126683394],[-1.349188835229435,46.15454099319718],[-1.349216098366868,46.15462291914215],[-1.349312755906822,46.15464717299524],[-1.349318530989778,46.154605466419994],[-1.350106030152137,46.15491348418144],[-1.352060255450041,46.155173161667534],[-1.353531524714103,46.15564252422645],[-1.35425583019641,46.156053044521],[-1.355067291205153,46.1566946997292],[-1.35686902530586,46.15784306795223],[-1.357748123684293,46.15861648710933],[-1.358728855323926,46.15929671387598],[-1.359884345997506,46.160003590088785],[-1.361781612081835,46.16094710401412],[-1.362831534675601,46.16177795684637],[-1.362490152632512,46.16138614018767],[-1.362569153956584,46.161384006082464],[-1.363242135464392,46.161995758386425],[-1.363102080464822,46.16206246797926],[-1.363337004647788,46.16225816147074],[-1.363530810873212,46.162247104750165],[-1.362565847815488,46.16258180590469],[-1.36213905596714,46.16260091178173],[-1.360400732019496,46.16202466690203],[-1.359556414694793,46.16157550073038],[-1.359153349550594,46.16159909563787],[-1.358615586895138,46.16258924309108],[-1.358015445254199,46.162680824583006],[-1.357768779753358,46.16225559742655],[-1.35758970052966,46.16212538899426],[-1.354945773440635,46.16183002853728],[-1.353993273383744,46.162861312212385],[-1.353850205296256,46.162890247471196],[-1.353421531134822,46.162787642001696],[-1.352493374340401,46.16365203637995],[-1.352135652056226,46.16459015227454],[-1.352749624287873,46.16477043316021],[-1.353820667770664,46.1649530239816],[-1.35457552276976,46.165191022422576],[-1.354173679257378,46.16572049320796],[-1.353877264117467,46.16574719264449],[-1.353409878206657,46.165941879652266],[-1.352823095022657,46.16597339725262]]]]}},{"type":"Feature","properties":{"fid":3275,"ID":"COMMUNE_0000000009750163","NOM":"Le Bois-Plage-en-Ré","NOM_M":"LE BOIS-PLAGE-EN-RE","INSEE_COM":"17051","STATUT":"Commune simple","POPULATION":2177,"INSEE_CAN":"05","INSEE_ARR":"3","INSEE_DEP":"17","INSEE_REG":"75","SIREN_EPCI":"241700459"},"geometry":{"type":"MultiPolygon","coordinates":[[[[-1.35091851952136,46.189463935987646],[-1.35130492400688,46.188492267054684],[-1.350971448944232,46.18808658260464],[-1.348071807940258,46.18821656538905],[-1.347065691243745,46.187941233978336],[-1.345008838199835,46.18705676463553],[-1.344194376343294,46.18746218757458],[-1.343957659361367,46.187408112160824],[-1.345477849541691,46.18571761105216],[-1.346155361071284,46.18442097930105],[-1.346458120382137,46.18354000885802],[-1.346982425704613,46.182554961043564],[-1.346769550643047,46.18180284891009],[-1.347172546621701,46.18167829917673],[-1.347799771360502,46.181188932193265],[-1.348391274628603,46.18100214764953],[-1.348936320390858,46.18093347794168],[-1.349468933093697,46.18061005748112],[-1.352004812213366,46.17995916495191],[-1.350689774923586,46.17904547268049],[-1.349851712344671,46.17792500970058],[-1.348685190793817,46.177213034174684],[-1.348389919407941,46.176796863595754],[-1.348574719865402,46.17678617934006],[-1.34868013604356,46.17654405332268],[-1.34902518560108,46.175150102270074],[-1.348994657371266,46.17486358051654],[-1.349575277963986,46.17279052709239],[-1.349354588222115,46.172005350156915],[-1.35198917778435,46.17142551507484],[-1.352496256838886,46.17184437954651],[-1.352915463886589,46.170421414755566],[-1.354039674395622,46.168935339175405],[-1.354294563549235,46.16874519284623],[-1.353220591219147,46.166892479045586],[-1.352823095022657,46.16597339725262],[-1.353409878206657,46.165941879652266],[-1.353877264117467,46.16574719264449],[-1.354173679257378,46.16572049320796],[-1.35457552276976,46.165191022422576],[-1.353820667770664,46.1649530239816],[-1.352749624287873,46.16477043316021],[-1.352135652056226,46.16459015227454],[-1.352493374340401,46.16365203637995],[-1.353421531134822,46.162787642001696],[-1.353850205296256,46.162890247471196],[-1.353993273383744,46.162861312212385],[-1.354945773440635,46.16183002853728],[-1.35758970052966,46.16212538899426],[-1.357768779753358,46.16225559742655],[-1.358015445254199,46.162680824583006],[-1.358615586895138,46.16258924309108],[-1.359153349550594,46.16159909563787],[-1.359556414694793,46.16157550073038],[-1.360400732019496,46.16202466690203],[-1.36213905596714,46.16260091178173],[-1.362565847815488,46.16258180590469],[-1.363530810873212,46.162247104750165],[-1.363555379285402,46.16229486098],[-1.363452936837347,46.162312326527704],[-1.365375776897385,46.163770668795216],[-1.368115374400935,46.16552493686724],[-1.369766728887778,46.16686378988364],[-1.370634049951907,46.167420224827545],[-1.369965235422323,46.16679752800661],[-1.370660983290359,46.167204543680434],[-1.371648979650582,46.16763006432756],[-1.371636375456834,46.16774869428701],[-1.371232791102816,46.167652402144654],[-1.371375047733586,46.16774342472382],[-1.373927359715964,46.1687562268183],[-1.374171933833106,46.168811738965104],[-1.374321843007805,46.168738323159005],[-1.374383292526833,46.168873941570105],[-1.374526948714733,46.168787238371344],[-1.375391216664919,46.16909303782885],[-1.375191057490616,46.169138629790574],[-1.375860508126983,46.169377979889674],[-1.375990495008336,46.169363951243646],[-1.37599969360847,46.16939786776857],[-1.377957386588726,46.17024501060439],[-1.379329477132615,46.17094335494767],[-1.381168998033231,46.172129599304974],[-1.381648627365785,46.17238075134842],[-1.381846419930689,46.17238664640056],[-1.383333940998044,46.173130996535455],[-1.384828484537113,46.17404370822773],[-1.387847174302224,46.17560458618661],[-1.390884187131848,46.1769058426381],[-1.392695725927725,46.1775590862894],[-1.396377254615451,46.17860529056835],[-1.401471382128468,46.18018286288849],[-1.403727891275383,46.18095758261061],[-1.405380905091985,46.18170246165415],[-1.406341441449884,46.1819249392429],[-1.406343487342646,46.18199881471993],[-1.407652097061886,46.18256131597233],[-1.407972442929703,46.18266973526652],[-1.408056490776368,46.182633102975295],[-1.408076999277788,46.182662069270414],[-1.408265310762494,46.18275937877374],[-1.410031207037629,46.183517850556605],[-1.412457995336815,46.184452644410314],[-1.412175485265424,46.18505616370058],[-1.41224272979359,46.185326824487134],[-1.412021519559462,46.18559516341413],[-1.411679890563564,46.18648056408902],[-1.411709858721102,46.18751386966554],[-1.411828965447391,46.18779965203411],[-1.411562788506661,46.18805801170958],[-1.411482646215142,46.18841737176725],[-1.410979612523366,46.188637129407724],[-1.410540756134224,46.18933149264873],[-1.409523315297363,46.19009792199085],[-1.408946624199351,46.19079041381947],[-1.40886057922812,46.191480091827096],[-1.40861034310646,46.19204987821473],[-1.408381877064859,46.19303549165774],[-1.408110361704975,46.193195742830895],[-1.407828129118113,46.19351333782641],[-1.406394630047467,46.19316130431677],[-1.406179159137446,46.1935340256977],[-1.405075125779974,46.194307376141026],[-1.405400798851073,46.194788077818046],[-1.405217860966503,46.19627607103068],[-1.40536427178786,46.19686924584102],[-1.405396885174855,46.19779151319108],[-1.403026838506293,46.19806919154557],[-1.403241316637335,46.19913772920402],[-1.403124166387393,46.19921532281883],[-1.403273170124788,46.1992916187871],[-1.403577263866949,46.200295354211086],[-1.401871422936853,46.20037048545854],[-1.400181379486031,46.200593789788435],[-1.397734910879676,46.20053610648025],[-1.396645892203624,46.20057735780074],[-1.394299692437777,46.2004579997514],[-1.39204764428608,46.20021680756954],[-1.390816069683137,46.19990546926459],[-1.389969670562306,46.19978125431895],[-1.383941060507165,46.19957665690318],[-1.381203966044682,46.199667821938625],[-1.380190767575569,46.199796178745466],[-1.380013133482331,46.19874423174613],[-1.379846135967295,46.19644458741774],[-1.380083977595395,46.19186653806208],[-1.375921948288177,46.19251757719243],[-1.374553246680113,46.19282733118983],[-1.373925543479784,46.19290291078776],[-1.373917936439692,46.192791372184914],[-1.37143340635062,46.1932441572013],[-1.369532153834473,46.19371593584966],[-1.368978312923965,46.19315463568349],[-1.368620423626313,46.1925262738691],[-1.368871958037371,46.1924724079477],[-1.368743366780224,46.19126705246258],[-1.366921187506941,46.191540945492584],[-1.365812388554259,46.19162505554908],[-1.363758462184856,46.19163093295981],[-1.363448288136551,46.19153552765961],[-1.362193844721519,46.190818032627796],[-1.361729791411674,46.190649169006065],[-1.359747816193586,46.190497994504135],[-1.35854139109274,46.190170926792305],[-1.357396808167011,46.18973956448849],[-1.355596105596808,46.18931982660932],[-1.355190682523198,46.18933266768556],[-1.353286799614509,46.18973844015912],[-1.352239469942923,46.18976234382479],[-1.350955433280332,46.18968347588554],[-1.35091851952136,46.189463935987646]]],[[[-1.373948723386639,46.168682352413185],[-1.373373675632812,46.16850338798428],[-1.372352434479926,46.16808457274793],[-1.371982092604938,46.16781925553099],[-1.372167503756617,46.16781662486331],[-1.374107396830751,46.16865369268876],[-1.373948723386639,46.168682352413185]]]]}},{"type":"Feature","properties":{"fid":3613,"ID":"COMMUNE_0000000009749918","NOM":"Loix","NOM_M":"LOIX","INSEE_COM":"17207","STATUT":"Commune simple","POPULATION":742,"INSEE_CAN":"05","INSEE_ARR":"3","INSEE_DEP":"17","INSEE_REG":"75","SIREN_EPCI":"241700459"},"geometry":{"type":"MultiPolygon","coordinates":[[[[-1.475375242970431,46.20992609816648],[-1.475445465629279,46.21005411203931],[-1.47827158651138,46.21034591699962],[-1.478397754520061,46.21041129469507],[-1.478595231022037,46.21080847855971],[-1.478917070976819,46.21097888418262],[-1.479225753019455,46.21090899148862],[-1.480571495980957,46.2102714758724],[-1.481222206432113,46.21023769514296],[-1.482164146814123,46.211222432106105],[-1.48284526308926,46.21222647291511],[-1.482813894748562,46.212541584133206],[-1.481182319650927,46.212655551209],[-1.480268588485209,46.21373061265849],[-1.479555033834619,46.21393372156361],[-1.479169853926322,46.214942836678325],[-1.477186853699092,46.21481174157745],[-1.47665191783074,46.21441883180381],[-1.47614637480419,46.21421055971644],[-1.4737510262773,46.214025298908574],[-1.472630443876359,46.21473323387927],[-1.47083933912544,46.21485152471168],[-1.470235879876743,46.215178314909615],[-1.470226717035015,46.21543211694152],[-1.469530544187076,46.21556232263686],[-1.469725393157756,46.21632580558565],[-1.468177018690948,46.21663292759925],[-1.466931900003843,46.21664400061113],[-1.466996531249827,46.21716547830504],[-1.466665904090242,46.217269569620605],[-1.466806900044611,46.217803378278944],[-1.467231045977401,46.21758737919265],[-1.467374563597184,46.21756279654928],[-1.467394016206454,46.21757826643446],[-1.467252087121317,46.21760639435116],[-1.466367724781834,46.21812188385182],[-1.46627027483657,46.21834488173258],[-1.466266525079378,46.21885642026246],[-1.465696325423067,46.21905019533463],[-1.46530400478507,46.21929019128705],[-1.465648873631379,46.219456122050715],[-1.466139865450183,46.219884180519585],[-1.465847154307303,46.22160032056235],[-1.465891044269388,46.22272780449981],[-1.465752601304452,46.223069662451834],[-1.465587001253695,46.22320604677252],[-1.465268676371995,46.223238397073985],[-1.463942246107836,46.223066830226124],[-1.463787861204886,46.22310175590226],[-1.463687165711529,46.22333299549734],[-1.461324923773315,46.22344649844825],[-1.459686782406945,46.223707413276315],[-1.458950327441168,46.223583886601325],[-1.458307971845093,46.22302013503108],[-1.457708978269695,46.223260092712835],[-1.457719785101329,46.223791800742916],[-1.457336679770238,46.223874471176885],[-1.457063392567555,46.223534343396295],[-1.456932515045609,46.22355480883271],[-1.457131642063252,46.224133246074395],[-1.456688591108633,46.22448523286907],[-1.456212189650645,46.22551315963829],[-1.456966429806023,46.22599857829498],[-1.457366370841268,46.226058654408746],[-1.457715937263309,46.22632995005597],[-1.457845208612281,46.226497145995424],[-1.457684397716915,46.22678845968396],[-1.459167269598134,46.226997256407145],[-1.458981252678677,46.22809587668677],[-1.460775169333113,46.22821398341317],[-1.461469325588361,46.22805686011269],[-1.46174123945065,46.2280606166065],[-1.463012028256037,46.228345334825654],[-1.464179610805718,46.228718873864715],[-1.464823951084194,46.228795480784704],[-1.464887891566779,46.22886241699243],[-1.464804177460657,46.22890358636535],[-1.464808797015531,46.22896022602157],[-1.463975299856417,46.22873140825181],[-1.462631705990576,46.22852622225807],[-1.459585649336216,46.22833642527924],[-1.458006611518413,46.228511112237385],[-1.449771984364678,46.228327833288816],[-1.447752155304518,46.2284997913266],[-1.444780824433292,46.22903722267977],[-1.439958602491022,46.22899481390434],[-1.438476851175289,46.229087862266226],[-1.438263179774926,46.229033072817984],[-1.435025223308876,46.229360591310765],[-1.434540867852873,46.229461563326986],[-1.434491498729183,46.22954195508718],[-1.434377825980075,46.22943816170237],[-1.433288112311025,46.22939769649912],[-1.431634826543263,46.22949103218355],[-1.42994631828131,46.229807583892836],[-1.426738888824811,46.23017606223328],[-1.419964544813757,46.23051816452919],[-1.41470540620772,46.23048896498755],[-1.414648220218615,46.2304244462339],[-1.412210665589434,46.229913927803786],[-1.41209683638563,46.22971091208708],[-1.410886427527484,46.22938180428176],[-1.410973451791877,46.22912319270579],[-1.410704707039629,46.22843285512241],[-1.410726435375654,46.22717027057736],[-1.410996074933374,46.22669443174858],[-1.411543641635012,46.22632955940553],[-1.412835073250879,46.226874671141495],[-1.41342597518557,46.22730537734409],[-1.414661078983116,46.227457629139984],[-1.415138425248797,46.22739850173645],[-1.41585798370311,46.227039552839535],[-1.416928990825768,46.22593099724959],[-1.41711115572891,46.22595007240277],[-1.417635039884455,46.22621019894432],[-1.417634263501394,46.22634551300458],[-1.41782952815355,46.22625314509016],[-1.418059946682086,46.22632265287193],[-1.417974002102552,46.22619161176122],[-1.417305860249634,46.22588298011949],[-1.417861662995624,46.2260877514915],[-1.418339173020491,46.225644397254946],[-1.418491084825629,46.22507931763494],[-1.418585465161931,46.223930243794975],[-1.418466185269053,46.22377254049557],[-1.41830006858868,46.22374292303781],[-1.418333124586782,46.22366948645244],[-1.417308864069576,46.22247370969618],[-1.417081355848107,46.221860246730735],[-1.417086590229576,46.22149026733283],[-1.417394859741179,46.22078563139239],[-1.41817102874839,46.21977690371371],[-1.418532107787581,46.21942104709455],[-1.419177336837569,46.21904421855378],[-1.421782329676424,46.218318772944706],[-1.422741035501714,46.21812363205765],[-1.431989339574908,46.21691912566606],[-1.434114891214757,46.216100249691436],[-1.437787300414195,46.21716724300668],[-1.438727331512638,46.216101451687045],[-1.438571869417529,46.21599478601812],[-1.438607165184429,46.21582114310891],[-1.439227921640026,46.216025977885316],[-1.439292308563429,46.215874647752656],[-1.439386815180044,46.21590252229013],[-1.439599190356158,46.21579772076198],[-1.439060561952443,46.21492317028737],[-1.439089626588331,46.214432299218394],[-1.439591982448551,46.21420252801513],[-1.440922673910332,46.21419021167276],[-1.443700504677321,46.21419164317535],[-1.443854512552611,46.21402417818253],[-1.444300556928956,46.2142213874524],[-1.444805301561489,46.214277404618684],[-1.446630573326749,46.214179833994656],[-1.449620540293789,46.2137858978631],[-1.450972651207803,46.21376540934407],[-1.452503325098133,46.21389574297081],[-1.453323638921446,46.21404578240176],[-1.453797062508463,46.213748534253064],[-1.453766015229355,46.213334869522996],[-1.453575519558903,46.21297345239274],[-1.453601321912944,46.21261979161754],[-1.453812119589407,46.212384245852334],[-1.454225423816795,46.21217864159606],[-1.456030833935593,46.211821942861164],[-1.456722484734037,46.211764150021146],[-1.457362430976662,46.21188515747493],[-1.458207879553984,46.212168561042944],[-1.458648137567919,46.212214419995426],[-1.459768503405602,46.21207665010832],[-1.462196770795061,46.211934411527764],[-1.462518602118803,46.21183428537816],[-1.46363300267974,46.21103379742321],[-1.463990402497587,46.21090791750015],[-1.464466230819231,46.21102360817408],[-1.466418297695172,46.211876772627434],[-1.467353333977758,46.211904049159564],[-1.468869592980693,46.2115711385324],[-1.469378126064834,46.2113391829824],[-1.469726479963989,46.21100709909837],[-1.471254315004424,46.21095961096155],[-1.471846364640912,46.21085964633458],[-1.472669193703589,46.210435820633535],[-1.473493319160055,46.210409688432904],[-1.47516237160766,46.20989660197084],[-1.475375242970431,46.20992609816648]]]]}}]}