{"type":"FeatureCollection","name":"COM_86239","crs":{"type":"name","properties":{"name":"urn:ogc:def:crs:OGC:1.3:CRS84"}},"features":[{"type":"Feature","properties":{"fid":4290,"ID":"COMMUNE_0000000009748597","NOM":"Sainte-Radégonde","NOM_M":"SAINTE-RADEGONDE","INSEE_COM":"86239","STATUT":"Commune simple","POPULATION":184,"INSEE_CAN":"05","INSEE_ARR":"3","INSEE_DEP":"86","INSEE_REG":"75","SIREN_EPCI":"200069854"},"geometry":{"type":"MultiPolygon","coordinates":[[[[0.707810592497658,46.59680792149291],[0.703246868229057,46.596474165436646],[0.699884271253669,46.59610670528228],[0.696687972019545,46.59610281724157],[0.695961556468775,46.59625305406298],[0.691515375929924,46.5966625669314],[0.689804543004484,46.596605546590155],[0.688735411119356,46.5972550845891],[0.687438286693235,46.59767210193202],[0.686290904652165,46.598255178780406],[0.679571208904417,46.60027218790031],[0.677779805183785,46.60139613763776],[0.676783992570852,46.60176149407914],[0.674683229331456,46.602231429658076],[0.674198788298393,46.602404460191416],[0.673245014393491,46.60416961943413],[0.672796973310285,46.604621738359334],[0.673425290753776,46.607350484847146],[0.674492954696384,46.60900715890814],[0.674994032407757,46.611015353620076],[0.675028979888667,46.61246098066866],[0.675925298326637,46.61430693460726],[0.676162093795876,46.61727093338493],[0.675958450879544,46.6179676404836],[0.675356879581307,46.61833918487842],[0.67576333597167,46.61941310160056],[0.676895632751432,46.620696313305494],[0.677450904782374,46.6216237039522],[0.678305038743632,46.623758839420425],[0.678589941124522,46.62397630436906],[0.679081365645965,46.62410336624362],[0.679877538481437,46.62477979029649],[0.681032993203407,46.62626070327202],[0.681974389458847,46.62917587601907],[0.681053698381449,46.63062017287298],[0.681533345791826,46.63062627507785],[0.684025300242208,46.63094330762545],[0.686508752074768,46.63201409502684],[0.690661233655803,46.63344726911224],[0.691338798335383,46.633535688607225],[0.694758474166035,46.63359732308443],[0.697330299987451,46.63422554714438],[0.697232929403061,46.635135210151496],[0.697468521134321,46.63550116848199],[0.698147577069743,46.63620392884925],[0.698954574037445,46.636665134415956],[0.700976400014472,46.63737681308209],[0.701893161671799,46.63712946154378],[0.702304318125197,46.636900793013716],[0.702722226019403,46.63648128718325],[0.703171836001033,46.63648759644387],[0.704210160218317,46.636705677936746],[0.705553170316971,46.63683166226838],[0.707653232866333,46.6372096878067],[0.709944453596896,46.637862636421396],[0.711553030812366,46.638484794156554],[0.711917323626635,46.6387163678238],[0.712331254816509,46.63873183730865],[0.712825847839434,46.63897501679673],[0.713805347991733,46.63885223271414],[0.714592869184158,46.63838060461507],[0.715577354504713,46.63798316013847],[0.716233769893134,46.637861121826376],[0.716486294847699,46.63795172983641],[0.717829592668985,46.63791633124197],[0.718579897553585,46.638268169491724],[0.719445663590197,46.63851780717377],[0.720065049072256,46.638873335733535],[0.720263197019034,46.63885745968866],[0.720766977485528,46.63900710360551],[0.721868326756216,46.636818434874904],[0.723275689370898,46.63250363920657],[0.723165745995202,46.632224908758324],[0.722533539276815,46.6317709531257],[0.722986315644274,46.63151331338814],[0.723622691015758,46.63083684319781],[0.724355603039716,46.62950920555464],[0.724438200544412,46.62944148409007],[0.725111290043096,46.62994938857241],[0.726030547314262,46.62869840515724],[0.726356255411959,46.62753833041775],[0.726541784667698,46.627510483535424],[0.727353509961855,46.62682846482495],[0.728102357029638,46.625773163050084],[0.729915750378437,46.62430386584329],[0.731342036407044,46.62371236427672],[0.735388641846789,46.62295827584548],[0.734976564985978,46.62280690324055],[0.733560998228836,46.62201323041565],[0.730439599494226,46.62005345367384],[0.726110165606214,46.617693981057116],[0.724558505223201,46.61706594004846],[0.721747730807057,46.61563184654654],[0.721228465731452,46.615451266562836],[0.721244848351344,46.61527863778381],[0.721358738553168,46.615212441949986],[0.721327382274901,46.61505597890376],[0.720841426033467,46.615016585232446],[0.719029122329701,46.61406079171013],[0.718366296678285,46.6138440098048],[0.717737795702772,46.6138062675695],[0.715037310984111,46.61436048026275],[0.714912322355844,46.61341484136085],[0.714688023108626,46.6133085756431],[0.713808043512556,46.61294060272561],[0.709797966824128,46.61212273913783],[0.708410507968684,46.611669809358624],[0.707623987748184,46.61110187545823],[0.707511154921016,46.610863604962276],[0.707644611101384,46.610240212197574],[0.706737051253249,46.60931943350831],[0.706178276513968,46.60790838389237],[0.70528551007364,46.60663837306624],[0.705099503640451,46.60596624359663],[0.705096947766382,46.60475640099653],[0.704974878169217,46.60411798121982],[0.704764743824189,46.60395612814638],[0.703537422487446,46.60374055411027],[0.703841710251974,46.603126895159626],[0.704645296639872,46.60214039739917],[0.705227250492239,46.601078289590184],[0.706524963253038,46.59931256671216],[0.707420644699005,46.59737843796535],[0.707810592497658,46.59680792149291]]]]}}]}