{"type":"FeatureCollection","name":"COM_19150","crs":{"type":"name","properties":{"name":"urn:ogc:def:crs:OGC:1.3:CRS84"}},"features":[{"type":"Feature","properties":{"fid":4042,"ID":"COMMUNE_0000000009754934","NOM":"Noailhac","NOM_M":"NOAILHAC","INSEE_COM":"19150","STATUT":"Commune simple","POPULATION":351,"INSEE_CAN":"10","INSEE_ARR":"1","INSEE_DEP":"19","INSEE_REG":"75","SIREN_EPCI":"200066769"},"geometry":{"type":"MultiPolygon","coordinates":[[[[1.653446465197276,45.10060499298985],[1.652545943244375,45.09898126388103],[1.651668640361174,45.09803140419459],[1.651738862483444,45.09749193602061],[1.651890235119277,45.097330770968206],[1.652412497641397,45.09718489628956],[1.653038001871086,45.09671157375373],[1.65232600990103,45.096236494403044],[1.652778474163763,45.09560979260775],[1.65240421181266,45.095207235112845],[1.653265050598595,45.09499160608546],[1.653667355890125,45.09502168062891],[1.653504821284857,45.09469642780886],[1.653517259323124,45.09449666081163],[1.653998652621006,45.09446285148943],[1.654636139265714,45.09428233706243],[1.655029696335518,45.09393588056595],[1.655478822336533,45.094397866311034],[1.656325201592528,45.09420095065785],[1.65491293229009,45.092923179162035],[1.654267403180985,45.093280101235834],[1.653504793221861,45.0934302851059],[1.653132172246861,45.092643224623025],[1.653076340847118,45.09205810751116],[1.652677674842685,45.092036179334976],[1.65270713633204,45.091815906167426],[1.652829012148581,45.09171742068044],[1.653300374216359,45.09162405862707],[1.652912625510425,45.09083231217513],[1.653536309104391,45.090801125361104],[1.653411863630378,45.09053126486758],[1.652645784076165,45.09051030021346],[1.652206516694558,45.0899052382151],[1.651757098155297,45.08998535297313],[1.651131396276953,45.09036410894921],[1.650568514216443,45.09056261602196],[1.646994001516084,45.090653461819755],[1.645574421027612,45.0908973741655],[1.644062528890147,45.09133015732929],[1.642502030656195,45.091407519708206],[1.642073526847091,45.09135817422055],[1.641846480632048,45.09117980465701],[1.641651613382572,45.090775793851634],[1.641487156942562,45.09069004029992],[1.641341011308296,45.090426204847894],[1.641403047069775,45.090018120630035],[1.640974116773784,45.088888130321635],[1.641049345618472,45.08798941895023],[1.640350870873843,45.08691467406498],[1.639483848265966,45.08613324087808],[1.639031304286196,45.08545412004278],[1.638276697466026,45.08486045943821],[1.637742578140919,45.08466121896079],[1.637319591366164,45.084387690317925],[1.636873554688789,45.083599676100235],[1.636515478089446,45.083271105447835],[1.636496668654267,45.08299981614475],[1.636644243436505,45.0825774725375],[1.637189931339269,45.081883535643684],[1.637135200123398,45.08120837061177],[1.636699025844869,45.080486215160754],[1.636082155420425,45.07904322520686],[1.635716709187885,45.07787166766593],[1.635116277817523,45.078153384597194],[1.63483009311154,45.077641080727716],[1.634719733073306,45.07721558005396],[1.634091450282603,45.076816151041555],[1.633492260572413,45.07579841258529],[1.633138347384438,45.075718427601956],[1.633152966756524,45.07564026101039],[1.632560265593879,45.07545018207624],[1.631599669658572,45.07460900367994],[1.631010793570432,45.07348421547277],[1.630396580841314,45.07349918081131],[1.629993942891651,45.07302235450203],[1.629560688884627,45.07280990533636],[1.630110305077484,45.07216288068391],[1.630422928686342,45.07190376970557],[1.630656250314298,45.071821087239336],[1.630135408181205,45.07144907101728],[1.629782087399781,45.07087919545224],[1.629773625028007,45.07023881650574],[1.629676363518733,45.07000708541168],[1.628675480879204,45.06910414997569],[1.627758413994772,45.068412060512316],[1.626173860259267,45.06794136931503],[1.625586478900662,45.068211487513416],[1.624594362000229,45.06767964012306],[1.623972292108123,45.06724150684308],[1.623362228149762,45.06698722601165],[1.622688976105863,45.066822213448255],[1.622388767557647,45.066318708922516],[1.621889773497118,45.066044180525616],[1.6214226135958,45.06504511895354],[1.620198909261053,45.06432395655289],[1.617775756113496,45.06421827516758],[1.617786494653866,45.06373212322191],[1.616127934831265,45.063744853087876],[1.61564025637433,45.0624501382236],[1.614625893322809,45.06236278497347],[1.614443514588345,45.061722942819074],[1.614318718960491,45.06163133781538],[1.613429188893752,45.06163467843944],[1.61264835602474,45.061302567983745],[1.611699062823077,45.06130785204569],[1.609802364568151,45.06088436448273],[1.609537762928005,45.06033444110966],[1.609200312178683,45.05985294836795],[1.609074388077385,45.0598072502592],[1.607602195616557,45.06050477973677],[1.606696633320475,45.059468655088],[1.606507135110713,45.05942486047769],[1.605740343066897,45.0588380267348],[1.604707444823785,45.057815600763],[1.603406518533127,45.05755615547803],[1.602915080306489,45.05724021096691],[1.602540365241467,45.05713465146338],[1.601804968473908,45.057633322206506],[1.602684805033878,45.05888078946674],[1.602165511704006,45.059221879163275],[1.602097795913568,45.05949118849591],[1.602598826473491,45.060034190544854],[1.602656200021142,45.06048427482227],[1.602395949937218,45.060933076396],[1.60245752751908,45.06111305446984],[1.602960384378231,45.06143094518073],[1.603466594680196,45.06161469657946],[1.603715366564263,45.061931199432834],[1.603958309108754,45.0627870464636],[1.603825278929141,45.06328067124495],[1.603434919263782,45.063952977735276],[1.603102078621841,45.06512039596568],[1.602211074249471,45.065383882858995],[1.601889239157718,45.06565180514136],[1.601950797808425,45.06583268396596],[1.602201828880912,45.06605916559473],[1.602197645020925,45.06632837209719],[1.601491858260101,45.06690846289284],[1.601101590211409,45.06762579027675],[1.60033338212871,45.06816006389634],[1.596630951578423,45.069755163318945],[1.591849187771346,45.07130588955631],[1.591276393461998,45.071392304810104],[1.589309423083354,45.07137912590511],[1.588417118403177,45.071687515329415],[1.58689571737441,45.071543056324],[1.58657691852733,45.0715858406346],[1.586658298542976,45.07228839066122],[1.587933701124837,45.074123644237766],[1.588734563613539,45.07593036063929],[1.588840621106645,45.07646211995914],[1.589403020776317,45.077445422589136],[1.589521476353848,45.077939515733696],[1.590187980813895,45.07857562419466],[1.590421279689757,45.079102688042916],[1.591986721961746,45.080283270463354],[1.592182778087484,45.08057391926599],[1.592126409120909,45.0810459891709],[1.592283683110945,45.08116054309643],[1.592624684255534,45.08175290085427],[1.593267213600512,45.082334655489866],[1.593393147999519,45.08268475299719],[1.594048767674811,45.0836061708449],[1.59410853316365,45.08385817474579],[1.593882699184543,45.08480179070712],[1.593434421190682,45.08569397035034],[1.593755176184448,45.087699914395884],[1.594089180615912,45.088370526530134],[1.594790834794597,45.0890313648386],[1.594858346538069,45.08953201488203],[1.595097533431526,45.08967641458018],[1.595180588509937,45.08986207184759],[1.595224206018027,45.09009946325486],[1.594767410345113,45.0914310054142],[1.594825744066827,45.09179105592903],[1.595328123926832,45.09228908247232],[1.596399118919481,45.09292664757379],[1.598103335953117,45.09361269216633],[1.599501154659431,45.09364016946001],[1.601220638413008,45.094785632202864],[1.602021010135062,45.09557283756398],[1.603105686642796,45.09617718866945],[1.604040613742112,45.097076831514784],[1.60474034512472,45.097416089494004],[1.606242081409663,45.09792026584181],[1.606357462129014,45.09834135919362],[1.60591099033519,45.09952178585522],[1.606001141547054,45.10013888167383],[1.605906309145885,45.10062758893002],[1.606286357233237,45.101347368776636],[1.608611438661653,45.10121701668351],[1.609413421945278,45.10097577306289],[1.609837651576845,45.100943241377635],[1.611411896791027,45.100325280226876],[1.612381098126354,45.09980062799451],[1.613132462164299,45.09975324411441],[1.614778287420171,45.09906588510311],[1.615798664705816,45.09893717541645],[1.616256460877857,45.09898608462955],[1.61896921742342,45.09978247842628],[1.620068945119284,45.09968443026146],[1.620612999682007,45.0994327097146],[1.62168349179791,45.09923072242478],[1.622403283162983,45.09932877261194],[1.623110209563379,45.09912317888032],[1.623537366234892,45.09912575237398],[1.624638060405631,45.098935816800136],[1.625017496420419,45.098707258996235],[1.626503496217262,45.09820416838552],[1.628527993671214,45.09730964888302],[1.629615792342268,45.09645041000362],[1.630441063087617,45.095926536306685],[1.631083602757307,45.09601097409282],[1.632949002823603,45.09662551617974],[1.633648041284601,45.097051933740396],[1.634256245642527,45.097293525373175],[1.634708894293205,45.0973449972942],[1.635847774247509,45.09767142466537],[1.635972880628848,45.097807134863224],[1.636031754202685,45.09852107684848],[1.636664374190846,45.09943114890578],[1.637686912341348,45.09978585170672],[1.639204786241025,45.10000700999695],[1.639889943075593,45.09991000911953],[1.640750450558952,45.0999223055051],[1.641310399304043,45.09984988465418],[1.642424196709249,45.09932763763362],[1.643187442980909,45.09863181389846],[1.64356293591884,45.09856253993249],[1.643992951843271,45.09870915482626],[1.645072988707758,45.09947332979969],[1.646445873658364,45.09990695323655],[1.64763005044757,45.10041571612782],[1.648932836593746,45.100436915759154],[1.649726851012108,45.10062303973208],[1.651260722154699,45.10081631041056],[1.652486703683781,45.100753690421456],[1.653446465197276,45.10060499298985]]]]}}]}