{"type":"FeatureCollection","name":"COM_64551","crs":{"type":"name","properties":{"name":"urn:ogc:def:crs:OGC:1.3:CRS84"}},"features":[{"type":"Feature","properties":{"fid":4221,"ID":"COMMUNE_0000000009761598","NOM":"Verdets","NOM_M":"VERDETS","INSEE_COM":"64551","STATUT":"Commune simple","POPULATION":304,"INSEE_CAN":"15","INSEE_ARR":"2","INSEE_DEP":"64","INSEE_REG":"75","SIREN_EPCI":"200067262"},"geometry":{"type":"MultiPolygon","coordinates":[[[[-0.657268273207866,43.23156324176953],[-0.660529227017479,43.23247382667388],[-0.660937867709863,43.23270309587246],[-0.662067991648106,43.23436487183401],[-0.662908831319549,43.235329574968866],[-0.662464697043159,43.23553104967605],[-0.661680816559619,43.236181688100935],[-0.661647837526576,43.23655470915018],[-0.661241599228414,43.23686835446449],[-0.660441488572746,43.237302516137156],[-0.659486547811271,43.236130947567275],[-0.65944351222881,43.2359379014476],[-0.659241768504527,43.2360582035579],[-0.65899771588095,43.23607458266446],[-0.657327247604782,43.23525233087906],[-0.656539950737136,43.235247491917974],[-0.655024183353763,43.23509712979213],[-0.654291218011724,43.234783369209],[-0.654282533221109,43.23466569984619],[-0.65388416882721,43.23442345082549],[-0.65348332842199,43.234355978124796],[-0.653340782062213,43.23422483080579],[-0.652433465143933,43.23496962545639],[-0.652186337646093,43.23532647607116],[-0.649597413849104,43.23746625891509],[-0.648248540390279,43.23915704807408],[-0.648974366627928,43.23920184794368],[-0.649799495183647,43.23906408836307],[-0.650770062625229,43.239044769297124],[-0.651449023794349,43.23959450953627],[-0.652068518265743,43.23986620699714],[-0.652381282494996,43.240565207170334],[-0.651724745163349,43.24089538929603],[-0.649737492346646,43.242503340996834],[-0.648597204575179,43.24441670860591],[-0.64696920477051,43.245670277088315],[-0.645204104925534,43.24530126874196],[-0.643900060667049,43.243826180320724],[-0.64369171203374,43.24388184015035],[-0.638581399491232,43.24374986926592],[-0.635879177958322,43.24379320333245],[-0.635120119160752,43.244218583419176],[-0.635591368523762,43.24483574999091],[-0.634392821478443,43.245500146603916],[-0.634842551876589,43.24597126312319],[-0.634774525818475,43.24600597121076],[-0.634822094217191,43.24609621855685],[-0.635048466624397,43.24632632270037],[-0.635741962961551,43.246697377533806],[-0.636034609700249,43.24745113001975],[-0.635800103508564,43.24752206293972],[-0.635874170610626,43.24814990689305],[-0.63527422476996,43.248149402085744],[-0.634822966075376,43.24794758185389],[-0.63396222866483,43.24799187056987],[-0.633297864326265,43.247790014421184],[-0.631881919106514,43.24701822665624],[-0.631705095751155,43.246831473063295],[-0.630885863123654,43.246478129849386],[-0.629443272916499,43.245477587232024],[-0.628909530150585,43.245275816167776],[-0.628812992722097,43.244602802606465],[-0.628867356497641,43.244448794144084],[-0.630004488007032,43.24341462893557],[-0.630150521152247,43.242799193775475],[-0.630142732268609,43.242323103312735],[-0.629974988723652,43.2418496912864],[-0.629635599914579,43.24195655551261],[-0.628722326164038,43.2413209116724],[-0.628005276326298,43.241219850795936],[-0.627883863412359,43.24113028248641],[-0.62789872567987,43.240974901236434],[-0.627731187343604,43.240759015799895],[-0.627162824890547,43.24059352064019],[-0.626872015149209,43.24033675302484],[-0.627085731656459,43.23956326798994],[-0.627906057775575,43.238408304013774],[-0.628056622642109,43.23833480678755],[-0.628314100579077,43.23839458707571],[-0.628257045030939,43.238916978796794],[-0.628097847377489,43.23902948685728],[-0.628262881189184,43.23918602423114],[-0.628399123123537,43.23915893219904],[-0.628628021389174,43.23886218459401],[-0.6288023762566,43.23877527983118],[-0.628910710039825,43.23840244309552],[-0.628876459772607,43.238014590205154],[-0.628559492302435,43.23773349411878],[-0.628074703182075,43.2376822566548],[-0.627730956605552,43.23760196347406],[-0.627277882430323,43.237682926327],[-0.626432077878722,43.237374573332666],[-0.626398224601486,43.2370515411437],[-0.625848654738007,43.23710602483426],[-0.625410605896386,43.23701448514835],[-0.625147863392769,43.23675316975912],[-0.62396358199549,43.237114410839],[-0.62337675581628,43.23700714784606],[-0.623355184165617,43.23611460649583],[-0.624150692345799,43.23532880001885],[-0.624574856442659,43.23514076464288],[-0.626664111892172,43.233287646471936],[-0.628805184718001,43.2313598057183],[-0.629022552352786,43.23107605230144],[-0.629097643711443,43.23117347902947],[-0.63120884731562,43.229399672616516],[-0.634918357518337,43.224733720030166],[-0.637777618019271,43.221882831846095],[-0.63764696756247,43.221802592857976],[-0.638032893237522,43.22142038981689],[-0.638234842002378,43.221537844682764],[-0.639113638183171,43.220536604977546],[-0.641015334500796,43.21894615608894],[-0.642744015594269,43.21728857628147],[-0.642603973750488,43.2171375240171],[-0.643400216105346,43.21672253697889],[-0.643516724724302,43.21679334102924],[-0.644888155158158,43.2160896767954],[-0.644734860356281,43.21592376717607],[-0.645454406525801,43.215464531121036],[-0.645919408824108,43.21582881434286],[-0.646278672302009,43.21627320929291],[-0.64700127813593,43.216934040416206],[-0.64852855300855,43.217761259551914],[-0.650759903306688,43.21870150871732],[-0.65327962326178,43.220130813094194],[-0.654204075166946,43.2209243412442],[-0.654869615010411,43.22260639820906],[-0.65506090590184,43.2246349957638],[-0.655405414257754,43.22538873149785],[-0.65542584974211,43.22571131091959],[-0.655175258434034,43.226206958762745],[-0.653604332878082,43.228234910921486],[-0.65337567529392,43.22888289356827],[-0.653411748193268,43.22964708020121],[-0.653556344475533,43.229966357576835],[-0.65383075644882,43.230235314939314],[-0.65465254313111,43.230746874777815],[-0.657268273207866,43.23156324176953]]]]}}]}