{"type":"FeatureCollection","name":"COM_16285","crs":{"type":"name","properties":{"name":"urn:ogc:def:crs:OGC:1.3:CRS84"}},"features":[{"type":"Feature","properties":{"fid":4017,"ID":"COMMUNE_0000000009753173","NOM":"Rougnac","NOM_M":"ROUGNAC","INSEE_COM":"16285","STATUT":"Commune simple","POPULATION":398,"INSEE_CAN":"17","INSEE_ARR":"1","INSEE_DEP":"16","INSEE_REG":"75","SIREN_EPCI":"200070282"},"geometry":{"type":"MultiPolygon","coordinates":[[[[0.339907287030024,45.5714025288534],[0.340957494484211,45.57130484742788],[0.34144788377265,45.57105696512417],[0.34175199648316,45.57054699320529],[0.342388675687571,45.56992325257754],[0.343596673677455,45.5696373688943],[0.344682777634563,45.56969997626511],[0.345275730437762,45.56945269933769],[0.347619775462553,45.569337760542076],[0.348608474903729,45.56910340987172],[0.350965207660548,45.56746063681224],[0.353905279891457,45.56603607772297],[0.355504085983525,45.56543311671888],[0.35738444731699,45.56497730797876],[0.363353883606903,45.56287770097196],[0.364331039452797,45.56266637097445],[0.363929335869531,45.5622127670846],[0.363876326400917,45.56138532873658],[0.36365975526759,45.561030669176894],[0.363559312081395,45.56058052756587],[0.363374761394668,45.560361765038095],[0.365064814088071,45.55980316160092],[0.365898625632582,45.559773157775595],[0.366853326551629,45.55992527469852],[0.367494069498581,45.55993668415986],[0.368857592541781,45.559419927963035],[0.370880934123245,45.55837621099313],[0.372437445943522,45.557817979101166],[0.376249139792382,45.55689526146352],[0.378625287981288,45.5567119662302],[0.379920715973726,45.556329537902954],[0.381223709874347,45.555677881820586],[0.381555088739143,45.555368464166826],[0.383192809328233,45.554362397680194],[0.386310367726707,45.55311144516834],[0.387262911544987,45.5526002288413],[0.387928144611242,45.55241658365013],[0.389706097299561,45.55106951901569],[0.390423557809023,45.55097446671969],[0.391110621672171,45.550789508574944],[0.393400216083648,45.55003989527882],[0.394707964692349,45.54925305635657],[0.395038397267861,45.54898862800488],[0.394432043449255,45.54792044000993],[0.395925907703946,45.546582011556794],[0.395855789769922,45.54602719545399],[0.399191844823549,45.54559633872077],[0.398329878911412,45.544591628840124],[0.397787436270934,45.543636659220375],[0.397509160040966,45.54246256695715],[0.397493840477418,45.54106752446637],[0.397891214905724,45.53994872775181],[0.398847104486563,45.53897620764323],[0.398723257254747,45.53888324352939],[0.396995121060883,45.53885401997936],[0.395840555938653,45.53892366062297],[0.394256545514943,45.53844635447091],[0.392405424569252,45.53827906240579],[0.389930480571703,45.537909844796765],[0.38947976185564,45.536590270288656],[0.38879565071892,45.53584458738976],[0.388319303508412,45.534716316948625],[0.38798361666866,45.53419496126453],[0.387514425933282,45.53394979791268],[0.387973580296866,45.53293788354433],[0.388163071713735,45.53212601750632],[0.388228128278157,45.53055354750597],[0.388031639031834,45.52974441760508],[0.38922672138436,45.52845589992538],[0.38919823849505,45.52829847025764],[0.388511933383197,45.527928434406135],[0.38824742836756,45.527638479853714],[0.387796226756423,45.5274207638761],[0.386752373350116,45.526124317611796],[0.386525865722126,45.526089314558504],[0.386027562214754,45.52627322557289],[0.385904637716551,45.52624333524826],[0.385670690225295,45.525033300670415],[0.385417349361184,45.52458863305704],[0.385117800149659,45.52343833520663],[0.38515500995754,45.52240399456749],[0.384875869531069,45.52122894426589],[0.384384189321198,45.52100126085575],[0.38424075353086,45.520672671670276],[0.383723496789108,45.52036240167709],[0.383035054936374,45.52012201862763],[0.382020428533895,45.5199226785713],[0.380144527818428,45.518909486652404],[0.378152214060489,45.51721511654266],[0.377703139172073,45.51643970931707],[0.377452760195535,45.51571759356426],[0.377675043204294,45.51551556337484],[0.377583235840277,45.51537016553885],[0.378021793153545,45.51400823791416],[0.378629273507001,45.51324759333395],[0.378781265287314,45.5127970557518],[0.379262464995024,45.51202354936024],[0.378944600684644,45.51091244719758],[0.379162288969323,45.509070552390455],[0.376810104424195,45.50740739184727],[0.375906935270365,45.50702409554065],[0.374808529723208,45.50646143884513],[0.373260856616664,45.50586213113645],[0.372004003514345,45.505210146349974],[0.370133467214355,45.503827502306336],[0.370006719314272,45.50382543371072],[0.369601355406651,45.50440336620065],[0.36806556131688,45.504420524783704],[0.367037527856182,45.5045378682939],[0.364773222291922,45.505218123652845],[0.362425647900844,45.506436059441725],[0.36061658919877,45.506944032585196],[0.35855314939414,45.50735769684251],[0.357594227935696,45.50734053507345],[0.356959242754027,45.50719404460614],[0.356529554686438,45.506691996006495],[0.354680015896276,45.506757444829184],[0.354318123913518,45.50714534463169],[0.352965829580419,45.508068498193694],[0.3525925678318,45.508748040567816],[0.352107505971641,45.50916546436185],[0.352019966945625,45.50954991767414],[0.351505963596974,45.51051985512415],[0.350088814585621,45.51118827332714],[0.348860287910637,45.51238729897611],[0.348273513616056,45.512732930728035],[0.346984987004795,45.5139791734424],[0.346481863404741,45.51420964618498],[0.345271275030379,45.514226977501934],[0.344188040225735,45.51533208624056],[0.343415208568349,45.51557418524114],[0.34150227267483,45.51524419640634],[0.341126376801826,45.51501185212855],[0.340872428158141,45.51496259076204],[0.340162138230648,45.51512956554714],[0.338865642394253,45.5156015901386],[0.338224538805682,45.5156350457604],[0.337781568416504,45.515492098857266],[0.336750226912442,45.51569919130946],[0.335962468075444,45.516224695032506],[0.334595922423559,45.51684637472825],[0.332670520332481,45.517388991720985],[0.332922547815266,45.518038280538576],[0.332742832186012,45.51807095172701],[0.332707902621203,45.518237704793435],[0.332093966065249,45.51837178076296],[0.331985988793316,45.51845841238446],[0.331917235295306,45.51898205195603],[0.331773916011846,45.5192705648837],[0.331373219721835,45.51944754574566],[0.331059581429584,45.519866256347576],[0.330535730286588,45.5203385326983],[0.330577678721667,45.52077200236982],[0.33033256924683,45.520751759177216],[0.329260261958399,45.51994330327626],[0.328540237834419,45.51980454161267],[0.32824376343487,45.519946149917956],[0.327766432458776,45.519744682983045],[0.327383957623801,45.519729272813734],[0.326409170279214,45.51982409514361],[0.324677545790603,45.520145045997786],[0.323834759722518,45.52021325877728],[0.321707741269856,45.521423024640534],[0.320762528265646,45.52058598178478],[0.319263180046129,45.52132414447587],[0.31794453054328,45.522380148698986],[0.316949058089443,45.52335196031769],[0.315582944609085,45.524274359603915],[0.314786459705606,45.524708514384315],[0.312985604228196,45.524945644694576],[0.312848338479963,45.525212657459335],[0.311680223627588,45.52572349172882],[0.310113029047916,45.526163488117774],[0.30944989267056,45.52675396975359],[0.309050059725212,45.527439054995554],[0.308759019743985,45.52815377619672],[0.308703261847132,45.52856329296617],[0.308566187303248,45.52858793863719],[0.309038052677002,45.529430863579904],[0.309093168142763,45.52977456176077],[0.309209293271913,45.5298647405849],[0.308947882242879,45.530444122612955],[0.309149113760259,45.530735460372235],[0.309181226827132,45.53107770637576],[0.310066147797016,45.5337928758889],[0.31025860985617,45.5341596847654],[0.310659566887972,45.53450986211579],[0.310903069384303,45.53493465451131],[0.311224937889154,45.53733990385975],[0.311974516751788,45.537560569111214],[0.314176843071497,45.53844036542823],[0.314840265603758,45.53834900941109],[0.316054406090696,45.538481642750874],[0.31634966119597,45.538818460607196],[0.316453180247234,45.539090330420336],[0.316689929805529,45.540000582107275],[0.316668277993552,45.540236124673086],[0.316949457689996,45.5402545544306],[0.31710181001498,45.54094835307594],[0.317056825996053,45.54216992430044],[0.318267762815194,45.54343139728238],[0.318087796682802,45.54391814102367],[0.318032384992183,45.544613284531344],[0.317708705511944,45.544916398243146],[0.316917375569651,45.54643098860279],[0.317442881575045,45.546912955708095],[0.317465206227548,45.54912902860599],[0.31818121248622,45.54933172784754],[0.32047426473184,45.54930085010167],[0.32120214562683,45.54936415942542],[0.32438445111585,45.54937422449872],[0.325457344732484,45.549197049653344],[0.326827395746167,45.54908009436527],[0.326849062087904,45.54860398692434],[0.330588882134935,45.549125387980766],[0.33065590821479,45.54919815859759],[0.330921533282897,45.54962072584953],[0.331119769889133,45.55107061885752],[0.331880817238077,45.55209780118211],[0.332068035978929,45.55276447270037],[0.332691465724769,45.55345411462006],[0.333119752317141,45.55364177615308],[0.334391616092069,45.55583612856021],[0.333801287150865,45.55600412083449],[0.333966161965985,45.556202646320536],[0.332680197056033,45.5576344271811],[0.329936984168106,45.556433125267255],[0.329212765101184,45.556957406480606],[0.329130445599003,45.556882469595365],[0.328602033496462,45.55701586749546],[0.329838677498522,45.55935359548862],[0.329371236164807,45.55971189166482],[0.330565316015514,45.56061782881784],[0.33087306183282,45.560539545602204],[0.33102697332021,45.560912606729254],[0.332058741825841,45.56116776216186],[0.335097889029911,45.56139485037115],[0.335465441700282,45.56135311148192],[0.335765795845516,45.56156205434655],[0.336863684807014,45.561856574010356],[0.337709474700544,45.561872111371805],[0.338344053304055,45.562172756925186],[0.338467372267216,45.5625162504516],[0.338459183495762,45.56327468638016],[0.338239335074323,45.563953327145214],[0.337659268165911,45.564573879689526],[0.336278674220409,45.56530339677918],[0.336586029131736,45.56534041447214],[0.337111852389642,45.56520871811477],[0.338004246692284,45.56537672206349],[0.339437324052952,45.56614586477223],[0.341217803256349,45.56657272504616],[0.339719974578429,45.56728599610138],[0.339714276396214,45.56772554217996],[0.339935027056682,45.568257844217754],[0.340959091971113,45.568302802062185],[0.340991100226334,45.568437806201146],[0.340856678985223,45.56853913990148],[0.340088907552671,45.568766939393214],[0.339800926635911,45.569047537341575],[0.339907287030024,45.5714025288534]]]]}}]}