{"type":"FeatureCollection","name":"COM_19084","crs":{"type":"name","properties":{"name":"urn:ogc:def:crs:OGC:1.3:CRS84"}},"features":[{"type":"Feature","properties":{"fid":4158,"ID":"COMMUNE_0000000009754511","NOM":"Forgès","NOM_M":"FORGES","INSEE_COM":"19084","STATUT":"Commune simple","POPULATION":258,"INSEE_CAN":"02","INSEE_ARR":"2","INSEE_DEP":"19","INSEE_REG":"75","SIREN_EPCI":"200066751"},"geometry":{"type":"MultiPolygon","coordinates":[[[[1.844990695439535,45.16181429896689],[1.844599347835024,45.16208850521811],[1.844234969976702,45.16222791319693],[1.843837338187502,45.16262091891264],[1.843345490180458,45.164182707824544],[1.843234086482008,45.16476778458961],[1.843374974799032,45.166139819652315],[1.843206943643679,45.16638571832339],[1.843089823126562,45.167185057322804],[1.8429451582049,45.167347450500316],[1.843351910648294,45.1679297935066],[1.842129605881561,45.16818637290991],[1.841399946541072,45.16917926811833],[1.842253720678828,45.16981398156171],[1.841801594121559,45.17062155149258],[1.842309831195887,45.170669147836044],[1.842241357935646,45.171208743931935],[1.841162745749144,45.17097872721365],[1.841098510712846,45.17106811139244],[1.841661938199175,45.172014993330144],[1.840256559579947,45.17268388867774],[1.841395292042312,45.17345394410099],[1.843112250419349,45.17341591988557],[1.843492025444912,45.17407362604025],[1.841140962373801,45.176139330772315],[1.841940438704795,45.176388964382284],[1.843097669552596,45.176393759153704],[1.844116139254124,45.17485993273999],[1.844565907404029,45.17441253254185],[1.845201505927398,45.17445963255484],[1.845081779956064,45.174954575375324],[1.846472228409099,45.17599463385397],[1.846357353760007,45.17687144491447],[1.847338763449393,45.17737596309322],[1.847806705104422,45.17752847750776],[1.848944509327134,45.177735625837094],[1.849546564473585,45.17836228376359],[1.850849557010835,45.179081704204684],[1.852536013171916,45.178181430916005],[1.85321860275195,45.17805066679741],[1.8536113506054,45.17771160626995],[1.854689840261912,45.177397592023695],[1.855119673645397,45.17711203691614],[1.855369651167322,45.176718376109335],[1.855394687310917,45.176366533619635],[1.855905604373502,45.175478465850574],[1.85623882562756,45.17530898274067],[1.856673567208284,45.17540438761132],[1.856294248997889,45.17589758303263],[1.856588607339408,45.176071695161994],[1.85671750446236,45.176118941295925],[1.857564105644374,45.177304573924204],[1.864783428042436,45.17647861291627],[1.865234354979235,45.17571596494359],[1.86530167867946,45.17522227061383],[1.865178228235785,45.17490673858079],[1.864274769737599,45.174757971808134],[1.863851668894836,45.17434033337798],[1.863266040834067,45.17396426276127],[1.862982023145481,45.173094181405574],[1.866211743672226,45.17297664749669],[1.867293983041816,45.172846254937646],[1.867295449196351,45.17271119380773],[1.866598232191348,45.17243846726775],[1.866091605339452,45.17212174668485],[1.866221484633779,45.171806988085876],[1.867175848185969,45.17176624917591],[1.86680256890106,45.17077550520848],[1.867828262192655,45.169789953617816],[1.868018283952912,45.16983600564671],[1.868333053506094,45.17019669825597],[1.868778563666893,45.17019941313224],[1.869098446322574,45.169930701736824],[1.869608710224135,45.169753067710474],[1.870753625715102,45.16966740190075],[1.870881468299098,45.16957774413759],[1.870389764108099,45.16764208564209],[1.870581238747562,45.167553072274444],[1.871882379869831,45.16735641299795],[1.871915288272825,45.16755485667318],[1.872417285405447,45.16740684332143],[1.87212265059607,45.1671832427556],[1.871968889310403,45.1666026643414],[1.871463399785819,45.16572676644881],[1.871487782685384,45.16552800147957],[1.872110411995591,45.1652677458469],[1.872754607782151,45.16576773026186],[1.873014804637018,45.16612065404661],[1.873203502813462,45.16673670324301],[1.873895907686962,45.167814391066976],[1.873935383654872,45.168445142606124],[1.874220623332655,45.16844081585986],[1.875524349240509,45.16874842259741],[1.876003501382214,45.16872353202563],[1.87736876448305,45.16856707653773],[1.878617117994353,45.168019511747666],[1.879461655297035,45.1679289379351],[1.88006461501888,45.168522117908985],[1.880254488398732,45.16838534529241],[1.881008720249035,45.168418123254796],[1.880859147284179,45.16883085533964],[1.881425512114574,45.16877349727686],[1.881415877281092,45.16900032763396],[1.881920729547753,45.169026997918],[1.882094775086109,45.16885404349605],[1.883029964055986,45.169259627334625],[1.883283280083813,45.16926036095337],[1.884434877956951,45.16845602051126],[1.885578173186518,45.1686403378401],[1.886846453438225,45.169005089959214],[1.88728951343918,45.16932198206132],[1.887480446321208,45.16932298475591],[1.888573912705228,45.16766254558442],[1.888832859420005,45.16712392198099],[1.889724506625732,45.16690316705083],[1.889671891738949,45.165643742214705],[1.885735911155944,45.164817478601165],[1.885423005509168,45.164231729443735],[1.885765305422076,45.161174342191245],[1.886603954339682,45.15964915872973],[1.886736004976973,45.15915430013095],[1.885657947958444,45.15883556947081],[1.885598866280201,45.15816050442453],[1.88681474165218,45.15731086044783],[1.886690980281991,45.15681525117631],[1.887713089821481,45.156234715354],[1.887778129436566,45.15610028860937],[1.887461018276805,45.15591882861658],[1.886953380368349,45.155782293530144],[1.887147623394787,45.15542313029675],[1.887531475639465,45.15506495667207],[1.887470166933218,45.154884245514566],[1.887217581987949,45.15465840310484],[1.887220544154728,45.15425410828898],[1.887792830020098,45.154211186689075],[1.887613157481916,45.152816323173596],[1.88768310643942,45.1520515961559],[1.888007166129084,45.15124347643419],[1.887187636548434,45.15047528531589],[1.886928149618375,45.14957489986566],[1.886675590864579,45.14934905651008],[1.885915853165988,45.14903080136291],[1.886356050603389,45.14782312466444],[1.885757798465378,45.14770368915682],[1.886902100931669,45.14724144853085],[1.886925782045629,45.14669148040973],[1.886178679857296,45.14625178571009],[1.886513541639692,45.145794973571874],[1.885629586141997,45.14507205340101],[1.884741775482514,45.1447984360799],[1.882965125000652,45.14443126937775],[1.882141847736917,45.14411325234901],[1.881824664810324,45.144066850017666],[1.881318208888205,45.14375020063198],[1.88055767598692,45.14347692530328],[1.879392325880348,45.14276914114217],[1.879715107086295,45.14355131395533],[1.879669442812602,45.14373455713792],[1.879326845130107,45.14387699718583],[1.878888826364161,45.14427241807783],[1.878796030443493,45.14458485920473],[1.878455778184507,45.144800260673236],[1.878152343419942,45.14533660905154],[1.877585314765222,45.14550200107997],[1.877085205098525,45.14550327238844],[1.876604108985616,45.14531832950764],[1.876214045362378,45.14528918738436],[1.8757994585634,45.144897795987475],[1.874967237302087,45.14458323752261],[1.87473900572113,45.14422703957347],[1.874335270118466,45.14386636907612],[1.873833060071,45.14365688756851],[1.873130924022943,45.143518325125136],[1.872497090110941,45.1435263294651],[1.871608586059746,45.14335435632621],[1.870467392305075,45.143408545088704],[1.869764211512285,45.1433221797822],[1.868975211037972,45.14332679108582],[1.868186565613795,45.14318822085123],[1.866999795065775,45.14260345691463],[1.866580107124171,45.14190310721572],[1.865484695477825,45.14152096709996],[1.864815036114644,45.1410386909758],[1.863813715999501,45.14078626318547],[1.863270803788133,45.140391716455824],[1.862446846695892,45.13974036051919],[1.86210821902663,45.13962434455479],[1.861852273408967,45.13963434069632],[1.861295272199621,45.139869990977516],[1.860450573433382,45.13992530153471],[1.860261913339651,45.139880150254776],[1.859902407630083,45.13960272458051],[1.85964824822512,45.13958751989479],[1.859203655901983,45.139738761172524],[1.858011332470052,45.14036771938809],[1.857579909039278,45.140994553975275],[1.857138881716572,45.141343934143606],[1.856816962406608,45.14140637258593],[1.856463362258086,45.14102723945952],[1.85630125021363,45.140990458108774],[1.855853098699647,45.141438815464085],[1.855647842893881,45.14301168868043],[1.855011466397221,45.143143836923116],[1.854563511251643,45.14345711622321],[1.8542405100591,45.14413007721129],[1.85404059618363,45.14525365280608],[1.852511553856504,45.147708919518145],[1.851838347207361,45.14814414153652],[1.850825959192335,45.14842638312762],[1.84872386370605,45.14996258668434],[1.84666832885968,45.152381729315],[1.847667736257412,45.15427591288627],[1.847411823468287,45.15458934757782],[1.847661220874848,45.15508540067355],[1.85010053524423,45.1580137953189],[1.850505765800161,45.158175558714255],[1.850852095304306,45.15854022857633],[1.850872108466463,45.15892855296001],[1.850393912599023,45.15897225533879],[1.849334149188576,45.1593818701531],[1.849280204965859,45.160023375415456],[1.84869980210406,45.159961557924774],[1.84781306287616,45.16006497001373],[1.847707489168042,45.16024668299385],[1.847417598718161,45.16041658690479],[1.847155869587447,45.160702045959596],[1.846392116352546,45.16088956400172],[1.845911452618746,45.16111332345741],[1.845500504797214,45.16141254426267],[1.845327849082768,45.161760155185135],[1.844990695439535,45.16181429896689]]]]}}]}