{"type":"FeatureCollection","name":"COM_87043","crs":{"type":"name","properties":{"name":"urn:ogc:def:crs:OGC:1.3:CRS84"}},"features":[{"type":"Feature","properties":{"fid":4171,"ID":"COMMUNE_0000000009751855","NOM":"Cheissoux","NOM_M":"CHEISSOUX","INSEE_COM":"87043","STATUT":"Commune simple","POPULATION":223,"INSEE_CAN":"07","INSEE_ARR":"2","INSEE_DEP":"87","INSEE_REG":"75","SIREN_EPCI":"248719353"},"geometry":{"type":"MultiPolygon","coordinates":[[[[1.652816723403817,45.84557144786441],[1.653818300329526,45.84545459787384],[1.653992645305515,45.84554493620582],[1.654352499258327,45.84553211120055],[1.654768440661293,45.845068741138896],[1.655169527258496,45.84442146587065],[1.655809199887833,45.84413637659548],[1.655992749914649,45.84326675827712],[1.656702252690093,45.842759140692905],[1.657427396405198,45.841714033536256],[1.65772161470688,45.83989557228222],[1.657708258358479,45.83922625172557],[1.657276812668048,45.838423173356006],[1.657310790112785,45.8380858441149],[1.658024512588339,45.83729547425131],[1.658238091625813,45.83741419160625],[1.658706052431923,45.837351302049754],[1.658835400291542,45.837118676346606],[1.659177724068321,45.83681742970239],[1.65932069330735,45.836554344053454],[1.659315766259977,45.835908540173754],[1.659135505295554,45.834895903475996],[1.659539688085782,45.83448731572157],[1.659233145344422,45.83374066494691],[1.659253814595557,45.83336715252511],[1.659554905381473,45.83338333485568],[1.659818975430818,45.83327929453013],[1.660324103120764,45.83306373415102],[1.660932641418791,45.832674677164114],[1.660968189923579,45.8321122106234],[1.661113192155165,45.831711352120585],[1.660887759218927,45.831232251188055],[1.661257151090377,45.83060979820933],[1.661249054142509,45.83041246630912],[1.66093106666745,45.83003133659155],[1.660927057332395,45.829559363805956],[1.66065268509878,45.829504775051134],[1.660606918527518,45.829054822552166],[1.659990196689741,45.828508935742306],[1.660563588473803,45.828026700417944],[1.660185285442778,45.82763674747004],[1.659645972141964,45.82804193190806],[1.659306635388403,45.82774520234722],[1.659683583853752,45.82744796849099],[1.659357077705379,45.826835273371586],[1.659090532665751,45.826830307716186],[1.658750926310767,45.82606795210311],[1.656770310230991,45.82016425576359],[1.65632191112594,45.81985270986565],[1.656666531842713,45.81966497771771],[1.657058310231482,45.819021190475326],[1.656913730856348,45.817392949167356],[1.65641252919684,45.81739959523131],[1.655785796772785,45.81716608011909],[1.654601592231388,45.81639455384328],[1.653263150037522,45.8160336600293],[1.652945349394875,45.815756080112585],[1.649518514631945,45.817526297972314],[1.649495389118802,45.816997355958584],[1.649350312325901,45.81655701752693],[1.649112789175762,45.8163155111269],[1.648740169557908,45.81638400300586],[1.646315438501929,45.81420697394051],[1.646026310584707,45.814022481963086],[1.645835220820926,45.814041805280546],[1.645306066165883,45.81377157511138],[1.645093934147545,45.81380865716452],[1.644228160094639,45.813347952892144],[1.643837187297577,45.81332524506134],[1.64364410849762,45.81342559688015],[1.642650845500568,45.8130173861365],[1.641951878464371,45.81284506762534],[1.642246976880592,45.812628864465275],[1.642277491152536,45.81248783347134],[1.64149590731348,45.811852498453696],[1.640850647234317,45.81201044751985],[1.640162943730187,45.81232278912763],[1.639763924668451,45.813620285408504],[1.639312214268759,45.81355360020565],[1.639197957197743,45.81379989493389],[1.638711326560418,45.81410474440267],[1.638790334535809,45.81429572870449],[1.636874531320332,45.81458153051527],[1.636396277656071,45.81423351824486],[1.635385893077043,45.81457165463382],[1.634992572123303,45.81407065583152],[1.634876308793409,45.81382428014162],[1.63490831539555,45.81357159140573],[1.633893329446146,45.8127424481508],[1.632895564421864,45.81288347776157],[1.63275254594017,45.81423808828944],[1.632550710076478,45.81422303528552],[1.632287618589404,45.814081152314884],[1.631965169789008,45.81519132016629],[1.632121147524512,45.81554985772599],[1.631739977490605,45.81622251015044],[1.63221601913218,45.81639939659532],[1.632411974844541,45.81665214411506],[1.631723969096396,45.816764493020294],[1.630834822612102,45.81672939818449],[1.630976432076979,45.81694006046594],[1.630833802832342,45.81718600330119],[1.630436337720001,45.817527924255195],[1.630916085710593,45.81776340175982],[1.631339952463032,45.8185385755484],[1.629086115266568,45.81863191885431],[1.629323529826786,45.81918598443171],[1.629390066978155,45.82024142578564],[1.627951412170496,45.82215309758627],[1.627431481971171,45.82177121779033],[1.62696527529167,45.82207806786429],[1.626684591287149,45.82196928138192],[1.6264426170551,45.822116743169865],[1.626263353348456,45.82191822584155],[1.625891720933339,45.821944325667744],[1.623977459883255,45.82236142320257],[1.624062093912045,45.82279025261164],[1.623042103456907,45.82314257448789],[1.622643599138195,45.82285131502692],[1.621806128167443,45.82306445323465],[1.620732502872244,45.82380967453168],[1.619826347169492,45.82398683491746],[1.618557382801795,45.8244027203486],[1.619224436742882,45.824926938492005],[1.618694415600148,45.82546443670929],[1.618087822801899,45.824994993043774],[1.617491239069949,45.825257879991355],[1.618095333767391,45.82592993785054],[1.617200659328303,45.826675515227144],[1.617097073473358,45.82685077018662],[1.61712187768586,45.82730048790281],[1.616989210779329,45.827453771589504],[1.617379103297831,45.828088985935445],[1.617561597237149,45.828055194762214],[1.617937649839419,45.82908921635563],[1.61844695771253,45.82938094706813],[1.618671534379283,45.82977636823202],[1.618737107280388,45.83075975644959],[1.617496066290971,45.83072295701538],[1.617722273161439,45.83120756234941],[1.618829283512962,45.831194986879815],[1.61898742504599,45.83141397222856],[1.618762635431543,45.831644486356616],[1.617565398455305,45.832275589913834],[1.618409562567468,45.833911554701196],[1.618932240375776,45.833773846163325],[1.618912068163383,45.83447699082576],[1.619520524448672,45.83482486671065],[1.619959729685402,45.8348824702214],[1.620510078194695,45.83590600291206],[1.61929205634184,45.835819971161236],[1.618834075074546,45.836203443833924],[1.618022308029143,45.836050314893086],[1.615124735068443,45.835940074144936],[1.614490431660323,45.837340880863714],[1.613156259701285,45.83710745637615],[1.612677747798349,45.838151715427664],[1.613191265102105,45.8393549588561],[1.613624028606854,45.840798577599955],[1.613470582535393,45.842392611318246],[1.613598702782687,45.84344792130419],[1.614601741862422,45.84476343840976],[1.615456917535803,45.84565653980746],[1.616173404261621,45.84622280830481],[1.617241295303554,45.84613771514446],[1.617844879992265,45.84617031873638],[1.619535996216211,45.84641435150539],[1.621583471230092,45.84683832988977],[1.623403561900251,45.84702803887951],[1.623829861712376,45.84688372810978],[1.624210914552545,45.84690007724283],[1.624746763667456,45.846755295796484],[1.625372530225327,45.84677732151739],[1.626150328816363,45.846956100663945],[1.626530362145655,45.84716876644644],[1.627291948374707,45.84737796187264],[1.628242824966269,45.847541717315906],[1.629069261169477,45.84763100392218],[1.631640246344836,45.84695698130049],[1.631871401133744,45.84615822288916],[1.634039127563787,45.84662125699683],[1.634468655753421,45.846553498735446],[1.636304754100548,45.84567955370803],[1.636622788708727,45.8456383609072],[1.63737415105464,45.84589689919203],[1.63834784462261,45.845971682804645],[1.638686514461901,45.846086541108754],[1.639160796515106,45.84676412159328],[1.639543674168731,45.84675882594399],[1.640288811532563,45.84659127383238],[1.640367806489196,45.84683719458281],[1.640924627943425,45.84730411374494],[1.641737115902134,45.84670416164386],[1.641037962520945,45.84584196137697],[1.641443879777455,45.845633395271605],[1.642021396705135,45.846044719176696],[1.643198514213865,45.84523659190839],[1.644425158235422,45.845138739065504],[1.645642272313331,45.84453640922231],[1.646643330681033,45.84454570400921],[1.647514938192563,45.844684030672454],[1.64781726041607,45.844810134425515],[1.6486495208061,45.84497680124906],[1.649927778799168,45.845033512806936],[1.65079717875698,45.845262750511885],[1.650822926313136,45.845685450231834],[1.651836376777507,45.845874070694926],[1.652299549255492,45.84579944148147],[1.652503414753645,45.84563075492249],[1.652816723403817,45.84557144786441]]]]}}]}