{"type":"FeatureCollection","features":[{"type":"Feature","properties":{"fid":411,"ID":"COMMUNE_0000000009756336","NOM":"Villenave-de-Rions","NOM_M":"VILLENAVE-DE-RIONS","INSEE_COM":"33549","STATUT":"Commune simple","POPULATION":373,"INSEE_CAN":"12","INSEE_ARR":"3","INSEE_DEP":"33","INSEE_REG":"75","SIREN_EPCI":"243301215"},"geometry":{"type":"MultiPolygon","coordinates":[[[[-0.34328386519116,44.683317754085785],[-0.344457667456663,44.68377156184917],[-0.347208243912753,44.68414792030232],[-0.350329224327478,44.68461391588524],[-0.350207033645054,44.68519251409435],[-0.350245958958431,44.68557069545104],[-0.350040246899554,44.68601936237417],[-0.349982431421604,44.68642750640289],[-0.351123340346153,44.68700569362279],[-0.352126799974983,44.687184344556684],[-0.352661084058995,44.68743848155643],[-0.354481882466562,44.68778787505106],[-0.355133955004369,44.688025813489915],[-0.355858740335728,44.68812727904925],[-0.356442252164272,44.688359180055855],[-0.356797069825515,44.6883781501407],[-0.357236362606635,44.68869101660498],[-0.357869463225855,44.68894933959681],[-0.358205049774878,44.68900583406589],[-0.358132320192486,44.68912067916512],[-0.356796804851657,44.689411717160986],[-0.356454583654202,44.68960412263706],[-0.355574434043706,44.69035080018224],[-0.355079974927004,44.69061720326236],[-0.35441732884819,44.690795890814606],[-0.354816770246871,44.69139382137099],[-0.355162873259906,44.69219881883648],[-0.354231113125956,44.692355929804165],[-0.353238377536541,44.6926770784434],[-0.352778757224817,44.69274417322165],[-0.35226485378364,44.69313009697425],[-0.351714364165455,44.693368445636715],[-0.351408290819715,44.693595783276066],[-0.350593129965185,44.693929549772506],[-0.349470450091654,44.694148269322575],[-0.346905164595602,44.69432592491567],[-0.346178858186794,44.694646156724005],[-0.344335573162933,44.69526056936061],[-0.344162735242121,44.69534959546301],[-0.343848808446467,44.69580692737286],[-0.343645253842584,44.69586804596774],[-0.341846044986188,44.6957151544809],[-0.341192655720322,44.69573218498345],[-0.34076940678035,44.695795427119826],[-0.340583777636224,44.69592448171943],[-0.340270079241932,44.695981710834744],[-0.339083487701802,44.696040055814635],[-0.339051695536545,44.69627079361846],[-0.337131445793413,44.6958448435994],[-0.336096604772562,44.69577783324219],[-0.335555164435328,44.695829300503696],[-0.335470426928515,44.69597693058348],[-0.334698846952614,44.69591818981944],[-0.334652472554513,44.69620162850265],[-0.332622545601309,44.69577890697366],[-0.331132954076756,44.69588323763645],[-0.330892466210528,44.69583280841364],[-0.330437640705638,44.69542659383024],[-0.329516454484104,44.69533717832299],[-0.327239927471423,44.69465235671686],[-0.326901941427797,44.69485445176432],[-0.326753228988446,44.694839099628346],[-0.325238041906931,44.69395382941096],[-0.325143077977874,44.69328717823682],[-0.325268420551318,44.692928383944036],[-0.324781665089001,44.69277180721391],[-0.323825095262958,44.692231966834356],[-0.323789876903262,44.6920419953783],[-0.324336493733849,44.69051715914104],[-0.325207960345329,44.6895952923879],[-0.325707998251841,44.6889080535143],[-0.326616458541158,44.688527514510525],[-0.326802415830659,44.68786953839717],[-0.328998198024736,44.68633922172537],[-0.32960476606635,44.6864507221755],[-0.330077375789319,44.68643289164636],[-0.33223728605451,44.686646284888354],[-0.333182419022784,44.686566448788014],[-0.333572957485381,44.684842618457765],[-0.334099947227304,44.68452757555308],[-0.335228742284901,44.68405201490594],[-0.336005917267024,44.683589750460655],[-0.336246240517617,44.68387265205124],[-0.336663445512523,44.68353838032456],[-0.3374851003989,44.684039826906485],[-0.337561054310454,44.683787033125725],[-0.340286710010377,44.68368042989884],[-0.34051354730458,44.68418269454633],[-0.340786496430071,44.68444027244087],[-0.342238350169738,44.683939562646536],[-0.34328386519116,44.683317754085785]]]]}},{"type":"Feature","properties":{"fid":611,"ID":"COMMUNE_0000000009755864","NOM":"Saint-Léon","NOM_M":"SAINT-LEON","INSEE_COM":"33431","STATUT":"Commune simple","POPULATION":298,"INSEE_CAN":"12","INSEE_ARR":"2","INSEE_DEP":"33","INSEE_REG":"75","SIREN_EPCI":"243301215"},"geometry":{"type":"MultiPolygon","coordinates":[[[[-0.263145156568518,44.768257395655645],[-0.263230937558194,44.768209814951014],[-0.263247060148395,44.76792099491742],[-0.263154660156379,44.76676493010271],[-0.262551528962189,44.76535178353712],[-0.262399213742632,44.76399113771162],[-0.262518369159876,44.763886707768634],[-0.264180998548831,44.763724191147794],[-0.264945247372087,44.7623356342356],[-0.266073589729644,44.76057500446877],[-0.266325884491993,44.759910679488414],[-0.266749294781495,44.759253021345856],[-0.26856490124932,44.75654668578666],[-0.26915123100352,44.756168950155306],[-0.2682156389723,44.75560725700904],[-0.268178535853598,44.755512837695896],[-0.268321709001083,44.75538696749489],[-0.268313606295419,44.75509525770209],[-0.269637897525057,44.75507779679244],[-0.273550446452574,44.75477119548268],[-0.279574702659914,44.75448394286487],[-0.281779695041832,44.75421588439883],[-0.282791202933798,44.75416968785317],[-0.283412300774984,44.75423778043474],[-0.285402442017399,44.75511949492884],[-0.286189403400666,44.755234013988854],[-0.2876229442899,44.75528968882055],[-0.28703294649243,44.7563380428187],[-0.286484078596275,44.75685713657403],[-0.28873111951139,44.75782578738315],[-0.289841224455002,44.758166771622534],[-0.289502746057913,44.75938518369004],[-0.288376736360158,44.760286366372725],[-0.287383214105963,44.760706929499804],[-0.28847022490815,44.76190645078481],[-0.288394738648764,44.76349190466275],[-0.290527084794237,44.76348985648331],[-0.290640312873642,44.76380367661574],[-0.291533887977387,44.763922203549406],[-0.291317133489076,44.76575064965698],[-0.290889463151883,44.765856167985035],[-0.290143606813232,44.76620902342236],[-0.28955762084917,44.76624625011771],[-0.289100073304155,44.767181651665375],[-0.288296893586134,44.767938983281766],[-0.286216898363251,44.76909913279917],[-0.285806390879169,44.76936902087003],[-0.285110943779088,44.77013124218297],[-0.284506749095405,44.7703555063355],[-0.284075792147124,44.770860277063605],[-0.283076630733651,44.772444269786455],[-0.28253419411736,44.773011809388095],[-0.282381611493099,44.77343173218309],[-0.282432046027653,44.773688850575766],[-0.283134451778908,44.7736725434342],[-0.283233903393439,44.77483380440593],[-0.283532427794217,44.77593780417018],[-0.283534068501246,44.77709205276999],[-0.282308237730344,44.77767803918488],[-0.281546282642589,44.77710859260471],[-0.278260096208353,44.77748701193001],[-0.278182531035787,44.77778396282232],[-0.276254655063166,44.777309343891325],[-0.273555812166799,44.776998944226165],[-0.272487924419912,44.77675746123673],[-0.271817527695598,44.77675923821455],[-0.269779079380652,44.776121975132675],[-0.269389776096563,44.77632359214792],[-0.268743125720705,44.77645080168853],[-0.268590065599774,44.776559842886755],[-0.268440328743131,44.776943616345555],[-0.268734359535783,44.77730078236124],[-0.268807543040427,44.77779782388166],[-0.268561250626775,44.778457474649464],[-0.268615240538029,44.779821024945086],[-0.268479112270577,44.780090860519856],[-0.268242495895889,44.78028616663564],[-0.267987614758895,44.78034144170588],[-0.266865623377574,44.78014925625227],[-0.266187068369368,44.780185479697685],[-0.265865960926027,44.78029856916019],[-0.265661718556938,44.77978826807764],[-0.265539983434183,44.77825911369489],[-0.265412790118663,44.778269169876005],[-0.265147276037044,44.7777057082588],[-0.264755126093293,44.776464759826986],[-0.264580824304264,44.77400814141103],[-0.264653325863799,44.77264266982713],[-0.263736425051983,44.772493973842714],[-0.264001938460862,44.77199055769958],[-0.263177164509619,44.77022531006226],[-0.263307975944648,44.76901401106384],[-0.263145156568518,44.768257395655645]]]]}},{"type":"Feature","properties":{"fid":1114,"ID":"COMMUNE_0000000009755873","NOM":"Le Pout","NOM_M":"LE POUT","INSEE_COM":"33335","STATUT":"Commune simple","POPULATION":617,"INSEE_CAN":"11","INSEE_ARR":"2","INSEE_DEP":"33","INSEE_REG":"75","SIREN_EPCI":"243301215"},"geometry":{"type":"MultiPolygon","coordinates":[[[[-0.367966623634361,44.81093466211778],[-0.367851161766901,44.81116255416801],[-0.367109056120961,44.811495990183325],[-0.365724906212883,44.811889466516305],[-0.365046852963524,44.81225698915717],[-0.363209871194378,44.813820340119555],[-0.361922455184257,44.81456227680357],[-0.361414206667289,44.81467951654492],[-0.361195080739645,44.81482583673587],[-0.360579583234631,44.815774471297054],[-0.35945430866518,44.81662500622866],[-0.358834800244983,44.81689339151983],[-0.358396058327365,44.816987784783535],[-0.357553744632652,44.81674836121004],[-0.356991207914076,44.816762691864845],[-0.356015144372924,44.8169544458874],[-0.353501076061792,44.81829571270685],[-0.352527134141704,44.81839635600239],[-0.352074400757198,44.818617305800565],[-0.35049571639144,44.81883173283519],[-0.349708629857826,44.818477938916544],[-0.349333750952581,44.818391040247974],[-0.349458559002773,44.81829715643058],[-0.349823905863777,44.81828792117356],[-0.350097913223701,44.81806336982776],[-0.350106420311642,44.81780268467642],[-0.350308722357163,44.817692040122125],[-0.350174885674433,44.81737978577632],[-0.349892083848236,44.81745681692989],[-0.349751327089201,44.81741060607675],[-0.349674831321978,44.81684970789076],[-0.349708150088259,44.816644143661804],[-0.350091620658932,44.81617478086317],[-0.350096217400722,44.81561503731832],[-0.350244075208236,44.81541952891009],[-0.349986528919647,44.815325482959494],[-0.349904637498502,44.815077441979106],[-0.349521295380856,44.81474208742146],[-0.349160838902127,44.81423842948769],[-0.348118725205436,44.81187739784564],[-0.347747251562785,44.81033866874608],[-0.347844452099131,44.809696830951445],[-0.347828487634709,44.80775086916028],[-0.347690148474606,44.807128760921486],[-0.347365862583196,44.806763683309455],[-0.347955486952244,44.80656835429066],[-0.348047778792862,44.8064177813869],[-0.346854227353918,44.806270894290776],[-0.346346829143141,44.80574283129473],[-0.344971392354261,44.80507065014756],[-0.345821169377655,44.804185326828105],[-0.344137797989866,44.80325119187763],[-0.347586425016805,44.80139439874344],[-0.348840488366588,44.800583347929965],[-0.351072827328216,44.798073816589195],[-0.351759712185587,44.797579953441726],[-0.353237562839044,44.79704323435535],[-0.353227546469716,44.79662090722254],[-0.353435047530638,44.79602619096063],[-0.353441130560698,44.795597970046515],[-0.353284271474057,44.79523865954763],[-0.353355587771798,44.79482198199099],[-0.354451598036012,44.794801430372424],[-0.355423232568864,44.7921470246398],[-0.355607645325968,44.79067890712123],[-0.355754266155435,44.790400523970995],[-0.357377602049448,44.79052347168922],[-0.359544582837134,44.79017214170461],[-0.360710940569066,44.79012325997517],[-0.362158834527255,44.79063443951777],[-0.362991492634382,44.790739838887376],[-0.363463224082599,44.79103100689259],[-0.363560112171917,44.79129660411169],[-0.365399994895931,44.79235094445607],[-0.367322134945461,44.79289722009005],[-0.367339906297697,44.79325713457842],[-0.367224478191353,44.79348502461606],[-0.367266957114336,44.79438396920667],[-0.36716098950234,44.794790897924315],[-0.367150778652449,44.79614111105269],[-0.36565443226802,44.797887907126906],[-0.365564944731393,44.798654788581715],[-0.365207660858852,44.79911350206519],[-0.364996898120979,44.80024361887507],[-0.365130108588891,44.800375646345316],[-0.365208344447694,44.80068866912715],[-0.365807174666016,44.801303986311076],[-0.367356774217802,44.80198594145147],[-0.368268913116391,44.80254847347934],[-0.368608225916199,44.80303559116983],[-0.368767441427874,44.803706607410554],[-0.369012459315616,44.804183072996665],[-0.369174609488492,44.80429078712194],[-0.369314613712708,44.804556873788776],[-0.36936396297006,44.805590784526196],[-0.369311693289432,44.80581675739789],[-0.369013493788768,44.806184474949745],[-0.368956977926572,44.80781725812395],[-0.368754401778188,44.808935423052],[-0.368752732180467,44.81019527010207],[-0.367966623634361,44.81093466211778]]]]}},{"type":"Feature","properties":{"fid":1239,"ID":"COMMUNE_0000000009755875","NOM":"Créon","NOM_M":"CREON","INSEE_COM":"33140","STATUT":"Commune simple","POPULATION":4863,"INSEE_CAN":"11","INSEE_ARR":"2","INSEE_DEP":"33","INSEE_REG":"75","SIREN_EPCI":"243301215"},"geometry":{"type":"MultiPolygon","coordinates":[[[[-0.351999963983624,44.75851977420075],[-0.352233388089701,44.758998412292804],[-0.352415886950442,44.759747124776936],[-0.35305927189683,44.76063147187612],[-0.353372148883442,44.761381643540574],[-0.354751377658474,44.7628753881894],[-0.357670857314899,44.76315458659588],[-0.361594866288669,44.763987156539315],[-0.36218964845733,44.76325180953418],[-0.362504341892126,44.76316295807108],[-0.363431246854742,44.763983676481374],[-0.363560348202544,44.76421765340621],[-0.364182915364742,44.76451774563824],[-0.364909092423626,44.76517513776573],[-0.365647173240912,44.76632688281846],[-0.365800864219779,44.76690794576663],[-0.366492891701928,44.76684636612837],[-0.367401758208581,44.76736392396844],[-0.367405883473409,44.76745391138848],[-0.363998978467352,44.76884243032147],[-0.365933093486624,44.770954498261005],[-0.365939909625927,44.77108946045941],[-0.365444108381442,44.771281144590716],[-0.365449660646283,44.771416145194856],[-0.365650063847375,44.77163624032043],[-0.36460185748958,44.772426830277944],[-0.363560701321867,44.77390655872453],[-0.363559715984001,44.77372095619976],[-0.362899724205013,44.77491155734294],[-0.361061253506664,44.77617665993154],[-0.360748889297715,44.776538476486806],[-0.361345221504651,44.776884441824805],[-0.361567453172573,44.777215622528594],[-0.358999327863386,44.77886958287114],[-0.357017876326591,44.78143026350183],[-0.355942774785499,44.78190258084164],[-0.354996013566367,44.78206642056016],[-0.353904457616264,44.78262392144592],[-0.353295007066395,44.78405172844221],[-0.353131797816522,44.784773063013596],[-0.352585281096454,44.78553843558112],[-0.352359746723626,44.786169739651214],[-0.351497719278901,44.786779744776105],[-0.349459060693563,44.78469670613458],[-0.348167208003406,44.785462053873175],[-0.348703242252473,44.785708984689975],[-0.348041025158917,44.78612639071087],[-0.346991170646881,44.78583550317921],[-0.346672475698743,44.78556217577877],[-0.347005153833853,44.785517885179594],[-0.346522861166836,44.78455833698598],[-0.346252287379915,44.78424300493081],[-0.345394601146937,44.78367235915523],[-0.345179932180507,44.78336074378874],[-0.343824086558211,44.78394414271331],[-0.343142129594087,44.78415755980988],[-0.342514118285348,44.78421435245603],[-0.341482156476576,44.78452121942323],[-0.339025771276075,44.78464212308605],[-0.337013445846718,44.78529477716283],[-0.336660265234367,44.7857397517538],[-0.336088593474774,44.78597863908812],[-0.334409912525802,44.78636978680403],[-0.333790226871807,44.78661010659554],[-0.332718390799059,44.786459420315865],[-0.331937120586091,44.78642884722298],[-0.331248789409277,44.786664007543486],[-0.330250477879533,44.78685711591221],[-0.326724840746413,44.78723605152481],[-0.326535807355781,44.78718495600617],[-0.324750044374145,44.78760710347869],[-0.323277012902321,44.78552916739582],[-0.3222267350134,44.78430811498432],[-0.32197056610573,44.782949710247024],[-0.322096262204685,44.78255035407845],[-0.321820502804057,44.782294595813696],[-0.321385530101011,44.78137858998961],[-0.321451402199366,44.78037367979539],[-0.323000693885073,44.780064102464586],[-0.324356241693069,44.78013698058294],[-0.326626889705705,44.779296578342255],[-0.329282499489589,44.778078709151316],[-0.333784457276043,44.77520755660659],[-0.336454018571329,44.77397466921518],[-0.336092959180377,44.773369179371784],[-0.335868620506624,44.773212832733],[-0.334588102677109,44.7728242541396],[-0.335607759477424,44.77173745276321],[-0.336138366649679,44.771576396119265],[-0.335363480985852,44.770946420494575],[-0.335094173222619,44.77060759947923],[-0.334962793044484,44.768456993001244],[-0.334224797335532,44.76718971601704],[-0.334061019058783,44.76538791642959],[-0.333055033269402,44.76437830832678],[-0.332326936567692,44.763937944531484],[-0.331988058734164,44.76364086007441],[-0.331044538223595,44.76208328530522],[-0.330138074863676,44.76097965037563],[-0.329456398334016,44.75918621340846],[-0.32919876496302,44.757633240385424],[-0.328505810847802,44.75688722585162],[-0.328491933748176,44.75646051864813],[-0.330288618954757,44.754488954559875],[-0.332354845799981,44.75137025044365],[-0.334049572309407,44.749923428593824],[-0.336268940751986,44.750372924288264],[-0.337939295439519,44.751074115163206],[-0.341471923349158,44.75210748759499],[-0.345242015878481,44.75283621191678],[-0.347319237079057,44.753018551167514],[-0.34707093399352,44.753839761614344],[-0.341078563757671,44.757001576944674],[-0.341125085151267,44.757358816245876],[-0.34160490314168,44.75749482669878],[-0.341440997929571,44.75778001768174],[-0.342416685322267,44.757938910621654],[-0.343635830147225,44.757831826154664],[-0.344220161936426,44.75768352288334],[-0.345114265763865,44.75778898646534],[-0.346041544169689,44.75802680572818],[-0.347423679473336,44.758596899846445],[-0.348153530501804,44.75881093192366],[-0.34901570333252,44.75869835874284],[-0.349464883954909,44.758786602215096],[-0.350036192782862,44.75856837476322],[-0.350399490118892,44.75853125342226],[-0.350955852301901,44.75878385649292],[-0.351093461204825,44.7587796931394],[-0.351490538965533,44.758609081878895],[-0.351999963983624,44.75851977420075]]]]}},{"type":"Feature","properties":{"fid":1450,"ID":"COMMUNE_0000000009755878","NOM":"Loupes","NOM_M":"LOUPES","INSEE_COM":"33252","STATUT":"Commune simple","POPULATION":940,"INSEE_CAN":"11","INSEE_ARR":"2","INSEE_DEP":"33","INSEE_REG":"75","SIREN_EPCI":"243301215"},"geometry":{"type":"MultiPolygon","coordinates":[[[[-0.393161652023499,44.81959604354429],[-0.392174825890276,44.8199650741697],[-0.389106037922069,44.8214187620898],[-0.388508554792334,44.82152623737834],[-0.387571862971483,44.82121602490522],[-0.386716904732008,44.8220721054082],[-0.38607656085971,44.823127989511],[-0.385575497018811,44.8233649735577],[-0.384043327591572,44.82433092117763],[-0.382858314220985,44.82559535173747],[-0.381611304517975,44.82555769057853],[-0.38013652822051,44.8251439689513],[-0.37949045343902,44.82484465353359],[-0.377845329552938,44.823534943584384],[-0.37565402175153,44.82267979992092],[-0.37656249043117,44.82184741259427],[-0.378023221075856,44.81990329660742],[-0.378175022625514,44.818343287896006],[-0.378480078651085,44.818110507802004],[-0.378469080001124,44.81788555566416],[-0.376811805881173,44.81630676738453],[-0.375672641651024,44.81498433012689],[-0.374356169426597,44.813891665523904],[-0.373641668311263,44.81350429015405],[-0.372938152581412,44.813341862561174],[-0.372560063879112,44.81311726497882],[-0.372176263142484,44.813261408097055],[-0.371164997674245,44.81328675652823],[-0.370582290526147,44.81298546910131],[-0.369873632934833,44.81246272156429],[-0.369914943271124,44.81201179538024],[-0.368857050024648,44.81104818515907],[-0.369143999404272,44.810893479758114],[-0.369294311624862,44.81059243562382],[-0.369645383073227,44.80967071004932],[-0.369886890726303,44.808252180122295],[-0.370086560829505,44.808119950230385],[-0.370660843249377,44.80813402989539],[-0.371970369706504,44.80784909341221],[-0.373211200930648,44.807790616205025],[-0.376039081029185,44.80703137389781],[-0.377084799587002,44.80699141081017],[-0.377770326683647,44.80687680502802],[-0.379736523348885,44.8062933092157],[-0.380076094955861,44.80596214731632],[-0.380966278541014,44.80554660561089],[-0.381736581483012,44.8048850961254],[-0.382480337496619,44.80472903329874],[-0.382814198313299,44.80442957682515],[-0.383663618331127,44.80403147700823],[-0.383932094164016,44.80373941973437],[-0.384129737991646,44.80334318890493],[-0.384886313939505,44.80346337018668],[-0.384969362102654,44.80387536216566],[-0.386549407707818,44.80388116868898],[-0.388341096798226,44.804331959380676],[-0.389103372939481,44.80309841100807],[-0.389988236102623,44.803120915551055],[-0.39210099868308,44.801908213083216],[-0.393164108778568,44.80182250539467],[-0.393240613447718,44.80134976230281],[-0.393783879166253,44.80032744449696],[-0.393743878180403,44.799518534410204],[-0.39507336601783,44.7982702753334],[-0.395183119105974,44.79790825510075],[-0.395777295801379,44.79687084974437],[-0.397493635705723,44.797333708204796],[-0.398696249750438,44.79737974227743],[-0.39960472734565,44.79764745811699],[-0.403292505871202,44.798477789695916],[-0.40384235797526,44.79850776455629],[-0.404872369641265,44.79831572112048],[-0.404329169498473,44.800129312538544],[-0.404370784986603,44.80098323190425],[-0.40494698590552,44.80240828529034],[-0.404826582849465,44.802990526968344],[-0.405263824250765,44.80312488495461],[-0.406007888097116,44.80355981205589],[-0.406875106251355,44.80377106668024],[-0.407773482682167,44.80370289861684],[-0.408123114371013,44.803853456562805],[-0.408883169833069,44.80365435840899],[-0.409416174428584,44.80378124958324],[-0.411455054272598,44.80365093046836],[-0.412327390164196,44.80340419562908],[-0.413396220141042,44.803287478296596],[-0.414064449465113,44.80403558966048],[-0.414353264099781,44.805017972604766],[-0.414795639692789,44.80500704888986],[-0.414863071430624,44.80509598900022],[-0.414822126737425,44.805546930803075],[-0.416152700102897,44.80561226975598],[-0.416220134713819,44.8057012090594],[-0.416061209145523,44.80633511935351],[-0.41591554845945,44.80849879789604],[-0.415090539022871,44.80881709575265],[-0.41387177477069,44.80882219387178],[-0.413836934801636,44.809936204234205],[-0.412182405598051,44.809707782957794],[-0.410980110174041,44.80969251620753],[-0.409395599652358,44.80986652113364],[-0.40919499336596,44.80937705170959],[-0.407208274783953,44.810370834161574],[-0.40653378399634,44.81079257920615],[-0.406537975097175,44.81088256649337],[-0.407184033386347,44.811181723007614],[-0.40697832188433,44.812131561057015],[-0.407363230542161,44.81225760902852],[-0.407638239460041,44.812700638183905],[-0.407671528286378,44.81337458527067],[-0.407560415354962,44.81369250613958],[-0.407005389075113,44.81397630827893],[-0.406312825782572,44.81403814183676],[-0.405481324775724,44.81383389059201],[-0.403156699384023,44.81284821286712],[-0.401468859009491,44.81194478381216],[-0.399280909608579,44.81114407935484],[-0.397984900813499,44.81050073484382],[-0.397416838604837,44.810506430492566],[-0.396416648742701,44.810756059307266],[-0.395719939702255,44.81072783899864],[-0.394116181593943,44.81022814934484],[-0.392254155180337,44.810021105379896],[-0.391472146169684,44.813108954467204],[-0.391445501710038,44.81365316548267],[-0.391473453474151,44.813906435898446],[-0.391689277920504,44.81404221575604],[-0.391965355855589,44.81444199238036],[-0.392585941051224,44.815703545109756],[-0.392803982834983,44.817280203322255],[-0.392444482555376,44.81807791303672],[-0.393161652023499,44.81959604354429]]]]}},{"type":"Feature","properties":{"fid":1568,"ID":"COMMUNE_0000000009756106","NOM":"Saint-Genès-de-Lombaud","NOM_M":"SAINT-GENES-DE-LOMBAUD","INSEE_COM":"33408","STATUT":"Commune simple","POPULATION":390,"INSEE_CAN":"11","INSEE_ARR":"2","INSEE_DEP":"33","INSEE_REG":"75","SIREN_EPCI":"243301215"},"geometry":{"type":"MultiPolygon","coordinates":[[[[-0.351999963983624,44.75851977420075],[-0.352601583947207,44.7583222426591],[-0.35360981268192,44.75815655171468],[-0.353875078939991,44.757917833101466],[-0.353880554831051,44.75760678136483],[-0.354182538158607,44.757326399754916],[-0.354282002322956,44.75691608190167],[-0.35458261283053,44.75659158586259],[-0.355009869226114,44.75665163479282],[-0.354985549592121,44.75637122243365],[-0.355070189274288,44.75628485444978],[-0.355741689880074,44.756093298122686],[-0.356928638107443,44.756337576556135],[-0.357366453284343,44.75621436905249],[-0.357920086059735,44.75578577318788],[-0.35791124979939,44.7556166305495],[-0.358102837756776,44.75549998389306],[-0.358181991879987,44.75532186546654],[-0.359201238927809,44.754939518726985],[-0.360855143154627,44.754469419518465],[-0.362741067918341,44.75322719793703],[-0.36286815454858,44.75251866207431],[-0.362991900747636,44.752346394717534],[-0.364230320961742,44.7519086831188],[-0.364669597620783,44.751852985173365],[-0.366043118896095,44.75126426494544],[-0.367081651501877,44.751184934645785],[-0.368159695910656,44.751448621998364],[-0.368213558655772,44.75152448044559],[-0.368054416401912,44.75176000814582],[-0.368236125393039,44.752006796389786],[-0.368796224222435,44.751772589159266],[-0.369309210964015,44.75140644595871],[-0.370477945750654,44.750229157288246],[-0.370724781298803,44.74972692722803],[-0.372098639330265,44.74933546494943],[-0.372393485812636,44.74919131760105],[-0.372601052597298,44.74885698684978],[-0.372395287625353,44.748673115963086],[-0.373233551554712,44.747595971866104],[-0.374452481562517,44.74698391656645],[-0.375512530785601,44.74669568889789],[-0.376153365961926,44.746417529491275],[-0.376262458526573,44.74619162526027],[-0.376211833588672,44.74526410824444],[-0.376289897261442,44.74517431889238],[-0.376981702770235,44.74488198430373],[-0.377428867125575,44.745000811749875],[-0.377683539352105,44.744883106318206],[-0.377916728988734,44.74461827092373],[-0.378410863272745,44.74444549885008],[-0.3786340935341,44.744204394975156],[-0.379387315249891,44.74405074651153],[-0.380352575398996,44.743638304330666],[-0.380449058368698,44.74349748640737],[-0.380187127005955,44.74322072653978],[-0.380164555122264,44.74208779832166],[-0.380011453958816,44.74191765346869],[-0.380025827731757,44.74179916715196],[-0.380108242599479,44.74173988035556],[-0.38108098162028,44.742062521908466],[-0.381577063468912,44.74232221643497],[-0.38181814092768,44.741600259829326],[-0.382433227847123,44.74085336102264],[-0.382442668685804,44.73995915464035],[-0.384435362381648,44.74067503414844],[-0.385374094149222,44.740516573788405],[-0.38868489541936,44.74107402186492],[-0.389494700881127,44.74177644745652],[-0.389840398965867,44.74191094658049],[-0.390989200731816,44.742111866715355],[-0.391596166442805,44.742532127971806],[-0.392361963621247,44.74283938430495],[-0.392751781751644,44.74290854265415],[-0.393234355003775,44.743110928326175],[-0.394001472176071,44.743272149811794],[-0.396126067336404,44.74355033911722],[-0.3972226683727,44.7435978022017],[-0.400371426320973,44.74349844778719],[-0.401440459747355,44.74369630457967],[-0.402509416773591,44.7440599630389],[-0.402911369067585,44.74426658760579],[-0.404354223750405,44.744581791154594],[-0.409053058475166,44.74470847064219],[-0.411021344124422,44.74434597264506],[-0.412755215383537,44.74372572802782],[-0.411872986256247,44.74529477104104],[-0.411625963589315,44.74539159524025],[-0.410552774797359,44.745418346948476],[-0.409620350167895,44.74570208511516],[-0.409313089079687,44.74588997187077],[-0.408563710934107,44.7460437073109],[-0.408529674050151,44.74662959599156],[-0.406011630214233,44.74754153227672],[-0.405151421425234,44.74770315834633],[-0.404697950817472,44.748108196622205],[-0.403608429425771,44.748430054305764],[-0.401787881440912,44.74872930295207],[-0.401442374018347,44.74893366102175],[-0.400002458714419,44.749086917813344],[-0.398658821026196,44.749284961180464],[-0.397905133925671,44.74964060947912],[-0.397101273051138,44.74973105494321],[-0.396854698530946,44.74991974721898],[-0.395023436063814,44.75002186211433],[-0.394385421776124,44.750262198429574],[-0.393629723592823,44.75094138593157],[-0.393179800100663,44.75105069297921],[-0.392846684738888,44.75104197534121],[-0.391659945782186,44.75059261559403],[-0.392532809854772,44.75170851886615],[-0.392493111946589,44.752538779768706],[-0.392262257251368,44.75305138849759],[-0.391695957013818,44.75364275669],[-0.38913893247841,44.755407060083144],[-0.388310369926225,44.75624343337962],[-0.387907285538176,44.75690007575226],[-0.388058307883551,44.75793716821475],[-0.387956936151062,44.75829081079305],[-0.388206856265668,44.75905904345941],[-0.388157829401598,44.75965168832552],[-0.387271478868931,44.76051685451678],[-0.386944816072342,44.760679135858595],[-0.38573162928436,44.76166241879907],[-0.386586856756024,44.762589675405124],[-0.386694607734899,44.76349652855922],[-0.387099184669628,44.76431230257695],[-0.385259241930039,44.764635285509776],[-0.379189330561901,44.76497742038199],[-0.377343545349837,44.76490935673022],[-0.37536930868477,44.76451356040429],[-0.375358576198325,44.765430338007675],[-0.374620673543085,44.766160208493915],[-0.375029790636597,44.76678033865964],[-0.375812416479669,44.76730077490904],[-0.376015546411583,44.76756582529494],[-0.37538400661294,44.76758146590187],[-0.375253603979654,44.76749532604927],[-0.374620573680891,44.7674650500185],[-0.372601936255432,44.76778515119851],[-0.371782203459978,44.76780559946836],[-0.371836092153945,44.76735429511578],[-0.369919395584653,44.766906185245304],[-0.36895145579726,44.76647965600084],[-0.368031103727914,44.765728166957565],[-0.36790478870197,44.76573110636843],[-0.366492891701928,44.76684636612837],[-0.365800864219779,44.76690794576663],[-0.365647173240912,44.76632688281846],[-0.364909092423626,44.76517513776573],[-0.364182915364742,44.76451774563824],[-0.363560348202544,44.76421765340621],[-0.363431246854742,44.763983676481374],[-0.362504341892126,44.76316295807108],[-0.36218964845733,44.76325180953418],[-0.361594866288669,44.763987156539315],[-0.357670857314899,44.76315458659588],[-0.354751377658474,44.7628753881894],[-0.353372148883442,44.761381643540574],[-0.35305927189683,44.76063147187612],[-0.352415886950442,44.759747124776936],[-0.352233388089701,44.758998412292804],[-0.351999963983624,44.75851977420075]]]]}},{"type":"Feature","properties":{"fid":1669,"ID":"COMMUNE_0000000009756103","NOM":"Capian","NOM_M":"CAPIAN","INSEE_COM":"33093","STATUT":"Commune simple","POPULATION":798,"INSEE_CAN":"12","INSEE_ARR":"3","INSEE_DEP":"33","INSEE_REG":"75","SIREN_EPCI":"243301215"},"geometry":{"type":"MultiPolygon","coordinates":[[[[-0.355162873259906,44.69219881883648],[-0.355780648919291,44.69200887285476],[-0.356753566316648,44.69135579668687],[-0.356862002680808,44.691606616203764],[-0.35690221418362,44.69312825308857],[-0.356693591280825,44.6940573086112],[-0.356993330968589,44.694338368025555],[-0.357069361510075,44.6946811821688],[-0.357005280479255,44.69521657764101],[-0.356308606047376,44.69580000049444],[-0.356581099666558,44.6968316031944],[-0.356639456130095,44.69689921748279],[-0.356933822389618,44.69694164921365],[-0.356810231128964,44.697199509331845],[-0.35686016252884,44.69729531326092],[-0.35697049090319,44.69745055951811],[-0.356944995796462,44.69770093792871],[-0.356513176151744,44.69827722663262],[-0.356005842908189,44.698816155557694],[-0.355357310894578,44.69927556164494],[-0.355081472990629,44.69926860752671],[-0.354908182842466,44.69937118089432],[-0.354985934829751,44.69953102136398],[-0.35476793784544,44.700134159650204],[-0.354189187840508,44.700386892823616],[-0.353955745077529,44.700688628989184],[-0.353396732174147,44.700975902416076],[-0.353324806197831,44.70112586264372],[-0.352719921775046,44.70147039083242],[-0.352479831400464,44.70157588530304],[-0.351930111266506,44.70163759448367],[-0.351475874611326,44.701838782523254],[-0.351864357057286,44.702230707694284],[-0.351997154960641,44.70250872908279],[-0.351872584414981,44.7028143711196],[-0.352014510886871,44.703309281182364],[-0.351960567523706,44.703612783825676],[-0.351678826988405,44.70412232976244],[-0.351459553585268,44.705086840844956],[-0.350912346851399,44.705785545752995],[-0.350606428546453,44.706738261223094],[-0.349120276037373,44.70807272402969],[-0.348514381258607,44.70982477635993],[-0.348086646340735,44.70981428935023],[-0.347915459156826,44.710951250508586],[-0.348020927826762,44.71127966488613],[-0.346648500619814,44.714189379401994],[-0.345147692591252,44.71519712731656],[-0.343686365141155,44.71631719953621],[-0.343572121483667,44.71656394797774],[-0.343703169954954,44.71672759363685],[-0.342426258155664,44.7166769540212],[-0.342415009332496,44.71716839318911],[-0.343275158493666,44.718797736136814],[-0.343426372858942,44.719258136630344],[-0.344117639051341,44.719895057518215],[-0.344895704634286,44.72109884840958],[-0.344905997611832,44.72150583571955],[-0.344163797630032,44.72254290331601],[-0.346549559915393,44.723150231149596],[-0.347165648429445,44.723456901711494],[-0.34819721896248,44.72356627591471],[-0.348445882641259,44.723369522020846],[-0.348961255278505,44.72323678696317],[-0.349349283400359,44.72289704415056],[-0.349781392498666,44.72268212062179],[-0.350192490629946,44.72258137055155],[-0.351056353932536,44.72208214045031],[-0.351484596877633,44.72199348183308],[-0.351937924356588,44.72177430261389],[-0.3519746526911,44.72245442669749],[-0.352151085264572,44.72306093504284],[-0.352103152332182,44.72422931995106],[-0.351843224378761,44.72538249810224],[-0.351481114336709,44.72628465723324],[-0.351166699414692,44.7267357186538],[-0.351169966044367,44.72702397413292],[-0.351357035285889,44.72740578709331],[-0.351228231873256,44.72759891908285],[-0.351373719354207,44.72774950514367],[-0.351260066775687,44.72785747435741],[-0.351190484334854,44.728493059642176],[-0.350556243157114,44.72905021915706],[-0.350170983281372,44.72988278808825],[-0.349461374824731,44.7304908814032],[-0.349089648518593,44.73097791247209],[-0.349145778484472,44.731538505701394],[-0.349693622627357,44.732714097171225],[-0.3496695726065,44.73303201507614],[-0.349460205174797,44.73357090477518],[-0.349191992541462,44.73522354269088],[-0.347817146027955,44.73763413958768],[-0.347930121462769,44.73815156470759],[-0.348508300564109,44.739283896570164],[-0.348461411452627,44.73979173852429],[-0.347659822405051,44.7415758452583],[-0.34704110650761,44.74186578371164],[-0.346269019563136,44.74244690662004],[-0.345709415323671,44.743114418106764],[-0.344962645074948,44.74359023755613],[-0.342759066757337,44.74436054764256],[-0.340987571812029,44.744678936835726],[-0.339446521700481,44.74523725120744],[-0.337795715136864,44.74482024962965],[-0.337201961592708,44.74476515576042],[-0.335197650112099,44.74375953470775],[-0.333976983882989,44.74351605066742],[-0.332797258895991,44.74296044046565],[-0.330434468287435,44.742560255025154],[-0.327437359508054,44.7416744671859],[-0.327047164443623,44.74176819228571],[-0.326908475717936,44.741903018971925],[-0.32707907370537,44.742435850203435],[-0.325782743899922,44.74242973850319],[-0.325330263737482,44.74234691028638],[-0.32513550426393,44.742153615942165],[-0.32503502160259,44.74169436924015],[-0.325125708424904,44.74141050290617],[-0.325635268087712,44.7409833971199],[-0.325742546172249,44.74074498798813],[-0.325643858079211,44.74061549049567],[-0.324875573431059,44.74032317860507],[-0.325378037773564,44.73975481442623],[-0.322625330011312,44.73863628931937],[-0.321367724860766,44.7378927705188],[-0.320706061592212,44.737371058175576],[-0.319853828139762,44.737004638553074],[-0.318293873742903,44.735742111618016],[-0.31787708512991,44.73551310921804],[-0.317411236376377,44.7350738183436],[-0.317269969635326,44.73460768022148],[-0.31192082251661,44.73601763783282],[-0.311278623565121,44.73627563545887],[-0.310198721534991,44.73481031488581],[-0.309020097366461,44.73368584540829],[-0.307219271750185,44.73251327328282],[-0.305465943928604,44.73115813801276],[-0.304880606799594,44.730877353552486],[-0.30286682340514,44.730165221241805],[-0.30303636787784,44.72969430176498],[-0.302800139795677,44.72909401842816],[-0.301246946137363,44.72672994723405],[-0.299636195038261,44.72454599007203],[-0.298344829396165,44.71944291091304],[-0.298778668387517,44.71914704296679],[-0.299612287629916,44.71760838109864],[-0.299367340478476,44.712892228497886],[-0.299255024474784,44.71239908291838],[-0.299008948051282,44.71193064951337],[-0.298659811152224,44.71121298606579],[-0.298661925746115,44.7104298871938],[-0.298815838591937,44.70997295889858],[-0.299254626521953,44.709568811119595],[-0.29971146774062,44.709321811640166],[-0.300703492500795,44.70902190496686],[-0.301748386449613,44.70809416282369],[-0.30215186363006,44.70786406320197],[-0.306383039124662,44.706306811304835],[-0.307737100659413,44.705912221037764],[-0.308128717778492,44.705695969331074],[-0.308432900914444,44.70538951905547],[-0.309255115032805,44.704395371531724],[-0.309774137921352,44.7031660939286],[-0.310418241255802,44.70228088849488],[-0.310830773876327,44.70136836716113],[-0.311028644704589,44.70037215996177],[-0.311884098150654,44.6989787194185],[-0.312894029768095,44.697656337074356],[-0.314278399526271,44.69653628481985],[-0.31530398642104,44.69552428223695],[-0.316429237719924,44.69393168972032],[-0.316475297132841,44.69346985726454],[-0.317650280312763,44.69387976253783],[-0.317554985560948,44.693313137389566],[-0.31756766025174,44.69232787686975],[-0.317707487607695,44.69214977533224],[-0.318033313146372,44.692169739450684],[-0.318242643149232,44.692270689665925],[-0.318674815237549,44.69141611761525],[-0.320256548344775,44.69191200970134],[-0.320540187301541,44.69166651250649],[-0.320557721246266,44.69100008741358],[-0.322807246147606,44.690696461631894],[-0.323063286603505,44.69054009252261],[-0.324336493733849,44.69051715914104],[-0.323789876903262,44.6920419953783],[-0.323825095262958,44.692231966834356],[-0.324781665089001,44.69277180721391],[-0.325268420551318,44.692928383944036],[-0.325143077977874,44.69328717823682],[-0.325238041906931,44.69395382941096],[-0.326753228988446,44.694839099628346],[-0.326901941427797,44.69485445176432],[-0.327239927471423,44.69465235671686],[-0.329516454484104,44.69533717832299],[-0.330437640705638,44.69542659383024],[-0.330892466210528,44.69583280841364],[-0.331132954076756,44.69588323763645],[-0.332622545601309,44.69577890697366],[-0.334652472554513,44.69620162850265],[-0.334698846952614,44.69591818981944],[-0.335470426928515,44.69597693058348],[-0.335555164435328,44.695829300503696],[-0.336096604772562,44.69577783324219],[-0.337131445793413,44.6958448435994],[-0.339051695536545,44.69627079361846],[-0.339083487701802,44.696040055814635],[-0.340270079241932,44.695981710834744],[-0.340583777636224,44.69592448171943],[-0.34076940678035,44.695795427119826],[-0.341192655720322,44.69573218498345],[-0.341846044986188,44.6957151544809],[-0.343645253842584,44.69586804596774],[-0.343848808446467,44.69580692737286],[-0.344162735242121,44.69534959546301],[-0.344335573162933,44.69526056936061],[-0.346178858186794,44.694646156724005],[-0.346905164595602,44.69432592491567],[-0.349470450091654,44.694148269322575],[-0.350593129965185,44.693929549772506],[-0.351408290819715,44.693595783276066],[-0.351714364165455,44.693368445636715],[-0.35226485378364,44.69313009697425],[-0.352778757224817,44.69274417322165],[-0.353238377536541,44.6926770784434],[-0.354231113125956,44.692355929804165],[-0.355162873259906,44.69219881883648]]]]}},{"type":"Feature","properties":{"fid":1684,"ID":"COMMUNE_0000000009755634","NOM":"Baron","NOM_M":"BARON","INSEE_COM":"33028","STATUT":"Commune simple","POPULATION":1204,"INSEE_CAN":"10","INSEE_ARR":"5","INSEE_DEP":"33","INSEE_REG":"75","SIREN_EPCI":"243301215"},"geometry":{"type":"MultiPolygon","coordinates":[[[[-0.329114052965435,44.80932642646432],[-0.329006190243417,44.81182127042546],[-0.32930735262841,44.813378379596905],[-0.330237034443903,44.816397160239994],[-0.332692350386166,44.81973414840755],[-0.333901625875377,44.821037771908294],[-0.334090541035885,44.82221527349515],[-0.335037380334755,44.823725027418156],[-0.335621417112025,44.825009593364136],[-0.335865364862083,44.82581237138146],[-0.336070271847245,44.827023635097866],[-0.336223903333165,44.82732900233797],[-0.336443210026156,44.827567512020394],[-0.338233012980926,44.828876160212545],[-0.338499288687665,44.82920156354122],[-0.338832554034218,44.83261313495698],[-0.340266180704698,44.83318904471126],[-0.341323078472279,44.83345638441677],[-0.34127468032244,44.834303107921706],[-0.340774911382904,44.835162527641565],[-0.340214761724384,44.834943301600354],[-0.339997220040718,44.83518234610161],[-0.338872098637184,44.835109889613626],[-0.338492841793249,44.83735792393147],[-0.337489019950268,44.83713221248095],[-0.33723883961777,44.83778134853959],[-0.336180730735027,44.83894410476508],[-0.335022215128844,44.839909817185884],[-0.333893872388564,44.83974188411703],[-0.332719166794058,44.84015836619942],[-0.331241688255967,44.8405100361514],[-0.330497815617568,44.840909048023036],[-0.32986231769939,44.840765022934214],[-0.32902698842577,44.84081803204133],[-0.328481174846486,44.840990308055176],[-0.327701083470726,44.840714538783246],[-0.327506123307634,44.84133586030788],[-0.326654728876019,44.84133166080678],[-0.32623686980529,44.84088461557194],[-0.325178189215781,44.84097312932683],[-0.324384103445246,44.841273578675086],[-0.323879645848111,44.84131032372795],[-0.323113771300158,44.84073942747875],[-0.322724437889112,44.84105206820728],[-0.321346511566146,44.84161058465615],[-0.320964171408369,44.84165627543286],[-0.320151345439073,44.84157607755315],[-0.31947107557327,44.84131708819001],[-0.318957149761939,44.841579375933684],[-0.318555999786207,44.84201400700584],[-0.317710522746228,44.841959999591026],[-0.315400917943726,44.842164225528386],[-0.315046397013751,44.842123457232596],[-0.314427500410643,44.842388860351775],[-0.314105185299861,44.84227143217571],[-0.313566566758665,44.84275971304669],[-0.313153529105594,44.84299372750244],[-0.312557878442483,44.84260150552541],[-0.311887003271536,44.84232957396761],[-0.311826762248385,44.84139420366408],[-0.311447120947193,44.841356877506165],[-0.31096966630895,44.841099892350066],[-0.309159730222304,44.83953098294328],[-0.308896647710307,44.83953702931667],[-0.308140648401351,44.83913064595846],[-0.306656165406136,44.8385909852601],[-0.305693403503633,44.83843675591229],[-0.305294485750756,44.83764124116131],[-0.305529433146692,44.836963806342254],[-0.304552224584967,44.83647748575595],[-0.304696333743255,44.835526116098876],[-0.304280812689882,44.83530871108758],[-0.302787053143516,44.83482424797123],[-0.302640366071597,44.83467722838912],[-0.302607032128776,44.834304257286334],[-0.298666504230411,44.83347265385842],[-0.296880347102216,44.833355454338516],[-0.295942850723094,44.833370703585565],[-0.295520563760561,44.83299397137377],[-0.294753414463734,44.832502228769066],[-0.296785232647929,44.829319490196454],[-0.297424900645802,44.829861865933026],[-0.300056009012918,44.826754055953465],[-0.300211158098041,44.82670077861737],[-0.300298233000336,44.82652337109284],[-0.299819601937117,44.82583384499327],[-0.300018661470657,44.824222137344364],[-0.300267697029933,44.823633507805376],[-0.300282019786984,44.82215345423487],[-0.300688556569905,44.82178901848902],[-0.300757557241794,44.82136884822566],[-0.301360865862885,44.82114273016661],[-0.301608359611009,44.819946793350404],[-0.301947675410553,44.81958074967464],[-0.302441476117393,44.818310793328195],[-0.302212926703785,44.818084212306914],[-0.302805342097483,44.81743668920922],[-0.302663031838143,44.81734180598697],[-0.303054475638317,44.81704449255883],[-0.302900104071264,44.81693825452928],[-0.303411663673283,44.816466150094364],[-0.304252749065843,44.815440852046166],[-0.305242456174668,44.814424633107215],[-0.306668849674865,44.81323588403708],[-0.306400529194197,44.81278522013922],[-0.306254199970887,44.812127266357784],[-0.305826331629492,44.809782716892975],[-0.305814080953405,44.809165820860876],[-0.306121101651978,44.80853219484296],[-0.307428070891648,44.80763985624658],[-0.308388163073162,44.806360463924044],[-0.309280036882231,44.8055138305792],[-0.309719669236727,44.80487623459885],[-0.310402849139134,44.80426921036079],[-0.308834348051068,44.803448270992895],[-0.308241417387166,44.80322356979463],[-0.307284991823025,44.80305927268878],[-0.308055756114729,44.80224149363193],[-0.308188987900604,44.802204176305565],[-0.309069975210886,44.80254913725454],[-0.309690775393556,44.80187189058417],[-0.31024110225852,44.80100841259543],[-0.310458848586135,44.80090188620347],[-0.310913546008029,44.800799996213144],[-0.31207073185414,44.800849227828],[-0.312509515967793,44.80084242346298],[-0.313436419970552,44.80061377106934],[-0.315840823287011,44.80073650968004],[-0.317728644090139,44.80096296927801],[-0.318976712563332,44.80122207197739],[-0.319586077749507,44.80142459732127],[-0.321482750407238,44.8023995570941],[-0.322282136681399,44.80260448426119],[-0.324416416871471,44.80395705273405],[-0.326280678846086,44.805023020357375],[-0.326938547259812,44.80553043305874],[-0.327637683450601,44.80585818157024],[-0.328193438277928,44.80622267125977],[-0.328965193286137,44.80734842781042],[-0.329114052965435,44.80932642646432]]]]}},{"type":"Feature","properties":{"fid":2396,"ID":"COMMUNE_0000000009755877","NOM":"Sadirac","NOM_M":"SADIRAC","INSEE_COM":"33363","STATUT":"Commune simple","POPULATION":4718,"INSEE_CAN":"11","INSEE_ARR":"2","INSEE_DEP":"33","INSEE_REG":"75","SIREN_EPCI":"243301215"},"geometry":{"type":"MultiPolygon","coordinates":[[[[-0.387099184669628,44.76431230257695],[-0.390149449273791,44.763588192319936],[-0.395739994156884,44.762893383368386],[-0.398887293101355,44.76291940715623],[-0.400660726161488,44.7630253778454],[-0.402735096177979,44.76321309152803],[-0.405211967324129,44.76371821299221],[-0.406212225426107,44.76394338385514],[-0.40698829395776,44.764205179637536],[-0.411460404648875,44.76611314450603],[-0.418097244228679,44.767688324912285],[-0.423904405082111,44.76967536338274],[-0.428298929255999,44.769982820510904],[-0.431903610596445,44.76978469447159],[-0.433431044073935,44.76979323578014],[-0.432755341387087,44.77105417436427],[-0.432497212446513,44.77136406182293],[-0.43169705380073,44.771788967122895],[-0.431472517160167,44.77237987485782],[-0.431431729444702,44.77283081774311],[-0.430819580030796,44.773206636731686],[-0.43040402441347,44.77375659709801],[-0.430032005370142,44.773900586510074],[-0.429585707052768,44.773822485059846],[-0.42933579092703,44.77387347715088],[-0.42834263658371,44.77447464998479],[-0.42816155791054,44.77465868313819],[-0.428019528708804,44.775607494073846],[-0.427462239126651,44.775846421715194],[-0.426395894422204,44.7778214059202],[-0.424529237133128,44.77748170714845],[-0.423685289499318,44.77868560486827],[-0.423693721814844,44.77886557618131],[-0.422887714961977,44.779425768230944],[-0.42259274444697,44.77983859979177],[-0.42360271874331,44.78237750501598],[-0.423545264219576,44.78251445432154],[-0.422632435788697,44.78321221689366],[-0.422467955673457,44.783711133237134],[-0.422489028707672,44.7841610625482],[-0.42224033603993,44.78448234754068],[-0.422893074264861,44.7849154697564],[-0.422845254199292,44.78523145210172],[-0.42249547661479,44.78582530727163],[-0.42256832067556,44.786003289561954],[-0.423153766078395,44.78634927454524],[-0.422990757711275,44.78689320467311],[-0.421468934535832,44.78993566403255],[-0.421386133865838,44.790487929168314],[-0.42126945549352,44.79067086263794],[-0.420950824328624,44.790633838805384],[-0.420171667440703,44.790203703308485],[-0.419121147483342,44.79067949174099],[-0.41734500236457,44.790544132808115],[-0.414320326704881,44.78993806570619],[-0.413919561562275,44.790215353188536],[-0.413851938797764,44.790456243297385],[-0.412763980695742,44.791379196173686],[-0.410863459983163,44.7940943194135],[-0.409716580420448,44.79452792243341],[-0.407518396815434,44.79511459672255],[-0.405396213418424,44.79538979458723],[-0.403565452538109,44.79596329573541],[-0.403936417718189,44.7971982003213],[-0.403830790323727,44.79743934937537],[-0.40384235797526,44.79850776455629],[-0.403292505871202,44.798477789695916],[-0.39960472734565,44.79764745811699],[-0.398696249750438,44.79737974227743],[-0.397493635705723,44.797333708204796],[-0.395777295801379,44.79687084974437],[-0.395183119105974,44.79790825510075],[-0.39507336601783,44.7982702753334],[-0.393743878180403,44.799518534410204],[-0.393783879166253,44.80032744449696],[-0.393240613447718,44.80134976230281],[-0.393164108778568,44.80182250539467],[-0.39210099868308,44.801908213083216],[-0.389988236102623,44.803120915551055],[-0.389103372939481,44.80309841100807],[-0.388341096798226,44.804331959380676],[-0.386549407707818,44.80388116868898],[-0.384969362102654,44.80387536216566],[-0.384886313939505,44.80346337018668],[-0.384129737991646,44.80334318890493],[-0.383932094164016,44.80373941973437],[-0.383663618331127,44.80403147700823],[-0.382814198313299,44.80442957682515],[-0.382480337496619,44.80472903329874],[-0.381736581483012,44.8048850961254],[-0.380966278541014,44.80554660561089],[-0.380076094955861,44.80596214731632],[-0.379736523348885,44.8062933092157],[-0.377770326683647,44.80687680502802],[-0.377084799587002,44.80699141081017],[-0.376039081029185,44.80703137389781],[-0.373211200930648,44.807790616205025],[-0.371970369706504,44.80784909341221],[-0.370660843249377,44.80813402989539],[-0.370086560829505,44.808119950230385],[-0.369886890726303,44.808252180122295],[-0.369645383073227,44.80967071004932],[-0.369294311624862,44.81059243562382],[-0.369143999404272,44.810893479758114],[-0.368857050024648,44.81104818515907],[-0.368541034897209,44.81105598563459],[-0.367966623634361,44.81093466211778],[-0.368752732180467,44.81019527010207],[-0.368754401778188,44.808935423052],[-0.368956977926572,44.80781725812395],[-0.369013493788768,44.806184474949745],[-0.369311693289432,44.80581675739789],[-0.36936396297006,44.805590784526196],[-0.369314613712708,44.804556873788776],[-0.369174609488492,44.80429078712194],[-0.369012459315616,44.804183072996665],[-0.368767441427874,44.803706607410554],[-0.368608225916199,44.80303559116983],[-0.368268913116391,44.80254847347934],[-0.367356774217802,44.80198594145147],[-0.365807174666016,44.801303986311076],[-0.365208344447694,44.80068866912715],[-0.365130108588891,44.800375646345316],[-0.364996898120979,44.80024361887507],[-0.365207660858852,44.79911350206519],[-0.365564944731393,44.798654788581715],[-0.36565443226802,44.797887907126906],[-0.367150778652449,44.79614111105269],[-0.36716098950234,44.794790897924315],[-0.367266957114336,44.79438396920667],[-0.367224478191353,44.79348502461606],[-0.367339906297697,44.79325713457842],[-0.367322134945461,44.79289722009005],[-0.365399994895931,44.79235094445607],[-0.363560112171917,44.79129660411169],[-0.363463224082599,44.79103100689259],[-0.362991492634382,44.790739838887376],[-0.362158834527255,44.79063443951777],[-0.360710940569066,44.79012325997517],[-0.359544582837134,44.79017214170461],[-0.357377602049448,44.79052347168922],[-0.355754266155435,44.790400523970995],[-0.354700617339657,44.78953940562518],[-0.353835779762506,44.78857614364166],[-0.35264823424527,44.7878875713909],[-0.351497719278901,44.786779744776105],[-0.352359746723626,44.786169739651214],[-0.352585281096454,44.78553843558112],[-0.353131797816522,44.784773063013596],[-0.353295007066395,44.78405172844221],[-0.353904457616264,44.78262392144592],[-0.354996013566367,44.78206642056016],[-0.355942774785499,44.78190258084164],[-0.357017876326591,44.78143026350183],[-0.358999327863386,44.77886958287114],[-0.361567453172573,44.777215622528594],[-0.361345221504651,44.776884441824805],[-0.360748889297715,44.776538476486806],[-0.361061253506664,44.77617665993154],[-0.362899724205013,44.77491155734294],[-0.363559715984001,44.77372095619976],[-0.363560701321867,44.77390655872453],[-0.36460185748958,44.772426830277944],[-0.365650063847375,44.77163624032043],[-0.365449660646283,44.771416145194856],[-0.365444108381442,44.771281144590716],[-0.365939909625927,44.77108946045941],[-0.365933093486624,44.770954498261005],[-0.363998978467352,44.76884243032147],[-0.367405883473409,44.76745391138848],[-0.367401758208581,44.76736392396844],[-0.366492891701928,44.76684636612837],[-0.36790478870197,44.76573110636843],[-0.368031103727914,44.765728166957565],[-0.36895145579726,44.76647965600084],[-0.369919395584653,44.766906185245304],[-0.371836092153945,44.76735429511578],[-0.371782203459978,44.76780559946836],[-0.372601936255432,44.76778515119851],[-0.374620573680891,44.7674650500185],[-0.375253603979654,44.76749532604927],[-0.37538400661294,44.76758146590187],[-0.376015546411583,44.76756582529494],[-0.375812416479669,44.76730077490904],[-0.375029790636597,44.76678033865964],[-0.374620673543085,44.766160208493915],[-0.375358576198325,44.765430338007675],[-0.37536930868477,44.76451356040429],[-0.377343545349837,44.76490935673022],[-0.379189330561901,44.76497742038199],[-0.385259241930039,44.764635285509776],[-0.387099184669628,44.76431230257695]]]]}},{"type":"Feature","properties":{"fid":2586,"ID":"COMMUNE_0000000009756102","NOM":"Haux","NOM_M":"HAUX","INSEE_COM":"33201","STATUT":"Commune simple","POPULATION":843,"INSEE_CAN":"12","INSEE_ARR":"2","INSEE_DEP":"33","INSEE_REG":"75","SIREN_EPCI":"243301215"},"geometry":{"type":"MultiPolygon","coordinates":[[[[-0.347319237079057,44.753018551167514],[-0.347570813314341,44.75246487205229],[-0.347680852485783,44.75187041516132],[-0.34860856904809,44.75186219240208],[-0.349045765878914,44.74996654477377],[-0.349225627428315,44.74961057202604],[-0.348148801733011,44.74953500020922],[-0.346557544973236,44.749059552259965],[-0.346021957805126,44.74777272853114],[-0.345841741872289,44.74697528343355],[-0.346791427282252,44.746827638488575],[-0.347661819774157,44.74645259881903],[-0.348709316540728,44.74586674277211],[-0.34969252353438,44.745135939719205],[-0.347542639116967,44.74400427716959],[-0.347057370355717,44.74424242191832],[-0.346662779950484,44.743837134126586],[-0.345709415323671,44.743114418106764],[-0.346269019563136,44.74244690662004],[-0.34704110650761,44.74186578371164],[-0.347659822405051,44.7415758452583],[-0.348461411452627,44.73979173852429],[-0.348508300564109,44.739283896570164],[-0.347930121462769,44.73815156470759],[-0.347817146027955,44.73763413958768],[-0.349191992541462,44.73522354269088],[-0.349460205174797,44.73357090477518],[-0.3496695726065,44.73303201507614],[-0.349693622627357,44.732714097171225],[-0.349145778484472,44.731538505701394],[-0.349089648518593,44.73097791247209],[-0.349461374824731,44.7304908814032],[-0.350170983281372,44.72988278808825],[-0.350556243157114,44.72905021915706],[-0.351190484334854,44.728493059642176],[-0.351260066775687,44.72785747435741],[-0.351373719354207,44.72774950514367],[-0.351228231873256,44.72759891908285],[-0.351357035285889,44.72740578709331],[-0.351169966044367,44.72702397413292],[-0.351166699414692,44.7267357186538],[-0.351481114336709,44.72628465723324],[-0.351843224378761,44.72538249810224],[-0.352103152332182,44.72422931995106],[-0.352151085264572,44.72306093504284],[-0.3519746526911,44.72245442669749],[-0.351937924356588,44.72177430261389],[-0.352589056399234,44.7215446248433],[-0.353104903731149,44.72120820533537],[-0.35475158291055,44.720802371872274],[-0.355721302194885,44.7208711974156],[-0.356681972639605,44.72114844494872],[-0.357018153652198,44.7211481616111],[-0.357248253209351,44.72102223635936],[-0.357636353414851,44.72028236846289],[-0.358262293956667,44.72016065234984],[-0.358693139664645,44.719904279924464],[-0.359746921470473,44.72006873989991],[-0.361303148292562,44.719779092190834],[-0.361835571115794,44.719869253037125],[-0.362297495236164,44.71979484751993],[-0.363281256875502,44.71999294001374],[-0.363919164026572,44.719712232264044],[-0.364348415123843,44.71961988773552],[-0.365542974589368,44.719623220211695],[-0.366612937645052,44.7191284100333],[-0.367041722398029,44.71919736815444],[-0.367582440078505,44.71879253818694],[-0.368030970915396,44.71866354789808],[-0.369341105538627,44.71873991644045],[-0.37100545421319,44.71907491516819],[-0.375163368957992,44.71886079242846],[-0.378013657615922,44.71918114316599],[-0.380365766280255,44.71958151823726],[-0.381064561121056,44.71987376373319],[-0.382523876124865,44.71976069093682],[-0.383124088128428,44.71938009606846],[-0.385249097809312,44.71871497546295],[-0.384971133783651,44.71957773987671],[-0.384305947741621,44.72007567532453],[-0.384011167606547,44.72049109393965],[-0.383254364909597,44.72240838638602],[-0.383328483734635,44.72271610672204],[-0.384000929593464,44.72355702337619],[-0.384409176592684,44.72425012078829],[-0.384506900000311,44.724613889837975],[-0.384146889865072,44.72560531856672],[-0.384063765845801,44.726219722400096],[-0.383677381397416,44.72645771575705],[-0.382501739155588,44.72782280181198],[-0.382111678487128,44.7284204496784],[-0.382935941166807,44.72877914219566],[-0.383395704680984,44.72917239908792],[-0.384425633927177,44.72895708683707],[-0.384643801573652,44.72909549765944],[-0.385220883336052,44.73000961516241],[-0.386363326554905,44.73036125689873],[-0.387129908206507,44.730327892457524],[-0.388145030451892,44.73047525165314],[-0.38837877406227,44.73049423021438],[-0.388963238348917,44.73073225962841],[-0.38990611269805,44.73066644528015],[-0.39105075269672,44.73107474386752],[-0.391411220504639,44.73172783327938],[-0.391197129669227,44.732768887334196],[-0.391141137759299,44.73420970552655],[-0.390851988126474,44.73515934097205],[-0.391699242650495,44.73549834595911],[-0.39190417573092,44.73547945180773],[-0.393057001956319,44.73587486718072],[-0.393502499740794,44.73605045054921],[-0.39357518769167,44.73622844877611],[-0.392868739943874,44.7372809940935],[-0.392116838975633,44.73896391662343],[-0.392133080192114,44.740155615975254],[-0.392861241809806,44.7400071467606],[-0.392957100732479,44.74065302442423],[-0.392568921122262,44.741742673126396],[-0.392751781751644,44.74290854265415],[-0.392361963621247,44.74283938430495],[-0.391596166442805,44.742532127971806],[-0.390989200731816,44.742111866715355],[-0.389840398965867,44.74191094658049],[-0.389494700881127,44.74177644745652],[-0.38868489541936,44.74107402186492],[-0.385374094149222,44.740516573788405],[-0.384435362381648,44.74067503414844],[-0.382442668685804,44.73995915464035],[-0.382433227847123,44.74085336102264],[-0.38181814092768,44.741600259829326],[-0.381577063468912,44.74232221643497],[-0.38108098162028,44.742062521908466],[-0.380108242599479,44.74173988035556],[-0.380025827731757,44.74179916715196],[-0.380011453958816,44.74191765346869],[-0.380164555122264,44.74208779832166],[-0.380187127005955,44.74322072653978],[-0.380449058368698,44.74349748640737],[-0.380352575398996,44.743638304330666],[-0.379387315249891,44.74405074651153],[-0.3786340935341,44.744204394975156],[-0.378410863272745,44.74444549885008],[-0.377916728988734,44.74461827092373],[-0.377683539352105,44.744883106318206],[-0.377428867125575,44.745000811749875],[-0.376981702770235,44.74488198430373],[-0.376289897261442,44.74517431889238],[-0.376211833588672,44.74526410824444],[-0.376262458526573,44.74619162526027],[-0.376153365961926,44.746417529491275],[-0.375512530785601,44.74669568889789],[-0.374452481562517,44.74698391656645],[-0.373233551554712,44.747595971866104],[-0.372395287625353,44.748673115963086],[-0.372601052597298,44.74885698684978],[-0.372393485812636,44.74919131760105],[-0.372098639330265,44.74933546494943],[-0.370724781298803,44.74972692722803],[-0.370477945750654,44.750229157288246],[-0.369309210964015,44.75140644595871],[-0.368796224222435,44.751772589159266],[-0.368236125393039,44.752006796389786],[-0.368054416401912,44.75176000814582],[-0.368213558655772,44.75152448044559],[-0.368159695910656,44.751448621998364],[-0.367081651501877,44.751184934645785],[-0.366043118896095,44.75126426494544],[-0.364669597620783,44.751852985173365],[-0.364230320961742,44.7519086831188],[-0.362991900747636,44.752346394717534],[-0.36286815454858,44.75251866207431],[-0.362741067918341,44.75322719793703],[-0.360855143154627,44.754469419518465],[-0.359201238927809,44.754939518726985],[-0.358181991879987,44.75532186546654],[-0.358102837756776,44.75549998389306],[-0.35791124979939,44.7556166305495],[-0.357920086059735,44.75578577318788],[-0.357366453284343,44.75621436905249],[-0.356928638107443,44.756337576556135],[-0.355741689880074,44.756093298122686],[-0.355070189274288,44.75628485444978],[-0.354985549592121,44.75637122243365],[-0.355009869226114,44.75665163479282],[-0.35458261283053,44.75659158586259],[-0.354282002322956,44.75691608190167],[-0.354182538158607,44.757326399754916],[-0.353880554831051,44.75760678136483],[-0.353875078939991,44.757917833101466],[-0.35360981268192,44.75815655171468],[-0.352601583947207,44.7583222426591],[-0.351999963983624,44.75851977420075],[-0.351490538965533,44.758609081878895],[-0.351093461204825,44.7587796931394],[-0.350955852301901,44.75878385649292],[-0.350399490118892,44.75853125342226],[-0.350036192782862,44.75856837476322],[-0.349464883954909,44.758786602215096],[-0.34901570333252,44.75869835874284],[-0.348153530501804,44.75881093192366],[-0.347423679473336,44.758596899846445],[-0.346041544169689,44.75802680572818],[-0.345114265763865,44.75778898646534],[-0.344220161936426,44.75768352288334],[-0.343635830147225,44.757831826154664],[-0.342416685322267,44.757938910621654],[-0.341440997929571,44.75778001768174],[-0.34160490314168,44.75749482669878],[-0.341125085151267,44.757358816245876],[-0.341078563757671,44.757001576944674],[-0.34707093399352,44.753839761614344],[-0.347319237079057,44.753018551167514]]]]}},{"type":"Feature","properties":{"fid":2666,"ID":"COMMUNE_0000000009756108","NOM":"Madirac","NOM_M":"MADIRAC","INSEE_COM":"33263","STATUT":"Commune simple","POPULATION":297,"INSEE_CAN":"11","INSEE_ARR":"2","INSEE_DEP":"33","INSEE_REG":"75","SIREN_EPCI":"243301215"},"geometry":{"type":"MultiPolygon","coordinates":[[[[-0.405211967324129,44.76371821299221],[-0.402735096177979,44.76321309152803],[-0.400660726161488,44.7630253778454],[-0.398887293101355,44.76291940715623],[-0.395739994156884,44.762893383368386],[-0.390149449273791,44.763588192319936],[-0.387099184669628,44.76431230257695],[-0.386694607734899,44.76349652855922],[-0.386586856756024,44.762589675405124],[-0.38573162928436,44.76166241879907],[-0.386944816072342,44.760679135858595],[-0.387271478868931,44.76051685451678],[-0.388157829401598,44.75965168832552],[-0.388206856265668,44.75905904345941],[-0.387956936151062,44.75829081079305],[-0.388058307883551,44.75793716821475],[-0.387907285538176,44.75690007575226],[-0.388310369926225,44.75624343337962],[-0.38913893247841,44.755407060083144],[-0.391695957013818,44.75364275669],[-0.392262257251368,44.75305138849759],[-0.392493111946589,44.752538779768706],[-0.392532809854772,44.75170851886615],[-0.391659945782186,44.75059261559403],[-0.392846684738888,44.75104197534121],[-0.393179800100663,44.75105069297921],[-0.393629723592823,44.75094138593157],[-0.394385421776124,44.750262198429574],[-0.395023436063814,44.75002186211433],[-0.396854698530946,44.74991974721898],[-0.397101273051138,44.74973105494321],[-0.397905133925671,44.74964060947912],[-0.398658821026196,44.749284961180464],[-0.400002458714419,44.749086917813344],[-0.401478630468584,44.74990938226929],[-0.403440745445662,44.75130083430785],[-0.40564443051053,44.752461343491795],[-0.405764945828883,44.75259280867283],[-0.405379006706227,44.75503235480631],[-0.405468103146792,44.755835237121815],[-0.405338018536121,44.75621411255314],[-0.405229643194899,44.757243847059655],[-0.405265430698947,44.757960057101144],[-0.40533100320085,44.758478902180585],[-0.40615214644823,44.75952781651875],[-0.406351903651174,44.759985762839676],[-0.406461784175377,44.76063030680544],[-0.406116718267477,44.761323085692815],[-0.406018440342898,44.76199746112115],[-0.406226053515059,44.762083894733976],[-0.405211967324129,44.76371821299221]]]]}},{"type":"Feature","properties":{"fid":3098,"ID":"COMMUNE_0000000009755876","NOM":"Camiac-et-Saint-Denis","NOM_M":"CAMIAC-ET-SAINT-DENIS","INSEE_COM":"33086","STATUT":"Commune simple","POPULATION":351,"INSEE_CAN":"10","INSEE_ARR":"5","INSEE_DEP":"33","INSEE_REG":"75","SIREN_EPCI":"243301215"},"geometry":{"type":"MultiPolygon","coordinates":[[[[-0.315040938543975,44.79397956614149],[-0.314943090785332,44.79410143952479],[-0.313571839696568,44.794475856585876],[-0.312560209166952,44.79463946179961],[-0.312218473103384,44.7946172353207],[-0.312079006844776,44.79517108036278],[-0.312359745950509,44.79606920743972],[-0.312108433974562,44.79728060159961],[-0.312189201538092,44.798307256690954],[-0.312086770828811,44.79833014205737],[-0.311981484299334,44.798819888210694],[-0.312135226019151,44.7991306830699],[-0.312115064134916,44.7996259957134],[-0.312502151060844,44.799880256066984],[-0.31207073185414,44.800849227828],[-0.310913546008029,44.800799996213144],[-0.310458848586135,44.80090188620347],[-0.31024110225852,44.80100841259543],[-0.309690775393556,44.80187189058417],[-0.309069975210886,44.80254913725454],[-0.308188987900604,44.802204176305565],[-0.308055756114729,44.80224149363193],[-0.307284991823025,44.80305927268878],[-0.307171949522366,44.80318159196699],[-0.30664741227915,44.80310803065391],[-0.306575671895455,44.802835332198654],[-0.306145761946722,44.8028211224021],[-0.305872007353777,44.80266438414647],[-0.30591704886013,44.80259095206545],[-0.304357771759451,44.80233377202679],[-0.304103341160735,44.802720723126505],[-0.303010169416371,44.803179527127284],[-0.301993503498442,44.80310979398621],[-0.301844114439897,44.803410708420785],[-0.300942554004791,44.80437381035973],[-0.300331306532536,44.80577611188137],[-0.298179878132768,44.805782473167],[-0.296982845188109,44.80568111376229],[-0.294550745936428,44.805174913531864],[-0.293380901691047,44.80510514754064],[-0.29326461036998,44.8057772218334],[-0.292972324720209,44.806621228538155],[-0.292426455458149,44.80730696297622],[-0.292248376893954,44.80781056252744],[-0.291404373760645,44.80844206785817],[-0.290829151771943,44.808238374422075],[-0.289845351804739,44.80758543913488],[-0.289144635934704,44.80794054105518],[-0.289153532789938,44.80787629876804],[-0.288091467312521,44.807702354095426],[-0.286039051539101,44.807714551846836],[-0.286036527650292,44.807628120918395],[-0.284997733823501,44.80770035889668],[-0.283204632209655,44.80757956675242],[-0.282145829106618,44.80715766689163],[-0.281431661805357,44.80780327098205],[-0.280662236751215,44.80774134044419],[-0.280483653812599,44.80730598791317],[-0.280527075070795,44.805101517332524],[-0.279147639907653,44.8051486391703],[-0.279089624734733,44.805455827362586],[-0.277967188604722,44.80561247435541],[-0.277231852749224,44.80559186457187],[-0.276202613421204,44.805176245435085],[-0.275354582776471,44.805306733693875],[-0.274763570523178,44.8052430961686],[-0.274055896096137,44.80537123012366],[-0.272325047030212,44.80514389949402],[-0.271460305895228,44.80513968693852],[-0.269456809863038,44.80570791331315],[-0.269604495689874,44.80600542364018],[-0.269841912007709,44.80625703464661],[-0.269950102312055,44.80626735973509],[-0.269863231849045,44.806427613527255],[-0.269959651803588,44.8066923941783],[-0.268968071496712,44.806792825294046],[-0.268891373452316,44.80691042690012],[-0.268620514330601,44.80669314036867],[-0.268496981988073,44.806440872344126],[-0.268048232108665,44.804884399719796],[-0.268086590250161,44.80465168819945],[-0.269340629295939,44.80362440923405],[-0.270663849921645,44.80226437285623],[-0.270704527913821,44.801810824159354],[-0.270863310328685,44.80145110845656],[-0.270488925937803,44.80054214029815],[-0.270914323292856,44.79956632056856],[-0.271236381455882,44.799250444944946],[-0.27161770804505,44.79840928453142],[-0.272567514658749,44.7974855596113],[-0.272544045634312,44.796887026442896],[-0.273325543096379,44.79648549053307],[-0.273441968383034,44.79613783489434],[-0.273273638120156,44.79589861040876],[-0.273261440352366,44.79564576384955],[-0.27345192833005,44.79509227419504],[-0.273853641030306,44.794775839810505],[-0.273965268285551,44.794432830811076],[-0.273851704742511,44.7941126935347],[-0.274081389085382,44.793797735266345],[-0.274266319392556,44.79373550322987],[-0.274627387884235,44.79339503595538],[-0.274792306392767,44.79292429863349],[-0.275527695036448,44.79197173881283],[-0.27566820348756,44.79186396038173],[-0.276688983764385,44.791509391521025],[-0.277819878593995,44.79078661371237],[-0.278395516282944,44.79063262062754],[-0.27898317806523,44.79031607199267],[-0.279663034854326,44.790083296653094],[-0.279757418431623,44.79000931708985],[-0.279622651476361,44.78982497694974],[-0.280107221913027,44.78928169406136],[-0.280178523151572,44.789029079782786],[-0.281682915949601,44.78776986698881],[-0.282098140055604,44.78716645279247],[-0.28204657192044,44.78611009672004],[-0.281847727140481,44.78571680166979],[-0.281795102989247,44.78520563842909],[-0.282069353400302,44.784246863340925],[-0.282563453523976,44.78399794363533],[-0.284067534242835,44.78371098374898],[-0.284918177103036,44.78339291468422],[-0.285759540730588,44.783240915263036],[-0.285757536735757,44.783336490638185],[-0.28650264117069,44.783204460553975],[-0.287608399084874,44.78285717716958],[-0.288250501933466,44.782781355587325],[-0.288317390622678,44.78267033815005],[-0.289383406769887,44.78294146620554],[-0.291020610815523,44.78345964281435],[-0.292496599992425,44.784076300631675],[-0.294542977158071,44.7853139609622],[-0.29544383421755,44.78572330620767],[-0.297283167932568,44.78688057158813],[-0.300498961401589,44.78710563242029],[-0.305674596337528,44.78728387000085],[-0.312544822855168,44.786821900341245],[-0.315980213419956,44.78697146506151],[-0.314820855082789,44.788296539259974],[-0.313747236415035,44.788930589210004],[-0.312771227782486,44.789804108603164],[-0.309496403807458,44.79212588797702],[-0.310426824261342,44.792603621472736],[-0.311861646503151,44.793007703666284],[-0.312294420188903,44.79324347642813],[-0.31289507176873,44.792913739164476],[-0.313683291506897,44.79346868726731],[-0.314318051410499,44.79371733641108],[-0.314791671828592,44.79380860178337],[-0.315040938543975,44.79397956614149]]]]}},{"type":"Feature","properties":{"fid":3502,"ID":"COMMUNE_0000000009755874","NOM":"Cursan","NOM_M":"CURSAN","INSEE_COM":"33145","STATUT":"Commune simple","POPULATION":666,"INSEE_CAN":"11","INSEE_ARR":"2","INSEE_DEP":"33","INSEE_REG":"75","SIREN_EPCI":"243301215"},"geometry":{"type":"MultiPolygon","coordinates":[[[[-0.31207073185414,44.800849227828],[-0.312502151060844,44.799880256066984],[-0.312115064134916,44.7996259957134],[-0.312135226019151,44.7991306830699],[-0.311981484299334,44.798819888210694],[-0.312086770828811,44.79833014205737],[-0.312189201538092,44.798307256690954],[-0.312108433974562,44.79728060159961],[-0.312359745950509,44.79606920743972],[-0.312079006844776,44.79517108036278],[-0.312218473103384,44.7946172353207],[-0.312560209166952,44.79463946179961],[-0.313571839696568,44.794475856585876],[-0.314943090785332,44.79410143952479],[-0.315040938543975,44.79397956614149],[-0.315792728959938,44.792951436252174],[-0.316384687293867,44.79191727048881],[-0.316323626359171,44.79180465658149],[-0.316679981636422,44.79089558461007],[-0.316922916541892,44.79063780496808],[-0.319200343031259,44.78947476691841],[-0.319523795832348,44.78970207106583],[-0.31971676631845,44.79001258100231],[-0.320098989376011,44.790099351847054],[-0.320210837179337,44.79019332108014],[-0.320857025494981,44.7900144624148],[-0.321789065411825,44.79036860102249],[-0.322410958411961,44.79005709663422],[-0.322645006922457,44.790205972274464],[-0.324167169813524,44.79035316276628],[-0.324235178351615,44.790689941836675],[-0.324744259488523,44.790610691053566],[-0.324511274793751,44.78983821644263],[-0.324270997244901,44.78958410114306],[-0.323547179599205,44.78932736696887],[-0.323330896079556,44.78913650933924],[-0.323285180733264,44.788919810787846],[-0.324318319423571,44.78811656907941],[-0.324750044374145,44.78760710347869],[-0.326535807355781,44.78718495600617],[-0.326724840746413,44.78723605152481],[-0.330250477879533,44.78685711591221],[-0.331248789409277,44.786664007543486],[-0.331937120586091,44.78642884722298],[-0.332718390799059,44.786459420315865],[-0.333790226871807,44.78661010659554],[-0.334409912525802,44.78636978680403],[-0.336088593474774,44.78597863908812],[-0.336660265234367,44.7857397517538],[-0.337013445846718,44.78529477716283],[-0.339025771276075,44.78464212308605],[-0.341482156476576,44.78452121942323],[-0.342514118285348,44.78421435245603],[-0.343142129594087,44.78415755980988],[-0.343824086558211,44.78394414271331],[-0.345179932180507,44.78336074378874],[-0.345394601146937,44.78367235915523],[-0.346252287379915,44.78424300493081],[-0.346522861166836,44.78455833698598],[-0.347005153833853,44.785517885179594],[-0.346672475698743,44.78556217577877],[-0.346991170646881,44.78583550317921],[-0.348041025158917,44.78612639071087],[-0.348703242252473,44.785708984689975],[-0.348167208003406,44.785462053873175],[-0.349459060693563,44.78469670613458],[-0.351497719278901,44.786779744776105],[-0.35264823424527,44.7878875713909],[-0.353835779762506,44.78857614364166],[-0.354700617339657,44.78953940562518],[-0.355754266155435,44.790400523970995],[-0.355607645325968,44.79067890712123],[-0.355423232568864,44.7921470246398],[-0.354451598036012,44.794801430372424],[-0.353355587771798,44.79482198199099],[-0.353284271474057,44.79523865954763],[-0.353441130560698,44.795597970046515],[-0.353435047530638,44.79602619096063],[-0.353227546469716,44.79662090722254],[-0.353237562839044,44.79704323435535],[-0.351759712185587,44.797579953441726],[-0.351072827328216,44.798073816589195],[-0.348840488366588,44.800583347929965],[-0.347586425016805,44.80139439874344],[-0.344137797989866,44.80325119187763],[-0.345821169377655,44.804185326828105],[-0.344971392354261,44.80507065014756],[-0.344157404629467,44.80560074311802],[-0.343479790052785,44.80589152202116],[-0.34331319383714,44.80619752366772],[-0.342957268600142,44.80644885918358],[-0.341455439474288,44.80699246324451],[-0.340837663045672,44.807289531649175],[-0.340458627345189,44.80728022821235],[-0.339571640225701,44.80671130819349],[-0.339221039562576,44.806818290477075],[-0.337143165465679,44.80795770823492],[-0.336172565895055,44.80828249178323],[-0.335022179519078,44.80794584283284],[-0.334086201874335,44.80812899073416],[-0.332309895591016,44.80782465446944],[-0.331997147977992,44.80788722153451],[-0.331013705159228,44.80880708645235],[-0.330546867734371,44.80904639372185],[-0.329114052965435,44.80932642646432],[-0.328965193286137,44.80734842781042],[-0.328193438277928,44.80622267125977],[-0.327637683450601,44.80585818157024],[-0.326938547259812,44.80553043305874],[-0.326280678846086,44.805023020357375],[-0.324416416871471,44.80395705273405],[-0.322282136681399,44.80260448426119],[-0.321482750407238,44.8023995570941],[-0.319586077749507,44.80142459732127],[-0.318976712563332,44.80122207197739],[-0.317728644090139,44.80096296927801],[-0.315840823287011,44.80073650968004],[-0.313436419970552,44.80061377106934],[-0.312509515967793,44.80084242346298],[-0.31207073185414,44.800849227828]]]]}},{"type":"Feature","properties":{"fid":3528,"ID":"COMMUNE_0000000009755871","NOM":"Blésignac","NOM_M":"BLESIGNAC","INSEE_COM":"33059","STATUT":"Commune simple","POPULATION":311,"INSEE_CAN":"12","INSEE_ARR":"2","INSEE_DEP":"33","INSEE_REG":"75","SIREN_EPCI":"243301215"},"geometry":{"type":"MultiPolygon","coordinates":[[[[-0.252346434051798,44.790094470118454],[-0.252005805123514,44.78974042971952],[-0.25210994162066,44.78928773500768],[-0.25196588065568,44.788722480066326],[-0.251970889589613,44.788218629633924],[-0.250787692170033,44.78826055234776],[-0.250044073624813,44.78861756428647],[-0.249396490021072,44.78792199899665],[-0.248995281960416,44.78761387962043],[-0.24795476066365,44.78738757368079],[-0.247607443905392,44.78724547051],[-0.249833524925813,44.786639564528265],[-0.250285084667781,44.786811943240195],[-0.250807826167849,44.78679300565155],[-0.251189480066879,44.787309841378686],[-0.251973740893254,44.7873057526347],[-0.252654500243622,44.786846947943864],[-0.25269409356933,44.78665655915713],[-0.252349579017474,44.7862350539022],[-0.252760042807187,44.78556611977843],[-0.252883270817525,44.78502816276497],[-0.252832108041347,44.78453767559245],[-0.252401919726144,44.78420969494647],[-0.252355873934763,44.783873142030814],[-0.251943977141345,44.7835112831628],[-0.251952503667782,44.783265038659714],[-0.25214843401102,44.78302140395092],[-0.252150453274716,44.78266271569876],[-0.251820657258086,44.781904676340496],[-0.251644164583964,44.78171882724266],[-0.250432969573467,44.78094609734856],[-0.249636062773905,44.780795563571296],[-0.248948253504727,44.78086889646836],[-0.248428468701333,44.78065346054575],[-0.247408483760044,44.77935697611273],[-0.246126339548392,44.77853672331679],[-0.244769328061071,44.778632337494],[-0.24320715446649,44.77837351133015],[-0.242029306443105,44.778745883082486],[-0.2416160140706,44.778796721156425],[-0.24206396814264,44.77838173695452],[-0.242379235188453,44.77792558014047],[-0.242703737851099,44.77723487341154],[-0.243080550680309,44.775938015533626],[-0.244225350228152,44.774139301238606],[-0.244464220085838,44.77389442356613],[-0.246235738769732,44.77282972701682],[-0.248232981963592,44.770265305879],[-0.251856373029239,44.76719267536649],[-0.254144521413934,44.76870056230977],[-0.254929438118236,44.769105513765105],[-0.255222413144207,44.76916268393051],[-0.25629635048771,44.769206812801535],[-0.257460966742632,44.769113103625976],[-0.25995398498514,44.76869646048473],[-0.260787129594913,44.7684710003664],[-0.263145156568518,44.768257395655645],[-0.263307975944648,44.76901401106384],[-0.263177164509619,44.77022531006226],[-0.264001938460862,44.77199055769958],[-0.263736425051983,44.772493973842714],[-0.264653325863799,44.77264266982713],[-0.264580824304264,44.77400814141103],[-0.264755126093293,44.776464759826986],[-0.265147276037044,44.7777057082588],[-0.265412790118663,44.778269169876005],[-0.265539983434183,44.77825911369489],[-0.265661718556938,44.77978826807764],[-0.265865960926027,44.78029856916019],[-0.265402784464693,44.78075375079085],[-0.265130211280215,44.781462826035586],[-0.264264353608635,44.78147662272022],[-0.26356869704012,44.7818287124376],[-0.262809677106653,44.78239712105102],[-0.261919769315816,44.782716172996864],[-0.261223476487715,44.78279613918202],[-0.26122024163927,44.78317649106565],[-0.26089834404014,44.783668944311785],[-0.260834938017192,44.78397177165059],[-0.260501718890734,44.78424739597416],[-0.260475003006523,44.78452841863318],[-0.260218190090049,44.784921637815195],[-0.260240379665942,44.78517328803747],[-0.260116766540229,44.78546346896627],[-0.259743595301917,44.78572674991466],[-0.259539137452708,44.786019308235076],[-0.25920263566214,44.786195004732164],[-0.259143677799186,44.786422009278766],[-0.259006776988486,44.78643955171911],[-0.258784206242516,44.786332560745095],[-0.258073222064304,44.78633454371411],[-0.257733898078719,44.78646166014946],[-0.257369525177103,44.78648408527105],[-0.257035516166744,44.78670295356964],[-0.256705098732952,44.78661264439515],[-0.256498218679062,44.78706025378535],[-0.256039730193392,44.78755490329774],[-0.255914005357837,44.78826774813449],[-0.255090404532717,44.78837934744404],[-0.254535733179584,44.788961516962026],[-0.254146638174613,44.78910359967257],[-0.253585505336468,44.789552593883016],[-0.252346434051798,44.790094470118454]]]]}},{"type":"Feature","properties":{"fid":3824,"ID":"COMMUNE_0000000009755872","NOM":"La Sauve","NOM_M":"LA SAUVE","INSEE_COM":"33505","STATUT":"Commune simple","POPULATION":1594,"INSEE_CAN":"12","INSEE_ARR":"2","INSEE_DEP":"33","INSEE_REG":"75","SIREN_EPCI":"243301215"},"geometry":{"type":"MultiPolygon","coordinates":[[[[-0.345709415323671,44.743114418106764],[-0.346662779950484,44.743837134126586],[-0.347057370355717,44.74424242191832],[-0.347542639116967,44.74400427716959],[-0.34969252353438,44.745135939719205],[-0.348709316540728,44.74586674277211],[-0.347661819774157,44.74645259881903],[-0.346791427282252,44.746827638488575],[-0.345841741872289,44.74697528343355],[-0.346021957805126,44.74777272853114],[-0.346557544973236,44.749059552259965],[-0.348148801733011,44.74953500020922],[-0.349225627428315,44.74961057202604],[-0.349045765878914,44.74996654477377],[-0.34860856904809,44.75186219240208],[-0.347680852485783,44.75187041516132],[-0.347570813314341,44.75246487205229],[-0.347319237079057,44.753018551167514],[-0.345242015878481,44.75283621191678],[-0.341471923349158,44.75210748759499],[-0.337939295439519,44.751074115163206],[-0.336268940751986,44.750372924288264],[-0.334049572309407,44.749923428593824],[-0.332354845799981,44.75137025044365],[-0.330288618954757,44.754488954559875],[-0.328491933748176,44.75646051864813],[-0.328505810847802,44.75688722585162],[-0.32919876496302,44.757633240385424],[-0.329456398334016,44.75918621340846],[-0.330138074863676,44.76097965037563],[-0.331044538223595,44.76208328530522],[-0.331988058734164,44.76364086007441],[-0.332326936567692,44.763937944531484],[-0.333055033269402,44.76437830832678],[-0.334061019058783,44.76538791642959],[-0.334224797335532,44.76718971601704],[-0.334962793044484,44.768456993001244],[-0.335094173222619,44.77060759947923],[-0.335363480985852,44.770946420494575],[-0.336138366649679,44.771576396119265],[-0.335607759477424,44.77173745276321],[-0.334588102677109,44.7728242541396],[-0.335868620506624,44.773212832733],[-0.336092959180377,44.773369179371784],[-0.336454018571329,44.77397466921518],[-0.333784457276043,44.77520755660659],[-0.329282499489589,44.778078709151316],[-0.326626889705705,44.779296578342255],[-0.324356241693069,44.78013698058294],[-0.323000693885073,44.780064102464586],[-0.321451402199366,44.78037367979539],[-0.321385530101011,44.78137858998961],[-0.321820502804057,44.782294595813696],[-0.322096262204685,44.78255035407845],[-0.32197056610573,44.782949710247024],[-0.3222267350134,44.78430811498432],[-0.323277012902321,44.78552916739582],[-0.324750044374145,44.78760710347869],[-0.324318319423571,44.78811656907941],[-0.323285180733264,44.788919810787846],[-0.323330896079556,44.78913650933924],[-0.323547179599205,44.78932736696887],[-0.324270997244901,44.78958410114306],[-0.324511274793751,44.78983821644263],[-0.324744259488523,44.790610691053566],[-0.324235178351615,44.790689941836675],[-0.324167169813524,44.79035316276628],[-0.322645006922457,44.790205972274464],[-0.322410958411961,44.79005709663422],[-0.321789065411825,44.79036860102249],[-0.320857025494981,44.7900144624148],[-0.320210837179337,44.79019332108014],[-0.320098989376011,44.790099351847054],[-0.31971676631845,44.79001258100231],[-0.319523795832348,44.78970207106583],[-0.319200343031259,44.78947476691841],[-0.316922916541892,44.79063780496808],[-0.316679981636422,44.79089558461007],[-0.316323626359171,44.79180465658149],[-0.316384687293867,44.79191727048881],[-0.315792728959938,44.792951436252174],[-0.315040938543975,44.79397956614149],[-0.314791671828592,44.79380860178337],[-0.314318051410499,44.79371733641108],[-0.313683291506897,44.79346868726731],[-0.31289507176873,44.792913739164476],[-0.312294420188903,44.79324347642813],[-0.311861646503151,44.793007703666284],[-0.310426824261342,44.792603621472736],[-0.309496403807458,44.79212588797702],[-0.312771227782486,44.789804108603164],[-0.313747236415035,44.788930589210004],[-0.314820855082789,44.788296539259974],[-0.315980213419956,44.78697146506151],[-0.312544822855168,44.786821900341245],[-0.305674596337528,44.78728387000085],[-0.300498961401589,44.78710563242029],[-0.297283167932568,44.78688057158813],[-0.29544383421755,44.78572330620767],[-0.294542977158071,44.7853139609622],[-0.292496599992425,44.784076300631675],[-0.291020610815523,44.78345964281435],[-0.289383406769887,44.78294146620554],[-0.288317390622678,44.78267033815005],[-0.288250501933466,44.782781355587325],[-0.287608399084874,44.78285717716958],[-0.28650264117069,44.783204460553975],[-0.285757536735757,44.783336490638185],[-0.285759540730588,44.783240915263036],[-0.284918177103036,44.78339291468422],[-0.285227083652004,44.78272505741434],[-0.285453117019656,44.78163524151725],[-0.286322292081943,44.779903696916385],[-0.28600194253803,44.779206740970494],[-0.285905096439186,44.77837249806964],[-0.285122060848789,44.778503848221455],[-0.284718780650476,44.77814095015957],[-0.284202977505339,44.77808235075356],[-0.284205688723927,44.77769570214749],[-0.284110713561672,44.77758588086673],[-0.283499246692379,44.77755714657147],[-0.283534068501246,44.77709205276999],[-0.283532427794217,44.77593780417018],[-0.283233903393439,44.77483380440593],[-0.283134451778908,44.7736725434342],[-0.282432046027653,44.773688850575766],[-0.282381611493099,44.77343173218309],[-0.28253419411736,44.773011809388095],[-0.283076630733651,44.772444269786455],[-0.284075792147124,44.770860277063605],[-0.284506749095405,44.7703555063355],[-0.285110943779088,44.77013124218297],[-0.285806390879169,44.76936902087003],[-0.286216898363251,44.76909913279917],[-0.288296893586134,44.767938983281766],[-0.289100073304155,44.767181651665375],[-0.28955762084917,44.76624625011771],[-0.290143606813232,44.76620902342236],[-0.290889463151883,44.765856167985035],[-0.291317133489076,44.76575064965698],[-0.291533887977387,44.763922203549406],[-0.290640312873642,44.76380367661574],[-0.290527084794237,44.76348985648331],[-0.288394738648764,44.76349190466275],[-0.28847022490815,44.76190645078481],[-0.287383214105963,44.760706929499804],[-0.288376736360158,44.760286366372725],[-0.289502746057913,44.75938518369004],[-0.289841224455002,44.758166771622534],[-0.28873111951139,44.75782578738315],[-0.286484078596275,44.75685713657403],[-0.28703294649243,44.7563380428187],[-0.2876229442899,44.75528968882055],[-0.289451159503385,44.75314218151974],[-0.290089013124107,44.75261051641385],[-0.290468089735782,44.75254068377505],[-0.291335933162203,44.752849199279936],[-0.292050072417248,44.75288654449427],[-0.292575852052687,44.75288172752282],[-0.293658793439475,44.7526738145139],[-0.293936015591716,44.75138332149811],[-0.293862806890949,44.750932251806596],[-0.294145094393736,44.75091574576403],[-0.29416342214238,44.7486597789057],[-0.295103441313638,44.747697385332394],[-0.296186100628501,44.74701187676037],[-0.29601883129813,44.74685465974575],[-0.29663858439106,44.74610272648397],[-0.296848648695778,44.74513501250606],[-0.298092833706979,44.74405720703047],[-0.298284361992978,44.74372260543503],[-0.298496174832792,44.74360456131444],[-0.298599717671873,44.74327888761603],[-0.299297508163201,44.742608414648814],[-0.300514143141276,44.74226939175441],[-0.300901155773449,44.7420776377708],[-0.301308271475497,44.741280652854336],[-0.301788127121056,44.74079687811649],[-0.301900950362761,44.7404574078781],[-0.302377309861402,44.74012962288194],[-0.303190525027948,44.739962092721484],[-0.303741720852243,44.73931578686831],[-0.305340515200611,44.738489529878294],[-0.305846667356567,44.738540198295766],[-0.30630167079686,44.73815085793938],[-0.306725272896594,44.737915638624145],[-0.307535858756177,44.73772562663643],[-0.307891688926865,44.73754198712417],[-0.308853315661483,44.73742674856334],[-0.311278623565121,44.73627563545887],[-0.31192082251661,44.73601763783282],[-0.317269969635326,44.73460768022148],[-0.317411236376377,44.7350738183436],[-0.31787708512991,44.73551310921804],[-0.318293873742903,44.735742111618016],[-0.319853828139762,44.737004638553074],[-0.320706061592212,44.737371058175576],[-0.321367724860766,44.7378927705188],[-0.322625330011312,44.73863628931937],[-0.325378037773564,44.73975481442623],[-0.324875573431059,44.74032317860507],[-0.325643858079211,44.74061549049567],[-0.325742546172249,44.74074498798813],[-0.325635268087712,44.7409833971199],[-0.325125708424904,44.74141050290617],[-0.32503502160259,44.74169436924015],[-0.32513550426393,44.742153615942165],[-0.325330263737482,44.74234691028638],[-0.325782743899922,44.74242973850319],[-0.32707907370537,44.742435850203435],[-0.326908475717936,44.741903018971925],[-0.327047164443623,44.74176819228571],[-0.327437359508054,44.7416744671859],[-0.330434468287435,44.742560255025154],[-0.332797258895991,44.74296044046565],[-0.333976983882989,44.74351605066742],[-0.335197650112099,44.74375953470775],[-0.337201961592708,44.74476515576042],[-0.337795715136864,44.74482024962965],[-0.339446521700481,44.74523725120744],[-0.340987571812029,44.744678936835726],[-0.342759066757337,44.74436054764256],[-0.344962645074948,44.74359023755613],[-0.345709415323671,44.743114418106764]]]]}}]}