{"type":"FeatureCollection","name":"COM_19085","crs":{"type":"name","properties":{"name":"urn:ogc:def:crs:OGC:1.3:CRS84"}},"features":[{"type":"Feature","properties":{"fid":3928,"ID":"COMMUNE_0000000009754085","NOM":"Gimel-les-Cascades","NOM_M":"GIMEL-LES-CASCADES","INSEE_COM":"19085","STATUT":"Commune simple","POPULATION":765,"INSEE_CAN":"11","INSEE_ARR":"2","INSEE_DEP":"19","INSEE_REG":"75","SIREN_EPCI":"241927201"},"geometry":{"type":"MultiPolygon","coordinates":[[[[1.879347158487773,45.29202788413848],[1.878175919836641,45.29139568096809],[1.879024367965283,45.28853961003905],[1.877957746444318,45.28848118775019],[1.876575885875037,45.28823948416881],[1.875052954946178,45.28771898230536],[1.873780090285676,45.28700916527235],[1.873328692233981,45.2863049095486],[1.874857299433145,45.28521444953101],[1.875045441211976,45.284551753198244],[1.875200919620329,45.28436960942966],[1.876706213651941,45.28335543573366],[1.875200994727364,45.2818373297645],[1.87513928885961,45.2815449386742],[1.87538664379568,45.2814870909459],[1.875801917853998,45.281641653780255],[1.876345437457106,45.28131932427173],[1.877370251667671,45.28135663151128],[1.877809876777076,45.279985040328405],[1.877972702594725,45.2793734161986],[1.877240056748683,45.27800446908132],[1.877124513268628,45.27753503591929],[1.876709701545741,45.27735886988869],[1.876591818158493,45.276942543658386],[1.876374780008963,45.27676295974687],[1.876432494647861,45.27655731936055],[1.876325349007276,45.27643106983386],[1.876458976935989,45.27625590952231],[1.876395333864192,45.2761228929164],[1.876471745241197,45.27600208974434],[1.87635503904458,45.27590726257274],[1.876423127634619,45.275819695239555],[1.875664870503335,45.27540863912156],[1.875446820395912,45.2752164358489],[1.875439030650846,45.27503355093716],[1.875056013177092,45.274863101491746],[1.874734018426913,45.274955317568455],[1.874400468461317,45.275367102868785],[1.874244662115319,45.275440278116974],[1.873840664646084,45.275424503639066],[1.873518039399314,45.275295180685944],[1.873061308021748,45.27542745886559],[1.872959801814625,45.27533818441775],[1.872937281322244,45.27506419771723],[1.873247304953857,45.2746809964811],[1.873264897020533,45.27444163401183],[1.871564545879997,45.27382203742726],[1.870814973244854,45.273174197398866],[1.870465168963263,45.273128339910414],[1.870124907242518,45.27317803344597],[1.869219148266098,45.27344083680133],[1.868359803476453,45.27386709781827],[1.868187264159009,45.27350784285711],[1.867649170122039,45.27400398840115],[1.867223604278041,45.27392043203714],[1.867457047810736,45.27347883717166],[1.866306746341265,45.27309706502958],[1.865892864385374,45.27501008894733],[1.865725073574689,45.275295655163546],[1.866845264870682,45.27609407173128],[1.867099414299651,45.276893612732124],[1.866866526074659,45.277056049647406],[1.865593122946648,45.27739254425297],[1.865998090215171,45.278991484885886],[1.865415238265153,45.27930165846484],[1.865231198009875,45.28019671662212],[1.865224553468231,45.280899060764845],[1.86528783627,45.28142471051135],[1.865772409772513,45.28218426808428],[1.863912076834449,45.28364855657187],[1.864739858898171,45.28440530085245],[1.864355990965318,45.28634114257962],[1.862763466311766,45.28611333774322],[1.859613876793233,45.284674643147575],[1.858499266586434,45.2855935201991],[1.857280981439412,45.2860295440205],[1.856376412495277,45.28622111705235],[1.855736499185571,45.28688096479366],[1.854029969429004,45.28704900303428],[1.85308210944105,45.28506532473784],[1.852838739158222,45.28523753181944],[1.85196913332937,45.285527585639024],[1.850704044220246,45.28563256306264],[1.850142255533019,45.28577987934196],[1.848536992280959,45.28672783425576],[1.847988722827632,45.286837456769284],[1.84747111742223,45.28682131815124],[1.846786199973238,45.28650627675986],[1.84602470187566,45.285700551768834],[1.84579538001654,45.28531636012216],[1.845790046346903,45.28495789348016],[1.846038279403523,45.28393564998063],[1.845954600091933,45.283109899877616],[1.845782590182567,45.282607429512716],[1.844379604978916,45.283398017182556],[1.843866419940294,45.28378534543399],[1.842892974536707,45.28428317885985],[1.840963375150958,45.28462881574574],[1.8399037337633,45.28460792417041],[1.839341477943317,45.284899266747345],[1.83849295617137,45.28631690254455],[1.838196521410233,45.28719634639749],[1.837976408629267,45.287474125760255],[1.835396479497188,45.28938614318468],[1.833837577003946,45.290235315358544],[1.832976822583837,45.29082519400318],[1.832477658450047,45.29230226578652],[1.831789911813463,45.29327937071635],[1.830558708910915,45.29327911388815],[1.830323434481809,45.29318209781597],[1.829956872093714,45.29283606079897],[1.829347866675852,45.29279546885901],[1.82883974893274,45.29262895433743],[1.828218767065831,45.29255130885883],[1.826907346442761,45.29248353168296],[1.826029199240399,45.29286425142769],[1.822209447080134,45.29255483863485],[1.821819353146411,45.292660596220344],[1.821120033819903,45.29315032508589],[1.820301884468945,45.293527130028686],[1.819955664885222,45.29360902941103],[1.819299981442235,45.293422903819135],[1.818901857922812,45.293184561246136],[1.817664942809774,45.29213047304896],[1.817061257679046,45.29147930574423],[1.815035789348093,45.28989363366203],[1.814455876329937,45.28926701834515],[1.814103869689749,45.288482520777116],[1.814083699183245,45.287991513952825],[1.814249985502416,45.28755111296967],[1.814877672056499,45.2866500237698],[1.814946836886375,45.286277033687405],[1.814852477547422,45.28609502595994],[1.813984338121407,45.28552659032928],[1.812411232607093,45.285056027655976],[1.811903415449756,45.284402247684014],[1.811467859008743,45.28400948853546],[1.811024672197336,45.28373551746321],[1.809924681614037,45.283275350913705],[1.809574845725459,45.28287178933173],[1.807733218579894,45.28368877210604],[1.806778736522744,45.283821778821654],[1.806747539836048,45.28367015560543],[1.80659416296161,45.28356495727889],[1.806298387974468,45.28379504028215],[1.806876216039405,45.284690937472185],[1.806378633064394,45.28487294038559],[1.805741420807168,45.28532000970353],[1.806123733927557,45.28629126954765],[1.805193795086941,45.286824364522886],[1.804611255844038,45.28704057339215],[1.804245075014379,45.28745901215332],[1.803779828319845,45.28779714293351],[1.80291566658419,45.28811659466728],[1.802315843878595,45.28848299702044],[1.801927695440477,45.28849775157699],[1.802659576273979,45.28881357288616],[1.802422987606331,45.28913703547373],[1.802023895390314,45.28918589375766],[1.801783403656701,45.28933460853218],[1.801740140776742,45.28968535565273],[1.801292195953264,45.29046312551391],[1.800939783613335,45.29053589432572],[1.800823859687168,45.290290605226225],[1.800488158267938,45.2904761192917],[1.799947903275043,45.2904442089052],[1.799168750415484,45.29101939748602],[1.798688283338101,45.29123216941398],[1.798554654861188,45.291098354750936],[1.797947188698004,45.29134307942553],[1.797121174441809,45.29142785627062],[1.797022663070843,45.291795118203396],[1.797313777071568,45.29196214700351],[1.797180672008099,45.29215883488761],[1.797065549196829,45.2921134704266],[1.796886367478574,45.29231686680428],[1.796342226221108,45.29335023786823],[1.7959437875914,45.29330812721457],[1.795719516086856,45.29359028418726],[1.796092106143545,45.29370686239209],[1.796015654997034,45.29393837933301],[1.795437529444561,45.29388622795756],[1.794961891314413,45.29399187193223],[1.794439824119732,45.29388448565444],[1.794437983967032,45.2937926105463],[1.793819089032921,45.29391471655489],[1.792902833939598,45.293981379419144],[1.792424158771024,45.29416802870539],[1.792052215510128,45.29384522100722],[1.791758571597769,45.29414823420429],[1.790867120844813,45.29348300727338],[1.79044026134088,45.29292816108925],[1.790160546149168,45.29300078179492],[1.790172189690268,45.29352232187428],[1.790024198290107,45.293698128134984],[1.788700043127086,45.293336188131825],[1.788493851412052,45.29401746732296],[1.78854778631788,45.29447102457093],[1.7888196829461,45.29505211738819],[1.789170403539115,45.29541162858497],[1.789445184004147,45.29556679417614],[1.791344135261874,45.29607902342529],[1.794382004935907,45.2966161075171],[1.795228025447092,45.29667204999002],[1.798416165965983,45.297403358002576],[1.79899509131109,45.297834630281216],[1.799277536941098,45.29834646822788],[1.79927105895132,45.29935770731706],[1.799059778835513,45.30022086052816],[1.800425910071491,45.3003624931893],[1.801852519071887,45.30083705672617],[1.802180272298737,45.30078653374773],[1.802506809754479,45.300614423672506],[1.804563814546291,45.30067244355536],[1.804989080967915,45.300596838586905],[1.806025501498933,45.29998833188149],[1.806987613418283,45.29963117491484],[1.807946308479587,45.29949280477685],[1.80991977801385,45.299397645157626],[1.812549047171351,45.2987663879257],[1.81275899206495,45.29897393913524],[1.812860254561624,45.299551359099844],[1.81325124433481,45.30000577711679],[1.814619255791353,45.30119998690749],[1.814866688819361,45.30126564599061],[1.81523462963885,45.302385311646646],[1.815931520937403,45.303278820256466],[1.819045714033748,45.305903487151866],[1.821455526599394,45.30745170819629],[1.821498907071171,45.307874518197615],[1.821061811096495,45.3089298490819],[1.821198481966738,45.310070472073434],[1.821044960556534,45.310691127937844],[1.820730110406408,45.31115519069498],[1.820401051138689,45.31144619910567],[1.819003869540992,45.312332903303805],[1.81862135098057,45.31303759136472],[1.818219351514367,45.31321615653667],[1.817208960550614,45.31391600870472],[1.816594516512447,45.31472180112858],[1.816292453685161,45.315482265862954],[1.816283075776753,45.316163876888126],[1.816437070738568,45.31714619590634],[1.816801465104848,45.317898399580386],[1.816812255464323,45.31823171426941],[1.81570867328781,45.3200076183799],[1.815337548250719,45.320352200640784],[1.814915250579573,45.32058187094362],[1.814326795719563,45.32124113969519],[1.814639792131444,45.32140925451294],[1.815186449703547,45.321454666787105],[1.817193904670889,45.32111748417452],[1.817967201279,45.32106982033809],[1.819303646659028,45.32113255643971],[1.819659438543358,45.321329925877606],[1.820475687900694,45.32136374647261],[1.820856782772071,45.32145151258507],[1.821442665336845,45.321875535135455],[1.821863614623257,45.3220105456268],[1.822780985069295,45.322092241870834],[1.824783478713626,45.322654512131095],[1.827587334469385,45.32371864000707],[1.82959962143768,45.32539939782445],[1.829730246416665,45.32580510666993],[1.829540872014925,45.32619035928888],[1.829733541024479,45.32631664858255],[1.829923658980029,45.32632133779056],[1.831343763429261,45.325871494841564],[1.831573829178426,45.32567577771646],[1.832148890878718,45.324734410424476],[1.832435835286496,45.32456540078629],[1.832759833731394,45.324516548756954],[1.833837862750453,45.32570749392874],[1.835838354006254,45.326804464376885],[1.836368051046986,45.32699278202471],[1.836474877981644,45.32682909366006],[1.837048543574881,45.32680713869489],[1.837560235483239,45.32657381081347],[1.837848371897291,45.32653087529729],[1.838131605830537,45.32672292909246],[1.839136882533315,45.326634300180864],[1.840078721613189,45.32689441429562],[1.840475790719922,45.326586041084596],[1.840694106628798,45.326708074232066],[1.841018826950412,45.32674745857365],[1.841669954191465,45.32674519332319],[1.84199566411184,45.326675619800184],[1.842761184279832,45.32682041898339],[1.843139724209658,45.32740337872926],[1.843978027392134,45.32773263168],[1.845761498503726,45.32773302599926],[1.845918932818132,45.32765179975227],[1.848947354690964,45.327764932183555],[1.853296937489451,45.325716726938985],[1.854115691844455,45.326501375094374],[1.854262772586888,45.32704680527257],[1.854749755561574,45.32788748764996],[1.855382364644318,45.32710959045396],[1.85665761162102,45.32773679012495],[1.857731533896025,45.32741275482061],[1.858469827493067,45.32733113350197],[1.860543427212505,45.327314439105045],[1.862164414089399,45.32745610328643],[1.862187413874272,45.32783005959257],[1.861855137895423,45.32840932847541],[1.864202497123375,45.328868130526494],[1.868830887650991,45.329411193464594],[1.869955981129188,45.328891241621015],[1.869868252540819,45.3284959215619],[1.870014575025491,45.32820562544528],[1.870670086014624,45.32779889546078],[1.872300389709024,45.32704087252475],[1.872819566305726,45.326114949530805],[1.873364194256486,45.32582325657232],[1.873597242177675,45.325409555395574],[1.874089873392219,45.325037188259905],[1.874256346754357,45.324695759374855],[1.874393091595238,45.32462509194787],[1.871924105228217,45.323873504201615],[1.87218138338401,45.322074128901924],[1.872487445680257,45.321899807503144],[1.872739791279776,45.321478198114576],[1.872568625232995,45.32104241690862],[1.872345229377318,45.32085375588882],[1.873488394613446,45.3206923657008],[1.874562845393872,45.319888192983576],[1.875185901514695,45.32013399836438],[1.875489477079758,45.320461240777604],[1.876924072197876,45.319013181008884],[1.877447252824737,45.31864110688626],[1.876609355895482,45.31733953508801],[1.875215453383909,45.3162683094556],[1.875242710071922,45.31599302057179],[1.875955776745034,45.31588761849994],[1.876553848414743,45.3155982495926],[1.875850248080256,45.315171536153436],[1.874959893769201,45.31508154090148],[1.874655189582781,45.31487495699031],[1.872438787157508,45.314655430351095],[1.873002190963156,45.31330400377394],[1.872750313584914,45.313073632219506],[1.872858055140985,45.31229035416897],[1.872138043816989,45.310597303926336],[1.870904882300453,45.310108486442495],[1.870417838299397,45.30958126246217],[1.868138866703583,45.30937452492565],[1.868345965877896,45.3086660997948],[1.868680966536481,45.30819490700558],[1.868607280933274,45.30805277847593],[1.868788956706042,45.30803030093966],[1.868803098034993,45.307459506765106],[1.868705481504655,45.30730182733855],[1.867834472326291,45.30702015645571],[1.865692283959129,45.3071209329056],[1.864626743423266,45.307055193463384],[1.863094697194397,45.30664880615099],[1.862838036591605,45.30634361905474],[1.862535422359149,45.30628921278199],[1.86284893017765,45.30549722928452],[1.864207723227372,45.30350824760773],[1.86364774838986,45.30299646278207],[1.863352589900885,45.3025774189191],[1.863220304693582,45.30155577249929],[1.862988049316797,45.301493977319886],[1.862794495787179,45.3015991734039],[1.862460924317876,45.30143728877382],[1.861774901334658,45.30103858027239],[1.861387397517035,45.30064380649303],[1.85894942213832,45.300307384213276],[1.858535715624698,45.300071727297286],[1.858223173521342,45.30000550082676],[1.857356703244305,45.300008361602096],[1.857296235842686,45.299721374741246],[1.856949008022214,45.299480087130426],[1.856621396330969,45.29902917487595],[1.857175370171599,45.298895252644044],[1.858062698534076,45.29849637228214],[1.859351542792047,45.297493720694234],[1.860993017492227,45.29690258636643],[1.861565738739434,45.29672380709201],[1.861861392930451,45.29717888194023],[1.865167200272442,45.296121922373416],[1.866823179500672,45.29387117431452],[1.867053129324451,45.293731219726574],[1.868861214181747,45.29328214217619],[1.868842061832556,45.29296856433345],[1.869486869157064,45.29181159918653],[1.871734770979059,45.29169021001389],[1.872954398997831,45.29137741409518],[1.873208331127641,45.291690654521275],[1.873633226382703,45.29194077791852],[1.875782881315321,45.29226227839607],[1.879347158487773,45.29202788413848]]]]}}]}