{"type":"FeatureCollection","name":"COM_24510","crs":{"type":"name","properties":{"name":"urn:ogc:def:crs:OGC:1.3:CRS84"}},"features":[{"type":"Feature","properties":{"fid":4078,"ID":"COMMUNE_0000000009755796","NOM":"Saint-Vincent-de-Cosse","NOM_M":"SAINT-VINCENT-DE-COSSE","INSEE_COM":"24510","STATUT":"Commune simple","POPULATION":384,"INSEE_CAN":"18","INSEE_ARR":"4","INSEE_DEP":"24","INSEE_REG":"75","SIREN_EPCI":"200027217"},"geometry":{"type":"MultiPolygon","coordinates":[[[[1.132163782328673,44.83882943992971],[1.130343618330013,44.837802740772865],[1.129470212755419,44.83708196338201],[1.127776618904567,44.83670397325171],[1.125307296511138,44.835525742952754],[1.124051477711056,44.834585921985095],[1.123057755858604,44.83371986552358],[1.119954808021772,44.8304927713751],[1.119270498410479,44.829990354985334],[1.116960693847761,44.82867324602989],[1.114021462321648,44.827373307134415],[1.113333107573491,44.826956339823894],[1.108743878487041,44.82494193927217],[1.106762931242039,44.82424351714498],[1.104973233812011,44.82380409254549],[1.103713190756256,44.823606945817836],[1.102184390940359,44.82364924585742],[1.100935626097626,44.823792682037066],[1.098028499295718,44.82466507718924],[1.096371777974944,44.825344522023066],[1.09515557635175,44.82601889970254],[1.093838314651913,44.826948196273385],[1.0914223088645,44.82918785266563],[1.090642499617859,44.8302371320091],[1.088523667485033,44.83251336694017],[1.088138134320135,44.83331725757495],[1.090141593487404,44.834659423484865],[1.090643288294964,44.83490581474714],[1.090701417493735,44.83513196326015],[1.091201139579697,44.83536210730776],[1.093512755422278,44.8376236131351],[1.094571654130898,44.83719150610666],[1.095603096349058,44.83902480816873],[1.095611824699581,44.83999939930147],[1.095815931338771,44.84032621494692],[1.096610070922921,44.84061091845912],[1.096747448443712,44.84141300131954],[1.096955089544269,44.84159848234224],[1.096844566859206,44.84276825853971],[1.096961794809794,44.84293237581176],[1.096597675773299,44.84321792303786],[1.096193457291703,44.84379007062485],[1.096154945647163,44.84410461776206],[1.09633181286962,44.8445633525701],[1.096365732388518,44.845056559402586],[1.096480825220433,44.84543318085003],[1.096939667060441,44.846163327020065],[1.097944835649884,44.846723618112],[1.098459009459624,44.84731601462355],[1.098680794759727,44.84839332306845],[1.099134191466546,44.849323298677646],[1.099325693606213,44.85047303567869],[1.099663755495567,44.85084626750712],[1.099143166221452,44.8520504541344],[1.099622245768821,44.85263413880469],[1.101256422937142,44.85361763965447],[1.101258263301468,44.85378788365459],[1.100804483413259,44.854364606178805],[1.100716961575281,44.85470623548356],[1.10069519094032,44.8552750395164],[1.100755273236287,44.85552012914218],[1.100971215868511,44.85576158138266],[1.102434271047929,44.85667909431276],[1.103097778227341,44.8572028746895],[1.103252444058878,44.857572060321274],[1.103836694729964,44.85830612177629],[1.104128262939238,44.85822104265502],[1.104375057804949,44.857811884289845],[1.105494025665761,44.857859807714014],[1.105505161026331,44.85767987870603],[1.105136517029208,44.85712242169502],[1.104663157446404,44.85610387183017],[1.104908245574132,44.85615758945186],[1.105185406309769,44.85548597459113],[1.10538495682082,44.85523811515328],[1.106200653592419,44.854816148364804],[1.106675349220308,44.854744094055754],[1.108445681234848,44.85488595263854],[1.109812231027455,44.85521273352683],[1.109834596260621,44.85499967377343],[1.110108251671971,44.85469362909104],[1.110501982128054,44.85446888022824],[1.110779548605237,44.85415929826028],[1.110874535211489,44.853669191402545],[1.110823883547766,44.85299198421355],[1.111023122533272,44.85260181652092],[1.112877151397185,44.85092943710229],[1.113405404636864,44.85058088340493],[1.113843616194523,44.85038749992293],[1.114836226803008,44.850310703592704],[1.115922119400063,44.8500571651934],[1.11726700918626,44.849554944674395],[1.118614062468489,44.84944089900958],[1.119642471739389,44.84916383563733],[1.119745811642874,44.84827040120773],[1.120720649162664,44.84633984157394],[1.120910424528922,44.845700035498005],[1.122325436191781,44.84415606459064],[1.123451257513151,44.84368789109417],[1.124046810924902,44.84363221780991],[1.125086229823088,44.84332467297767],[1.125514691550719,44.843306694983916],[1.126894051726763,44.84423057201434],[1.127435504101647,44.844392809558734],[1.128196496898471,44.844121063291944],[1.128736351257414,44.8442553493466],[1.129032174003413,44.84415316770521],[1.12940167584425,44.84423324487063],[1.129635987938002,44.84468568563193],[1.130561363933265,44.84594048330177],[1.131581744325732,44.84559653318123],[1.131861722534976,44.845780463068465],[1.13304976141791,44.84583828077216],[1.135532864726565,44.84635283354821],[1.135882373613238,44.84627314957073],[1.136799100141164,44.845618510603266],[1.136815255709233,44.84421567338057],[1.137065373067193,44.843124764014505],[1.137557316940996,44.84199378515167],[1.137379375003117,44.8415576185069],[1.137374902208155,44.841310783980575],[1.137605989107505,44.84109852305878],[1.137491652723144,44.84042386948941],[1.136257404130474,44.84038873658586],[1.135142563136623,44.840150264032076],[1.132404093036275,44.83902530899133],[1.132163782328673,44.83882943992971]]]]}}]}