{"type":"FeatureCollection","name":"COM_64536","crs":{"type":"name","properties":{"name":"urn:ogc:def:crs:OGC:1.3:CRS84"}},"features":[{"type":"Feature","properties":{"fid":4048,"ID":"COMMUNE_0000000009760537","NOM":"Thèze","NOM_M":"THEZE","INSEE_COM":"64536","STATUT":"Commune simple","POPULATION":890,"INSEE_CAN":"25","INSEE_ARR":"3","INSEE_DEP":"64","INSEE_REG":"75","SIREN_EPCI":"200067239"},"geometry":{"type":"MultiPolygon","coordinates":[[[[-0.340748213658357,43.49302323007432],[-0.337107388241949,43.49115968293508],[-0.334501246221073,43.48875001372862],[-0.333221090568668,43.48783216308974],[-0.332464704936902,43.486988245713874],[-0.332106131725917,43.486413949176594],[-0.331020613365268,43.4841159422429],[-0.330011257546684,43.48259721576307],[-0.328513768241169,43.47967430768342],[-0.326407552990141,43.475012332450085],[-0.325099891021726,43.4723077971536],[-0.32496793726097,43.47216416737096],[-0.324603091875491,43.47214114373753],[-0.324107733791828,43.46900646457547],[-0.327393098406756,43.46796552386275],[-0.32909875940439,43.46712431033044],[-0.330456753924912,43.46621541457671],[-0.331837640002847,43.46551020600005],[-0.332127557584876,43.46530768699376],[-0.332606132832089,43.46456357906738],[-0.333611663212003,43.46350519779047],[-0.337364026434095,43.46165805172429],[-0.33735610927607,43.4614791001482],[-0.336887011155432,43.460681317411456],[-0.33730986297214,43.460490897991164],[-0.337353067076044,43.46008525207179],[-0.338513454341437,43.459205750681555],[-0.338889303282819,43.46024952927015],[-0.339800514654642,43.46069869670789],[-0.341292041710156,43.45958293484864],[-0.341474576824038,43.45953318137404],[-0.342180033326866,43.460100334538346],[-0.342139476283373,43.460550925841346],[-0.342787715346076,43.461217993704174],[-0.34303723424581,43.46125711954452],[-0.344101986817356,43.460285956048075],[-0.344284521731553,43.46023619781633],[-0.344727179130272,43.46045035435687],[-0.345366981947044,43.46092946709819],[-0.345490381458424,43.46092565655537],[-0.346146880288422,43.46045964241269],[-0.346782695673794,43.46084882194507],[-0.346906147253737,43.4608459086579],[-0.347376876784612,43.46054411080002],[-0.347383674454031,43.46140386314221],[-0.348223717481741,43.46152108170433],[-0.349125163281299,43.4615463471731],[-0.349392858198767,43.46174878506147],[-0.349768982339196,43.46236929736727],[-0.349957845525728,43.46251293846134],[-0.351304273202682,43.46313045417288],[-0.351984008115583,43.463699245500514],[-0.352666502671224,43.4641031583653],[-0.353473374361016,43.464307811479536],[-0.353932714057254,43.46457364513775],[-0.354307006452125,43.4645260381373],[-0.354462722889924,43.464715722893196],[-0.355081679299067,43.46511078306649],[-0.355583547272191,43.46527894081172],[-0.356933634239882,43.46511014908508],[-0.357232123999939,43.465055875717994],[-0.357658276199092,43.4647320001986],[-0.358059033305903,43.46479882295996],[-0.358321286807806,43.46492846951664],[-0.358734451370523,43.46605388461888],[-0.359681578569806,43.46690160036938],[-0.360685126244137,43.4675296394588],[-0.360894328104587,43.46814719355851],[-0.361113129227679,43.468463684290654],[-0.361379817235789,43.46858418200485],[-0.362201608300057,43.46864062947469],[-0.362381379762822,43.4687124935802],[-0.363018038278725,43.469239336350434],[-0.364243613195799,43.46994149936436],[-0.364713993098759,43.47039425230959],[-0.365204285224286,43.471271420896926],[-0.365651714686344,43.47238765175887],[-0.365645571391973,43.47259946020652],[-0.365156270520356,43.47266868706307],[-0.364723455156733,43.472287708644984],[-0.364458460161825,43.47225991699317],[-0.364219526991205,43.47233937551826],[-0.363709925117256,43.47265326154693],[-0.363496466689838,43.47306241103493],[-0.363385719004457,43.47355752163365],[-0.363690540063674,43.47394878251256],[-0.364478548909681,43.47414494120587],[-0.365527916286822,43.4745599037195],[-0.36588073679937,43.474756961079464],[-0.366059666341686,43.47502515580638],[-0.364786427219033,43.47566533389422],[-0.363545749817673,43.476017225644256],[-0.364257542498092,43.47689653269119],[-0.364634045852771,43.47764576850537],[-0.36449387034133,43.478483086531725],[-0.364617058007822,43.47929872073153],[-0.364600958835998,43.48022764101935],[-0.364275222274546,43.48011348396762],[-0.363917429864131,43.48010658057798],[-0.36295057631827,43.48036351511915],[-0.362302726157239,43.48038721902183],[-0.361853522956238,43.48061457432515],[-0.360315124894846,43.48105850804885],[-0.358261130618059,43.48097539459478],[-0.358035468345056,43.48143083744352],[-0.358039486736181,43.48152076320384],[-0.358353557511788,43.481647007010835],[-0.358129127776144,43.48210241202249],[-0.357379676767603,43.483244957504525],[-0.356888012079708,43.48352943801476],[-0.356181190016816,43.48417447711884],[-0.35746706927177,43.48495230756044],[-0.35688376712371,43.485573713960825],[-0.35563245908207,43.4863832951624],[-0.35575014613165,43.48672544529207],[-0.355377451966286,43.487162922793786],[-0.354129013462601,43.487831918233034],[-0.350242940563264,43.4896126365676],[-0.34550805985643,43.49115826621234],[-0.345294124161574,43.49128643699526],[-0.345015666350214,43.49166603784463],[-0.344274600407958,43.49162046646505],[-0.344028675321641,43.492134136298205],[-0.342498984244749,43.492246153726],[-0.340748213658357,43.49302323007432]]]]}}]}