{"type":"FeatureCollection","features":[{"type":"Feature","properties":{"fid":1343,"ID":"COMMUNE_0000000009755880","NOM":"Bonnetan","NOM_M":"BONNETAN","INSEE_COM":"33061","STATUT":"Commune simple","POPULATION":1048,"INSEE_CAN":"11","INSEE_ARR":"2","INSEE_DEP":"33","INSEE_REG":"75","SIREN_EPCI":"243301355"},"geometry":{"type":"MultiPolygon","coordinates":[[[[-0.393161652023499,44.81959604354429],[-0.392444482555376,44.81807791303672],[-0.392803982834983,44.817280203322255],[-0.392585941051224,44.815703545109756],[-0.391965355855589,44.81444199238036],[-0.391689277920504,44.81404221575604],[-0.391473453474151,44.813906435898446],[-0.391445501710038,44.81365316548267],[-0.391472146169684,44.813108954467204],[-0.392254155180337,44.810021105379896],[-0.394116181593943,44.81022814934484],[-0.395719939702255,44.81072783899864],[-0.396416648742701,44.810756059307266],[-0.397416838604837,44.810506430492566],[-0.397984900813499,44.81050073484382],[-0.399280909608579,44.81114407935484],[-0.401468859009491,44.81194478381216],[-0.403156699384023,44.81284821286712],[-0.405481324775724,44.81383389059201],[-0.406312825782572,44.81403814183676],[-0.407005389075113,44.81397630827893],[-0.407560415354962,44.81369250613958],[-0.407671528286378,44.81337458527067],[-0.407638239460041,44.812700638183905],[-0.407363230542161,44.81225760902852],[-0.40697832188433,44.812131561057015],[-0.407184033386347,44.811181723007614],[-0.406537975097175,44.81088256649337],[-0.40653378399634,44.81079257920615],[-0.407208274783953,44.810370834161574],[-0.40919499336596,44.80937705170959],[-0.409395599652358,44.80986652113364],[-0.410980110174041,44.80969251620753],[-0.412182405598051,44.809707782957794],[-0.413836934801636,44.809936204234205],[-0.41387177477069,44.80882219387178],[-0.415090539022871,44.80881709575265],[-0.417157408556012,44.80993482994846],[-0.4173867262835,44.8101251162496],[-0.417427344253852,44.810501452641326],[-0.420727830211905,44.81123143573253],[-0.423709336517738,44.81220998501768],[-0.423170475842711,44.8130899458597],[-0.425012014085024,44.814244241145346],[-0.426478665447669,44.81581021611387],[-0.42576169708135,44.81597025191224],[-0.42491255499379,44.81641282812987],[-0.422670251927488,44.81859351727324],[-0.423110819096437,44.81929905066235],[-0.423848950011053,44.819900771288],[-0.42433594943915,44.82080672969731],[-0.424779925994054,44.8208407790754],[-0.424698172157632,44.82174267479685],[-0.424786475697472,44.82223559254181],[-0.425389194681166,44.823003698935544],[-0.424904824001138,44.8243839394718],[-0.425173452079438,44.825736414982984],[-0.424007986562186,44.825936422739545],[-0.424434364216788,44.82690643712264],[-0.425666351059052,44.827775867584904],[-0.426218644107362,44.828463523845045],[-0.426722584570649,44.82993579432694],[-0.426084540272693,44.831122531935236],[-0.426059027519097,44.831887517875906],[-0.426140390748226,44.832245474938176],[-0.426404507014301,44.83246441151883],[-0.426285013596631,44.832602378772854],[-0.425839679119655,44.832568374334386],[-0.423214955972695,44.831914065661806],[-0.422956337732081,44.83178506980277],[-0.421805649894398,44.83154392022904],[-0.420352210583486,44.83157163514761],[-0.418466366076041,44.83179830252315],[-0.416760543770787,44.83184095901621],[-0.416178926549939,44.831585822019534],[-0.415381147142765,44.8307957358024],[-0.41483204374686,44.829908771537035],[-0.414649213161689,44.8285473261002],[-0.413181771011755,44.82894756349478],[-0.412865159982175,44.82761366493431],[-0.412396309331802,44.827045938856905],[-0.411981257517914,44.825696144342736],[-0.411303134869089,44.82476807884424],[-0.409573093408319,44.8230108462202],[-0.408473991333415,44.82380341922158],[-0.408220558586813,44.823800395318926],[-0.407702257513749,44.82354327213888],[-0.407564753017977,44.823322206661665],[-0.407431713781772,44.82215207738061],[-0.407052931254317,44.822190751986845],[-0.406083892484676,44.822079942252614],[-0.405589653230869,44.82213567592722],[-0.404600523319302,44.82234087756258],[-0.404101294179901,44.82271126362319],[-0.40356999736387,44.8229078060089],[-0.400962494524353,44.82313200001494],[-0.400158215646903,44.82337925273848],[-0.397504965321442,44.82460595632575],[-0.395887138500575,44.82503219935814],[-0.394821066626231,44.82520181898522],[-0.394486936873468,44.82235537487449],[-0.393161652023499,44.81959604354429]]]]}},{"type":"Feature","properties":{"fid":1690,"ID":"COMMUNE_0000000009755636","NOM":"Pompignac","NOM_M":"POMPIGNAC","INSEE_COM":"33330","STATUT":"Commune simple","POPULATION":3485,"INSEE_CAN":"11","INSEE_ARR":"2","INSEE_DEP":"33","INSEE_REG":"75","SIREN_EPCI":"243301355"},"geometry":{"type":"MultiPolygon","coordinates":[[[[-0.449389353489996,44.8662937062332],[-0.446895698753543,44.86720570397277],[-0.447424491436915,44.86768583685795],[-0.445064701745078,44.86834400062122],[-0.440055851297298,44.87073255053315],[-0.438636217025928,44.869529296275765],[-0.437029403253103,44.8684760147568],[-0.436816221827829,44.86826452880893],[-0.434258892961316,44.86869967357424],[-0.433259095320093,44.8689496001685],[-0.432002018731513,44.86911645451022],[-0.429854394149762,44.869206284956434],[-0.429619493197863,44.86984167404185],[-0.427046135886648,44.87115760548231],[-0.426856037602922,44.87153116078754],[-0.425514721759649,44.87129500610636],[-0.425264368089545,44.87134599066715],[-0.424421614170197,44.87298692756323],[-0.423099470422819,44.87312774867236],[-0.423145119605956,44.87352286303362],[-0.420738768083149,44.873259116147835],[-0.419871074149686,44.87310021386992],[-0.418860837557904,44.87264019461035],[-0.41333168374462,44.87216604722645],[-0.413081315131254,44.872217004333486],[-0.413029159381272,44.87244300269318],[-0.412144609693313,44.872464795851165],[-0.410635764688926,44.87234896455103],[-0.410857660053053,44.8698071238549],[-0.411485547748526,44.86933723294993],[-0.412141283471699,44.86828341817755],[-0.411792412448875,44.86727671258539],[-0.41181636574391,44.867024546911885],[-0.41306422241782,44.865289250388884],[-0.413604129043567,44.86493650209846],[-0.413928429472885,44.86451829030183],[-0.413698081515381,44.86341872814091],[-0.413330238709988,44.86312093972259],[-0.414088978416492,44.86313724859498],[-0.414891196411298,44.862451997188955],[-0.414826339649533,44.86215660382828],[-0.413822033721734,44.86160264248611],[-0.413375853968808,44.86109999377502],[-0.412827173673619,44.85978673232685],[-0.412092574916041,44.859082976333305],[-0.411539231462255,44.858359224185854],[-0.410678315410867,44.8547629638974],[-0.410204980450185,44.85387453667922],[-0.40975200422367,44.85181936242096],[-0.410684137670613,44.85158524065011],[-0.411726047543015,44.8494471566486],[-0.411901058282095,44.84922098622409],[-0.412504751191315,44.849044711341506],[-0.412605782891686,44.84841438553761],[-0.412896517387625,44.84782057859937],[-0.413092249722044,44.84774786949332],[-0.413551821045136,44.84726421610924],[-0.413677004283798,44.84723963679154],[-0.41485946302095,44.84772772601166],[-0.415227059047785,44.84641961726859],[-0.416518770563258,44.844893800959426],[-0.417100406859507,44.843856654635815],[-0.416652178997686,44.84298550778039],[-0.416614641653172,44.84274334671464],[-0.417819761364466,44.84100389854659],[-0.418105190603279,44.84036608241037],[-0.419947515641871,44.8404183335973],[-0.420148981992948,44.83950463700265],[-0.42154585354328,44.835510797638555],[-0.422931202895228,44.832681613804624],[-0.423214955972695,44.831914065661806],[-0.425839679119655,44.832568374334386],[-0.426285013596631,44.832602378772854],[-0.426404507014301,44.83246441151883],[-0.427386546426162,44.832950440191304],[-0.428129976781742,44.8331996175667],[-0.428460292296496,44.833092079165134],[-0.428827252922363,44.83329431330942],[-0.429278643262357,44.83324070440594],[-0.429600816790744,44.83337312789088],[-0.430239933069656,44.83469251395047],[-0.429942802955996,44.835094618073406],[-0.429890688462751,44.83563062933091],[-0.429977189698869,44.836175871457264],[-0.430950584374706,44.838529386127206],[-0.431070409066914,44.83862480928274],[-0.432821740369364,44.83758292186373],[-0.433621170574712,44.836985924562136],[-0.436390799851501,44.83526269430571],[-0.436756530557364,44.83538203296468],[-0.437599667759313,44.83504499389197],[-0.438806206581225,44.835140964264156],[-0.439563691041332,44.8351219801436],[-0.440502353523953,44.83491803461636],[-0.441449561921168,44.83489495398677],[-0.441899118677248,44.83501798299362],[-0.44221399414126,44.83501001270685],[-0.442701593980432,44.83463800791794],[-0.445668431553504,44.832997630472505],[-0.445939588093656,44.8333505811972],[-0.446704271836168,44.83499671855938],[-0.44758666566347,44.83492873804237],[-0.447618710219914,44.835491885817156],[-0.447909254972261,44.836448927757225],[-0.448032785111483,44.83726426818281],[-0.447998930030562,44.83836296933931],[-0.447366501768923,44.84025439926994],[-0.447716611075442,44.84218107568617],[-0.447708862519481,44.844035065942364],[-0.447285351844028,44.845307192837296],[-0.446536746533019,44.84671108027065],[-0.446589616892068,44.847056396195185],[-0.447214374477751,44.84813283187077],[-0.447997161100905,44.849224179563194],[-0.448589178323715,44.85057108428345],[-0.449653634237185,44.850534383529514],[-0.451546373283928,44.85094683426088],[-0.451994421900647,44.853102971729314],[-0.452521978573681,44.85317306959684],[-0.453552552806256,44.853532111453305],[-0.455167134776946,44.85374588813747],[-0.455079169635659,44.855548319784994],[-0.456175635043609,44.85570071527194],[-0.456552210420393,44.85667219135856],[-0.457352133803377,44.856967192175006],[-0.45535118113465,44.85875262146868],[-0.456012967391284,44.85945837587634],[-0.456647414802919,44.85986397790154],[-0.455700508856312,44.86039273913473],[-0.455401025801632,44.86071478270249],[-0.454999201032792,44.86153567211321],[-0.455879287866924,44.861423550775605],[-0.45809131438186,44.8613762595022],[-0.458351358848073,44.8615042358078],[-0.459391055131443,44.86332379489654],[-0.459589606084362,44.86469464220221],[-0.458030588454251,44.864647711920966],[-0.456733512852359,44.864759322150846],[-0.451971326676312,44.86560330137129],[-0.449389353489996,44.8662937062332]]]]}},{"type":"Feature","properties":{"fid":2161,"ID":"COMMUNE_0000000009755638","NOM":"Tresses","NOM_M":"TRESSES","INSEE_COM":"33535","STATUT":"Commune simple","POPULATION":5188,"INSEE_CAN":"11","INSEE_ARR":"2","INSEE_DEP":"33","INSEE_REG":"75","SIREN_EPCI":"243301355"},"geometry":{"type":"MultiPolygon","coordinates":[[[[-0.472003579396013,44.865561377353714],[-0.468771105673571,44.86564715447963],[-0.466823097110863,44.86560169166631],[-0.459589606084362,44.86469464220221],[-0.459391055131443,44.86332379489654],[-0.458351358848073,44.8615042358078],[-0.45809131438186,44.8613762595022],[-0.455879287866924,44.861423550775605],[-0.454999201032792,44.86153567211321],[-0.455401025801632,44.86071478270249],[-0.455700508856312,44.86039273913473],[-0.456647414802919,44.85986397790154],[-0.456012967391284,44.85945837587634],[-0.45535118113465,44.85875262146868],[-0.457352133803377,44.856967192175006],[-0.456552210420393,44.85667219135856],[-0.456175635043609,44.85570071527194],[-0.455079169635659,44.855548319784994],[-0.455167134776946,44.85374588813747],[-0.453552552806256,44.853532111453305],[-0.452521978573681,44.85317306959684],[-0.451994421900647,44.853102971729314],[-0.451546373283928,44.85094683426088],[-0.449653634237185,44.850534383529514],[-0.448589178323715,44.85057108428345],[-0.447997161100905,44.849224179563194],[-0.447214374477751,44.84813283187077],[-0.446589616892068,44.847056396195185],[-0.446536746533019,44.84671108027065],[-0.447285351844028,44.845307192837296],[-0.447708862519481,44.844035065942364],[-0.447716611075442,44.84218107568617],[-0.447366501768923,44.84025439926994],[-0.447998930030562,44.83836296933931],[-0.448032785111483,44.83726426818281],[-0.447909254972261,44.836448927757225],[-0.447618710219914,44.835491885817156],[-0.44758666566347,44.83492873804237],[-0.448636500150454,44.832328611487284],[-0.448608876184298,44.830641545797796],[-0.448806930642175,44.829907226981625],[-0.448776413339926,44.82794629173867],[-0.449706655011211,44.82799936433772],[-0.45086385413435,44.82787143727946],[-0.452362289426337,44.82824745331773],[-0.452856714491714,44.8258258856155],[-0.454909360380991,44.82644234698395],[-0.458395686370947,44.826814002466364],[-0.461857070481476,44.8281154588272],[-0.461743950187218,44.82747193352883],[-0.462027169675584,44.82674574171728],[-0.463479191946853,44.82679952934167],[-0.465108965351786,44.826717070398296],[-0.465495505651802,44.82661937712767],[-0.468261507751529,44.826890672153716],[-0.470779664499785,44.82704439050963],[-0.471817738920179,44.82718222007255],[-0.472999166161954,44.82691451693053],[-0.4729570448552,44.82606961079745],[-0.473812876078763,44.82598422453794],[-0.474737958779704,44.82542172956773],[-0.475308258522529,44.825981525509015],[-0.47571575703417,44.826284172964165],[-0.475993396311928,44.82637099713854],[-0.480521092123718,44.82664442575197],[-0.483209994614295,44.82689614155889],[-0.485115180877482,44.826823661439626],[-0.485989943135015,44.826941258376934],[-0.486172667705425,44.827559147903116],[-0.486503661678561,44.82811740209483],[-0.486977951496123,44.82847468672854],[-0.488782336073102,44.82914340352405],[-0.492786474226283,44.830217765042335],[-0.494562679939791,44.83059438625124],[-0.495515000136521,44.83065449272465],[-0.496733244210249,44.830510643199474],[-0.498530026631235,44.830098893441566],[-0.499103712800423,44.830179926035676],[-0.499272425771284,44.830265624786364],[-0.501394772442263,44.830444663525704],[-0.501709643751938,44.83041669678203],[-0.500383374543018,44.83323611062732],[-0.500014342258101,44.83316755015219],[-0.499633549488229,44.83345894397939],[-0.499033380495908,44.83368516120984],[-0.497594967331827,44.83379271998213],[-0.496427737932322,44.8341467535173],[-0.495347648244408,44.83468007277604],[-0.495092274687098,44.83509456799365],[-0.494998539153755,44.83560310212098],[-0.495222828637813,44.83607277498045],[-0.497469989138152,44.83644262411329],[-0.497379364754724,44.83710246690987],[-0.497910483341154,44.83714970306287],[-0.498042860641348,44.83726178449098],[-0.497951102853787,44.83784235697723],[-0.498090373315084,44.838248016979136],[-0.497846908051161,44.83887392900043],[-0.497794173524285,44.8399182976958],[-0.497600176605612,44.8405047980699],[-0.497484034806514,44.84069411084028],[-0.496842675120203,44.84078913436524],[-0.496192649414336,44.841517981119],[-0.495627248909974,44.84199902631573],[-0.494987651514721,44.84230576839695],[-0.494679905811147,44.842571409995564],[-0.494127963000756,44.84379822828572],[-0.493963344863849,44.84396202764435],[-0.492390565973494,44.84405211406943],[-0.49052331881761,44.84337910604702],[-0.490408895101708,44.8434539026225],[-0.490302645128093,44.84372130129462],[-0.490447243898741,44.84525241734428],[-0.490281108139269,44.84555504537752],[-0.490321245809622,44.84634324495823],[-0.490105392949264,44.84668168319395],[-0.489731897218964,44.84699083449438],[-0.489770656387439,44.84730864452684],[-0.490020677174339,44.84762161036067],[-0.490085757092018,44.847873704925995],[-0.490103910816999,44.848512094138876],[-0.488744187668483,44.84838363623477],[-0.485249579071867,44.84837362800306],[-0.483708082152269,44.847908360015566],[-0.483322152604956,44.84801781035789],[-0.482286341150272,44.84780069703735],[-0.481595863307826,44.84841266293449],[-0.481303992834333,44.84889495809964],[-0.480185595393524,44.84961406896926],[-0.479016877350682,44.85150451493187],[-0.478074131467571,44.85146107870892],[-0.477538598951233,44.85113991479302],[-0.47718970571758,44.85160235656104],[-0.477811340140618,44.85186134325657],[-0.477310051503247,44.85213390193361],[-0.477354739894032,44.85285527024414],[-0.476835756999257,44.852883252508896],[-0.476872215938052,44.85343094570714],[-0.476448492892346,44.85473115026375],[-0.475369472151055,44.85457480261919],[-0.475300511453035,44.85532316315623],[-0.474914106283135,44.856879036460136],[-0.473892455329397,44.85687227920035],[-0.474098185316627,44.85706410294513],[-0.474221981107836,44.85752885460861],[-0.474454525219558,44.85762160645304],[-0.474816230581037,44.85799960056298],[-0.474893347659739,44.858528898432894],[-0.474456338956588,44.85889946340351],[-0.474212878309256,44.85934687719968],[-0.473261547041764,44.860559048201715],[-0.472268036157477,44.86219609826035],[-0.47188607830801,44.86241262508785],[-0.472277391987267,44.862879822884906],[-0.472426631868938,44.86332575691753],[-0.472003579396013,44.865561377353714]]]]}},{"type":"Feature","properties":{"fid":2388,"ID":"COMMUNE_0000000009755883","NOM":"Carignan-de-Bordeaux","NOM_M":"CARIGNAN-DE-BORDEAUX","INSEE_COM":"33099","STATUT":"Commune simple","POPULATION":4312,"INSEE_CAN":"11","INSEE_ARR":"2","INSEE_DEP":"33","INSEE_REG":"75","SIREN_EPCI":"243301355"},"geometry":{"type":"MultiPolygon","coordinates":[[[[-0.474737958779704,44.82542172956773],[-0.473812876078763,44.82598422453794],[-0.4729570448552,44.82606961079745],[-0.472999166161954,44.82691451693053],[-0.471817738920179,44.82718222007255],[-0.470779664499785,44.82704439050963],[-0.468261507751529,44.826890672153716],[-0.465495505651802,44.82661937712767],[-0.465108965351786,44.826717070398296],[-0.463479191946853,44.82679952934167],[-0.462027169675584,44.82674574171728],[-0.461743950187218,44.82747193352883],[-0.461857070481476,44.8281154588272],[-0.458395686370947,44.826814002466364],[-0.454909360380991,44.82644234698395],[-0.452856714491714,44.8258258856155],[-0.453027424415193,44.825471809878366],[-0.452968935764829,44.8252825793607],[-0.45162293815033,44.82365638854059],[-0.449774329234327,44.822318882970656],[-0.449454747633844,44.82216661231937],[-0.449864388889608,44.82100215245712],[-0.45096497083196,44.8207588276106],[-0.451833134348437,44.82042179478842],[-0.452317779509125,44.820004776295825],[-0.45242715097502,44.81964179740106],[-0.452487367456088,44.818335005010624],[-0.452952055849025,44.81724361661126],[-0.453648251887633,44.816272982907556],[-0.4539657323359,44.81550609640933],[-0.454649104356608,44.814574606293135],[-0.455174427137463,44.813605681799096],[-0.4558021756937,44.81271737198447],[-0.455942501547108,44.811746926486],[-0.456368706583472,44.81159575747037],[-0.456723758395288,44.81119357225339],[-0.457388271868923,44.809854414455366],[-0.457518041709704,44.80928892835268],[-0.457837787171388,44.80897165064823],[-0.458167450465028,44.8088361020641],[-0.458617969609961,44.80836063942383],[-0.459012223565065,44.80754718346127],[-0.459131538639804,44.80677114402769],[-0.459099862479482,44.806153919244885],[-0.458828247732729,44.805443249190006],[-0.456311580529794,44.80369234825405],[-0.455760675403636,44.802947124651524],[-0.454669362132962,44.80201778029497],[-0.453991304573102,44.801736115177114],[-0.453624896547981,44.80166462405203],[-0.452934825739599,44.80168161802065],[-0.452539938052926,44.80139382602971],[-0.452820881858514,44.80106335286814],[-0.453535708622101,44.8007490994508],[-0.455419613560055,44.80055069987403],[-0.456615867593006,44.80036740744759],[-0.45712254130141,44.8001677634494],[-0.457462821318199,44.799938161646985],[-0.458308549280781,44.800064977255225],[-0.458600335437506,44.79997296359308],[-0.458917787376429,44.800133380717625],[-0.459305017686099,44.80011138240812],[-0.459556360290102,44.800205371160686],[-0.46008279026529,44.800100622122024],[-0.460689580911866,44.80031418302967],[-0.460872674406334,44.80024538310115],[-0.461290568085325,44.80024855473437],[-0.461145141332547,44.79988090695693],[-0.461198311061001,44.799778313885874],[-0.461568772170082,44.799833431950766],[-0.461718083695065,44.79956562260926],[-0.461913351763654,44.79946850388088],[-0.462212145085495,44.79944925756275],[-0.462702344380118,44.7992086473682],[-0.462804399616528,44.79901620998029],[-0.463136119201137,44.79885354508344],[-0.463153639243275,44.7985628160079],[-0.46378316331527,44.79830342819532],[-0.464093568739877,44.79777464390841],[-0.464842961601442,44.79775572438079],[-0.465109729786864,44.797566245825834],[-0.465405633368615,44.79715146030141],[-0.465718065660147,44.79700471044273],[-0.465063343916902,44.796793577575414],[-0.465374085525397,44.79657839141841],[-0.4663013123549,44.79560585322105],[-0.46653660004317,44.7956859089184],[-0.466671466104593,44.795471714013885],[-0.467087519717256,44.795486635677726],[-0.467400523899473,44.79522631337359],[-0.467834734387505,44.79512531223714],[-0.467914874461646,44.794885792501354],[-0.467836370802934,44.794270035220144],[-0.468021576358147,44.79394882451104],[-0.468370477421001,44.793757668384444],[-0.468674457266249,44.79341291306614],[-0.468695528175121,44.79305718615188],[-0.469013046985943,44.79227583189894],[-0.469391539518951,44.791928741881975],[-0.469699198847549,44.791766809093005],[-0.469919684792092,44.79150486974994],[-0.470938160189419,44.79111069753538],[-0.472257771568702,44.791432536218124],[-0.472644171744173,44.791193329137364],[-0.473415228310627,44.79089159817519],[-0.474528099638442,44.79067376965567],[-0.475124563822352,44.79045500260993],[-0.475744493577971,44.791986506810886],[-0.476029019114667,44.792105551430375],[-0.478793499614883,44.795301844600516],[-0.47921491617777,44.79599605149488],[-0.480691760065512,44.7959929356811],[-0.482355686333342,44.79582260816081],[-0.483554062337607,44.7958191917859],[-0.482822105921985,44.796486550680086],[-0.48246523542505,44.796936646648234],[-0.485356247698147,44.79812276128219],[-0.48655978621182,44.79918076160432],[-0.486761734674738,44.799661055042144],[-0.487610934618613,44.800719378587466],[-0.487891956726931,44.80127017954901],[-0.488181434491789,44.801488171654476],[-0.488826289523008,44.80174183974796],[-0.492402541305752,44.80246011899394],[-0.494679725896062,44.80372122195066],[-0.495531851617761,44.80427382565329],[-0.497118961262484,44.80461488522106],[-0.497948609024745,44.80498884116272],[-0.498358982980866,44.80556167311609],[-0.497445956804611,44.80590230228026],[-0.496575936219213,44.80666963910655],[-0.495940024487387,44.807008723020495],[-0.494942344400101,44.80796301659547],[-0.494734696486767,44.80893925887466],[-0.494759903864044,44.809222343508345],[-0.494257857108808,44.810655764495785],[-0.494762790605895,44.811669924360416],[-0.494654424585756,44.811840964708246],[-0.494149187141713,44.81202271245278],[-0.493671156354704,44.8123162509682],[-0.493435549695786,44.812639998695396],[-0.493584264616942,44.81307690252502],[-0.491591371574335,44.81401205380805],[-0.490206268087404,44.81476581786016],[-0.489638873703186,44.81486478766509],[-0.489453077755277,44.81509413428551],[-0.489104073095483,44.81524390411064],[-0.488669639062035,44.81524135420387],[-0.488383116170087,44.81545944929637],[-0.487196828674511,44.815827511446244],[-0.485631876207816,44.81650035706194],[-0.481676194612199,44.817598850824695],[-0.480953634238445,44.818116298393065],[-0.481126426040993,44.81853443718134],[-0.4808699986136,44.818973261958625],[-0.480152838776475,44.81953739660871],[-0.479997722283773,44.81997664386206],[-0.479117327745623,44.82058374505786],[-0.478441334599961,44.82146560067417],[-0.477900341656712,44.82176735070149],[-0.476335423875836,44.82207687356866],[-0.474579607751323,44.822616754553906],[-0.473322426603925,44.82278411374022],[-0.472542859354268,44.8238358963286],[-0.474737958779704,44.82542172956773]]]]}},{"type":"Feature","properties":{"fid":2860,"ID":"COMMUNE_0000000009755632","NOM":"Camarsac","NOM_M":"CAMARSAC","INSEE_COM":"33083","STATUT":"Commune simple","POPULATION":1034,"INSEE_CAN":"11","INSEE_ARR":"2","INSEE_DEP":"33","INSEE_REG":"75","SIREN_EPCI":"243301355"},"geometry":{"type":"MultiPolygon","coordinates":[[[[-0.352074400757198,44.818617305800565],[-0.352527134141704,44.81839635600239],[-0.353501076061792,44.81829571270685],[-0.356015144372924,44.8169544458874],[-0.356991207914076,44.816762691864845],[-0.357553744632652,44.81674836121004],[-0.358396058327365,44.816987784783535],[-0.358834800244983,44.81689339151983],[-0.35945430866518,44.81662500622866],[-0.360579583234631,44.815774471297054],[-0.361195080739645,44.81482583673587],[-0.361414206667289,44.81467951654492],[-0.361922455184257,44.81456227680357],[-0.363209871194378,44.813820340119555],[-0.365046852963524,44.81225698915717],[-0.365724906212883,44.811889466516305],[-0.367109056120961,44.811495990183325],[-0.367851161766901,44.81116255416801],[-0.367966623634361,44.81093466211778],[-0.368541034897209,44.81105598563459],[-0.368857050024648,44.81104818515907],[-0.369914943271124,44.81201179538024],[-0.369873632934833,44.81246272156429],[-0.370582290526147,44.81298546910131],[-0.371164997674245,44.81328675652823],[-0.372176263142484,44.813261408097055],[-0.372560063879112,44.81311726497882],[-0.372938152581412,44.813341862561174],[-0.373641668311263,44.81350429015405],[-0.374356169426597,44.813891665523904],[-0.375672641651024,44.81498433012689],[-0.376811805881173,44.81630676738453],[-0.378469080001124,44.81788555566416],[-0.378480078651085,44.818110507802004],[-0.378175022625514,44.818343287896006],[-0.378023221075856,44.81990329660742],[-0.37656249043117,44.82184741259427],[-0.37565402175153,44.82267979992092],[-0.377845329552938,44.823534943584384],[-0.37949045343902,44.82484465353359],[-0.38013652822051,44.8251439689513],[-0.381611304517975,44.82555769057853],[-0.382858314220985,44.82559535173747],[-0.383978731600354,44.82613790398407],[-0.386716697434428,44.826520213088386],[-0.387185425050256,44.82704839237545],[-0.389413878062322,44.83023347996227],[-0.389736215626131,44.83118876829891],[-0.386122032016491,44.831421738684085],[-0.382939669236537,44.830771803922],[-0.382773382523125,44.83152213171538],[-0.382655130297749,44.83584497874724],[-0.382746302989166,44.836433356701924],[-0.382029362371223,44.8365579531605],[-0.380611952359154,44.83712293554561],[-0.37911872454552,44.837501867572506],[-0.377402600230983,44.83758658106851],[-0.375046959480439,44.83750419160047],[-0.373844265364824,44.83757592835359],[-0.371435901880454,44.838028547927514],[-0.37055946587551,44.83830300244893],[-0.369494142257962,44.83834258102952],[-0.368258575768018,44.83854231733988],[-0.367269965550269,44.838931894283434],[-0.365669224067898,44.83975907309232],[-0.363447252061581,44.840217573666045],[-0.363150032615371,44.840182429927474],[-0.362870251254719,44.83990975475659],[-0.362294305579978,44.839598296493925],[-0.362400254157804,44.83948514469082],[-0.362464023993387,44.8390272307722],[-0.362494360723093,44.835874999548885],[-0.362559553251294,44.83577930377716],[-0.363045902713636,44.83561046121211],[-0.362343819439668,44.834883796704275],[-0.361419599936938,44.833492508009506],[-0.36114214510821,44.83319452776138],[-0.360894342956466,44.83309570251737],[-0.36068251331501,44.8332381946782],[-0.360281810682013,44.83327196387345],[-0.359351184340748,44.832957722390645],[-0.358860832637955,44.83265717415361],[-0.358054645840621,44.83183992001248],[-0.35816852248682,44.831668859117435],[-0.358629163527621,44.831430524743794],[-0.359110331734039,44.831725944822566],[-0.359419927657868,44.831672410833065],[-0.359521804629889,44.83151252564808],[-0.359668816399412,44.83151438008395],[-0.359818593966235,44.831371967483385],[-0.359758148971018,44.83101784685019],[-0.358576245815935,44.8298470164416],[-0.358063844767402,44.82979134338458],[-0.357510293198347,44.829979321201755],[-0.356809975081956,44.83002124806399],[-0.356486136987314,44.82987875704961],[-0.355049165756384,44.82846419393942],[-0.354751386468289,44.82812175785783],[-0.354701892477751,44.82782317533991],[-0.354140182576365,44.82711114426286],[-0.353592395614747,44.82667443858778],[-0.352137380293182,44.82620658521981],[-0.35161788393869,44.82622228809034],[-0.351502154248517,44.826065383287485],[-0.351419688211717,44.82457739317112],[-0.351504368388354,44.82415039781972],[-0.351640263327938,44.82407239702713],[-0.351467291525923,44.82340177186784],[-0.351240281069859,44.82309864171363],[-0.352118489062406,44.82302613812134],[-0.35215709970324,44.8225698963054],[-0.352454946799261,44.82232028773041],[-0.353034774296869,44.82204322774341],[-0.352159848557216,44.821237030839136],[-0.350881116450773,44.820368237917386],[-0.350848654611087,44.81978167806843],[-0.35121667176682,44.81956239303012],[-0.351971950813582,44.81887362245775],[-0.352074400757198,44.818617305800565]]]]}},{"type":"Feature","properties":{"fid":3485,"ID":"COMMUNE_0000000009755635","NOM":"Sallebœuf","NOM_M":"SALLEBŒUF","INSEE_COM":"33496","STATUT":"Commune simple","POPULATION":2771,"INSEE_CAN":"11","INSEE_ARR":"2","INSEE_DEP":"33","INSEE_REG":"75","SIREN_EPCI":"243301355"},"geometry":{"type":"MultiPolygon","coordinates":[[[[-0.360864560666842,44.852466779340546],[-0.36123439403354,44.85176709563679],[-0.361279765077955,44.85144581247696],[-0.361048242708115,44.85087969535837],[-0.361265411502705,44.85074064649921],[-0.361561089404883,44.85019910745097],[-0.361796099750822,44.84936382872855],[-0.362647116191404,44.84815392412532],[-0.362537343269235,44.84773821672595],[-0.362928896439179,44.846809877509784],[-0.363006309554661,44.84634704294528],[-0.363169372548273,44.84610870139683],[-0.363093384370421,44.845939786729744],[-0.363202114526084,44.84553457734238],[-0.362937423608809,44.84430892848845],[-0.361597579437976,44.84215614571079],[-0.36125448845902,44.84218006025774],[-0.361175598809784,44.841391243104376],[-0.361254437580982,44.84080400922688],[-0.361979748740428,44.84007732943811],[-0.362139236724782,44.83969491420913],[-0.362294305579978,44.839598296493925],[-0.362870251254719,44.83990975475659],[-0.363150032615371,44.840182429927474],[-0.363447252061581,44.840217573666045],[-0.365669224067898,44.83975907309232],[-0.367269965550269,44.838931894283434],[-0.368258575768018,44.83854231733988],[-0.369494142257962,44.83834258102952],[-0.37055946587551,44.83830300244893],[-0.371435901880454,44.838028547927514],[-0.373844265364824,44.83757592835359],[-0.375046959480439,44.83750419160047],[-0.377402600230983,44.83758658106851],[-0.37911872454552,44.837501867572506],[-0.380611952359154,44.83712293554561],[-0.382029362371223,44.8365579531605],[-0.382746302989166,44.836433356701924],[-0.382655130297749,44.83584497874724],[-0.382773382523125,44.83152213171538],[-0.382939669236537,44.830771803922],[-0.386122032016491,44.831421738684085],[-0.389736215626131,44.83118876829891],[-0.389413878062322,44.83023347996227],[-0.387185425050256,44.82704839237545],[-0.386716697434428,44.826520213088386],[-0.383978731600354,44.82613790398407],[-0.382858314220985,44.82559535173747],[-0.384043327591572,44.82433092117763],[-0.385575497018811,44.8233649735577],[-0.38607656085971,44.823127989511],[-0.386716904732008,44.8220721054082],[-0.387571862971483,44.82121602490522],[-0.388508554792334,44.82152623737834],[-0.389106037922069,44.8214187620898],[-0.392174825890276,44.8199650741697],[-0.393161652023499,44.81959604354429],[-0.394486936873468,44.82235537487449],[-0.394821066626231,44.82520181898522],[-0.395887138500575,44.82503219935814],[-0.397504965321442,44.82460595632575],[-0.400158215646903,44.82337925273848],[-0.400962494524353,44.82313200001494],[-0.40356999736387,44.8229078060089],[-0.404101294179901,44.82271126362319],[-0.404600523319302,44.82234087756258],[-0.405589653230869,44.82213567592722],[-0.406083892484676,44.822079942252614],[-0.407052931254317,44.822190751986845],[-0.407431713781772,44.82215207738061],[-0.407564753017977,44.823322206661665],[-0.407702257513749,44.82354327213888],[-0.408220558586813,44.823800395318926],[-0.408473991333415,44.82380341922158],[-0.409573093408319,44.8230108462202],[-0.411303134869089,44.82476807884424],[-0.411981257517914,44.825696144342736],[-0.412396309331802,44.827045938856905],[-0.412865159982175,44.82761366493431],[-0.413181771011755,44.82894756349478],[-0.414649213161689,44.8285473261002],[-0.41483204374686,44.829908771537035],[-0.415381147142765,44.8307957358024],[-0.416178926549939,44.831585822019534],[-0.416760543770787,44.83184095901621],[-0.418466366076041,44.83179830252315],[-0.420352210583486,44.83157163514761],[-0.421805649894398,44.83154392022904],[-0.422956337732081,44.83178506980277],[-0.423214955972695,44.831914065661806],[-0.422931202895228,44.832681613804624],[-0.42154585354328,44.835510797638555],[-0.420148981992948,44.83950463700265],[-0.419947515641871,44.8404183335973],[-0.418105190603279,44.84036608241037],[-0.417819761364466,44.84100389854659],[-0.416614641653172,44.84274334671464],[-0.416652178997686,44.84298550778039],[-0.417100406859507,44.843856654635815],[-0.416518770563258,44.844893800959426],[-0.415227059047785,44.84641961726859],[-0.41485946302095,44.84772772601166],[-0.413677004283798,44.84723963679154],[-0.413551821045136,44.84726421610924],[-0.413092249722044,44.84774786949332],[-0.412896517387625,44.84782057859937],[-0.412605782891686,44.84841438553761],[-0.412504751191315,44.849044711341506],[-0.411901058282095,44.84922098622409],[-0.411726047543015,44.8494471566486],[-0.410684137670613,44.85158524065011],[-0.40975200422367,44.85181936242096],[-0.410204980450185,44.85387453667922],[-0.410678315410867,44.8547629638974],[-0.411539231462255,44.858359224185854],[-0.412092574916041,44.859082976333305],[-0.412827173673619,44.85978673232685],[-0.413375853968808,44.86109999377502],[-0.413822033721734,44.86160264248611],[-0.414826339649533,44.86215660382828],[-0.414891196411298,44.862451997188955],[-0.414088978416492,44.86313724859498],[-0.413330238709988,44.86312093972259],[-0.412972494313365,44.86323918446465],[-0.412916586817768,44.86352838032757],[-0.411399895513251,44.863258706865224],[-0.410968198062042,44.86349456947345],[-0.409709655085037,44.863615257871615],[-0.409020736252119,44.863767997564],[-0.407181194268217,44.863669495916234],[-0.406440093423116,44.86404821458294],[-0.406185560235188,44.864009167152524],[-0.405853940976988,44.86370213245814],[-0.404020023305965,44.86244269275756],[-0.402823516979051,44.86256230129614],[-0.401496341842185,44.86259578523679],[-0.396683041627892,44.86224759107479],[-0.396791254984182,44.863428417442556],[-0.397001281567169,44.86403027862939],[-0.39585992438384,44.863994022054875],[-0.391980339634341,44.86362334997547],[-0.390653351133286,44.86496068877056],[-0.390400277018749,44.86496661920563],[-0.389938087829872,44.864573411912595],[-0.389122275636383,44.863423209273826],[-0.387551397948727,44.86233751043354],[-0.386777712370973,44.86163208487697],[-0.38585293013966,44.86176123898205],[-0.38535838331877,44.86194394569209],[-0.384141443313739,44.86094743234423],[-0.382618511997288,44.86088573144931],[-0.382470424996536,44.8603837919893],[-0.381328844503734,44.86032126170817],[-0.380935591332827,44.860061094184196],[-0.379789921362022,44.8599094578983],[-0.379517609048359,44.859511328485176],[-0.376263205833789,44.858952559311454],[-0.374977350064905,44.858533891260144],[-0.373190883252743,44.858217842319455],[-0.372365636786094,44.85814740607522],[-0.371142576152133,44.85771867604883],[-0.369309225325525,44.856979546126624],[-0.366411938860538,44.85510387781133],[-0.365441311701285,44.85480530535884],[-0.36478364143203,44.85446479213128],[-0.364023546555768,44.85362003208762],[-0.363559873249641,44.85336644848222],[-0.361858390043504,44.8526673621841],[-0.360864560666842,44.852466779340546]]]]}},{"type":"Feature","properties":{"fid":3667,"ID":"COMMUNE_0000000009755637","NOM":"Fargues-Saint-Hilaire","NOM_M":"FARGUES-SAINT-HILAIRE","INSEE_COM":"33165","STATUT":"Commune simple","POPULATION":3504,"INSEE_CAN":"11","INSEE_ARR":"2","INSEE_DEP":"33","INSEE_REG":"75","SIREN_EPCI":"243301355"},"geometry":{"type":"MultiPolygon","coordinates":[[[[-0.452856714491714,44.8258258856155],[-0.452362289426337,44.82824745331773],[-0.45086385413435,44.82787143727946],[-0.449706655011211,44.82799936433772],[-0.448776413339926,44.82794629173867],[-0.448806930642175,44.829907226981625],[-0.448608876184298,44.830641545797796],[-0.448636500150454,44.832328611487284],[-0.44758666566347,44.83492873804237],[-0.446704271836168,44.83499671855938],[-0.445939588093656,44.8333505811972],[-0.445668431553504,44.832997630472505],[-0.442701593980432,44.83463800791794],[-0.44221399414126,44.83501001270685],[-0.441899118677248,44.83501798299362],[-0.441449561921168,44.83489495398677],[-0.440502353523953,44.83491803461636],[-0.439563691041332,44.8351219801436],[-0.438806206581225,44.835140964264156],[-0.437599667759313,44.83504499389197],[-0.436756530557364,44.83538203296468],[-0.436390799851501,44.83526269430571],[-0.433621170574712,44.836985924562136],[-0.432821740369364,44.83758292186373],[-0.431070409066914,44.83862480928274],[-0.430950584374706,44.838529386127206],[-0.429977189698869,44.836175871457264],[-0.429890688462751,44.83563062933091],[-0.429942802955996,44.835094618073406],[-0.430239933069656,44.83469251395047],[-0.429600816790744,44.83337312789088],[-0.429278643262357,44.83324070440594],[-0.428827252922363,44.83329431330942],[-0.428460292296496,44.833092079165134],[-0.428129976781742,44.8331996175667],[-0.427386546426162,44.832950440191304],[-0.426404507014301,44.83246441151883],[-0.426140390748226,44.832245474938176],[-0.426059027519097,44.831887517875906],[-0.426084540272693,44.831122531935236],[-0.426722584570649,44.82993579432694],[-0.426218644107362,44.828463523845045],[-0.425666351059052,44.827775867584904],[-0.424434364216788,44.82690643712264],[-0.424007986562186,44.825936422739545],[-0.425173452079438,44.825736414982984],[-0.424904824001138,44.8243839394718],[-0.425389194681166,44.823003698935544],[-0.424786475697472,44.82223559254181],[-0.424698172157632,44.82174267479685],[-0.424779925994054,44.8208407790754],[-0.42433594943915,44.82080672969731],[-0.423848950011053,44.819900771288],[-0.423110819096437,44.81929905066235],[-0.422670251927488,44.81859351727324],[-0.42491255499379,44.81641282812987],[-0.42576169708135,44.81597025191224],[-0.426478665447669,44.81581021611387],[-0.425012014085024,44.814244241145346],[-0.423170475842711,44.8130899458597],[-0.423709336517738,44.81220998501768],[-0.420727830211905,44.81123143573253],[-0.421482974951292,44.81115856752392],[-0.422747220704918,44.81117180879251],[-0.423875192239327,44.810963952276154],[-0.424635042914765,44.81098914453374],[-0.426113997597956,44.81149225925159],[-0.42809521303663,44.81242500377814],[-0.42856493543471,44.81273670200314],[-0.429945132667568,44.81325904374482],[-0.430747154703355,44.81372536665112],[-0.431586978821971,44.81315236171171],[-0.434252333132771,44.81069432981981],[-0.434149734409537,44.81017572829351],[-0.434253032005421,44.80948403117223],[-0.434126064191736,44.80933296263197],[-0.434896221708806,44.80851246334624],[-0.435302099044274,44.8079249368433],[-0.435452775569155,44.807780585242725],[-0.435861758442123,44.807657966147],[-0.437034885083879,44.807010601826015],[-0.437397756116361,44.8067758585476],[-0.437674522638596,44.80637526465609],[-0.438488550410633,44.806086873453154],[-0.439151456850952,44.80548054409955],[-0.439806626070082,44.80536829473926],[-0.440287529464624,44.805490348865774],[-0.440809648475557,44.80537591463741],[-0.441108505659687,44.80519180911247],[-0.441211952908025,44.80493807065281],[-0.44150684695584,44.80473065642371],[-0.442754321216013,44.80401783757162],[-0.443875724863793,44.80366488591145],[-0.44696780933215,44.802896492410845],[-0.447543860511704,44.80287767548575],[-0.448224167375993,44.80303134214932],[-0.449498568920936,44.803727952520035],[-0.449990249435129,44.80386044349787],[-0.450366957780532,44.80366667932901],[-0.45059274198547,44.80324150305631],[-0.451930230794274,44.802883543215486],[-0.452685378580997,44.80235986738685],[-0.453991304573102,44.801736115177114],[-0.454669362132962,44.80201778029497],[-0.455760675403636,44.802947124651524],[-0.456311580529794,44.80369234825405],[-0.458828247732729,44.805443249190006],[-0.459099862479482,44.806153919244885],[-0.459131538639804,44.80677114402769],[-0.459012223565065,44.80754718346127],[-0.458617969609961,44.80836063942383],[-0.458167450465028,44.8088361020641],[-0.457837787171388,44.80897165064823],[-0.457518041709704,44.80928892835268],[-0.457388271868923,44.809854414455366],[-0.456723758395288,44.81119357225339],[-0.456368706583472,44.81159575747037],[-0.455942501547108,44.811746926486],[-0.4558021756937,44.81271737198447],[-0.455174427137463,44.813605681799096],[-0.454649104356608,44.814574606293135],[-0.4539657323359,44.81550609640933],[-0.453648251887633,44.816272982907556],[-0.452952055849025,44.81724361661126],[-0.452487367456088,44.818335005010624],[-0.45242715097502,44.81964179740106],[-0.452317779509125,44.820004776295825],[-0.451833134348437,44.82042179478842],[-0.45096497083196,44.8207588276106],[-0.449864388889608,44.82100215245712],[-0.449454747633844,44.82216661231937],[-0.449774329234327,44.822318882970656],[-0.45162293815033,44.82365638854059],[-0.452968935764829,44.8252825793607],[-0.453027424415193,44.825471809878366],[-0.452856714491714,44.8258258856155]]]]}},{"type":"Feature","properties":{"fid":3902,"ID":"COMMUNE_0000000009755631","NOM":"Croignon","NOM_M":"CROIGNON","INSEE_COM":"33141","STATUT":"Commune simple","POPULATION":733,"INSEE_CAN":"11","INSEE_ARR":"2","INSEE_DEP":"33","INSEE_REG":"75","SIREN_EPCI":"243301355"},"geometry":{"type":"MultiPolygon","coordinates":[[[[-0.340774911382904,44.835162527641565],[-0.34127468032244,44.834303107921706],[-0.341323078472279,44.83345638441677],[-0.340266180704698,44.83318904471126],[-0.338832554034218,44.83261313495698],[-0.338499288687665,44.82920156354122],[-0.338233012980926,44.828876160212545],[-0.336443210026156,44.827567512020394],[-0.336223903333165,44.82732900233797],[-0.336070271847245,44.827023635097866],[-0.335865364862083,44.82581237138146],[-0.335621417112025,44.825009593364136],[-0.335037380334755,44.823725027418156],[-0.334090541035885,44.82221527349515],[-0.333901625875377,44.821037771908294],[-0.332692350386166,44.81973414840755],[-0.330237034443903,44.816397160239994],[-0.32930735262841,44.813378379596905],[-0.329006190243417,44.81182127042546],[-0.329114052965435,44.80932642646432],[-0.330546867734371,44.80904639372185],[-0.331013705159228,44.80880708645235],[-0.331997147977992,44.80788722153451],[-0.332309895591016,44.80782465446944],[-0.334086201874335,44.80812899073416],[-0.335022179519078,44.80794584283284],[-0.336172565895055,44.80828249178323],[-0.337143165465679,44.80795770823492],[-0.339221039562576,44.806818290477075],[-0.339571640225701,44.80671130819349],[-0.340458627345189,44.80728022821235],[-0.340837663045672,44.807289531649175],[-0.341455439474288,44.80699246324451],[-0.342957268600142,44.80644885918358],[-0.34331319383714,44.80619752366772],[-0.343479790052785,44.80589152202116],[-0.344157404629467,44.80560074311802],[-0.344971392354261,44.80507065014756],[-0.346346829143141,44.80574283129473],[-0.346854227353918,44.806270894290776],[-0.348047778792862,44.8064177813869],[-0.347955486952244,44.80656835429066],[-0.347365862583196,44.806763683309455],[-0.347690148474606,44.807128760921486],[-0.347828487634709,44.80775086916028],[-0.347844452099131,44.809696830951445],[-0.347747251562785,44.81033866874608],[-0.348118725205436,44.81187739784564],[-0.349160838902127,44.81423842948769],[-0.349521295380856,44.81474208742146],[-0.349904637498502,44.815077441979106],[-0.349986528919647,44.815325482959494],[-0.350244075208236,44.81541952891009],[-0.350096217400722,44.81561503731832],[-0.350091620658932,44.81617478086317],[-0.349708150088259,44.816644143661804],[-0.349674831321978,44.81684970789076],[-0.349751327089201,44.81741060607675],[-0.349892083848236,44.81745681692989],[-0.350174885674433,44.81737978577632],[-0.350308722357163,44.817692040122125],[-0.350106420311642,44.81780268467642],[-0.350097913223701,44.81806336982776],[-0.349823905863777,44.81828792117356],[-0.349458559002773,44.81829715643058],[-0.349333750952581,44.818391040247974],[-0.349708629857826,44.818477938916544],[-0.35049571639144,44.81883173283519],[-0.352074400757198,44.818617305800565],[-0.351971950813582,44.81887362245775],[-0.35121667176682,44.81956239303012],[-0.350848654611087,44.81978167806843],[-0.350881116450773,44.820368237917386],[-0.352159848557216,44.821237030839136],[-0.353034774296869,44.82204322774341],[-0.352454946799261,44.82232028773041],[-0.35215709970324,44.8225698963054],[-0.352118489062406,44.82302613812134],[-0.351240281069859,44.82309864171363],[-0.351467291525923,44.82340177186784],[-0.351640263327938,44.82407239702713],[-0.351504368388354,44.82415039781972],[-0.351419688211717,44.82457739317112],[-0.351502154248517,44.826065383287485],[-0.35161788393869,44.82622228809034],[-0.352137380293182,44.82620658521981],[-0.353592395614747,44.82667443858778],[-0.354140182576365,44.82711114426286],[-0.354701892477751,44.82782317533991],[-0.354751386468289,44.82812175785783],[-0.355049165756384,44.82846419393942],[-0.356486136987314,44.82987875704961],[-0.356809975081956,44.83002124806399],[-0.357510293198347,44.829979321201755],[-0.358063844767402,44.82979134338458],[-0.358576245815935,44.8298470164416],[-0.359758148971018,44.83101784685019],[-0.359818593966235,44.831371967483385],[-0.359668816399412,44.83151438008395],[-0.359521804629889,44.83151252564808],[-0.359419927657868,44.831672410833065],[-0.359110331734039,44.831725944822566],[-0.358629163527621,44.831430524743794],[-0.35816852248682,44.831668859117435],[-0.358054645840621,44.83183992001248],[-0.358860832637955,44.83265717415361],[-0.359351184340748,44.832957722390645],[-0.360281810682013,44.83327196387345],[-0.36068251331501,44.8332381946782],[-0.360894342956466,44.83309570251737],[-0.36114214510821,44.83319452776138],[-0.361419599936938,44.833492508009506],[-0.361040998649213,44.83391670709929],[-0.360661085971012,44.83402284023757],[-0.360284285636287,44.83396937506004],[-0.359047253031993,44.83437631811462],[-0.35759760276329,44.83525197082051],[-0.356737098020278,44.83530595382137],[-0.355938447142148,44.835589652331365],[-0.354783264980123,44.83484511227151],[-0.352259414855764,44.83535757933012],[-0.350707719493386,44.83601093738407],[-0.347495524742745,44.836599056583815],[-0.346408296625882,44.836631866027446],[-0.344268075461615,44.83637921998011],[-0.342417514012887,44.835822231390324],[-0.34204669284194,44.835571175288386],[-0.341626307713354,44.835487420529354],[-0.340774911382904,44.835162527641565]]]]}}]}