{"type":"FeatureCollection","name":"COM_17028","crs":{"type":"name","properties":{"name":"urn:ogc:def:crs:OGC:1.3:CRS84"}},"features":[{"type":"Feature","properties":{"fid":4054,"ID":"COMMUNE_0000000009750407","NOM":"Aytré","NOM_M":"AYTRE","INSEE_COM":"17028","STATUT":"Commune simple","POPULATION":9759,"INSEE_CAN":"01","INSEE_ARR":"3","INSEE_DEP":"17","INSEE_REG":"75","SIREN_EPCI":"241700434"},"geometry":{"type":"MultiPolygon","coordinates":[[[[-1.08019315966427,46.1360378681915],[-1.080115777772472,46.13498026184071],[-1.080377391956193,46.13415572658998],[-1.080738039431554,46.132291585662166],[-1.080850854415699,46.13012978061412],[-1.080454437145193,46.13010075547892],[-1.080384704638892,46.12970381378922],[-1.084261933085555,46.12922708805525],[-1.08515946289956,46.129054113867525],[-1.086752670689319,46.12854048500834],[-1.08804590564356,46.12828290211163],[-1.087926735399975,46.12744952006189],[-1.088098609899621,46.12704117114282],[-1.08844052162542,46.12668710863981],[-1.089225011107588,46.12668588910009],[-1.089901780021705,46.12659657399218],[-1.090967442987282,46.126731281815054],[-1.092592442654695,46.12654103184974],[-1.093985295195674,46.12579467092746],[-1.094908800984064,46.12543222389237],[-1.095272171302999,46.12514048340081],[-1.096310422953366,46.1239010357918],[-1.097089122399759,46.12338870472588],[-1.098370044210783,46.123089964399576],[-1.098879605899462,46.12312385495026],[-1.09908518050628,46.12289010040145],[-1.099610677738414,46.122842258590936],[-1.100668513029019,46.12292485766586],[-1.101802191880912,46.12261697209656],[-1.102145859872102,46.122374611938454],[-1.102347175974041,46.12201476617525],[-1.102738324140021,46.12164444842615],[-1.103791997731872,46.120943585999385],[-1.104068885725608,46.12084880954747],[-1.103405824220886,46.1192479205721],[-1.103812308853171,46.11851095079819],[-1.103464429259303,46.11739640251773],[-1.106252188329924,46.11737938791473],[-1.106491287248779,46.11752492505313],[-1.106717356796438,46.117461737238116],[-1.109371011306466,46.120726311693005],[-1.109467475323932,46.120698471385296],[-1.11105674626426,46.12282032527022],[-1.116308327376855,46.12229807902417],[-1.116841133368135,46.12207135229222],[-1.11726521676199,46.120914393202256],[-1.117283217466047,46.119789302860276],[-1.117951215362482,46.11892826677824],[-1.118351828303262,46.118564760724496],[-1.118995377817233,46.116774035030694],[-1.119635563421908,46.11576791856604],[-1.119991335139072,46.11556744097305],[-1.120234129479533,46.115140226494034],[-1.12188595778242,46.113742069557524],[-1.122721122178653,46.11267474400434],[-1.123981231680751,46.11358746433721],[-1.123837862953842,46.114612519562215],[-1.123836787535785,46.11590922903229],[-1.124128480214319,46.11803028615401],[-1.124385671929221,46.11910570274596],[-1.125163272598305,46.121549040192676],[-1.125962522930346,46.12355515529693],[-1.126855688362923,46.12542980659159],[-1.12715895370392,46.12566855170024],[-1.127276914296177,46.12566786760483],[-1.127081985680993,46.12578316464637],[-1.127349424248972,46.126080020865565],[-1.127585444295508,46.126166115427466],[-1.127867882023019,46.12595565840953],[-1.127719083019891,46.126270361756454],[-1.128271689216217,46.12666865448381],[-1.128985710233884,46.12686810270266],[-1.129929773155848,46.12698793752053],[-1.131043657170493,46.12696902864337],[-1.131065189281222,46.126910534487166],[-1.132272708191932,46.12658522551969],[-1.132856799372422,46.12659190460935],[-1.133043622472375,46.12666174577259],[-1.133139227709634,46.12655366325143],[-1.133639824312449,46.1264849298973],[-1.134115270971284,46.12651269336723],[-1.134745494974804,46.126357174934526],[-1.135339137704754,46.12650776897721],[-1.13566948645381,46.126915931698825],[-1.135944583884773,46.12703845754179],[-1.136612697876773,46.12721338237909],[-1.137804681649425,46.127370101543704],[-1.138685568471498,46.12735690958505],[-1.139197266529034,46.12726340019183],[-1.140112101500004,46.12701270613185],[-1.140196818771999,46.12682926940164],[-1.141231854863708,46.12655614508499],[-1.141888149080673,46.12666023418105],[-1.143322685434344,46.127109218357575],[-1.145881565763236,46.127402587673004],[-1.146582167730323,46.127749400398464],[-1.148031075410323,46.12898771930917],[-1.148808863980203,46.13001160375641],[-1.149015097669698,46.130474767057514],[-1.148580207891205,46.13108671304274],[-1.148447225082039,46.13160916907419],[-1.148645198156028,46.132494645652905],[-1.149000725837859,46.13304522922298],[-1.149172477262487,46.133138139759104],[-1.147710134171862,46.13563439108857],[-1.14795050938201,46.13581136162226],[-1.14746555352866,46.137717311637545],[-1.147535802587391,46.137857217709936],[-1.14788879031092,46.13809950622504],[-1.147550075757684,46.13897213722055],[-1.147215991493705,46.13971745353724],[-1.147051129113291,46.14004178895409],[-1.145476269344527,46.139937916673915],[-1.143053366184313,46.139340179415385],[-1.139727802753271,46.138726630057846],[-1.13886217891388,46.138497604309364],[-1.138572962152564,46.13849823286512],[-1.138454388698302,46.138663064077456],[-1.137848618447225,46.14115587959047],[-1.137935352144485,46.141187884533046],[-1.137717892301763,46.14141763736365],[-1.137263633090445,46.14136296183734],[-1.136467194173183,46.141948356644114],[-1.136041598758049,46.14211896408219],[-1.135678070524757,46.14214934440753],[-1.135236201562454,46.14208699534042],[-1.133620882710245,46.14151553590843],[-1.133243828126384,46.141486887537155],[-1.133627508590908,46.14246390653212],[-1.134257021097116,46.142761088406274],[-1.135976798857309,46.143908542034545],[-1.136078407876794,46.144309713160595],[-1.136035911002729,46.14457185997754],[-1.135786718748234,46.14496597661219],[-1.135197359959518,46.14528772460933],[-1.132716275532582,46.14577845690771],[-1.1321437471511,46.14580741756113],[-1.132123486917493,46.14665757658118],[-1.131817349052004,46.14700235810466],[-1.131812479167496,46.14728206889613],[-1.131608779520811,46.147729523677],[-1.131426768206139,46.14789665511092],[-1.130993015910239,46.148045896928565],[-1.130910713723401,46.14815890215921],[-1.131203451057388,46.14870370778139],[-1.131179793095024,46.148957952310255],[-1.130845230023193,46.14897734227285],[-1.130668888594634,46.1490820472063],[-1.130336410770596,46.14933580695497],[-1.130083064293857,46.149744487362945],[-1.129765080163918,46.14967400047475],[-1.129585201039203,46.14959397977117],[-1.129398165714839,46.149694563028184],[-1.129109492149474,46.14972039371524],[-1.128757537760004,46.14962949853398],[-1.127288501171041,46.149141892795605],[-1.125587525901888,46.148295700521025],[-1.124334584856124,46.14800669727544],[-1.124109500694202,46.14806717526488],[-1.123077428396369,46.1477304578321],[-1.122610294565447,46.14748773149651],[-1.120850813001475,46.147242336142845],[-1.119563974311408,46.14724396282356],[-1.118753736269561,46.147338290396796],[-1.113487015034473,46.148295735828206],[-1.111069031885213,46.14892255961233],[-1.105923399540709,46.149767955393074],[-1.105405091207063,46.14979391628393],[-1.103502111525357,46.14957237811378],[-1.102112977751307,46.14900492163859],[-1.100829187283253,46.148249696064944],[-1.099273513727114,46.14687669232345],[-1.09746611557124,46.14557136818649],[-1.096820236913737,46.145261053778896],[-1.095354340688379,46.144757607247236],[-1.094609328943276,46.144526600681836],[-1.094499658402549,46.14456933015428],[-1.09492146612003,46.14418982618603],[-1.094820337840522,46.144138471093925],[-1.091644984997328,46.14362089733387],[-1.08900961518779,46.143002631393145],[-1.088349732337212,46.14279917618738],[-1.086268459526026,46.1419039053787],[-1.085331092602417,46.14163197636515],[-1.084954552706456,46.141313706464906],[-1.084460822420574,46.1406236469907],[-1.083132953063406,46.138451460905216],[-1.082138655302614,46.137500779000405],[-1.08019315966427,46.1360378681915]]]]}}]}