{"type":"FeatureCollection","name":"COM_16190","crs":{"type":"name","properties":{"name":"urn:ogc:def:crs:OGC:1.3:CRS84"}},"features":[{"type":"Feature","properties":{"fid":4211,"ID":"COMMUNE_0000000009751112","NOM":"Longré","NOM_M":"LONGRE","INSEE_COM":"16190","STATUT":"Commune simple","POPULATION":191,"INSEE_CAN":"08","INSEE_ARR":"3","INSEE_DEP":"16","INSEE_REG":"75","SIREN_EPCI":"200043016"},"geometry":{"type":"MultiPolygon","coordinates":[[[[-0.004935764638278,45.9849968315203],[-0.004241773397103,45.98410058711595],[-0.004184901736111,45.983887623818056],[-0.004665344991316,45.98189145434198],[-0.004371145040227,45.9805989103637],[-0.004786455840742,45.978546794636564],[-0.005143070884071,45.978189486366674],[-0.007515116602105,45.97653867240249],[-0.00738070661984,45.975545575808404],[-0.007664842946946,45.975328960712496],[-0.008000392050792,45.97463427222634],[-0.008162275681183,45.97449840291442],[-0.008386313663503,45.973939144909885],[-0.008445550827947,45.97339147571571],[-0.008706960468316,45.97323223386537],[-0.00789754427492,45.9721615562468],[-0.007856447865519,45.97176434165247],[-0.007653992272946,45.971465134022154],[-0.007556970002616,45.97065938391249],[-0.007683062139459,45.97031810353547],[-0.008547340000678,45.97078535772124],[-0.010566404838169,45.9707217598785],[-0.011939524860681,45.97080418070091],[-0.014356098295845,45.9711318492242],[-0.016054938333876,45.9714740883915],[-0.017206613159956,45.97157135803635],[-0.017615017642174,45.97152442467821],[-0.018673342545446,45.971757538533005],[-0.019210122184016,45.97214243173877],[-0.020016696807377,45.97245073590099],[-0.024868361004514,45.97268525134047],[-0.027273493225025,45.97291923411293],[-0.027468459639341,45.97258690039215],[-0.029024640467339,45.97280029404432],[-0.030829847997252,45.9742496935123],[-0.032111683173345,45.974690274036185],[-0.032340400533598,45.97485356473447],[-0.032466160870764,45.97521246084554],[-0.032242199616252,45.976003368143154],[-0.032762744114301,45.97719336896274],[-0.033574295234026,45.97998053147637],[-0.03382205338219,45.980090141342764],[-0.033891545070112,45.980318975347906],[-0.034169737373682,45.980370995945314],[-0.034529984103926,45.980668634828625],[-0.037008809298142,45.98204311546581],[-0.038292156706477,45.98229615044109],[-0.039446431794372,45.98241205560012],[-0.040689340620852,45.98268146934959],[-0.041965066224459,45.98328702226971],[-0.0425913950101,45.983766731232436],[-0.042762143953168,45.98580237175967],[-0.041982065276805,45.986423507321234],[-0.041921403708925,45.98691626995095],[-0.042059916585155,45.9872937395244],[-0.042265773260381,45.98741617316311],[-0.042999447893862,45.98756857858861],[-0.044898086654086,45.98716337669712],[-0.047476191194815,45.98705255904615],[-0.049290781088704,45.987464196973676],[-0.050108393891556,45.9874746156962],[-0.050224770276439,45.98784816734912],[-0.050659560974664,45.98808877923101],[-0.050712046471312,45.98901196023157],[-0.049790490086942,45.98917917103386],[-0.048122619836953,45.98927004372606],[-0.046003898464404,45.989764126237844],[-0.044283206386023,45.99004560679207],[-0.043657151142409,45.99032016996392],[-0.043172305927849,45.99029625450138],[-0.044478550164458,45.99229055625858],[-0.045049276485458,45.99353863904304],[-0.045025307884354,45.99448370170972],[-0.044058036676735,45.99450430169914],[-0.03834842413046,45.992374109072706],[-0.038155922430692,45.992423431156894],[-0.038344076614413,45.99377012162955],[-0.038749875809843,45.99421161438891],[-0.040844363496516,45.994842071832615],[-0.040978395655902,45.99497454768096],[-0.04087754891106,45.99857649072665],[-0.042362735183074,45.99859066958259],[-0.043998058871135,45.99905137427164],[-0.044318449576081,45.998999505973025],[-0.044566904470541,45.998769338360574],[-0.04560498870643,45.99888200597136],[-0.046977037837786,45.99925783018389],[-0.047235363127249,45.99925268167954],[-0.047740602839008,45.99817300899886],[-0.051958801759693,45.99831893970482],[-0.052928080955641,45.99800714332186],[-0.053380113955887,45.9979976593984],[-0.054738577073403,45.99805834849607],[-0.055916952573331,45.99843838862468],[-0.055922193034871,45.99850943940494],[-0.057627497520599,45.99859858308687],[-0.057443553562717,45.9988252367941],[-0.056025337815582,45.99985390073124],[-0.055461206354324,46.00040621830013],[-0.054772579373577,46.00085915800404],[-0.053115998783952,46.00146255366407],[-0.051923935079898,46.00162895821971],[-0.050971291756355,46.00200878447275],[-0.048885957282834,46.00304360830335],[-0.048514519193513,46.00341136922477],[-0.047909394991127,46.00436937192809],[-0.04849635149427,46.00597657005246],[-0.04948952547329,46.00781884741237],[-0.049677226717955,46.00882489970255],[-0.048949142130497,46.01022508416882],[-0.046749663946556,46.01247409427636],[-0.045872066254708,46.01320871328731],[-0.045607359766538,46.01398722567521],[-0.044839721326863,46.01397542059882],[-0.044352118955633,46.01385875904108],[-0.044017737178301,46.01361271661204],[-0.04348906530649,46.01352509112693],[-0.041891259253021,46.013446353530426],[-0.038872912424446,46.013664344860196],[-0.037033811733994,46.01392363822918],[-0.034813750768646,46.01452203083969],[-0.03367062507766,46.014667097678206],[-0.033116417187953,46.014819815541934],[-0.03089812673343,46.01587406671339],[-0.033690783514031,46.01791612969196],[-0.030748032150385,46.018501346535146],[-0.028309999907085,46.01859898724608],[-0.028316092551658,46.01873309640248],[-0.024237927211333,46.01854916453187],[-0.022906990791808,46.01878564399712],[-0.022233887018066,46.017694285072984],[-0.021780925472044,46.01717198553858],[-0.021762612049819,46.01650922639657],[-0.022189316171462,46.015283090545005],[-0.021944185004491,46.01444705324961],[-0.02206056763292,46.013434658282115],[-0.021629115089536,46.012855913815564],[-0.020217446613763,46.01199691658136],[-0.016940159693948,46.01206803205445],[-0.014175513291999,46.01188841028954],[-0.013663897327457,46.01078910515856],[-0.013194551221856,46.01022485687715],[-0.012898106824289,46.008945002112895],[-0.012264661541043,46.00902042472356],[-0.012184251844859,46.008780154432635],[-0.011406194138287,46.00767891496374],[-0.010873232252407,46.007321811292265],[-0.010870420931779,46.005947636625805],[-0.010558584207954,46.00537738959254],[-0.007575730994671,46.00645060198779],[-0.006789710695408,46.00695178202711],[-0.006128477933964,46.00784344469057],[-0.005538359170073,46.00816729697183],[-0.003792791084213,46.008456911999964],[-0.001071325329989,46.00915895132281],[0.001562715073047,46.01011363224465],[0.007079202910868,46.01128953149943],[0.008008896334025,46.011316795962266],[0.007438147565355,46.010373545286235],[0.007153209111282,46.0102623858907],[0.006468052988758,46.010233466676866],[0.006426814622011,46.009304203036955],[0.006788230825268,46.0091506481879],[0.005760037436551,46.00727523438774],[0.005115605198623,46.00685538658184],[0.004139185313284,46.00521832436873],[0.003713354091456,46.00437080100537],[0.003680505610743,46.003644513568204],[0.002796712101781,46.00208918806224],[0.003114482378703,46.00164432334638],[0.003066118006726,46.00136909658622],[0.00315584804878,46.001217375920824],[0.003473008655806,46.001044638857046],[0.003225438836541,46.00067582931587],[0.003222755161565,46.00017922953453],[0.002972296477276,45.99900922825831],[0.002894908248065,45.99762933510114],[0.002802307309439,45.99743043545909],[0.002355470227723,45.99704102981469],[0.000669346734087,45.99588076941771],[7.8121584352e-05,45.995081114270626],[-0.000318775794551,45.993990128697966],[-0.000549362317174,45.99369024620305],[-0.00064567034374,45.992469348904166],[-0.001317115470014,45.990889872446886],[-0.001170704270377,45.99031521927995],[-0.002165073794472,45.98972654494858],[-0.002757441329193,45.98916294149178],[-0.003636751986748,45.9887169819488],[-0.004353143768951,45.9872291094151],[-0.005280289492604,45.986026707061995],[-0.005319000451127,45.98559943789772],[-0.004935764638278,45.9849968315203]]]]}}]}