{"type":"FeatureCollection","name":"COM_33166","crs":{"type":"name","properties":{"name":"urn:ogc:def:crs:OGC:1.3:CRS84"}},"features":[{"type":"Feature","properties":{"fid":4233,"ID":"COMMUNE_0000000009754982","NOM":"Le Fieu","NOM_M":"LE FIEU","INSEE_COM":"33166","STATUT":"Commune simple","POPULATION":501,"INSEE_CAN":"21","INSEE_ARR":"5","INSEE_DEP":"33","INSEE_REG":"75","SIREN_EPCI":"200070092"},"geometry":{"type":"MultiPolygon","coordinates":[[[[-0.00507893626117,45.05477956183015],[-0.005259725167347,45.05450076623664],[-0.005535373657393,45.054307711833104],[-0.005690159022209,45.053805258298],[-0.005858488741508,45.05362591241209],[-0.005852361576857,45.053488218630676],[-0.005491789261805,45.053283504360515],[-0.005444041527322,45.05256035692825],[-0.004853755933773,45.05195997745508],[-0.004865401636562,45.05182180410493],[-0.005018035984754,45.05168162777796],[-0.004923269492702,45.05143189431518],[-0.005424206517744,45.05077142725916],[-0.005273011846967,45.050512404837896],[-0.005407146857233,45.050359211641656],[-0.005464669104271,45.050057612772356],[-0.005424950010667,45.04993344045708],[-0.005138438550309,45.04985287219402],[-0.005082339959048,45.04932908050156],[-0.005362212774521,45.048860194121794],[-0.005464900842628,45.04880786501351],[-0.005982080828262,45.04894707953171],[-0.006144203660022,45.0490310041281],[-0.006208413024238,45.04927975942533],[-0.006690688938851,45.049431626789364],[-0.007051310236537,45.049211945263956],[-0.007786064742011,45.049071358832855],[-0.008697993340103,45.04938911463711],[-0.008915859995767,45.049185899040424],[-0.009036320632794,45.04870779502844],[-0.009749153999386,45.04801815286545],[-0.010557081467884,45.04793864233687],[-0.011233128676195,45.04769960440037],[-0.012023910304326,45.04763226033992],[-0.012385090075456,45.0473999310776],[-0.012515768212752,45.047159421196156],[-0.012990551698447,45.04712494819872],[-0.013700583261569,45.04680928751709],[-0.014126168469542,45.04687615705209],[-0.014413532510169,45.047019751969735],[-0.015011424592651,45.046981936970525],[-0.015113923331047,45.04687914538121],[-0.015432673668655,45.04689754378982],[-0.015515591981097,45.04680879778771],[-0.015656519528964,45.046805881615455],[-0.015799478771735,45.04643978985086],[-0.017408451251776,45.046531350175464],[-0.017897597663475,45.04643339368365],[-0.01804669763112,45.0462049919182],[-0.01806848007705,45.04585479635983],[-0.017898820958538,45.04518361271173],[-0.017611577331436,45.04466518951346],[-0.017674365743901,45.04446255488925],[-0.017810580109054,45.04437236237023],[-0.018355728075935,45.04432334375751],[-0.018968908262383,45.04414543038121],[-0.020413649496379,45.04411525286082],[-0.020568895320799,45.044024540488124],[-0.02071385541901,45.04369623120624],[-0.021324043688529,45.043133639581384],[-0.021603747644383,45.04306477709736],[-0.023317378853782,45.0431660235255],[-0.023500773715574,45.04333764775897],[-0.023679220276246,45.04337064507503],[-0.023995322825537,45.043363861126856],[-0.024168328095854,45.04327266112809],[-0.024521988317143,45.04290263487408],[-0.024763271444801,45.042334727587104],[-0.024553899079799,45.04196468012042],[-0.024235173833407,45.04194630783793],[-0.023868438469675,45.04160396134743],[-0.023728872464428,45.041232016430335],[-0.023455834252928,45.04100065546146],[-0.023150157067419,45.040494460551045],[-0.02330606898861,45.04041634059701],[-0.023642595303641,45.04045855999419],[-0.023797193694013,45.0403561467919],[-0.024237011890973,45.04033428751947],[-0.024490673832565,45.04006609277559],[-0.024653479559223,45.04016258636928],[-0.024947623483889,45.04003205158012],[-0.025379928057675,45.04024736691993],[-0.025871681543693,45.04019886037775],[-0.025960456599503,45.04024240060546],[-0.026011176920619,45.04019326643401],[-0.026229474406695,45.04032879642734],[-0.02662174602359,45.04034426211157],[-0.026797228271855,45.040557544081935],[-0.027164180460172,45.040175433748786],[-0.027257997475559,45.03979534398497],[-0.02711925144408,45.03936841688141],[-0.027258205482439,45.0390474698167],[-0.027031219740458,45.03861032775765],[-0.027385978370198,45.03807356814814],[-0.027775540722642,45.037804372399634],[-0.027890023286337,45.037571491588295],[-0.028096882994267,45.037425301296494],[-0.02790751490168,45.037072737254476],[-0.027323205034313,45.03679579010719],[-0.026486647237601,45.03669509533313],[-0.026453692618823,45.03646171954448],[-0.026173949864274,45.0364116582321],[-0.025975448287728,45.03647742464769],[-0.025959863802999,45.0362832225655],[-0.026407904793744,45.03561508091859],[-0.026283386227966,45.03483996354132],[-0.026350454961674,45.03476425435761],[-0.028891363460737,45.0344004987324],[-0.036070763262508,45.033128147876496],[-0.050823960330639,45.03039912059403],[-0.050559567358011,45.03114343019841],[-0.049867565606758,45.031293047560446],[-0.049738716261143,45.03142362688423],[-0.049815987058035,45.03302808986557],[-0.049695552492684,45.03499208536753],[-0.047327763399101,45.040680417806044],[-0.047379945891091,45.040938493317505],[-0.047277316566869,45.0412476616552],[-0.046173701279113,45.043877411530055],[-0.047544080942682,45.044302147608576],[-0.049572778019124,45.045168375476315],[-0.050638082347406,45.045405000903514],[-0.050981103009358,45.04544876329174],[-0.051212204472231,45.04465220154584],[-0.052897159042238,45.04513402855829],[-0.054074555120146,45.04523509182454],[-0.059789422689002,45.04661267682723],[-0.063022979776002,45.04744825062923],[-0.06497660632064,45.04830636198211],[-0.067312400146849,45.048946667485026],[-0.067530993131259,45.049108243303614],[-0.066302059621375,45.05010984137384],[-0.065867119077288,45.05068588645474],[-0.064344303243906,45.05191631464058],[-0.063541866121215,45.05249074975629],[-0.062495325433593,45.05308811225979],[-0.053940501176253,45.06373666549798],[-0.060829296070241,45.06580651563264],[-0.06431399825217,45.067028050624],[-0.063711150427487,45.068928771918365],[-0.063922000958083,45.06948163472515],[-0.062959975026415,45.07058307163729],[-0.062570754129233,45.07157954481573],[-0.062335353210208,45.07155357884134],[-0.062151623901749,45.07235517568059],[-0.058869539032148,45.072867060392056],[-0.057573171530795,45.07276389045892],[-0.053802170797336,45.07121659290549],[-0.051072862106787,45.071068829165675],[-0.050554854611737,45.070664023312496],[-0.048757999203424,45.069542742336914],[-0.047161063050038,45.0706424899935],[-0.046116640789599,45.07147480666089],[-0.044304746983896,45.0724587462205],[-0.042435436715079,45.073300053395926],[-0.041584566576919,45.07395223210146],[-0.038110294707244,45.076151024097385],[-0.037931601567309,45.07641990828873],[-0.037608582501325,45.07665398246082],[-0.036889354957505,45.076383452371566],[-0.035291168042724,45.07552325163845],[-0.033153857496131,45.07456958479619],[-0.032775984680644,45.07477720552627],[-0.031377504028665,45.075276614861586],[-0.02913961974962,45.07598625584559],[-0.026001390157635,45.076791495951774],[-0.025017375930971,45.07642085809084],[-0.024141564855808,45.07624009983703],[-0.02286700855572,45.0761638661906],[-0.024043256698487,45.072399776687995],[-0.022580719886365,45.069996723519786],[-0.02185124176183,45.06755664859628],[-0.019991657194067,45.06721513204704],[-0.018734256402693,45.066651825278086],[-0.017978773941225,45.06652993450324],[-0.017138685139248,45.066065229282295],[-0.016386100520094,45.06578466509395],[-0.015012275817599,45.06544252506451],[-0.014502983940185,45.06554731736237],[-0.013752383142606,45.065114405391704],[-0.013505326157531,45.06468228114334],[-0.013068089524179,45.064354417124775],[-0.012958667788294,45.063857296971484],[-0.01262681442818,45.06352658038215],[-0.012446846093075,45.063017852706544],[-0.011631865455284,45.06207307391182],[-0.011048145394676,45.06159778889795],[-0.00939915161422,45.06098279894572],[-0.009006440796861,45.06046539936943],[-0.008370785339556,45.06044202647227],[-0.00802940875033,45.0603115865743],[-0.006447342749608,45.06042008617288],[-0.005877341919935,45.060246254607854],[-0.005761665150873,45.05998627272337],[-0.005527694912173,45.05989077002408],[-0.005568130445504,45.0596022463434],[-0.005241083137557,45.05935968233876],[-0.00559285188269,45.05847707914945],[-0.006024032215023,45.05826811221175],[-0.006050189393094,45.05764298428697],[-0.00531948252899,45.05703287993107],[-0.0054988582322,45.05639640881012],[-0.005750652322201,45.05609046669618],[-0.005799356504129,45.05557736072138],[-0.005634508114658,45.05544305026559],[-0.005515507002611,45.055120986678254],[-0.00507893626117,45.05477956183015]]]]}}]}