{"type":"FeatureCollection","name":"COM_79244","crs":{"type":"name","properties":{"name":"urn:ogc:def:crs:OGC:1.3:CRS84"}},"features":[{"type":"Feature","properties":{"fid":4120,"ID":"COMMUNE_0000000009747117","NOM":"Saint-Cyr-la-Lande","NOM_M":"SAINT-CYR-LA-LANDE","INSEE_COM":"79244","STATUT":"Commune simple","POPULATION":373,"INSEE_CAN":"17","INSEE_ARR":"1","INSEE_DEP":"79","INSEE_REG":"75","SIREN_EPCI":"247900798"},"geometry":{"type":"MultiPolygon","coordinates":[[[[-0.166010002002347,47.06469893784417],[-0.164965387046224,47.065661048830776],[-0.16434104520902,47.065493441678534],[-0.163278989429234,47.06631635218506],[-0.162755727650637,47.06634329629655],[-0.160962068369432,47.067824151731934],[-0.160734658568589,47.06779163014852],[-0.160493671773224,47.06790995339623],[-0.160098653568117,47.068280276402234],[-0.157338371590364,47.070237129747355],[-0.156098224141457,47.069440264002836],[-0.155926530451,47.06948099665241],[-0.154545759066777,47.070991008290356],[-0.154017372520387,47.07036750288396],[-0.152554643322822,47.069642453511186],[-0.150905778378725,47.06988386928819],[-0.150079019079387,47.07024701009054],[-0.149590413405322,47.070326109283315],[-0.147417255454156,47.069990690509584],[-0.147277601842183,47.069880064391384],[-0.147258761040371,47.068314580433324],[-0.145428801637609,47.06802834200033],[-0.144820184918657,47.068581929869914],[-0.141023286389545,47.066834523001745],[-0.139403787738478,47.06626585113893],[-0.139201564403541,47.066574995010214],[-0.138838495603304,47.066273105319716],[-0.138536018047178,47.06574340931652],[-0.138529212584017,47.06546787868402],[-0.138177618577383,47.06490978242324],[-0.138113922431455,47.064381706628495],[-0.136808662331211,47.064067563373634],[-0.136739913098249,47.063996447010226],[-0.137174063378835,47.062664644458266],[-0.13841781062114,47.060585510393416],[-0.135381376038677,47.05904612784432],[-0.13638960554837,47.05761043699645],[-0.137203086735197,47.05670352641456],[-0.135590148054055,47.05612832305453],[-0.134548792171372,47.05606378744149],[-0.130867371279202,47.05517162038841],[-0.130145389622172,47.05497584620675],[-0.128788401063524,47.05442424791532],[-0.129919594551992,47.053856578939225],[-0.13095584743731,47.05315271350607],[-0.132062460514743,47.052117151609345],[-0.132359220216001,47.0517108454976],[-0.132725469095371,47.05036738082991],[-0.133250495474371,47.050078320104795],[-0.133425791108901,47.04903377022276],[-0.134816288432014,47.04646592104405],[-0.136017534932365,47.04465825867222],[-0.136148618752742,47.0445096311982],[-0.137161230805458,47.04397033175911],[-0.137864999221717,47.04276724299028],[-0.137799873406839,47.04264466980264],[-0.137269536985055,47.04245544785197],[-0.137638032150866,47.04138040676288],[-0.13753182707774,47.04073274350791],[-0.137469843755342,47.04036950747801],[-0.137582714687534,47.03988528534576],[-0.138782286139888,47.038279462160375],[-0.139165352130756,47.03673097079871],[-0.13899053870292,47.034700273878194],[-0.138658250288717,47.03397225793756],[-0.137903072815425,47.033110670253116],[-0.137889065025514,47.03298310324646],[-0.140412162594111,47.03222518972217],[-0.1415336249468,47.031794610105955],[-0.143293572398797,47.031352940893214],[-0.143413897723924,47.0306585634162],[-0.143712878100804,47.030022392902055],[-0.143310210516676,47.02985134845183],[-0.14330498150777,47.02971633421245],[-0.144313396659714,47.02874907784861],[-0.144304228658061,47.02856911859279],[-0.146040403819605,47.027676627095886],[-0.146107922859886,47.02741078012058],[-0.145929789813856,47.02634429152776],[-0.146037991374843,47.026053007272594],[-0.147547153961534,47.0278671156861],[-0.147983630510009,47.02821112537391],[-0.149113069105383,47.02877770954443],[-0.149979220232522,47.02905502427406],[-0.152003692634443,47.03012156136705],[-0.155147033572532,47.03132237804915],[-0.15558311145291,47.031725840856225],[-0.155603211345895,47.031934334783614],[-0.15538951763303,47.03253937425532],[-0.155620294153127,47.03292502176095],[-0.1593548400323,47.034292479062024],[-0.159051592313766,47.03476301715144],[-0.157912735991371,47.03789018273585],[-0.157300171839882,47.0391341654733],[-0.158432244549465,47.03942487256537],[-0.158515159549243,47.03978302335491],[-0.160579220994037,47.04027797484007],[-0.162074319606008,47.04100472758208],[-0.161513387630009,47.04146430731223],[-0.161218136340251,47.042139168464836],[-0.162590759529873,47.04248452121267],[-0.16332796990827,47.04278329553039],[-0.16320291222779,47.042920978388516],[-0.16315157198614,47.04323685124811],[-0.165321352743932,47.04505877535754],[-0.166779816918448,47.045607166770004],[-0.168399564555645,47.045691578694786],[-0.169907018562077,47.04595115201223],[-0.171301060215286,47.04589574979908],[-0.172835266077362,47.04629601591446],[-0.174247849980661,47.04642118049583],[-0.173787642601586,47.047449318666025],[-0.173750463746241,47.04858746912839],[-0.172818347104973,47.05031156933571],[-0.172741069902476,47.05088045410803],[-0.172512949414528,47.051260658257355],[-0.172059785938836,47.05158036642943],[-0.170875705682138,47.051980516715524],[-0.169739990458931,47.0532488393572],[-0.167963194645566,47.05558986507242],[-0.167133933542625,47.05709483406073],[-0.166812150465541,47.057318107774044],[-0.16637219066641,47.0580438004688],[-0.16600187011517,47.058383736301],[-0.165470409235699,47.058674025040546],[-0.165125962831934,47.05920787430028],[-0.164658894501409,47.0595396442234],[-0.163061036048491,47.060127649514136],[-0.162574114033267,47.06014368771882],[-0.161586149615043,47.06128442768655],[-0.159811707604157,47.06214572970657],[-0.159904780796476,47.06256396984453],[-0.159572767528446,47.06270370428747],[-0.158896210936737,47.06319705964455],[-0.159053664274439,47.06316121660097],[-0.159518082568978,47.063278262746934],[-0.160344327565486,47.06329169850094],[-0.161852129041321,47.06354957618479],[-0.16306439241618,47.06364703372063],[-0.16551262211534,47.064447663945096],[-0.166010002002347,47.06469893784417]]]]}}]}