{"type":"FeatureCollection","name":"COM_86202","crs":{"type":"name","properties":{"name":"urn:ogc:def:crs:OGC:1.3:CRS84"}},"features":[{"type":"Feature","properties":{"fid":4215,"ID":"COMMUNE_0000000009748596","NOM":"La Puye","NOM_M":"LA PUYE","INSEE_COM":"86202","STATUT":"Commune simple","POPULATION":604,"INSEE_CAN":"12","INSEE_ARR":"3","INSEE_DEP":"86","INSEE_REG":"75","SIREN_EPCI":"200069854"},"geometry":{"type":"MultiPolygon","coordinates":[[[[0.741801299846457,46.61351926671086],[0.741044557002844,46.61527892125672],[0.740811424354839,46.61632825880861],[0.739673236253713,46.61751287877484],[0.739669185570585,46.617736197013926],[0.739860123349367,46.61814352189026],[0.739656199138282,46.61855206462761],[0.739465162254421,46.618807725502386],[0.738534948971593,46.61948478460085],[0.738190684874087,46.61918072496499],[0.737605067072508,46.61943039402744],[0.737188598163574,46.620170733579755],[0.737173196513045,46.620352390858976],[0.73606113131418,46.62147083395751],[0.734823642295013,46.621989557103284],[0.735388641846789,46.62295827584548],[0.731342036407044,46.62371236427672],[0.729915750378437,46.62430386584329],[0.728102357029638,46.625773163050084],[0.727353509961855,46.62682846482495],[0.726541784667698,46.627510483535424],[0.726356255411959,46.62753833041775],[0.726030547314262,46.62869840515724],[0.725111290043096,46.62994938857241],[0.724438200544412,46.62944148409007],[0.724355603039716,46.62950920555464],[0.723622691015758,46.63083684319781],[0.722986315644274,46.63151331338814],[0.722533539276815,46.6317709531257],[0.723165745995202,46.632224908758324],[0.723275689370898,46.63250363920657],[0.721868326756216,46.636818434874904],[0.720766977485528,46.63900710360551],[0.720670629297149,46.639651962748346],[0.720738521889212,46.63987310839786],[0.7212511368135,46.640342709920525],[0.721343610870354,46.64053912142165],[0.718419136871654,46.64113312232052],[0.717821242173504,46.64260213662488],[0.718123991411829,46.64327295570312],[0.718148885052264,46.64398868742837],[0.718018443958687,46.64447882876032],[0.716016788357903,46.64766563139072],[0.7157534873215,46.64901338799004],[0.715330899372719,46.6490464031987],[0.715528491357094,46.65371378557953],[0.715557764435954,46.65407558972295],[0.715721908783813,46.65406084446357],[0.715646308012058,46.654645758826035],[0.715241279239196,46.6559717722348],[0.714545258887243,46.65958181617935],[0.714734420199791,46.66301763036085],[0.715464055731538,46.670498880960565],[0.721198974284506,46.66792411165477],[0.721293398313414,46.66795030951942],[0.723061123757871,46.66895197599034],[0.72415721612835,46.6699006516391],[0.724235745490151,46.67008777365826],[0.726472921969578,46.67153828675455],[0.731398579342775,46.67316717701905],[0.731497232358542,46.67368798405786],[0.729467449098202,46.67528635574911],[0.730867292524784,46.67658237381816],[0.731401758895181,46.67732258700089],[0.731548698532313,46.6778155231653],[0.732323808751772,46.677870485739696],[0.732778182950195,46.680248544652116],[0.734422375267594,46.680146815746554],[0.735610231004404,46.68006578124907],[0.736203676672779,46.68011532870345],[0.736531337247275,46.67950745783375],[0.737989577560918,46.67786706621604],[0.738244737158553,46.67777391236494],[0.740085942948238,46.67752735895576],[0.747440565352584,46.67615151344724],[0.749223283304484,46.67595591197106],[0.747351847448197,46.67355640956659],[0.764639552038564,46.67185890832115],[0.767223708351394,46.67221731590403],[0.772224380664428,46.66977977611883],[0.768222959035866,46.66668616109016],[0.767949568737863,46.66601516311172],[0.767962470092942,46.665701041810195],[0.767738436099049,46.665039110780306],[0.767105186071235,46.66433768379453],[0.767028149099714,46.663760584397366],[0.76673715280444,46.66316850843377],[0.767046365199811,46.661565734567034],[0.766933385169297,46.66113115899405],[0.766670466031587,46.66084319259802],[0.764878551039407,46.66032185272047],[0.763039780565285,46.66030400862936],[0.763021234091775,46.66002350317432],[0.763728661030959,46.65656658447344],[0.763824687060283,46.65563164225298],[0.764983756265517,46.655027298510554],[0.765126212873626,46.65487153769049],[0.766156874964872,46.65328462683992],[0.767378082391956,46.6519617448843],[0.767556962026386,46.6514283614952],[0.768311863975795,46.651138595084824],[0.769766380079254,46.65024810279864],[0.769879811567759,46.65028904322189],[0.772590369861873,46.64900678297326],[0.771652536081973,46.64824000578223],[0.770160099000766,46.64677243296402],[0.770005937651955,46.64641722755944],[0.770123281213404,46.645979927868595],[0.770578359594518,46.64521680815646],[0.77049017542005,46.644305301223525],[0.770585087156791,46.64390449684934],[0.771276079402754,46.64252262033229],[0.771317572941879,46.64125512301569],[0.77181483954647,46.64045048220107],[0.772397161511431,46.639899712122634],[0.772453088176687,46.63974766577022],[0.772320520073043,46.63940819585654],[0.772697003745894,46.63909303204754],[0.772523628200504,46.638536581018],[0.773156527965372,46.63716527499303],[0.773390738015341,46.635565528160306],[0.773250649272577,46.6351862782875],[0.772869168913412,46.63466631880396],[0.772132828865877,46.634030464836854],[0.771577457517967,46.633701689628644],[0.769648824096153,46.63108251655838],[0.769580051407046,46.6306551058412],[0.769639314416195,46.63029414297116],[0.770322074561934,46.630129974732476],[0.770801047566082,46.62957810323438],[0.77038829630091,46.62918453628005],[0.770390901320943,46.629089103554165],[0.770458743824268,46.6289652141792],[0.771247901994861,46.62840586390973],[0.771341693281959,46.62822302682346],[0.771773100475192,46.62643795001863],[0.771832170287135,46.625506784096366],[0.772306531867021,46.62509804233339],[0.773305495919808,46.62474543481673],[0.774058455062712,46.62436552031134],[0.774160861632964,46.624131503613945],[0.77415945474852,46.62387835523315],[0.772859495096159,46.62261000824059],[0.773040792865296,46.621279466020226],[0.771209515549548,46.6205367383147],[0.770742305401853,46.620229487683304],[0.764213097091054,46.619186156277905],[0.764347973913611,46.61886270203328],[0.764216990137637,46.61880519774361],[0.759561224374927,46.618814234459705],[0.759350819134532,46.618050751633454],[0.753531290639354,46.61651623451857],[0.753510922739143,46.61634468412287],[0.753355648659927,46.6162110239641],[0.75367627624996,46.61537957206206],[0.751880463917877,46.61461199866269],[0.750907682779447,46.61411097872916],[0.749631185976934,46.61362109944598],[0.747765174022191,46.61335202242153],[0.745967256854795,46.61339593053727],[0.745079903519706,46.613453233598406],[0.74393504958076,46.6136991305727],[0.743401241161965,46.61393093139387],[0.743192894022942,46.61381692967229],[0.741801299846457,46.61351926671086]]]]}}]}