{"type":"FeatureCollection","name":"COM_47082","crs":{"type":"name","properties":{"name":"urn:ogc:def:crs:OGC:1.3:CRS84"}},"features":[{"type":"Feature","properties":{"fid":4083,"ID":"COMMUNE_0000000009757866","NOM":"Dondas","NOM_M":"DONDAS","INSEE_COM":"47082","STATUT":"Commune simple","POPULATION":216,"INSEE_CAN":"16","INSEE_ARR":"1","INSEE_DEP":"47","INSEE_REG":"75","SIREN_EPCI":"200096956"},"geometry":{"type":"MultiPolygon","coordinates":[[[[0.857991981763305,44.248655934129616],[0.858243066100681,44.24807734447525],[0.859796753045433,44.2461086537175],[0.859173975674772,44.24521768545611],[0.858897958893939,44.24416689352657],[0.858668999356915,44.243927414518325],[0.857567814674534,44.24330084141511],[0.857289460746203,44.242512028004214],[0.857045160627515,44.242247934352335],[0.856253200004881,44.241892110758656],[0.855106568529979,44.24150864429646],[0.854709197246994,44.24115241182708],[0.854174334466496,44.24042431098408],[0.854532382508813,44.24032955735902],[0.855905410365378,44.24025642595549],[0.857465362133036,44.240407532157846],[0.858766666098975,44.240143873583676],[0.859808066323498,44.24016237430725],[0.860398621190426,44.24047823042687],[0.860866989316155,44.24087904563499],[0.861382197590676,44.24110068347353],[0.862274929601599,44.241774484902585],[0.862664451530401,44.241908128211826],[0.863281608905483,44.241984069376244],[0.863580978911347,44.24218348802199],[0.86446247363833,44.241326309340565],[0.865691851225516,44.240843264455755],[0.866602347687067,44.23914652765542],[0.8659434419636,44.23894913506788],[0.865766736003132,44.23865215886184],[0.865051768015142,44.237914310447074],[0.864885052027025,44.23748516310958],[0.864538554306707,44.237140761988904],[0.864907902851728,44.236777865660585],[0.865946295932915,44.237374329778575],[0.866117313742643,44.238155628947844],[0.866346788794041,44.23841491116327],[0.867896924696186,44.239193281764706],[0.868435954319238,44.23928118383758],[0.868854248665114,44.239148834953866],[0.87074583311889,44.239641149561315],[0.871231648887857,44.23957853387622],[0.872558311252692,44.23997252175082],[0.8729433666492,44.23999168664855],[0.873943650992975,44.240639560322805],[0.874080664142872,44.24122839527562],[0.87417593208116,44.24129326993141],[0.874417607764259,44.24136187894191],[0.875251802959377,44.24136181487327],[0.875908108549518,44.241630234639516],[0.876310543818716,44.241921654572295],[0.87650361436138,44.242184713004924],[0.877135366659534,44.24401400270605],[0.877904734977065,44.24427469086516],[0.878782985160364,44.24473917389367],[0.88102754707462,44.24611784856923],[0.883697580877024,44.24804853782013],[0.884839184315671,44.24944909441038],[0.885297014943486,44.24916436915346],[0.885948547035386,44.24892569117997],[0.886484710570431,44.24889188909058],[0.888100083186447,44.248571794333856],[0.888672012754342,44.24882230572756],[0.889205094382268,44.248871270970135],[0.889534713811896,44.24876595181961],[0.890406529655353,44.24866654550343],[0.891531359558832,44.24823072634979],[0.891882811736395,44.247942131465955],[0.892573763003681,44.24758531488906],[0.893381911700317,44.24761432578738],[0.895396191315954,44.24731078061609],[0.895439717247777,44.247082905478294],[0.896411696805366,44.24728791604078],[0.897451145194275,44.246754056615096],[0.897597251237176,44.24710441935513],[0.89810266463342,44.24766335529465],[0.898370773464981,44.24783146386361],[0.898760136365961,44.24793886164541],[0.899350776030638,44.2468390310866],[0.90236569752726,44.244370958692045],[0.902864612712909,44.24378440491644],[0.899003206204387,44.24279486392565],[0.897897939257493,44.242707080982676],[0.897143636925469,44.24284931398893],[0.896810757586506,44.242841138410824],[0.895135579547244,44.2424830880398],[0.894665053183981,44.24226877078079],[0.894293864972678,44.24174030609134],[0.89418059130926,44.24094485714836],[0.8937891083361,44.24032235721354],[0.892949790696693,44.23975249284922],[0.891777446437071,44.238606258163614],[0.890344912312179,44.237418995055286],[0.887466192365663,44.23541602517502],[0.885954765154316,44.234569347826024],[0.884721640297744,44.23411969686035],[0.882970789858532,44.233280970765456],[0.882498425086833,44.232951309855494],[0.882305056032715,44.23269636120316],[0.882534660342115,44.23144289273371],[0.882579941545144,44.22975906815805],[0.883015513285285,44.228690558516014],[0.878635465793567,44.22894907706441],[0.875900932300666,44.22887099448648],[0.871637095538168,44.22819953916043],[0.869735591520609,44.228081621546366],[0.868746552224899,44.227875137094976],[0.867953402574873,44.2276211234279],[0.867440284121331,44.22727979950037],[0.866249167031368,44.225420680410735],[0.865182519784541,44.224582354152616],[0.86440712239285,44.22422420952353],[0.86297235675476,44.22451774275579],[0.861525205359494,44.22434189220087],[0.857166481574012,44.22324481565684],[0.854920760060806,44.22289661147257],[0.853472128999856,44.22252973319347],[0.852563847921036,44.22211217768976],[0.851441415517626,44.221464414891926],[0.850474904032567,44.22043610964253],[0.84894811814238,44.21929236813913],[0.846696124228163,44.21822352387741],[0.845068288417441,44.216941779509696],[0.844270466214875,44.216586651032785],[0.843188497217492,44.21596660932248],[0.840766926074776,44.2156758835375],[0.840763865570312,44.215789277833565],[0.841580646896153,44.21663283957589],[0.841601237737272,44.217178006325355],[0.841394475762489,44.21823645172952],[0.841543349494607,44.21879944890546],[0.840460352342665,44.220477267944794],[0.839439880343333,44.22116853165662],[0.839105510356236,44.22172922464106],[0.83829498340736,44.224436187260935],[0.839408979265067,44.22513884784475],[0.838958059892394,44.22560270221037],[0.839674977739207,44.226177784724825],[0.839039240696054,44.22725300213356],[0.838558113316481,44.227621715086485],[0.838180759108445,44.228290514879895],[0.838206817275458,44.22846121097833],[0.838425803707257,44.22859698683068],[0.838456234983876,44.22881729313678],[0.83783885251823,44.229606527550516],[0.837414222292324,44.23187717905083],[0.837080593097635,44.23189041688641],[0.837349424777324,44.23239455681726],[0.83735420830495,44.23263056665232],[0.836972111195895,44.23283104184568],[0.833924519523745,44.23340397216224],[0.83334871628754,44.23369155834569],[0.830789461208082,44.236034407791195],[0.831381242541971,44.236607974769235],[0.8314622270995,44.23681577609301],[0.831137353904249,44.23771340679325],[0.831164377701544,44.238481120334455],[0.832736877261847,44.24003932405508],[0.82853350267349,44.24154197227661],[0.828505408289927,44.241719705466835],[0.82817209374943,44.24218134703021],[0.827672361799095,44.24250732991537],[0.826610546909294,44.24347861541554],[0.825344912573883,44.24411268929946],[0.823295426968566,44.2447708353825],[0.823525956050254,44.24529226346438],[0.824575556248458,44.24558949855394],[0.824742201267181,44.245686446410645],[0.824909538592845,44.245994113307496],[0.825199646815933,44.24607279528609],[0.824924993358445,44.24715960368677],[0.824703190479487,44.247488377824354],[0.82412270695547,44.24799103684081],[0.823445280042736,44.248767310509166],[0.821502123941588,44.25030547835814],[0.82150997847788,44.250427195487916],[0.821143248259629,44.250483852964585],[0.819947296833088,44.2509940903001],[0.820586517886842,44.251116632009875],[0.820906883351708,44.25141923835048],[0.821120534859629,44.25215194522842],[0.82157655875532,44.25313078134865],[0.821529920007263,44.25379079080351],[0.821874108363821,44.25415869964812],[0.82189881505698,44.254624725348144],[0.822478266388348,44.2548694325883],[0.82247326839579,44.2551628821926],[0.822758957085419,44.25532522491887],[0.823048675619061,44.25583972513107],[0.823888013648808,44.25675681331054],[0.823928250490227,44.25711239031483],[0.824740844398367,44.25758411650484],[0.824686404225952,44.2577622292552],[0.826191477104857,44.26004316680417],[0.827114609235664,44.26067284141065],[0.829204798734676,44.261191408937606],[0.830065256491326,44.262117870750565],[0.830274821309398,44.26207698731404],[0.830671950745294,44.26253776024198],[0.831235222917673,44.26281541731713],[0.831785834277289,44.26299827358307],[0.833738050535878,44.26339246804344],[0.834952276650298,44.263555975880855],[0.835705345863338,44.26342494121177],[0.8360217645755,44.26360496262983],[0.836891501695524,44.263306031942264],[0.837547465462814,44.26319108179132],[0.838321615004445,44.26276959753188],[0.840084524172364,44.26310142362298],[0.840649469747708,44.26353394252043],[0.841740072965825,44.26375257391375],[0.842187337440953,44.26378747332603],[0.842870993202464,44.2636361168063],[0.8431292773382,44.26369791679129],[0.843338906989831,44.26365520884339],[0.844259629607404,44.26277192713221],[0.845481611740196,44.2621376697234],[0.845837896168984,44.26163139935929],[0.84751137406074,44.259829084438216],[0.84768609173872,44.25908783560711],[0.847971247901768,44.25867201201428],[0.848344293721035,44.258416388592536],[0.851573681888086,44.25677955247562],[0.853215151084663,44.254887391106436],[0.853420442112431,44.25366679660657],[0.853376097065101,44.25331565653945],[0.854740937816221,44.25164498383762],[0.854668813926323,44.251431970628225],[0.854913753582824,44.2510171476889],[0.855583747490873,44.24913389700374],[0.856255254413009,44.24856892202701],[0.857991981763305,44.248655934129616]]]]}}]}