{"type":"FeatureCollection","name":"COM_79092","crs":{"type":"name","properties":{"name":"urn:ogc:def:crs:OGC:1.3:CRS84"}},"features":[{"type":"Feature","properties":{"fid":4257,"ID":"COMMUNE_0000000009749018","NOM":"Clavé","NOM_M":"CLAVE","INSEE_COM":"79092","STATUT":"Commune simple","POPULATION":352,"INSEE_CAN":"06","INSEE_ARR":"3","INSEE_DEP":"79","INSEE_REG":"75","SIREN_EPCI":"200069748"},"geometry":{"type":"MultiPolygon","coordinates":[[[[-0.19890832502285,46.469182283149514],[-0.199534008425739,46.46959823242089],[-0.199979024139277,46.470758219410136],[-0.200676679042709,46.47151099581948],[-0.201196388656711,46.47172082925739],[-0.201206989640285,46.47194583079206],[-0.200770916208409,46.472360884977114],[-0.200395982427239,46.47243988130193],[-0.200059637634685,46.47237630785143],[-0.19941102382301,46.47252605132991],[-0.199357790466154,46.47279699922831],[-0.199571727654858,46.473197445209685],[-0.200109999071949,46.473545547779466],[-0.201031190820244,46.47375044253017],[-0.203245803521688,46.473746037356236],[-0.204031405553871,46.47381862998881],[-0.204366334689397,46.47403543509402],[-0.204113563264251,46.47557185425535],[-0.204788787746084,46.476096333774336],[-0.205450663785765,46.4777026190505],[-0.20650195221804,46.47885368217955],[-0.207587041349119,46.48117714510472],[-0.207974497320773,46.48162046891067],[-0.208812746239527,46.48214215191196],[-0.210862528126947,46.483120938579894],[-0.211815211742272,46.48345824397857],[-0.212221565312952,46.4837343017798],[-0.212636201342405,46.484106553532214],[-0.213707354399854,46.48565622919907],[-0.21418248627244,46.4860583162399],[-0.214396584317877,46.48645873359541],[-0.214346064452,46.486774673146286],[-0.213414042395528,46.48774083928113],[-0.213305039092069,46.48819360255155],[-0.213509786662561,46.48836898499664],[-0.213836891823151,46.48840664706028],[-0.214479094265312,46.48821194676195],[-0.215320790903354,46.488103551228896],[-0.21630713813845,46.48843446762372],[-0.216447852615231,46.48865220151772],[-0.216241238342258,46.48930778206242],[-0.21660210063871,46.48980680132805],[-0.21731348002219,46.49001027041454],[-0.217313270734776,46.490338312851854],[-0.218767036689963,46.49168972354687],[-0.219225927566667,46.492301327615984],[-0.219521073624542,46.492482264137664],[-0.220703439030693,46.49239667486812],[-0.22292117998672,46.49176999247177],[-0.22351940011286,46.49178015388368],[-0.224708493810843,46.492470268082364],[-0.22613457903369,46.49288692389143],[-0.226794009854443,46.492872810267194],[-0.227087469914366,46.492936619199234],[-0.227543537760149,46.49330044142626],[-0.228032218447936,46.493972453584135],[-0.228545289899133,46.49443920152295],[-0.229620146285369,46.49507121336187],[-0.230237073363455,46.49559449856145],[-0.230864319121474,46.49591742153277],[-0.231523583038895,46.496097946646884],[-0.231682728985521,46.496206997958446],[-0.231974885923531,46.4968205669861],[-0.231987410520003,46.4970977839384],[-0.23155429306642,46.497782331399044],[-0.231476578789831,46.49807832171473],[-0.231780501690275,46.49845003567952],[-0.232554525687144,46.49887063568716],[-0.232994246254348,46.49959538272433],[-0.2330528588518,46.500253406758866],[-0.232784021935513,46.50091348415325],[-0.232820022492994,46.50127835497487],[-0.233217733093674,46.50191056451439],[-0.233487114143336,46.502601377188135],[-0.234215586138869,46.503044885375346],[-0.234440684773508,46.50351705520843],[-0.234927945134349,46.503656469514475],[-0.234779626037257,46.50410406054319],[-0.23390282413069,46.50485614552453],[-0.233806325468189,46.505209444535474],[-0.233872646501799,46.50555723546817],[-0.233598118524276,46.50570378818371],[-0.233382937954087,46.50594869497491],[-0.232296121585588,46.506351632688514],[-0.231888035877398,46.5067551961724],[-0.231362741499262,46.507823554863585],[-0.230492112698312,46.507977037094776],[-0.230249364561144,46.51033333242909],[-0.229908748870776,46.51101705682355],[-0.230001623457122,46.51154884523839],[-0.230496419464818,46.51216660532692],[-0.229339822551739,46.513398785338964],[-0.229484001967638,46.5149943444],[-0.228823257694864,46.515321219730005],[-0.228694233993321,46.515875497536456],[-0.22863434246783,46.51746420313767],[-0.228461550665528,46.517962940744546],[-0.225846039516097,46.51918670336364],[-0.225086557913083,46.51974344279565],[-0.224456019556869,46.520405585002756],[-0.224424746925578,46.52053894310627],[-0.222969708166532,46.521079234416504],[-0.221818676318591,46.52168303549676],[-0.220112944535819,46.52279810622506],[-0.218094901462176,46.52439596845914],[-0.217256162920556,46.524851244546845],[-0.216250438929627,46.52553020138218],[-0.216168286796742,46.52559829935453],[-0.216846131800118,46.526508360969174],[-0.215386088084403,46.52687926523106],[-0.21196260089424,46.527410761554485],[-0.210561465163274,46.52798451798702],[-0.209831577137503,46.52842766776436],[-0.208612403632353,46.52881064579703],[-0.207851246944228,46.52885633406059],[-0.206928810175526,46.528735314801224],[-0.205148524705125,46.52845900112057],[-0.20200086672146,46.52871030345782],[-0.20065806524536,46.52872356603509],[-0.196048084447519,46.5282424107896],[-0.194949049138223,46.52815957572721],[-0.193013228986288,46.52816859003259],[-0.190877516281184,46.52788576013911],[-0.188830441602569,46.527823010579546],[-0.188640859954525,46.527127179295455],[-0.18817064465249,46.526321118426196],[-0.187670101995683,46.525799773123424],[-0.187343203392342,46.52556827124342],[-0.186112205578471,46.52508079740786],[-0.184943873370901,46.52443656252719],[-0.183921869742155,46.523369193570545],[-0.181900272384869,46.52197367450207],[-0.179736595352607,46.52031172072071],[-0.178406346328966,46.51912671474452],[-0.177312601427132,46.51924272887134],[-0.177181926487581,46.52029262602048],[-0.17667538039458,46.52074016741356],[-0.172292057242786,46.51886667648289],[-0.171399301133337,46.51963220986509],[-0.170673146255955,46.519985784997026],[-0.170130820722711,46.52015582588195],[-0.16861831719684,46.52043476341838],[-0.16781496898936,46.52051650272432],[-0.167470388255918,46.52045035140718],[-0.167592704759841,46.519949515786706],[-0.16842556774588,46.518220518112706],[-0.16965892519748,46.518103421699614],[-0.170016255632995,46.51877029503781],[-0.170469968234983,46.51871535840343],[-0.171949682423906,46.51827779666745],[-0.172145235812923,46.518273271989685],[-0.172349976751305,46.518493785577725],[-0.172943248161774,46.518616102398255],[-0.172984860661385,46.51812020270143],[-0.172476747559567,46.51679245530742],[-0.172225934786023,46.516228971848065],[-0.171805273041034,46.51581979551506],[-0.172860352799135,46.51542193663524],[-0.172407823654971,46.51386014319988],[-0.173729941603987,46.513363845154124],[-0.174894317324964,46.512781794710314],[-0.175096688017113,46.512491402184864],[-0.176080695064008,46.5118386495931],[-0.176041467662296,46.511613544104755],[-0.175169688245194,46.51038422607446],[-0.174970717922985,46.509747213831865],[-0.174412897848633,46.509358078295726],[-0.174520954808917,46.509039665533045],[-0.175272954384889,46.508393361246156],[-0.175134712614453,46.50821606486169],[-0.174463261662836,46.50778052159024],[-0.174519288316261,46.50759963137332],[-0.175385867610825,46.50659057350477],[-0.175820342260088,46.50578186130386],[-0.175474796340834,46.505697739513714],[-0.174957093445055,46.505302085772165],[-0.174543232630071,46.50525500484714],[-0.174002052579211,46.505083491032515],[-0.173710783241223,46.50469866608992],[-0.173350344803596,46.50462756815129],[-0.173184968536801,46.5041184888866],[-0.172917708632385,46.503988929756936],[-0.172002716698029,46.5039197037625],[-0.172435326716588,46.50341475310995],[-0.172363624018598,46.50328156687266],[-0.171833091291789,46.50306829382397],[-0.171825223817371,46.50288827689516],[-0.174973640354001,46.50052358147701],[-0.175473962205197,46.500061795314174],[-0.175507658403839,46.49938587632729],[-0.176119584213219,46.497122232291076],[-0.176427063923776,46.49671085900958],[-0.177554813249003,46.496066704592735],[-0.17917440450503,46.49461581688547],[-0.179332660133417,46.494599698634495],[-0.179751532117594,46.49435373682416],[-0.179663828221247,46.49410294529492],[-0.1800860634037,46.49369107110599],[-0.182396173637483,46.49202355509093],[-0.182675916996408,46.49174180417792],[-0.182537376384224,46.49122387788825],[-0.182375380499435,46.491019315219695],[-0.181865874225621,46.49103080060125],[-0.181741910347263,46.49091890106348],[-0.18174235009465,46.48994290784573],[-0.181583207055194,46.48980945820362],[-0.181623657179123,46.48938477594119],[-0.181539282922392,46.48912397989923],[-0.181361905893426,46.48899103772325],[-0.183894055353422,46.488582563461975],[-0.186992382976566,46.48768241528936],[-0.186690242264564,46.48742409152777],[-0.186948597351976,46.48717897262181],[-0.187435979243481,46.48699054712565],[-0.188053242306617,46.48605591799309],[-0.188405976596648,46.485238611944425],[-0.188450001609915,46.4847867900039],[-0.188153111610739,46.48258806856962],[-0.188285342181346,46.48123530145298],[-0.18851561341655,46.48059984617375],[-0.188445203873337,46.48046663316394],[-0.188797423370842,46.47999809796346],[-0.189030432795241,46.47934273864348],[-0.188904135262906,46.47834324211699],[-0.18865561854701,46.47795275520908],[-0.188782275073676,46.47708498059614],[-0.188678732003156,46.47667512673787],[-0.18872573392016,46.47616284110052],[-0.188919277818187,46.47565818006811],[-0.189445914073975,46.473087706094816],[-0.189638879768574,46.47286332904353],[-0.19030300368537,46.47086036309271],[-0.191143113678023,46.469324698260934],[-0.191411734578741,46.46843222403294],[-0.192369310408089,46.46830272816795],[-0.192801241523232,46.46835103471422],[-0.195698874591692,46.469255902852204],[-0.19890832502285,46.469182283149514]]]]}}]}