{"type":"FeatureCollection","name":"COM_16421","crs":{"type":"name","properties":{"name":"urn:ogc:def:crs:OGC:1.3:CRS84"}},"features":[{"type":"Feature","properties":{"fid":4245,"ID":"COMMUNE_0000000009752646","NOM":"Vouthon","NOM_M":"VOUTHON","INSEE_COM":"16421","STATUT":"Commune simple","POPULATION":408,"INSEE_CAN":"19","INSEE_ARR":"1","INSEE_DEP":"16","INSEE_REG":"75","SIREN_EPCI":"200068914"},"geometry":{"type":"MultiPolygon","coordinates":[[[[0.453127729441932,45.638750127516275],[0.453111709929979,45.63898671461417],[0.451894072820081,45.639323132116175],[0.451697930551355,45.63945473386048],[0.450672542623017,45.639436913868806],[0.450288299253646,45.63938586342994],[0.449679051345595,45.63847561118269],[0.449551499162902,45.63842857363213],[0.449096597184065,45.638601155105235],[0.447546436025109,45.6389344920606],[0.44495599257315,45.63965592739462],[0.443731038689595,45.639815505172706],[0.441986234816273,45.64019029392962],[0.44051944090918,45.63994071200418],[0.440366834637764,45.640658004161835],[0.439639556710516,45.64127573084944],[0.439382860634336,45.64127169197077],[0.438627700561636,45.640853580959124],[0.438373088427913,45.64080453941849],[0.437786944740224,45.64106418431937],[0.437205719470942,45.6411896959555],[0.436679552951522,45.641540796792206],[0.436476315818545,45.6418524025723],[0.43570962924837,45.64179439146222],[0.434567402169336,45.641414281508446],[0.432966482589489,45.64134263562932],[0.432514071581709,45.64032414335384],[0.4320109236812,45.64081539640851],[0.430184349237972,45.64206386994631],[0.429619796212004,45.64271498249246],[0.428662976609422,45.64426169283058],[0.428124453952249,45.64537468473725],[0.427271724870314,45.646421028893776],[0.426911176033731,45.647047962578775],[0.426557339319156,45.647392147413754],[0.425811767421078,45.64867428098213],[0.42533057688744,45.64927052125652],[0.424247349646092,45.64980162842061],[0.42453859961662,45.65005785971478],[0.425311104616804,45.650352129364755],[0.426540644593438,45.65062531105457],[0.427627281705668,45.65101594163367],[0.429440058948639,45.65239618398771],[0.430996026323198,45.653221850206535],[0.431485447125148,45.653610521548025],[0.431514334676694,45.65373551303156],[0.430143612830204,45.65434300514727],[0.428195692708348,45.654985045403464],[0.42784754244667,45.65777727396797],[0.428151276761132,45.658291454609376],[0.428920195948441,45.659218989491755],[0.429774006816004,45.66141790912484],[0.429883210911691,45.6625249790523],[0.430114310804836,45.66316543156047],[0.430222790406173,45.66414995401641],[0.430750282182148,45.6657134462698],[0.433560174011205,45.668991257251946],[0.434041483832607,45.66980768491493],[0.43263651281738,45.67053606557517],[0.432995260214976,45.671085721956665],[0.433036538682479,45.67144254197397],[0.432889927489777,45.672137442782756],[0.433971036664713,45.67168728144399],[0.434097368471442,45.6717343075247],[0.435069847348135,45.67481972483889],[0.436428231323863,45.67684628254036],[0.436793381213295,45.676759994539516],[0.43835310521157,45.676910810845435],[0.438907309835705,45.676849538805904],[0.439302360127455,45.67675581421094],[0.43991826517887,45.67638871401573],[0.441552789714726,45.67764575933735],[0.442287652716451,45.678208433040695],[0.443332848103041,45.678675438998845],[0.444149311149298,45.679141748346694],[0.444339298096557,45.67911903165288],[0.444956225426799,45.67931412336131],[0.445419123958397,45.67978321168542],[0.447017806762251,45.67959332755366],[0.448391682404659,45.67962356579426],[0.451636201834567,45.67872130487853],[0.4617042609133,45.676889130969606],[0.462542639890924,45.67685216769019],[0.470392649635661,45.677052214089606],[0.471428212658025,45.67703132653946],[0.471964233417433,45.67694515880726],[0.471154478537917,45.676721560717944],[0.469398435206398,45.67552259203387],[0.468201566424829,45.67482808572226],[0.466548075065444,45.674395379003364],[0.466423698132062,45.67236815237466],[0.465652435757408,45.672400347033204],[0.465222991666332,45.6708338429074],[0.466278581093086,45.67051344080764],[0.467418495568495,45.6707931544074],[0.468397272610826,45.67116833727309],[0.46879267451384,45.671177227091036],[0.470858309773708,45.67082903210123],[0.471671615248621,45.67052295826314],[0.472093994573224,45.670475682859276],[0.47120878267983,45.66914943408224],[0.469678810285692,45.66933489032807],[0.468927758520412,45.6695162166984],[0.466926326382036,45.668911717437744],[0.466312359551814,45.668091554921645],[0.466770244973968,45.66782977262077],[0.466777200634642,45.667649739817556],[0.46646960180849,45.667239194153034],[0.465888166802993,45.667364854154975],[0.465425875409184,45.66637601925859],[0.466957414615473,45.66609876107433],[0.467024708587155,45.665779538250106],[0.466888045404736,45.66570528860185],[0.466703616253026,45.6653551753033],[0.466619320899586,45.664333407128375],[0.465763418962025,45.66383123583118],[0.465529078627565,45.66353315264174],[0.465503394410587,45.66328030932684],[0.465675757944601,45.662855339144464],[0.465521875563378,45.66276448296768],[0.464215272037654,45.662480991796315],[0.465869699376888,45.660583914348706],[0.465973881087627,45.65987991769822],[0.466513667566637,45.659034366836984],[0.467259726213428,45.65828535161259],[0.467150419314646,45.65792251386792],[0.467274428639638,45.65712166067588],[0.467184347918314,45.65681601511996],[0.466864491385269,45.65667457655611],[0.465820158331274,45.65594112429934],[0.466229050201561,45.65438989112836],[0.46564370487133,45.653228907902175],[0.46507128505142,45.65259977045528],[0.463895535353458,45.65165251701684],[0.462942252421083,45.652214846471985],[0.460179830712917,45.65219579049992],[0.457706690659382,45.65323460841427],[0.456087867820412,45.65365661556813],[0.454993082885929,45.65377331582826],[0.454892910465134,45.65435937106621],[0.454098249792984,45.65389993411089],[0.453707858675725,45.653505496504536],[0.453547483193354,45.652635154102484],[0.454045703352206,45.65205359972053],[0.454264111028967,45.65152247468971],[0.454194230416529,45.65125421290181],[0.454269685618162,45.65014414747884],[0.454058146666663,45.64932490383514],[0.45366369026636,45.648544766962864],[0.453466449349309,45.647275370522685],[0.453108523701472,45.64659516241419],[0.452718168655618,45.645140302922734],[0.452712143581714,45.64412659784519],[0.453309025559007,45.641901246997435],[0.453303399914316,45.641437130690164],[0.453556540933988,45.640457220645104],[0.453320799378359,45.63915992440339],[0.453127729441932,45.638750127516275]]]]}}]}