{"type":"FeatureCollection","name":"COM_47220","crs":{"type":"name","properties":{"name":"urn:ogc:def:crs:OGC:1.3:CRS84"}},"features":[{"type":"Feature","properties":{"fid":4225,"ID":"COMMUNE_0000000009757536","NOM":"Razimet","NOM_M":"RAZIMET","INSEE_COM":"47220","STATUT":"Commune simple","POPULATION":300,"INSEE_CAN":"11","INSEE_ARR":"4","INSEE_DEP":"47","INSEE_REG":"75","SIREN_EPCI":"200068922"},"geometry":{"type":"MultiPolygon","coordinates":[[[[0.204745528889783,44.35812414057468],[0.204923681662577,44.35805030406822],[0.205373909048322,44.35752581196432],[0.206149451599712,44.35557292961547],[0.206590449187661,44.35500586564642],[0.207495252018103,44.35213572508929],[0.210303010860878,44.351990793725285],[0.210629694871095,44.35198466652566],[0.210761466859017,44.35206186668615],[0.21193771451968,44.351934059777136],[0.213344153467753,44.35220478456613],[0.213505281833261,44.35232325726649],[0.21393604112893,44.352880903080475],[0.214179448836459,44.35380219607655],[0.215357724451299,44.35409323646545],[0.217189964686658,44.35489710367324],[0.217352520372271,44.355472269909825],[0.218424238868057,44.35652799154373],[0.219977920362318,44.356922146538416],[0.221687432966862,44.35746703131277],[0.22599374048189,44.35841156227982],[0.226622323931427,44.35867600713851],[0.226939321838415,44.35866328140173],[0.227403479326932,44.35882449848267],[0.228190849738135,44.358794799446265],[0.228265860130336,44.35890387420486],[0.228859771898825,44.3590305239621],[0.229183767777925,44.358977435884306],[0.229583743562031,44.35906497004792],[0.230713173228627,44.359511336029875],[0.234353246057562,44.360607194580886],[0.235520579435078,44.36151292496439],[0.238448279888112,44.36249436595693],[0.238557955190673,44.3628456939526],[0.239473253182643,44.36387565777318],[0.240169572733288,44.36442724774947],[0.240348691128217,44.36474518798814],[0.240922601327178,44.36497485090712],[0.241293713900619,44.36498595773157],[0.241897164593594,44.36515060418996],[0.244015850271127,44.365320785348615],[0.244504551114223,44.36546993303447],[0.244992530157424,44.36545332980886],[0.246817810546186,44.36502164169324],[0.247448966431637,44.36500410668462],[0.248300475007359,44.36461198019262],[0.248501566253879,44.36434949883148],[0.24857188048146,44.36393603086157],[0.249435637275989,44.36313618232119],[0.251633018144941,44.36256330134856],[0.252288963366221,44.36255176278937],[0.25307330321059,44.36271456000517],[0.253313928680525,44.3628529710054],[0.253863638005293,44.36171829385714],[0.254730316526382,44.36049334796251],[0.255717482851208,44.359553322428994],[0.256137188030959,44.35894951135485],[0.256937155540838,44.358270514892894],[0.257375950565834,44.357194307688324],[0.25862296786754,44.35622651125593],[0.25951599962112,44.35515350973462],[0.259961250379247,44.354746675970524],[0.261367378062157,44.35401699654242],[0.26174634149903,44.35370848359022],[0.261592452096961,44.35346416652422],[0.261400263205014,44.35349270804515],[0.260638834599579,44.353117973979856],[0.260239636220456,44.353014359860325],[0.258912649915284,44.35244628749606],[0.258787413358796,44.352154943192616],[0.258218846257541,44.35189398208296],[0.257701904780149,44.35139652041996],[0.256955737192032,44.35127793890476],[0.256623808259694,44.351003955147306],[0.25594648922404,44.350630384341024],[0.254283906366809,44.35015115766648],[0.251664677657587,44.35001189078463],[0.250311388588024,44.349445756530514],[0.249328914654102,44.349153684659235],[0.248546920492795,44.34868827983425],[0.247227231734569,44.34758702950612],[0.246500131167531,44.34728420885291],[0.246194516142272,44.346935192087685],[0.245608728402005,44.34659176872312],[0.244959965641384,44.346536790755266],[0.243806692509125,44.346299836168406],[0.243001403402623,44.34603106053136],[0.242654025743152,44.34607639501852],[0.242108793546248,44.34590600327619],[0.241000422334031,44.34572688886336],[0.238984961470019,44.34507644662406],[0.237284154061493,44.345155334463485],[0.234822132879556,44.34606893065305],[0.232868524497207,44.34577210591096],[0.232167981828146,44.345467154317504],[0.231934283883486,44.345574762306036],[0.231170894468685,44.345477186558796],[0.230302972544978,44.34569492292998],[0.229129914885369,44.34558161211426],[0.228401836283589,44.345301162143606],[0.226733080557413,44.34428903649562],[0.225435677958434,44.34381947237793],[0.223721430995631,44.34278993897441],[0.223076809144948,44.34267728960474],[0.222677309039579,44.34196825212938],[0.221927189091982,44.34137105239012],[0.220576319180401,44.34079109256058],[0.219829149966224,44.340722668838936],[0.219273252373537,44.34082300534394],[0.218509378375981,44.34020021371037],[0.21819663994287,44.34020491384081],[0.216763889485765,44.340654148183845],[0.214635167345764,44.341192925585474],[0.211476131215933,44.34160106247973],[0.210226629830723,44.34146219051769],[0.207970222930851,44.341712076132765],[0.20675854491037,44.34164618200641],[0.206234739900763,44.34150227398506],[0.204248536814846,44.34121041101132],[0.204091701367238,44.341285687150574],[0.203692227974913,44.34215733256998],[0.202957518834232,44.34270069777207],[0.20284495527894,44.34289599287558],[0.202741182840627,44.34337073387592],[0.20288984145217,44.3442491113409],[0.200731290311258,44.34487784146691],[0.200932511109656,44.34570802103393],[0.199324520476193,44.3461669883303],[0.197296325100427,44.34743127991282],[0.199144462787444,44.34874206734323],[0.199559725985114,44.34925434213405],[0.200073940597809,44.35027894235304],[0.200531137167085,44.35093369398216],[0.202271592787853,44.352471369759115],[0.202460572999008,44.353245392178025],[0.20297785315876,44.35420970808061],[0.202959304870069,44.35557653283951],[0.203217453737793,44.356373930529365],[0.203611307775716,44.35709281149014],[0.204745528889783,44.35812414057468]]]]}}]}