{"type":"FeatureCollection","name":"COM_19151","crs":{"type":"name","properties":{"name":"urn:ogc:def:crs:OGC:1.3:CRS84"}},"features":[{"type":"Feature","properties":{"fid":4275,"ID":"COMMUNE_0000000009754722","NOM":"Noailles","NOM_M":"NOAILLES","INSEE_COM":"19151","STATUT":"Commune simple","POPULATION":945,"INSEE_CAN":"13","INSEE_ARR":"1","INSEE_DEP":"19","INSEE_REG":"75","SIREN_EPCI":"200043172"},"geometry":{"type":"MultiPolygon","coordinates":[[[[1.498343259660723,45.11002830502533],[1.499661711352736,45.109900163058704],[1.500491010035803,45.109659161653646],[1.502104428486619,45.10943859741516],[1.502418096453683,45.10983545621466],[1.502290821043463,45.11017145761576],[1.502649280202822,45.11055811066394],[1.503155539015484,45.11069729095096],[1.504171567237439,45.11074965047235],[1.505373643877177,45.111073762912625],[1.505814009353092,45.1113471320133],[1.506016050039258,45.11206758741575],[1.506397239375308,45.112461737139284],[1.507134508888134,45.11257157304302],[1.507817603910721,45.112948145992746],[1.50853922502395,45.11359719973679],[1.509178171139972,45.11434240406912],[1.50932461620355,45.11476492444232],[1.509213484963033,45.11545056774261],[1.509756049413998,45.11589999622434],[1.509282824724952,45.11618905536404],[1.509041236047118,45.117760009050464],[1.510010916668852,45.11998565290198],[1.510777250638684,45.12015438843047],[1.511674926647901,45.12064547202165],[1.513369238626841,45.121028296531954],[1.51368023553005,45.12167454311122],[1.515112995745143,45.122232165822844],[1.516876983204374,45.12262847179989],[1.517139854826542,45.1221177463967],[1.517000303579993,45.12181600356151],[1.517838257304234,45.122019863759874],[1.518381162719615,45.119917962627916],[1.518749738563543,45.11973734331401],[1.51905984361094,45.118930956960256],[1.519988434948745,45.117535708666495],[1.520598814307178,45.11710883743127],[1.521638208088514,45.11661920899021],[1.52334631408951,45.11599614012648],[1.524468820537394,45.116114563494975],[1.524856897512697,45.11581981179907],[1.525648726831752,45.116275160159404],[1.526989044060478,45.115899329242175],[1.527368198585729,45.11589443099959],[1.527901399018322,45.116222070189714],[1.529659900016493,45.115468990146724],[1.529763966474626,45.11484897736735],[1.531135073060138,45.11441226562291],[1.531477799479079,45.1141475131661],[1.531691198832953,45.11381891835743],[1.531728851979613,45.11291795653867],[1.532048565149523,45.1124151525403],[1.533046518223322,45.11170423889391],[1.536053797167744,45.1106558920662],[1.537069554167371,45.11037924519073],[1.537234724529136,45.11111446424544],[1.538689895511016,45.110667057585914],[1.539725499613973,45.110068248223094],[1.5406261580844,45.10996116721034],[1.54123802956775,45.10937030563588],[1.541627475002989,45.10867657033449],[1.541851174861801,45.10799867744752],[1.542464772769615,45.10792565074291],[1.543138232501396,45.107556220276784],[1.544055326899756,45.107695178031676],[1.544630587126528,45.10738479340099],[1.545598372531398,45.10635728380444],[1.545806543939767,45.10598086661188],[1.546440046043827,45.1052389677267],[1.545691490745768,45.10424400161741],[1.545328844648852,45.102982099781784],[1.545333128146424,45.10262193493387],[1.545973181247785,45.10231148941102],[1.546763106736061,45.10127354756404],[1.545719399457213,45.10097086015431],[1.54555712773971,45.100512163639486],[1.545666570237337,45.097868673260855],[1.545278563253461,45.097632168958945],[1.54471988910094,45.09760236313238],[1.545321204964424,45.09525977505858],[1.544402560389561,45.09504155685519],[1.54339569032512,45.09464747136604],[1.541703057928049,45.09500357136472],[1.542261521991606,45.0945038660988],[1.542135477057033,45.09441306313385],[1.539984763398715,45.09385809112473],[1.53834246997568,45.09326111553353],[1.537538129947433,45.09285522316315],[1.537254074158095,45.09302170005301],[1.536559243374644,45.09319268992914],[1.535828015267155,45.09417099241946],[1.531678675798181,45.09284393053029],[1.530989777617892,45.09269166563361],[1.530777452543809,45.092207972056556],[1.530757689030616,45.09160524194339],[1.530256876603084,45.09077913660331],[1.529738322411468,45.09067683902687],[1.527322875627651,45.09173642100755],[1.526947849552652,45.091445990010996],[1.526626743084704,45.09152189509475],[1.525871065966798,45.09144436195103],[1.526010314205855,45.0909364903151],[1.524727500304247,45.09069708180062],[1.524695323771205,45.09061560609643],[1.524904660473571,45.090439166605904],[1.523890483494793,45.089559407488295],[1.52377850286732,45.088455647158135],[1.524008287574436,45.087985900055024],[1.524061865298739,45.08754533862694],[1.524343568606794,45.08713121227276],[1.524492691402094,45.08706834679664],[1.524762801740014,45.08709353569565],[1.525225878978166,45.08683940456072],[1.525310289924035,45.086434372340335],[1.525210749112452,45.08620791710659],[1.525231490992998,45.08585517507045],[1.525425731862561,45.08543088347109],[1.526070165764485,45.08480632005068],[1.527225087592677,45.08395976042059],[1.527736673044132,45.0838413432693],[1.529693587306377,45.08198142490989],[1.531646132732975,45.08120297742969],[1.532470914484464,45.0812093390016],[1.53272446006543,45.080702065971835],[1.531824349537273,45.08061186320964],[1.530494975981101,45.07871759568717],[1.527758292310937,45.07712802491647],[1.525425761303628,45.07675047149806],[1.523322304019761,45.07650738515154],[1.522154301144382,45.07626496202076],[1.521463301291548,45.076200861953104],[1.520567362140928,45.076532980980815],[1.518897863688023,45.07598217954391],[1.517753223241944,45.07615427417438],[1.517244932076119,45.076150213411736],[1.511604218675122,45.07557790720674],[1.509670471556007,45.075122496969605],[1.509605506378349,45.075175661247634],[1.510078057466004,45.07800071284559],[1.510086349183462,45.07873927781731],[1.510226762650618,45.079003216255934],[1.510467723779662,45.079166735952555],[1.510101714112073,45.079307732782674],[1.509484782665859,45.079992909520875],[1.508117547355758,45.08083374317701],[1.507229094866518,45.081308145343364],[1.506802770967715,45.08137447825232],[1.505459709885478,45.08183106724228],[1.504747237246805,45.08190256004734],[1.504260850435095,45.08217070252163],[1.503783870614418,45.082324598630194],[1.502627637410669,45.08235319644863],[1.501347958199313,45.082956478555445],[1.500881539447805,45.083095195025244],[1.498118017021738,45.08333265659168],[1.495570883194117,45.08318032794821],[1.495688483104805,45.084006826637236],[1.495980227276737,45.08445564000153],[1.496868762490105,45.084740496699375],[1.49788602052004,45.08520269003993],[1.498446561097424,45.0856785337888],[1.499300825702999,45.08567833275163],[1.499747375358315,45.08538085685319],[1.500730875592757,45.08492219971587],[1.501852944583389,45.085554170520325],[1.501795289686657,45.086282846906876],[1.501438020913623,45.08666438282222],[1.501340684848302,45.08659643274831],[1.49992342269875,45.08725368512533],[1.500173801795915,45.087872135926],[1.500116238224733,45.08954459862739],[1.4994307886517,45.09092673572977],[1.49862879117887,45.09172373725928],[1.498601346501792,45.09269867345068],[1.497782171151145,45.09304515843542],[1.495218321302838,45.09330866092037],[1.49415275107593,45.093550029712304],[1.494038650557926,45.09372679922583],[1.495300543044514,45.094222038689374],[1.496069408335785,45.09484929904255],[1.496400237474594,45.095359877184066],[1.496449274758029,45.095664027579566],[1.49630068017263,45.0962726033724],[1.496293588875027,45.097009166563325],[1.496893083460125,45.098688693272244],[1.496763595969305,45.100005369172386],[1.49776484871885,45.10088430582835],[1.49821526235783,45.10139468892229],[1.49730361570135,45.101865105254085],[1.497304340274169,45.102358622971636],[1.498365493904721,45.10285562263625],[1.497064517205833,45.10371163676632],[1.496703401632023,45.104230895322026],[1.496451167218044,45.10495694963636],[1.497604494095543,45.10680514294834],[1.498301742307764,45.108780465594826],[1.498343259660723,45.11002830502533]]]]}}]}