{"type":"FeatureCollection","name":"COM_64240","crs":{"type":"name","properties":{"name":"urn:ogc:def:crs:OGC:1.3:CRS84"}},"features":[{"type":"Feature","properties":{"fid":4216,"ID":"COMMUNE_0000000009762473","NOM":"Gère-Bélesten","NOM_M":"GERE-BELESTEN","INSEE_COM":"64240","STATUT":"Commune simple","POPULATION":186,"INSEE_CAN":"15","INSEE_ARR":"2","INSEE_DEP":"64","INSEE_REG":"75","SIREN_EPCI":"246400337"},"geometry":{"type":"MultiPolygon","coordinates":[[[[-0.472864026458409,43.00106784773143],[-0.473868634012901,43.00158092392005],[-0.474189911021984,43.0018865191079],[-0.475583957971659,43.00283890563452],[-0.478079531533882,43.00354679718439],[-0.481730452084892,43.004313549884415],[-0.482352592660394,43.004522058292665],[-0.481799279465613,43.007233450959404],[-0.481882549984254,43.00767996734405],[-0.482219733133711,43.00831000945566],[-0.482259732129006,43.00911801847974],[-0.482106398396133,43.00975044294066],[-0.481588414778725,43.01043878598263],[-0.48149216324757,43.010980239065105],[-0.481640939024942,43.01151645967303],[-0.481976070718548,43.01209165766171],[-0.482394154130621,43.01339335570876],[-0.475530884939963,43.01356408478513],[-0.47390334630808,43.01410189731228],[-0.472220767520547,43.014765693012905],[-0.471478994075463,43.01487516294622],[-0.468295366868941,43.014913972970604],[-0.46463669607231,43.01484556433389],[-0.464211383633494,43.015856713846944],[-0.464269098255628,43.01632927270736],[-0.463838871869093,43.017812297659574],[-0.463898957180261,43.01889873510723],[-0.464031458000328,43.01924735597174],[-0.464066177412851,43.019725158179895],[-0.463744300645877,43.021358635102],[-0.463782793279859,43.02192003793697],[-0.463425829769175,43.02188022086432],[-0.463101418645976,43.022261561396796],[-0.462901826056255,43.02267849217213],[-0.462455587594073,43.022869303902795],[-0.46250316796415,43.023028913001944],[-0.462947098737319,43.02318926458701],[-0.462981839017722,43.023523931431804],[-0.462092573990663,43.024164716101346],[-0.462628887066786,43.026362017603404],[-0.462351363819539,43.026953401252676],[-0.461887391703105,43.027504873659566],[-0.461600294592254,43.02814157526743],[-0.461759858780723,43.02890163742698],[-0.461641481202132,43.02899457024667],[-0.46091443847329,43.02914849972326],[-0.459921348979871,43.03142112815433],[-0.457142423827853,43.03122420374168],[-0.456637252410686,43.030922656801046],[-0.456454709155304,43.03092762247226],[-0.454974250915773,43.03731282684665],[-0.45266905023091,43.03911618861461],[-0.451627776358749,43.03908658563336],[-0.450571908976399,43.03889449819674],[-0.449156911630807,43.03916313227936],[-0.44827854557945,43.038736672163694],[-0.447533613768271,43.038530987640236],[-0.446655269255424,43.038104514508625],[-0.445695351484673,43.03853406723308],[-0.4447448889488,43.03914335473024],[-0.438358700242465,43.03977255946798],[-0.435447057525007,43.040425519073274],[-0.431294327136325,43.04182016568657],[-0.431109030949752,43.041779263463006],[-0.430787227434746,43.04146454394954],[-0.430476769882513,43.04138262056801],[-0.429810739124776,43.04153438850264],[-0.429198023528406,43.041550319161544],[-0.428883469937572,43.04137849920532],[-0.426531809626829,43.03832874807794],[-0.425065232838589,43.03841145894763],[-0.424520598002328,43.03856112986428],[-0.424675613149145,43.03923136167755],[-0.422630296464674,43.039697049874064],[-0.423050700258587,43.039106632359434],[-0.423330984397221,43.03842974978064],[-0.423118555300362,43.03751468363768],[-0.422671915515743,43.03730834082245],[-0.422475460904564,43.03687078281278],[-0.422083200177486,43.03633862910877],[-0.421340931737106,43.03559435267466],[-0.42085954940467,43.03531889135815],[-0.419270274530954,43.034673551125906],[-0.418305643908086,43.03406955618093],[-0.417816821560203,43.03337661940941],[-0.417198512163808,43.03173716972569],[-0.415914209621534,43.03039343591774],[-0.415478731247855,43.02977171558438],[-0.415530248768623,43.029480212055724],[-0.416047316151333,43.02861489414677],[-0.416125079395734,43.02833155905977],[-0.416182222693683,43.027470044382426],[-0.415873817565618,43.02621504637653],[-0.415910528579973,43.025714265267176],[-0.416387926871825,43.024697171929795],[-0.416900547958489,43.02415246647234],[-0.417988854240646,43.02259383691234],[-0.418194644880365,43.02161147368123],[-0.418015675911603,43.02051261016041],[-0.418008751428018,43.019813371572916],[-0.418114503338965,43.019505741675786],[-0.418286268682911,43.019214917825096],[-0.418604065760987,43.0189455577505],[-0.419791221966565,43.01864765562764],[-0.423297343218449,43.01864503344815],[-0.424956794781052,43.01851298004586],[-0.426658414935214,43.01824362596931],[-0.429434087166681,43.017362966488],[-0.431908984675694,43.016355900857164],[-0.433560217018789,43.01527965592192],[-0.434944298122476,43.014126398604205],[-0.435685216292485,43.01389838234704],[-0.436021648073988,43.01369678900332],[-0.436526895597218,43.01303249415596],[-0.437206689490534,43.012395025358074],[-0.437482639603559,43.01224937294723],[-0.437575302703073,43.0120951758817],[-0.437989233824332,43.011959514435816],[-0.43846285572624,43.01154827953032],[-0.439017978937481,43.01158003882547],[-0.439417684907469,43.01141151895985],[-0.439653679591088,43.01113030713634],[-0.440050771786458,43.010959167809844],[-0.440246151261192,43.01071706270048],[-0.440562499327248,43.01063222398141],[-0.440754045881442,43.010408244711805],[-0.441444768016471,43.01028621758822],[-0.441739066273331,43.01016067142439],[-0.442138928324232,43.00978868903562],[-0.442791985565299,43.00956973598911],[-0.442958787974985,43.00944556776342],[-0.443340031508325,43.00944146187896],[-0.444056865408945,43.009284373440025],[-0.445303017278963,43.009302966267924],[-0.446597824896705,43.00912914063031],[-0.447009421777839,43.008790070864016],[-0.447512092592425,43.00864162460799],[-0.44771731079175,43.00850361406133],[-0.448358240014657,43.008431749456335],[-0.448826314550336,43.00797023303917],[-0.448982855561516,43.0074268864077],[-0.45032589008451,43.00581923389991],[-0.450509579012404,43.005814239442195],[-0.451892391432512,43.006542234556534],[-0.452766163678397,43.006878765025796],[-0.453558348533358,43.00681371431227],[-0.45475844972786,43.006287246441495],[-0.455685344379632,43.00621875157485],[-0.457161047993526,43.006323449272664],[-0.45815201467703,43.006567947677325],[-0.458765811143498,43.00659681648085],[-0.45961592336371,43.005181337137884],[-0.459847032167351,43.00463557313384],[-0.460814572998806,43.004385682504356],[-0.461972619949217,43.00426558129498],[-0.462753777332818,43.003975763109935],[-0.463523704435984,43.00341623664864],[-0.465058166107631,43.001982265583074],[-0.465364309832413,43.001974198913295],[-0.466541601684884,43.00225852306688],[-0.467766422540371,43.00227123723484],[-0.468675319218106,43.00206727609899],[-0.469090234751403,43.001786525082515],[-0.469823581995091,43.00149819662189],[-0.471348213041218,43.00137696331979],[-0.472864026458409,43.00106784773143]]]]}}]}