{"type":"FeatureCollection","features":[{"type":"Feature","properties":{"fid":80,"ID":"COMMUNE_0000000009753462","NOM":"Vensac","NOM_M":"VENSAC","INSEE_COM":"33541","STATUT":"Commune simple","POPULATION":1146,"INSEE_CAN":"22","INSEE_ARR":"4","INSEE_DEP":"33","INSEE_REG":"75","SIREN_EPCI":"200070720"},"geometry":{"type":"MultiPolygon","coordinates":[[[[-1.062231635626111,45.41468386799918],[-1.061922076365242,45.41442459910852],[-1.061395942785361,45.41424982228369],[-1.059738735739572,45.413890630465254],[-1.058582782767456,45.41383874853735],[-1.057932093473825,45.41365855088994],[-1.057079849807185,45.413540650402446],[-1.052795485335428,45.413299924471715],[-1.047017773725829,45.4133302956976],[-1.044779316047816,45.41324975473009],[-1.042617849788995,45.41287245698651],[-1.041587440621181,45.413401933872215],[-1.041103886642214,45.41347708469155],[-1.038677912296397,45.413088516271316],[-1.038483775211462,45.41506739111076],[-1.036408921814613,45.41538922259347],[-1.034734482697889,45.41621863874454],[-1.032121456102511,45.41609362764425],[-1.030779525018373,45.416142823599266],[-1.02938328220896,45.41650231442104],[-1.026266075356703,45.417528647521145],[-1.025213560104528,45.41759712677644],[-1.024504664307318,45.41756669565265],[-1.023815655512004,45.417421940776606],[-1.022156303032706,45.416835967637574],[-1.021199983705527,45.41595154434226],[-1.021572840647025,45.41501850157538],[-1.021430610072343,45.41489287208744],[-1.019558696830986,45.414074663185914],[-1.018376941717285,45.41423156873777],[-1.019722929074122,45.41655725219462],[-1.019814383715451,45.41695429163463],[-1.018631494678367,45.428283266978326],[-1.01723737414996,45.428163754774246],[-1.010795975044302,45.42732158942455],[-1.009115527079075,45.426853382425364],[-1.007679124698751,45.42639535614397],[-1.010554081685275,45.41409176939982],[-1.003770311870128,45.41422985584077],[-1.008951356363616,45.391309404048044],[-1.009865609962999,45.38725546603283],[-1.010071040861466,45.387212043951806],[-1.016541849546885,45.38799441855671],[-1.018234834464532,45.380667527663356],[-1.021418958601055,45.38204357193478],[-1.022892926846237,45.38276961676051],[-1.023359306020024,45.38086937025145],[-1.024379343744179,45.38083901792054],[-1.024562331398543,45.380698098069686],[-1.02559404649441,45.38084673761188],[-1.02613789180288,45.38033579581818],[-1.027335922845463,45.379477635796704],[-1.028126957184279,45.380101049236224],[-1.032200702926342,45.38513153286779],[-1.043403155617008,45.38457423301938],[-1.0448191559812,45.38409390607963],[-1.047287670024611,45.38371256428253],[-1.048749953271376,45.3833414137998],[-1.050836953334631,45.38299272278834],[-1.052681605367112,45.382953010919046],[-1.0539293210327,45.383500213798726],[-1.05564831608624,45.38443877542482],[-1.056216823079932,45.38463727826295],[-1.060704687754092,45.385013773344745],[-1.061509426319042,45.3851703209515],[-1.062574559819274,45.38561585874901],[-1.068997490943146,45.38608318754185],[-1.071451332872519,45.38641054072435],[-1.071870777977401,45.3864944680921],[-1.073250093188563,45.387070040762794],[-1.077335491410389,45.388391931150984],[-1.079366918187816,45.389151063547985],[-1.084163074303351,45.389570406606154],[-1.087457593440835,45.38928427722229],[-1.08992246408692,45.38946205842874],[-1.093256123511149,45.38941236665153],[-1.093281222060726,45.38879741626121],[-1.092884555797409,45.38796345244811],[-1.096545610051865,45.387651929291565],[-1.097794316589512,45.387388931432824],[-1.100106890697031,45.38654325847952],[-1.101633053651055,45.38622587323568],[-1.102569875117565,45.38588137410737],[-1.103141076975257,45.38581896451264],[-1.105290451981154,45.3864732279207],[-1.106122315483307,45.38649231361262],[-1.108261994817865,45.38597560603502],[-1.110424401418368,45.385818691006904],[-1.111650040077736,45.38600631711104],[-1.112288364770279,45.38598647912464],[-1.11303695999676,45.38569298568017],[-1.114308997074517,45.38560837568412],[-1.114681269327986,45.38541706408666],[-1.115018706040112,45.38468602614019],[-1.115380984593223,45.384359827882214],[-1.115944722184297,45.38416237489281],[-1.118919444096538,45.38371033123507],[-1.120831777894356,45.38365077610411],[-1.124144562530129,45.38296162826396],[-1.125539341018843,45.38248013456632],[-1.125879906197672,45.3824657801071],[-1.152732708101991,45.38857285068261],[-1.153513516356996,45.388986620959095],[-1.158902115428001,45.390198649565285],[-1.159885602613401,45.390361389398905],[-1.159932761071905,45.393744632952334],[-1.159776898118919,45.3955096480288],[-1.159862658870113,45.39728822967935],[-1.159756325105545,45.397816971844044],[-1.15994926279241,45.39786390665077],[-1.159955993170535,45.39795382707476],[-1.159732501836807,45.39799459090468],[-1.159777295920993,45.398387873462546],[-1.15985191384396,45.3982732901585],[-1.159980895758782,45.39828653265132],[-1.159986953190151,45.39836746103667],[-1.159775824758084,45.39843662015851],[-1.16030797625136,45.40325449896538],[-1.160320492633691,45.40566158831324],[-1.157538019147317,45.40602641148045],[-1.157211175383272,45.40622609887225],[-1.156854690804725,45.40632048433712],[-1.153907147527195,45.40661830414127],[-1.130414976816262,45.40999294839555],[-1.129968643476182,45.40994719077799],[-1.129691428075225,45.41007553356416],[-1.121348017224375,45.41127461794646],[-1.112564199730185,45.41123230000107],[-1.108183326556115,45.41128216156833],[-1.108101574039827,45.40972616337196],[-1.107466781559931,45.407598048825164],[-1.106127297813933,45.40696730309121],[-1.105069564687478,45.40585283746908],[-1.104307165737057,45.405582326074615],[-1.102847475852217,45.40521202432675],[-1.102473395647721,45.40505170531341],[-1.102321985218702,45.404873310623515],[-1.102314647654124,45.40473923040254],[-1.102626901941,45.404460897449134],[-1.102727772601402,45.40412809221227],[-1.102427222860414,45.403489898986045],[-1.102204924028151,45.403252787473214],[-1.102193498749389,45.402508425935515],[-1.10187693656851,45.402433460856365],[-1.101854036875919,45.402348640915015],[-1.102160552373211,45.40171526094357],[-1.102194283113731,45.401409260716036],[-1.101440339403906,45.40041979204039],[-1.101205663002153,45.40029223463754],[-1.100926883309299,45.39998325294636],[-1.100969811292772,45.399836512087376],[-1.101267691593739,45.39960649726438],[-1.101786836969412,45.399322391982956],[-1.101810381259043,45.399138490575076],[-1.101133161643594,45.398841398348615],[-1.100678424635644,45.398489268586054],[-1.100251620701284,45.39801258578391],[-1.09918829741273,45.39728690046795],[-1.095944097688083,45.39855704072554],[-1.095060273271308,45.398790436261734],[-1.089884228875825,45.397708253402264],[-1.088664444374249,45.398646344287066],[-1.087119585492394,45.40109935498008],[-1.084649899244739,45.40342287450228],[-1.084444133437181,45.403740550299915],[-1.083663067739341,45.40427666807189],[-1.08334634780619,45.40472191465048],[-1.07818070185877,45.407552892078655],[-1.076538111104644,45.40871812087004],[-1.074978125190961,45.41034737565008],[-1.074673717682601,45.41118887489567],[-1.073020567319432,45.412753863477086],[-1.07082607849244,45.413291679279126],[-1.070119432543005,45.4133967039036],[-1.06709639189886,45.41365167477398],[-1.063330598561329,45.41365850604722],[-1.06292888483882,45.413837177770965],[-1.062231635626111,45.41468386799918]]]]}},{"type":"Feature","properties":{"fid":149,"ID":"COMMUNE_0000000009754798","NOM":"Carcans","NOM_M":"CARCANS","INSEE_COM":"33097","STATUT":"Commune simple","POPULATION":2415,"INSEE_CAN":"30","INSEE_ARR":"4","INSEE_DEP":"33","INSEE_REG":"75","SIREN_EPCI":"200070720"},"geometry":{"type":"MultiPolygon","coordinates":[[[[-0.911728522040799,45.057329818029615],[-0.922403285203244,45.059591074332005],[-0.923814697639769,45.06047258519077],[-0.92445802082396,45.06057701958094],[-0.937294699207626,45.065215471150466],[-0.939819568785978,45.06595193341159],[-0.942118908056546,45.0661409942621],[-0.944452523301526,45.06656318781646],[-0.945701441520873,45.066432386704385],[-0.946817043626587,45.06614312315023],[-0.948499223739337,45.065878830900665],[-0.948975907426198,45.06589167373977],[-0.949143352413203,45.0659749845035],[-0.949368263017019,45.065827270947416],[-0.951354236541509,45.065811795037625],[-0.954184775426665,45.06550665206241],[-0.955688398977929,45.06543430463805],[-0.957448065401587,45.06552863236376],[-0.958319191898103,45.06550667818086],[-0.959231597483587,45.065636508156395],[-0.960634345329939,45.06559472701681],[-0.960614878260981,45.06540970556244],[-0.964967675905987,45.06206696933744],[-0.967573816131494,45.057724317952406],[-0.977596793899102,45.05330611651458],[-0.98625951985641,45.04575868154961],[-0.988884146952819,45.045809786854235],[-0.99189937571789,45.04023294974255],[-0.992172407060565,45.04017447198079],[-0.994052512646378,45.0369254817499],[-0.993930186817499,45.03656565170492],[-0.998118091548148,45.03157850008708],[-1.005798790406213,45.032202872804696],[-1.006802618409973,45.0321946750491],[-1.011879724884191,45.03253642036496],[-1.01199020481683,45.032658653103795],[-1.01762217134143,45.03300627539059],[-1.018127917283537,45.033090788848675],[-1.01947076730219,45.03309367386499],[-1.027882549581461,45.03363963943139],[-1.028677904499163,45.03363157961671],[-1.028813575073764,45.03348512282368],[-1.030070521456583,45.033160119548775],[-1.038438237703648,45.031402496831795],[-1.05138355190228,45.02379594753916],[-1.052245979651395,45.023364239489695],[-1.055034296783072,45.0231075643201],[-1.06610820318172,45.02232107298317],[-1.080593682332685,45.023344974674046],[-1.080823234481188,45.0234420392667],[-1.087125300634014,45.02828481246985],[-1.087874510060075,45.02846374949072],[-1.091272814802028,45.03162603215515],[-1.094535925818134,45.03409987668331],[-1.095076522002011,45.034623642847215],[-1.104434622719637,45.04132393335831],[-1.109650016369593,45.04567012380612],[-1.124022127764398,45.04943914266513],[-1.130209593717009,45.0509155492956],[-1.163659454548829,45.05986759854459],[-1.168107624238369,45.06112211200135],[-1.17097563935277,45.061537635614826],[-1.174603835582194,45.063256316611664],[-1.175927839750531,45.06323370452193],[-1.186263712694231,45.066156361127945],[-1.186847732506508,45.06654735642934],[-1.188708475630935,45.066470143695014],[-1.194196431542868,45.06825528237195],[-1.193999881672132,45.06948534213035],[-1.193606750521779,45.07382813540137],[-1.193359017429224,45.07561464573902],[-1.192963106544394,45.07737698108903],[-1.192303640883616,45.08421118434989],[-1.191984376650545,45.08604637092073],[-1.191758411883028,45.08834510775657],[-1.191377936520609,45.09002660863435],[-1.191317955926437,45.09204409021514],[-1.190994619877208,45.09370720957587],[-1.190607472976849,45.09791452855992],[-1.1900823206711,45.10109733497905],[-1.189865212285818,45.103753700598475],[-1.18923142329309,45.10711912026257],[-1.188632926543233,45.112654428995995],[-1.188483683514521,45.11501159443313],[-1.188106386181351,45.116976991403135],[-1.187791443711909,45.119808352178765],[-1.187355116513285,45.12227819590185],[-1.187093217421323,45.125376260679666],[-1.186691658524269,45.12700263475341],[-1.186652677076363,45.12850448086269],[-1.153108828026439,45.128248412338415],[-1.142800175990882,45.12894587329338],[-1.142386106977541,45.12882421478717],[-1.141324481760707,45.12879875161271],[-1.140286227924739,45.1285902780375],[-1.097825104141229,45.12883514778472],[-1.087241976466468,45.12916426918909],[-1.08565595164001,45.12875989673896],[-1.083635206427464,45.12862839134005],[-1.081525818461314,45.12871287577818],[-1.080449965012441,45.128910052691424],[-1.078743307551416,45.128265665157656],[-1.077988486192381,45.12785330345492],[-1.07720607111846,45.12688836048382],[-1.076685348199014,45.126507097031535],[-1.076357047908689,45.12640640530005],[-1.072887318096779,45.12592919170319],[-1.072578583178803,45.12599186593953],[-1.071891019893938,45.12632623987939],[-1.071573791896886,45.12634233820273],[-1.070620524490658,45.12605438802089],[-1.069704021893959,45.12595622697359],[-1.069378548518233,45.12603392909304],[-1.068674986292424,45.12663844535956],[-1.068001215111642,45.12676041457043],[-1.067004849380809,45.12642261586802],[-1.066004341076113,45.126395110018265],[-1.065344590507465,45.12600985296503],[-1.064063914439802,45.125860014984596],[-1.063795922860556,45.12564258500861],[-1.063376618685359,45.125025854418695],[-1.063347941343526,45.12435160362752],[-1.063136262045357,45.123997781257174],[-1.061124488811011,45.12333811575766],[-1.060502240411481,45.12287212580499],[-1.059376718498002,45.12277067934302],[-1.058398752034356,45.12245648137692],[-1.058175013417751,45.12218152900216],[-1.057629468331597,45.12187682115562],[-1.057178746768438,45.12131711409009],[-1.056533531858487,45.120867267498106],[-1.055564411626462,45.12076189390763],[-1.045521449250875,45.11628994090747],[-1.009704675765303,45.123648487693515],[-0.99482526245078,45.12688933281612],[-0.987265762686732,45.13195991640473],[-0.984790793690377,45.13409855943121],[-0.982985759947898,45.13461385074922],[-0.97317529379307,45.13650742642715],[-0.972153569042662,45.13623641253227],[-0.970995305897954,45.13617670793633],[-0.95218102061266,45.1354227412048],[-0.951517677702346,45.135444455609125],[-0.951165207695121,45.13523336952079],[-0.950372896063573,45.134494246237466],[-0.950300443630987,45.13415423106835],[-0.944218450912382,45.13056334961038],[-0.943607280559715,45.12919481778814],[-0.939972566643863,45.1269568571478],[-0.939636462838847,45.126651401207845],[-0.93818250663121,45.126078931667024],[-0.937218998667066,45.12399078551545],[-0.935152765830005,45.12219130056538],[-0.927693330668366,45.1132652843245],[-0.918393732923376,45.108015958129684],[-0.918324829479564,45.107904791149075],[-0.898242242851032,45.09739282308302],[-0.895278155409966,45.095077801854615],[-0.891986660824893,45.09153009404775],[-0.886585408777731,45.087393355016],[-0.897491423394161,45.06927269498512],[-0.89762261649907,45.06900126160554],[-0.897589300233113,45.0687058379269],[-0.897696394773452,45.06841721826201],[-0.899061591393933,45.065865980626285],[-0.904102496758136,45.06205270793519],[-0.911051854265235,45.057602407003706],[-0.911728522040799,45.057329818029615]]]]}},{"type":"Feature","properties":{"fid":186,"ID":"COMMUNE_0000000009752962","NOM":"Le Verdon-sur-Mer","NOM_M":"LE VERDON-SUR-MER","INSEE_COM":"33544","STATUT":"Commune simple","POPULATION":1389,"INSEE_CAN":"22","INSEE_ARR":"4","INSEE_DEP":"33","INSEE_REG":"75","SIREN_EPCI":"200070720"},"geometry":{"type":"MultiPolygon","coordinates":[[[[-1.082814652768106,45.56822941351011],[-1.08234386372144,45.56821676984682],[-1.081097147104463,45.568214285694765],[-1.079815618214188,45.568244610907215],[-1.079398977523765,45.56830482735117],[-1.07829506669485,45.5686902565497],[-1.078173784940108,45.56873433381294],[-1.077934537541451,45.568710559636564],[-1.0776068195563,45.56858359886637],[-1.077381536774195,45.56834832435593],[-1.077607216398241,45.56818774853514],[-1.077396225232176,45.56819901457811],[-1.07741694132244,45.56802694408334],[-1.077795935257534,45.56815294541224],[-1.07791712950575,45.56807280464035],[-1.07839831203922,45.568122058124516],[-1.078658774312417,45.568050384793175],[-1.079108126422165,45.56806833070066],[-1.07919452849467,45.568003878826055],[-1.079715732948013,45.56805618159926],[-1.079825512083201,45.567943091204555],[-1.080046987028708,45.56795217831966],[-1.080257269457542,45.56807077461095],[-1.080239654785276,45.56793616280402],[-1.080833794240194,45.56796777736149],[-1.080978581082043,45.56782456015417],[-1.081262947312974,45.567920625988805],[-1.081396563011023,45.56776519060834],[-1.082243144204686,45.56772090023838],[-1.082272986050298,45.56762063095799],[-1.082445698616455,45.567664847683346],[-1.082471829875288,45.56751421916941],[-1.082609597568161,45.56753716377163],[-1.08265778015942,45.56737220849031],[-1.082964042693157,45.56741698009769],[-1.082932051811256,45.567296416271006],[-1.083039333070689,45.56728890975114],[-1.083062087742996,45.56719701295142],[-1.083350382804742,45.567276700459324],[-1.083268432846479,45.56707049001101],[-1.08353604378607,45.5671482239342],[-1.083525000609986,45.56703321041578],[-1.083890180256033,45.56711100295873],[-1.083872581201966,45.567011556375284],[-1.084096721987584,45.56698717630979],[-1.083969965464599,45.56688719039277],[-1.083491945723937,45.566845961103276],[-1.082725794439706,45.56686659924284],[-1.082298417952737,45.56695516919894],[-1.080877144112888,45.56690041874932],[-1.079076761292201,45.567171399306595],[-1.077912634522425,45.56745351608776],[-1.077166137797093,45.567880959950784],[-1.077177273895437,45.56806720266887],[-1.077001077293511,45.56801048095249],[-1.076994890458763,45.568100873115284],[-1.07690568708263,45.56809238912896],[-1.076872546804497,45.568182857913385],[-1.076594557588727,45.56820827597849],[-1.076313796766823,45.56838798045853],[-1.075875735117804,45.56848863476911],[-1.074636441202824,45.569198132392714],[-1.072734032174668,45.56977657262025],[-1.06956156943507,45.57026304402529],[-1.06940649919696,45.570319155657444],[-1.070295960909427,45.570246353343784],[-1.070734440105863,45.570290875765764],[-1.066524192460802,45.571208893704515],[-1.064084468468634,45.57209516640765],[-1.061699106039241,45.57253309248298],[-1.061369030720052,45.573196932261126],[-1.061526758571852,45.57226611889136],[-1.061417757467468,45.57204013480886],[-1.061432527465717,45.57120826366549],[-1.061495704433868,45.568917548439174],[-1.062293421950766,45.568609184454964],[-1.062535506027159,45.568374110488705],[-1.063531446897288,45.5676879821077],[-1.063696894944537,45.567545844617946],[-1.063694525414504,45.56742600849055],[-1.062691957155803,45.5656228744811],[-1.061931106130096,45.565663016185496],[-1.061774501724727,45.56641616137338],[-1.061262179559218,45.56643198209392],[-1.060750842234572,45.56437663773758],[-1.061181316405795,45.563804745128984],[-1.061125954388965,45.56149036678221],[-1.061373248337698,45.56143183272567],[-1.061321622495234,45.56111270650271],[-1.061077685236236,45.56048134472539],[-1.060872967213132,45.5596844614041],[-1.060360251090986,45.55871297100091],[-1.059505956965716,45.55747611418305],[-1.058216624521697,45.55604669011959],[-1.057299938447295,45.554710186924346],[-1.055974472619466,45.553171143067054],[-1.054384430113219,45.55127736865235],[-1.054145453522516,45.550957792465695],[-1.05430422688263,45.5506896766032],[-1.055111598013439,45.549972555082796],[-1.054974340974846,45.54972775173165],[-1.054491831158972,45.549271803498904],[-1.053577514204407,45.54864930757867],[-1.052696942000118,45.54818968909767],[-1.051843950316473,45.54772095406643],[-1.050797357990273,45.54734215039226],[-1.049978281790645,45.547126446246445],[-1.04917082826897,45.5468940873867],[-1.048109080709027,45.54664113676943],[-1.047519517687699,45.546528044200656],[-1.046612384450273,45.5462307350651],[-1.045450144689293,45.545813674111756],[-1.044976045087107,45.54566485055615],[-1.044273252712695,45.54542417919516],[-1.043736712568184,45.545210877347806],[-1.043431463058639,45.54503703156259],[-1.043443451222727,45.54479675990382],[-1.043084013972051,45.54419657929034],[-1.041735291403321,45.541942317995236],[-1.041311652882002,45.5407953382725],[-1.041036223119931,45.539938764910936],[-1.040660025182742,45.538826142485284],[-1.03996778920207,45.53624618543617],[-1.039938737396856,45.53575943781397],[-1.039880849582524,45.53278156564605],[-1.040523058262687,45.526858951898156],[-1.068505988236031,45.51499114455814],[-1.072823602401414,45.5137074370668],[-1.073448414703816,45.51367574084894],[-1.076116652942767,45.51323080490154],[-1.077642322839591,45.51311947084499],[-1.080529526995628,45.51321108063685],[-1.0816618795534,45.51334933038394],[-1.082371955014768,45.51381400977092],[-1.082797647292895,45.513830080621815],[-1.08352881268297,45.51412807792443],[-1.084148754475718,45.514169534997336],[-1.08436921038536,45.51401093137858],[-1.084463840860395,45.51369370420029],[-1.086592087460414,45.512587405220906],[-1.086750882465537,45.51253202978247],[-1.087047354357866,45.512691648503036],[-1.087383830812593,45.512663162340345],[-1.088455270961032,45.51227067159039],[-1.088622974292955,45.51207520891165],[-1.088732161505438,45.51166006569351],[-1.089196730625033,45.51133386117232],[-1.089316155339608,45.510848914988884],[-1.089620559631716,45.51029861772185],[-1.090389207912578,45.509870254857866],[-1.090998296680111,45.50976509468441],[-1.092449581356014,45.510732871650035],[-1.093434948282424,45.511590492960615],[-1.093759764137934,45.511438882589175],[-1.093952970915441,45.51110272034839],[-1.094576879539518,45.5107986306309],[-1.094745158829773,45.510802408229665],[-1.095092769448804,45.51099440382829],[-1.095299983705027,45.511629739501075],[-1.096193606174044,45.51193885825755],[-1.097038661705419,45.512562627197006],[-1.097315725335832,45.51291047840534],[-1.097448097744183,45.512948925553395],[-1.097739837323907,45.51288777788754],[-1.098062006811945,45.51303020004122],[-1.098221140274775,45.51323989034815],[-1.098223199931659,45.51340662641894],[-1.098536303532148,45.513461013560615],[-1.098752598538552,45.513593775708934],[-1.098778531067128,45.51385792328661],[-1.098920043184932,45.513915872007146],[-1.09905947803375,45.51389364663378],[-1.099897994045651,45.51316150303604],[-1.100809225114177,45.51275400635055],[-1.100860158467386,45.51248885316336],[-1.101611937285003,45.51256146276915],[-1.101861872649653,45.51294095270538],[-1.101879540394264,45.513353278506315],[-1.102360239217185,45.51366211555245],[-1.103013490857329,45.513650854957966],[-1.103589513019473,45.51342781362858],[-1.104405882797624,45.51371444774472],[-1.104676586957628,45.513923655619784],[-1.10510792928367,45.51403321092994],[-1.105194570061597,45.514268086627624],[-1.10545407763301,45.51442991304875],[-1.10543044435436,45.51459578643525],[-1.105684323053318,45.51513201857331],[-1.106100736883255,45.515316956771095],[-1.106121631335728,45.515529892173674],[-1.106897113713498,45.51581800598215],[-1.106969827801067,45.51605519380714],[-1.107070769314885,45.51610199397769],[-1.108064766807468,45.516413661598435],[-1.108639490116692,45.51648459282717],[-1.108752958807466,45.516440763978196],[-1.10881798155997,45.515933437190704],[-1.109503008261906,45.515779411044406],[-1.109576914515861,45.51561710538973],[-1.110683230352052,45.51607702230507],[-1.111176900951331,45.51642141682928],[-1.10808748513579,45.51994113930138],[-1.107483356501693,45.52098035763695],[-1.108380408494288,45.521315411257476],[-1.116658837737299,45.52518419086259],[-1.116385457239842,45.52573523480434],[-1.115532429774892,45.52635802903049],[-1.1151323225995,45.52679198739704],[-1.11477327506367,45.52753732670184],[-1.113654558152683,45.52866036637268],[-1.112125193149814,45.53069922966618],[-1.111868961177887,45.53127487950884],[-1.112197317031091,45.53106628148453],[-1.112250495913514,45.531091384026894],[-1.112501895935243,45.531713358690794],[-1.112251091878649,45.532137326138184],[-1.110753336093066,45.53322011600229],[-1.110711617480418,45.53317655916449],[-1.111599641750753,45.532521867394145],[-1.11160234659039,45.5325064395409],[-1.111637359515451,45.53251146888794],[-1.11234490239367,45.53184534751567],[-1.112394869845068,45.531654161318826],[-1.112161477823945,45.531274983845485],[-1.112200651608023,45.53111124396902],[-1.11141438154631,45.53161523856354],[-1.1109221486264,45.53205345566854],[-1.11092936506292,45.532220004457805],[-1.109155556473297,45.53381963204145],[-1.109051862078367,45.53380539405924],[-1.108773566165703,45.534031986807584],[-1.108218205337752,45.53462308367319],[-1.107913971662735,45.53519236412545],[-1.107684661559041,45.53537027325324],[-1.107144627877553,45.53646304476002],[-1.106799140782933,45.5364756845171],[-1.105987203148465,45.53781283571695],[-1.105980924543277,45.53807455546505],[-1.1058664247363,45.53808776018557],[-1.105941727490641,45.53823829330972],[-1.105609834744622,45.5380881276175],[-1.105141689708647,45.538749054039364],[-1.104128283288913,45.53956696989608],[-1.103852233240456,45.539477875589355],[-1.103205170011828,45.53961153344704],[-1.102067571554812,45.540156248334334],[-1.102058132643979,45.540167413478734],[-1.101997717270539,45.54009658426438],[-1.100987545522118,45.54054285595757],[-1.100318436052861,45.541402258166194],[-1.100509912493213,45.5414755149169],[-1.100171605334919,45.541481559056265],[-1.099817340608835,45.54198321094877],[-1.099379879339151,45.5429216106164],[-1.09881530071996,45.54477895903054],[-1.098506460880543,45.54542682400838],[-1.098018559525911,45.54920737012873],[-1.098048008694972,45.55043890085099],[-1.098141757554536,45.55066540940905],[-1.098058041878344,45.5522410064473],[-1.097639745870438,45.55378733551633],[-1.096892512854499,45.55522483757422],[-1.096268466126358,45.556922935889276],[-1.09629356766125,45.55694997254591],[-1.096239123114243,45.55696007366337],[-1.096174917933118,45.557029140381836],[-1.095073984551427,45.55897906230823],[-1.094583145315375,45.56011865619354],[-1.094121982241438,45.56166021891254],[-1.093040799073087,45.56382760378417],[-1.09215835435928,45.5649498960059],[-1.092015049163824,45.56525177139173],[-1.090476324578064,45.56638803834949],[-1.088828539342028,45.56696920890956],[-1.086141668659977,45.56750881201611],[-1.085719780384458,45.56774146432106],[-1.085335779718517,45.56784379652268],[-1.085176708719492,45.56782794176888],[-1.085604139565715,45.567583368146046],[-1.084670529879509,45.56771831191668],[-1.082814652768106,45.56822941351011]]],[[[-1.17357160480302,45.586430675072734],[-1.173268984371864,45.586505037400364],[-1.173136851547606,45.58645584111211],[-1.173046461785876,45.586278851359864],[-1.173214916679873,45.586128316875794],[-1.173393533171025,45.58611266494681],[-1.173538472125529,45.58616138520996],[-1.173628185723129,45.586329382378715],[-1.17357160480302,45.586430675072734]]]]}},{"type":"Feature","properties":{"fid":536,"ID":"COMMUNE_0000000009753234","NOM":"Saint-Vivien-de-Médoc","NOM_M":"SAINT-VIVIEN-DE-MEDOC","INSEE_COM":"33490","STATUT":"Commune simple","POPULATION":1822,"INSEE_CAN":"22","INSEE_ARR":"4","INSEE_DEP":"33","INSEE_REG":"75","SIREN_EPCI":"200070720"},"geometry":{"type":"MultiPolygon","coordinates":[[[[-1.003775535283604,45.49199528298065],[-0.996642522024101,45.48771900998894],[-0.989319680991124,45.482266158239824],[-0.989724798961226,45.47716844116503],[-0.979892316109981,45.46837189810685],[-0.974142489424479,45.463373579642],[-0.973312306541179,45.463052279668865],[-0.979212921162319,45.458875941593256],[-0.979342928143556,45.45863420446892],[-0.979568479127328,45.458527923006876],[-0.979916611802804,45.45816574105127],[-0.988137809033883,45.449392121734206],[-0.991641132082118,45.44586293012129],[-0.99871910348055,45.4382480399973],[-0.999476787059072,45.43729864928939],[-0.999987143356668,45.43693421348526],[-1.00888439062722,45.427216890771476],[-1.009115527079075,45.426853382425364],[-1.010795975044302,45.42732158942455],[-1.01723737414996,45.428163754774246],[-1.018631494678367,45.428283266978326],[-1.019814383715451,45.41695429163463],[-1.019722929074122,45.41655725219462],[-1.018376941717285,45.41423156873777],[-1.019558696830986,45.414074663185914],[-1.021430610072343,45.41489287208744],[-1.021572840647025,45.41501850157538],[-1.021199983705527,45.41595154434226],[-1.022156303032706,45.416835967637574],[-1.023815655512004,45.417421940776606],[-1.024504664307318,45.41756669565265],[-1.025213560104528,45.41759712677644],[-1.026266075356703,45.417528647521145],[-1.02938328220896,45.41650231442104],[-1.030779525018373,45.416142823599266],[-1.032121456102511,45.41609362764425],[-1.034734482697889,45.41621863874454],[-1.036408921814613,45.41538922259347],[-1.038483775211462,45.41506739111076],[-1.038677912296397,45.413088516271316],[-1.041103886642214,45.41347708469155],[-1.041587440621181,45.413401933872215],[-1.042617849788995,45.41287245698651],[-1.044779316047816,45.41324975473009],[-1.047017773725829,45.4133302956976],[-1.052795485335428,45.413299924471715],[-1.057079849807185,45.413540650402446],[-1.057932093473825,45.41365855088994],[-1.058582782767456,45.41383874853735],[-1.059738735739572,45.413890630465254],[-1.061395942785361,45.41424982228369],[-1.061922076365242,45.41442459910852],[-1.062231635626111,45.41468386799918],[-1.064158922654534,45.41624955174669],[-1.065024137142244,45.41678890237031],[-1.066290381493017,45.41804943825491],[-1.066415829814028,45.41880137040615],[-1.067037697314478,45.42061546096167],[-1.067145272125387,45.42150779820484],[-1.067747778486257,45.42282938608941],[-1.067578891276235,45.42318085122555],[-1.068448243925548,45.4235649464379],[-1.066392935240595,45.42550328148541],[-1.065023634856259,45.4264239678254],[-1.063802225269411,45.427809032373254],[-1.06066331810761,45.42973064570174],[-1.061309806447775,45.43046369906955],[-1.061610573896994,45.43105690288038],[-1.061406607509062,45.43173512430579],[-1.061003313628207,45.432384503516246],[-1.060282118120003,45.43308236845745],[-1.060241985866752,45.433409318395235],[-1.059610121411966,45.434015579696],[-1.058771693819266,45.43452923601746],[-1.058470649234957,45.43482596263264],[-1.057270476170215,45.435261641510834],[-1.057075005068652,45.435531098562464],[-1.056801566145046,45.4357150163292],[-1.056096864533839,45.43579823170592],[-1.056061187863119,45.43609887024714],[-1.055896022557477,45.436292391224555],[-1.054757798216872,45.43713875380411],[-1.054471553852483,45.43721763597131],[-1.054704551328641,45.437602323987925],[-1.054934407524262,45.437786057880395],[-1.056732988782985,45.43807260528765],[-1.060815157651703,45.43914739280238],[-1.058088813802046,45.445252945797364],[-1.056916983995357,45.445886851699214],[-1.056151842754116,45.44647717436521],[-1.055265495581984,45.447354994614116],[-1.054247677109538,45.447923788848584],[-1.05402706584768,45.448498905541406],[-1.053865578217064,45.44860302606943],[-1.053847789005051,45.449956142392345],[-1.054247074625361,45.45021399864596],[-1.054319527687581,45.45034662530978],[-1.053536798188385,45.45113592618923],[-1.055552838397599,45.45213145587846],[-1.054427080415885,45.453310964414925],[-1.05526900219792,45.45371780905753],[-1.051045702911932,45.457025382733974],[-1.049969367330913,45.45660172857457],[-1.04951672835067,45.45652611268446],[-1.047603745627235,45.45662856213709],[-1.046760299509325,45.45642909370292],[-1.046057252994844,45.45645086461964],[-1.045685546576268,45.456641904141755],[-1.045227464325522,45.457511391107204],[-1.043651494508758,45.45999006465833],[-1.043200767641627,45.45995853414129],[-1.042415975937641,45.45966765359231],[-1.040855352104031,45.46030006626114],[-1.040674138215313,45.46048602467903],[-1.040937364492944,45.460687521353854],[-1.04171191920522,45.46170009604485],[-1.042468475897358,45.46223634601664],[-1.041820692648709,45.46324700103108],[-1.041441244639013,45.463614124027444],[-1.039872821969524,45.463718437707165],[-1.037830321882942,45.465972185760386],[-1.037005664430491,45.4656448318717],[-1.03656117278777,45.465699606132354],[-1.035906734221478,45.46589808385854],[-1.035630748136374,45.4671603962731],[-1.035311262252257,45.467383780576995],[-1.035022586656563,45.4677313830592],[-1.034780758076966,45.467806806943145],[-1.033185898201787,45.46917156354851],[-1.03284928974063,45.469371211783304],[-1.033719773140229,45.47024063755486],[-1.033605676378274,45.47046925026871],[-1.026252245324375,45.47685924585442],[-1.024402927366369,45.47618808973325],[-1.017105730072079,45.48258262115058],[-1.003775535283604,45.49199528298065]]]]}},{"type":"Feature","properties":{"fid":636,"ID":"COMMUNE_0000000009753235","NOM":"Soulac-sur-Mer","NOM_M":"SOULAC-SUR-MER","INSEE_COM":"33514","STATUT":"Commune simple","POPULATION":3011,"INSEE_CAN":"22","INSEE_ARR":"4","INSEE_DEP":"33","INSEE_REG":"75","SIREN_EPCI":"200070720"},"geometry":{"type":"MultiPolygon","coordinates":[[[[-1.035675327069258,45.50822591698563],[-1.04778599310411,45.5004087508762],[-1.049298638699323,45.49863020469875],[-1.051688045330779,45.497008417552905],[-1.058942291238788,45.49082409254551],[-1.061225355977232,45.48908871442482],[-1.061561064431786,45.488543678711395],[-1.061847600591095,45.4875721348963],[-1.06245426437931,45.48668366956995],[-1.062864140057743,45.48627660150293],[-1.063080447282452,45.48611458209468],[-1.063703081509022,45.48586480657469],[-1.064889133554897,45.48565952852112],[-1.065447378208291,45.48570331269584],[-1.065865920517647,45.48550239871613],[-1.066680642954233,45.48476054886018],[-1.066939396547287,45.48437337047196],[-1.067075392612175,45.4839203134966],[-1.066641736494572,45.48380980600588],[-1.066589150737127,45.48370441513233],[-1.066722894834349,45.48353546338642],[-1.067302600188488,45.48343509534622],[-1.06776494980887,45.48308020404158],[-1.067909209528932,45.483072266656656],[-1.068386275449937,45.48361759857991],[-1.068802937609109,45.48353125199607],[-1.069740217964339,45.48362257549594],[-1.070531716598766,45.483980664647326],[-1.071379529082606,45.48480917596318],[-1.072208029376958,45.484954921782176],[-1.072521525780502,45.485122068247186],[-1.072302891070397,45.485286896465915],[-1.071781447226672,45.48543025803133],[-1.071337934331573,45.48574480924284],[-1.071741269525344,45.48622788575845],[-1.071796497930107,45.48684081552862],[-1.071999394969623,45.48686320435908],[-1.072600146745022,45.48650777637486],[-1.073177558561888,45.48656795829166],[-1.073552954702548,45.486792364265405],[-1.073569405212613,45.48691168823334],[-1.073022511954383,45.48705778279146],[-1.072849632237058,45.48721734366598],[-1.072917567676654,45.48737447136108],[-1.073290838521655,45.48753493736435],[-1.073657459159838,45.487307927748844],[-1.073854500792255,45.48728544272522],[-1.07412138310092,45.4877428114457],[-1.074695264483536,45.48735318313596],[-1.075349505650384,45.48718514659916],[-1.075844433657353,45.48685518567409],[-1.076458998095785,45.486862605850504],[-1.076938608763143,45.486359174773725],[-1.077455120491253,45.48642786016443],[-1.077769122412794,45.486235209215714],[-1.07813079359444,45.48616795916314],[-1.078500758110267,45.48593449946468],[-1.078727988403055,45.485974024607806],[-1.078840347329562,45.486334212364795],[-1.079227028924128,45.486537451345306],[-1.079786254362759,45.48718705060584],[-1.08021366010378,45.48712461622015],[-1.080482269928594,45.48732583480929],[-1.080971969030249,45.487378348258495],[-1.082805958314691,45.487320619777705],[-1.08341015016269,45.48739600501365],[-1.084468400583111,45.48778847125201],[-1.085129975658938,45.48648400324956],[-1.085435426937581,45.486105896928144],[-1.085483165216286,45.48579668789089],[-1.086058097971154,45.48568377302653],[-1.087768590015227,45.49007571066053],[-1.088207463774559,45.490116520866074],[-1.098262418857731,45.48809229691057],[-1.099434619943679,45.48679792715816],[-1.099836891284612,45.485961792319536],[-1.098870254352433,45.48313158527206],[-1.097711280489232,45.481357956408544],[-1.098610137782821,45.481258385482896],[-1.099220971423228,45.48109449614302],[-1.099891680430682,45.480283713378086],[-1.100551135282685,45.47998008168416],[-1.101862580117759,45.47979236054412],[-1.103191909182196,45.47975996032176],[-1.103992370567124,45.47950885583538],[-1.104620984947696,45.479516506502115],[-1.105535684367865,45.47964893296228],[-1.107115403322258,45.4767129141987],[-1.10824858501042,45.47332164862768],[-1.105309869767547,45.472264305598486],[-1.104532439528017,45.47190684688466],[-1.102990708940328,45.4718199052947],[-1.101566059271431,45.47154832408396],[-1.100255248124018,45.47104804449568],[-1.100118754529722,45.470917783921344],[-1.100535278878226,45.46937420644309],[-1.101986966221572,45.469058717525584],[-1.102981735819241,45.46857779123403],[-1.103905939536458,45.46800927039021],[-1.10469151570582,45.46726457867124],[-1.105331878663209,45.46625469367835],[-1.108253863088069,45.46501244349977],[-1.109481499659324,45.46442463833539],[-1.11050728047692,45.46382798963794],[-1.113304638947695,45.46407163823888],[-1.114178771647979,45.464074729264325],[-1.117222262038614,45.46430203517611],[-1.135321331913094,45.46599564068734],[-1.15303831551391,45.46753190226445],[-1.154832833329707,45.467503287044686],[-1.154933192864297,45.467628512540784],[-1.15475697202424,45.467688243903915],[-1.1546961068232,45.46781673891626],[-1.154860123964881,45.4698539383195],[-1.154667447505138,45.47058425051531],[-1.153382488190123,45.47326214674563],[-1.153106630805304,45.47368624973594],[-1.152871866840709,45.473854547590754],[-1.152610802047485,45.4743051525972],[-1.152678745237835,45.474442401516335],[-1.152506133008421,45.47451642223637],[-1.152427295220448,45.47481600451111],[-1.152306411822269,45.4748619596512],[-1.152239546510148,45.47515027787877],[-1.15214072681602,45.475182791847494],[-1.151653411348079,45.47656692638789],[-1.151435413743563,45.47971835919725],[-1.151528722959747,45.479920494877774],[-1.151900825216012,45.48004558234491],[-1.151788879103215,45.47983421808586],[-1.151955722923802,45.47983705804884],[-1.152286721293801,45.48032074364074],[-1.152164278485216,45.48039741412763],[-1.152135350313519,45.48121002511246],[-1.151901894972433,45.48203020840738],[-1.151913331278715,45.48235440098208],[-1.151868254161865,45.48243722382089],[-1.151665744441608,45.482471772230255],[-1.151514364738436,45.482675752578814],[-1.151724271985006,45.483254094106066],[-1.151688610914583,45.483634132914716],[-1.15198551893699,45.48369617978745],[-1.152203305563915,45.48366016363176],[-1.152417923585153,45.48258819790288],[-1.152608323125146,45.48256311366932],[-1.152332485440527,45.4840160654059],[-1.150278970380493,45.48723904720329],[-1.15014776062332,45.48737014194658],[-1.150419616161634,45.48654854246083],[-1.150090327589564,45.48658507384255],[-1.149764330787278,45.486734196233414],[-1.148965099900195,45.4872750344999],[-1.148682482354125,45.48762723689809],[-1.148370033344587,45.48828351628171],[-1.149275007149358,45.48872794709041],[-1.148184978064325,45.488551856473514],[-1.147498378841487,45.48948526928915],[-1.147307880154809,45.48957797576947],[-1.14714831769443,45.48984446961226],[-1.146235329523887,45.490733944816505],[-1.145616865007351,45.491413248905005],[-1.145603593600191,45.49154448713002],[-1.143744588821053,45.49324346699157],[-1.142441997769091,45.494909241769285],[-1.141885712542857,45.495821571458656],[-1.140530437119383,45.49850097982705],[-1.141191255105597,45.49876513327034],[-1.141223507538372,45.499025437572136],[-1.140425098610751,45.50018204135954],[-1.140156567924889,45.50019195191988],[-1.139928922786525,45.50004525959423],[-1.139631925449315,45.50005171090634],[-1.137230231443968,45.50414297640732],[-1.134581641804406,45.50797186529321],[-1.132191352502225,45.51224292117905],[-1.131579222892981,45.5130643703851],[-1.131310470870535,45.5136747993924],[-1.130178832593024,45.51515016371001],[-1.128502846064801,45.51679161844515],[-1.126947371895448,45.51805440739442],[-1.125380254824797,45.51916160638952],[-1.123666829528821,45.519906264540786],[-1.122430136946451,45.52055944457508],[-1.122133147250975,45.5208435681346],[-1.12048299185617,45.52192308505248],[-1.120011438823008,45.52249944925852],[-1.118743398270721,45.52338817696551],[-1.118154911468383,45.523996776172176],[-1.117161108463453,45.52467524464417],[-1.116658837737299,45.52518419086259],[-1.108380408494288,45.521315411257476],[-1.107483356501693,45.52098035763695],[-1.10808748513579,45.51994113930138],[-1.111176900951331,45.51642141682928],[-1.110683230352052,45.51607702230507],[-1.109576914515861,45.51561710538973],[-1.109503008261906,45.515779411044406],[-1.10881798155997,45.515933437190704],[-1.108752958807466,45.516440763978196],[-1.108639490116692,45.51648459282717],[-1.108064766807468,45.516413661598435],[-1.107070769314885,45.51610199397769],[-1.106969827801067,45.51605519380714],[-1.106897113713498,45.51581800598215],[-1.106121631335728,45.515529892173674],[-1.106100736883255,45.515316956771095],[-1.105684323053318,45.51513201857331],[-1.10543044435436,45.51459578643525],[-1.10545407763301,45.51442991304875],[-1.105194570061597,45.514268086627624],[-1.10510792928367,45.51403321092994],[-1.104676586957628,45.513923655619784],[-1.104405882797624,45.51371444774472],[-1.103589513019473,45.51342781362858],[-1.103013490857329,45.513650854957966],[-1.102360239217185,45.51366211555245],[-1.101879540394264,45.513353278506315],[-1.101861872649653,45.51294095270538],[-1.101611937285003,45.51256146276915],[-1.100860158467386,45.51248885316336],[-1.100809225114177,45.51275400635055],[-1.099897994045651,45.51316150303604],[-1.09905947803375,45.51389364663378],[-1.098920043184932,45.513915872007146],[-1.098778531067128,45.51385792328661],[-1.098752598538552,45.513593775708934],[-1.098536303532148,45.513461013560615],[-1.098223199931659,45.51340662641894],[-1.098221140274775,45.51323989034815],[-1.098062006811945,45.51303020004122],[-1.097739837323907,45.51288777788754],[-1.097448097744183,45.512948925553395],[-1.097315725335832,45.51291047840534],[-1.097038661705419,45.512562627197006],[-1.096193606174044,45.51193885825755],[-1.095299983705027,45.511629739501075],[-1.095092769448804,45.51099440382829],[-1.094745158829773,45.510802408229665],[-1.094576879539518,45.5107986306309],[-1.093952970915441,45.51110272034839],[-1.093759764137934,45.511438882589175],[-1.093434948282424,45.511590492960615],[-1.092449581356014,45.510732871650035],[-1.090998296680111,45.50976509468441],[-1.090389207912578,45.509870254857866],[-1.089620559631716,45.51029861772185],[-1.089316155339608,45.510848914988884],[-1.089196730625033,45.51133386117232],[-1.088732161505438,45.51166006569351],[-1.088622974292955,45.51207520891165],[-1.088455270961032,45.51227067159039],[-1.087383830812593,45.512663162340345],[-1.087047354357866,45.512691648503036],[-1.086750882465537,45.51253202978247],[-1.086592087460414,45.512587405220906],[-1.084463840860395,45.51369370420029],[-1.08436921038536,45.51401093137858],[-1.084148754475718,45.514169534997336],[-1.08352881268297,45.51412807792443],[-1.082797647292895,45.513830080621815],[-1.082371955014768,45.51381400977092],[-1.0816618795534,45.51334933038394],[-1.080529526995628,45.51321108063685],[-1.077642322839591,45.51311947084499],[-1.076116652942767,45.51323080490154],[-1.073448414703816,45.51367574084894],[-1.072823602401414,45.5137074370668],[-1.068505988236031,45.51499114455814],[-1.040523058262687,45.526858951898156],[-1.040715756229306,45.5250847804456],[-1.040765461159336,45.518161927363],[-1.039433476461571,45.51186588221585],[-1.035675327069258,45.50822591698563]]]]}},{"type":"Feature","properties":{"fid":718,"ID":"COMMUNE_0000000009753707","NOM":"Queyrac","NOM_M":"QUEYRAC","INSEE_COM":"33348","STATUT":"Commune simple","POPULATION":1357,"INSEE_CAN":"22","INSEE_ARR":"4","INSEE_DEP":"33","INSEE_REG":"75","SIREN_EPCI":"200070720"},"geometry":{"type":"MultiPolygon","coordinates":[[[[-0.949568372207641,45.37127151326315],[-0.954510137344625,45.36287913985255],[-0.959405555760734,45.35464682587789],[-0.966526392549228,45.349475599212916],[-0.969861747912189,45.34708441418843],[-0.973821917334978,45.349363691660095],[-0.978709146956901,45.35045854974194],[-0.985191195694122,45.34782421866081],[-0.98877790307096,45.34615107319854],[-0.988277768325322,45.345648682060464],[-0.989991317432789,45.34417298096137],[-0.990626173458072,45.34411156925889],[-0.991786220223113,45.343476032659154],[-0.992821612467425,45.343170408854554],[-0.993756763273265,45.34308924510146],[-0.994147502044112,45.342940056075534],[-0.995341930475751,45.342250058628636],[-0.995779906383243,45.34210007818425],[-0.997244358958371,45.34096944962275],[-0.998958999610649,45.34081260166486],[-0.999194295574089,45.34102688595154],[-1.000776262282047,45.340251745961936],[-1.003077987164467,45.34004588679197],[-1.004495313698617,45.33945329714384],[-1.005809798723187,45.339297141337624],[-1.00603854216033,45.33910051481886],[-1.005876554217996,45.33871501922813],[-1.005942238279225,45.33866848848953],[-1.005751160489556,45.337683566092046],[-1.009260543026439,45.33766874150038],[-1.00997131543162,45.33674616642287],[-1.010313136875426,45.3360613139963],[-1.009856261208229,45.33589466629669],[-1.010826069102857,45.335054762773694],[-1.012232926115775,45.33488710071929],[-1.01271904961961,45.33446664439484],[-1.013956373262943,45.33276419300238],[-1.014144441429988,45.332713265129044],[-1.0143954613714,45.33314514298539],[-1.016854366452345,45.33189829927702],[-1.017811598120802,45.33108132145836],[-1.017218070546951,45.33077445405095],[-1.017005964720314,45.33042142799044],[-1.018992410434253,45.32928977448886],[-1.019399137522421,45.329682686998325],[-1.020454600161177,45.329200258309946],[-1.022018697189753,45.32776185300115],[-1.023117214009779,45.32824708259346],[-1.023325554782154,45.328123280243894],[-1.025025069731645,45.326685367630084],[-1.02507841791212,45.3265040265867],[-1.024554583734249,45.3262947694864],[-1.024480386223152,45.326117116778285],[-1.025683008361289,45.3246844483649],[-1.025871103575958,45.32463440013943],[-1.026402136438677,45.324978633582944],[-1.026657159588015,45.32497035359176],[-1.027605656847687,45.32377131346094],[-1.027531452967274,45.32359366285736],[-1.026933435485515,45.3232067663606],[-1.028435484754008,45.32167492396632],[-1.028623567333673,45.321624871143264],[-1.029088807180926,45.32192547894442],[-1.031208077120965,45.322705641592876],[-1.0309280703122,45.323657022074876],[-1.035793021879211,45.32581495846476],[-1.035728620210001,45.331818466495456],[-1.035844187716433,45.33251305277587],[-1.038393540383605,45.338049870009414],[-1.039581709314444,45.34129699647085],[-1.038244872838449,45.34387521758289],[-1.036927681542844,45.34572149378352],[-1.036712202664425,45.34648753409386],[-1.03669097293648,45.347534183568186],[-1.040880292193699,45.349142930598035],[-1.03808872675844,45.354354128019],[-1.037588503941633,45.35514397017967],[-1.036998281346718,45.35582164861801],[-1.036997812714848,45.35754196680805],[-1.036848733629297,45.35799004298704],[-1.035841931947131,45.3589901952245],[-1.035552389759773,45.35947669505866],[-1.036085045687865,45.36232285124378],[-1.036427248975782,45.36363680120289],[-1.034872809076545,45.368126147235],[-1.033665317845033,45.369466208095986],[-1.03023051195547,45.37510968150964],[-1.028005546249406,45.37925518664336],[-1.027335922845463,45.379477635796704],[-1.02613789180288,45.38033579581818],[-1.02559404649441,45.38084673761188],[-1.024562331398543,45.380698098069686],[-1.024379343744179,45.38083901792054],[-1.023359306020024,45.38086937025145],[-1.022892926846237,45.38276961676051],[-1.021418958601055,45.38204357193478],[-1.018234834464532,45.380667527663356],[-1.016541849546885,45.38799441855671],[-1.010071040861466,45.387212043951806],[-1.009865609962999,45.38725546603283],[-1.008951356363616,45.391309404048044],[-0.997277452594324,45.38999296599583],[-0.995576500646046,45.389542465693275],[-0.993558092453354,45.38887605927123],[-0.987494431612601,45.38664792639236],[-0.986484105289419,45.38788573767657],[-0.978088618229349,45.38394413386237],[-0.976414477237748,45.38572384910793],[-0.976210701215557,45.385683301669],[-0.966395772215175,45.38105376588584],[-0.967305087271737,45.380421989484326],[-0.962279616383041,45.377312785866174],[-0.961386713331272,45.37822884101546],[-0.961088782251276,45.37812307878061],[-0.949568372207641,45.37127151326315]]]]}},{"type":"Feature","properties":{"fid":1064,"ID":"COMMUNE_0000000009753233","NOM":"Talais","NOM_M":"TALAIS","INSEE_COM":"33521","STATUT":"Commune simple","POPULATION":756,"INSEE_CAN":"22","INSEE_ARR":"4","INSEE_DEP":"33","INSEE_REG":"75","SIREN_EPCI":"200070720"},"geometry":{"type":"MultiPolygon","coordinates":[[[[-1.035675327069258,45.50822591698563],[-1.033004687626188,45.50563955104653],[-1.024908446892681,45.49929512120012],[-1.016077612712864,45.493473280874646],[-1.009357529006354,45.490173877772285],[-1.007385772826578,45.49089891949176],[-1.005253451520099,45.492881114553136],[-1.003775535283604,45.49199528298065],[-1.017105730072079,45.48258262115058],[-1.024402927366369,45.47618808973325],[-1.026252245324375,45.47685924585442],[-1.033605676378274,45.47046925026871],[-1.033719773140229,45.47024063755486],[-1.03284928974063,45.469371211783304],[-1.033185898201787,45.46917156354851],[-1.034780758076966,45.467806806943145],[-1.035022586656563,45.4677313830592],[-1.035311262252257,45.467383780576995],[-1.035630748136374,45.4671603962731],[-1.035906734221478,45.46589808385854],[-1.03656117278777,45.465699606132354],[-1.037005664430491,45.4656448318717],[-1.037830321882942,45.465972185760386],[-1.039872821969524,45.463718437707165],[-1.041441244639013,45.463614124027444],[-1.041820692648709,45.46324700103108],[-1.042468475897358,45.46223634601664],[-1.04171191920522,45.46170009604485],[-1.040937364492944,45.460687521353854],[-1.040674138215313,45.46048602467903],[-1.040855352104031,45.46030006626114],[-1.042415975937641,45.45966765359231],[-1.043200767641627,45.45995853414129],[-1.043651494508758,45.45999006465833],[-1.045227464325522,45.457511391107204],[-1.045685546576268,45.456641904141755],[-1.046057252994844,45.45645086461964],[-1.046760299509325,45.45642909370292],[-1.047603745627235,45.45662856213709],[-1.04951672835067,45.45652611268446],[-1.049969367330913,45.45660172857457],[-1.051045702911932,45.457025382733974],[-1.062817402561738,45.457501918362986],[-1.078890535524828,45.45963675036186],[-1.082969203589242,45.46006083349182],[-1.08428665440961,45.4602914584532],[-1.096304637198652,45.46186640736871],[-1.11050728047692,45.46382798963794],[-1.109481499659324,45.46442463833539],[-1.108253863088069,45.46501244349977],[-1.105331878663209,45.46625469367835],[-1.10469151570582,45.46726457867124],[-1.103905939536458,45.46800927039021],[-1.102981735819241,45.46857779123403],[-1.101986966221572,45.469058717525584],[-1.100535278878226,45.46937420644309],[-1.100118754529722,45.470917783921344],[-1.100255248124018,45.47104804449568],[-1.101566059271431,45.47154832408396],[-1.102990708940328,45.4718199052947],[-1.104532439528017,45.47190684688466],[-1.105309869767547,45.472264305598486],[-1.10824858501042,45.47332164862768],[-1.107115403322258,45.4767129141987],[-1.105535684367865,45.47964893296228],[-1.104620984947696,45.479516506502115],[-1.103992370567124,45.47950885583538],[-1.103191909182196,45.47975996032176],[-1.101862580117759,45.47979236054412],[-1.100551135282685,45.47998008168416],[-1.099891680430682,45.480283713378086],[-1.099220971423228,45.48109449614302],[-1.098610137782821,45.481258385482896],[-1.097711280489232,45.481357956408544],[-1.098870254352433,45.48313158527206],[-1.099836891284612,45.485961792319536],[-1.099434619943679,45.48679792715816],[-1.098262418857731,45.48809229691057],[-1.088207463774559,45.490116520866074],[-1.087768590015227,45.49007571066053],[-1.086058097971154,45.48568377302653],[-1.085483165216286,45.48579668789089],[-1.085435426937581,45.486105896928144],[-1.085129975658938,45.48648400324956],[-1.084468400583111,45.48778847125201],[-1.08341015016269,45.48739600501365],[-1.082805958314691,45.487320619777705],[-1.080971969030249,45.487378348258495],[-1.080482269928594,45.48732583480929],[-1.08021366010378,45.48712461622015],[-1.079786254362759,45.48718705060584],[-1.079227028924128,45.486537451345306],[-1.078840347329562,45.486334212364795],[-1.078727988403055,45.485974024607806],[-1.078500758110267,45.48593449946468],[-1.07813079359444,45.48616795916314],[-1.077769122412794,45.486235209215714],[-1.077455120491253,45.48642786016443],[-1.076938608763143,45.486359174773725],[-1.076458998095785,45.486862605850504],[-1.075844433657353,45.48685518567409],[-1.075349505650384,45.48718514659916],[-1.074695264483536,45.48735318313596],[-1.07412138310092,45.4877428114457],[-1.073854500792255,45.48728544272522],[-1.073657459159838,45.487307927748844],[-1.073290838521655,45.48753493736435],[-1.072917567676654,45.48737447136108],[-1.072849632237058,45.48721734366598],[-1.073022511954383,45.48705778279146],[-1.073569405212613,45.48691168823334],[-1.073552954702548,45.486792364265405],[-1.073177558561888,45.48656795829166],[-1.072600146745022,45.48650777637486],[-1.071999394969623,45.48686320435908],[-1.071796497930107,45.48684081552862],[-1.071741269525344,45.48622788575845],[-1.071337934331573,45.48574480924284],[-1.071781447226672,45.48543025803133],[-1.072302891070397,45.485286896465915],[-1.072521525780502,45.485122068247186],[-1.072208029376958,45.484954921782176],[-1.071379529082606,45.48480917596318],[-1.070531716598766,45.483980664647326],[-1.069740217964339,45.48362257549594],[-1.068802937609109,45.48353125199607],[-1.068386275449937,45.48361759857991],[-1.067909209528932,45.483072266656656],[-1.06776494980887,45.48308020404158],[-1.067302600188488,45.48343509534622],[-1.066722894834349,45.48353546338642],[-1.066589150737127,45.48370441513233],[-1.066641736494572,45.48380980600588],[-1.067075392612175,45.4839203134966],[-1.066939396547287,45.48437337047196],[-1.066680642954233,45.48476054886018],[-1.065865920517647,45.48550239871613],[-1.065447378208291,45.48570331269584],[-1.064889133554897,45.48565952852112],[-1.063703081509022,45.48586480657469],[-1.063080447282452,45.48611458209468],[-1.062864140057743,45.48627660150293],[-1.06245426437931,45.48668366956995],[-1.061847600591095,45.4875721348963],[-1.061561064431786,45.488543678711395],[-1.061225355977232,45.48908871442482],[-1.058942291238788,45.49082409254551],[-1.051688045330779,45.497008417552905],[-1.049298638699323,45.49863020469875],[-1.04778599310411,45.5004087508762],[-1.035675327069258,45.50822591698563]]]]}},{"type":"Feature","properties":{"fid":1073,"ID":"COMMUNE_0000000009753702","NOM":"Valeyrac","NOM_M":"VALEYRAC","INSEE_COM":"33538","STATUT":"Commune simple","POPULATION":544,"INSEE_CAN":"22","INSEE_ARR":"4","INSEE_DEP":"33","INSEE_REG":"75","SIREN_EPCI":"200070720"},"geometry":{"type":"MultiPolygon","coordinates":[[[[-0.861842677823007,45.39165705746386],[-0.863283885989532,45.39101954654308],[-0.865862900400094,45.38797711904453],[-0.86622199617934,45.386977542531504],[-0.869448588529492,45.384127224068344],[-0.878530859188695,45.378151311688484],[-0.883341455561503,45.37730117826431],[-0.886436112536177,45.376847594677926],[-0.886632674702656,45.37722572917045],[-0.887175909683791,45.377823523130004],[-0.887622738101187,45.37781071195444],[-0.887604621866588,45.377496702567434],[-0.887763476689505,45.376951161756956],[-0.888252838605793,45.37657715497097],[-0.888814156071976,45.37633587779256],[-0.889642645203054,45.3763116024823],[-0.890285951249053,45.376383009368034],[-0.8910000134638,45.37658808659368],[-0.891595787639017,45.376930700180274],[-0.892301631811193,45.37699992184489],[-0.89340496092215,45.37728340707957],[-0.894680284414151,45.37724625849733],[-0.896197748811552,45.376977084440185],[-0.897217783235764,45.376947889802736],[-0.899480722470114,45.37742263929042],[-0.901065127594193,45.377196144428915],[-0.905520187129124,45.37804604182077],[-0.91089459047765,45.37925132371099],[-0.911470924745303,45.37927897128117],[-0.912024016997926,45.37890353055024],[-0.912262872808332,45.37862561817238],[-0.913356312309724,45.378130311488235],[-0.915661742619407,45.37884216853104],[-0.916397376229375,45.37940605607002],[-0.917800408826388,45.37936507933171],[-0.918029179062199,45.37890809613945],[-0.918276298426756,45.378766016314266],[-0.918916500262833,45.378792291715484],[-0.920813676492825,45.378466213808345],[-0.921961398706948,45.37843322388725],[-0.922033442944636,45.3785659343098],[-0.921302245155322,45.37917215453535],[-0.920760692176576,45.3798555732627],[-0.920947033884149,45.380085256421424],[-0.922552476362034,45.38099098525861],[-0.924775439008621,45.381727190278006],[-0.925785198480745,45.38191357233713],[-0.927752820149757,45.38242066084375],[-0.930966967291349,45.38302369946861],[-0.936530648848313,45.38547703251928],[-0.933015134413566,45.38926185568499],[-0.930459514258479,45.391825498979486],[-0.931007149842104,45.3920785492146],[-0.931748198447994,45.39273231571376],[-0.93002843370906,45.39390882923401],[-0.930056482042697,45.39403406457258],[-0.931349437379525,45.39514539434329],[-0.925545447259404,45.39928344206577],[-0.924716796528136,45.398675978642885],[-0.922901432287543,45.40058779425659],[-0.922267875800963,45.40055048115465],[-0.921133450558234,45.402610613495696],[-0.921133287430332,45.4034427643029],[-0.922013727115519,45.40376805517165],[-0.922038683454894,45.404085434154375],[-0.921880292185698,45.40428932513504],[-0.921321635700267,45.40455230862504],[-0.920733287440846,45.40526530826779],[-0.920199650687114,45.40550216601571],[-0.919606391750869,45.40516590901523],[-0.919973635705802,45.404874472886156],[-0.918143565989356,45.404476907391135],[-0.917041874703231,45.40558830286158],[-0.916848346438958,45.405548189499065],[-0.915755149130539,45.40436479610338],[-0.913470515579929,45.404853955792234],[-0.909609430581874,45.405857901435205],[-0.908973514652166,45.40613343476884],[-0.908233803915978,45.4062980880703],[-0.907707809834032,45.40675369624018],[-0.907360545300068,45.40683883730019],[-0.906349904345169,45.40690023396569],[-0.905719231282713,45.40739644665206],[-0.904617679262475,45.40780358894542],[-0.903211476240578,45.40872079861823],[-0.894934744831546,45.412235561748126],[-0.881739987892978,45.40370787788328],[-0.864075225582096,45.39296118785323],[-0.861842677823007,45.39165705746386]]]]}},{"type":"Feature","properties":{"fid":1077,"ID":"COMMUNE_0000000009753461","NOM":"Jau-Dignac-et-Loirac","NOM_M":"JAU-DIGNAC-ET-LOIRAC","INSEE_COM":"33208","STATUT":"Commune simple","POPULATION":982,"INSEE_CAN":"22","INSEE_ARR":"4","INSEE_DEP":"33","INSEE_REG":"75","SIREN_EPCI":"200070720"},"geometry":{"type":"MultiPolygon","coordinates":[[[[-0.894934744831546,45.412235561748126],[-0.903211476240578,45.40872079861823],[-0.904617679262475,45.40780358894542],[-0.905719231282713,45.40739644665206],[-0.906349904345169,45.40690023396569],[-0.907360545300068,45.40683883730019],[-0.907707809834032,45.40675369624018],[-0.908233803915978,45.4062980880703],[-0.908973514652166,45.40613343476884],[-0.909609430581874,45.405857901435205],[-0.913470515579929,45.404853955792234],[-0.915755149130539,45.40436479610338],[-0.916848346438958,45.405548189499065],[-0.917041874703231,45.40558830286158],[-0.918143565989356,45.404476907391135],[-0.919973635705802,45.404874472886156],[-0.919606391750869,45.40516590901523],[-0.920199650687114,45.40550216601571],[-0.920733287440846,45.40526530826779],[-0.921321635700267,45.40455230862504],[-0.921880292185698,45.40428932513504],[-0.922038683454894,45.404085434154375],[-0.922013727115519,45.40376805517165],[-0.921133287430332,45.4034427643029],[-0.921133450558234,45.402610613495696],[-0.922267875800963,45.40055048115465],[-0.922901432287543,45.40058779425659],[-0.924716796528136,45.398675978642885],[-0.925545447259404,45.39928344206577],[-0.931349437379525,45.39514539434329],[-0.930056482042697,45.39403406457258],[-0.93002843370906,45.39390882923401],[-0.931748198447994,45.39273231571376],[-0.931007149842104,45.3920785492146],[-0.930459514258479,45.391825498979486],[-0.933015134413566,45.38926185568499],[-0.936530648848313,45.38547703251928],[-0.948854699402009,45.37231727762886],[-0.949568372207641,45.37127151326315],[-0.961088782251276,45.37812307878061],[-0.961386713331272,45.37822884101546],[-0.962279616383041,45.377312785866174],[-0.967305087271737,45.380421989484326],[-0.966395772215175,45.38105376588584],[-0.976210701215557,45.385683301669],[-0.976414477237748,45.38572384910793],[-0.978088618229349,45.38394413386237],[-0.986484105289419,45.38788573767657],[-0.987494431612601,45.38664792639236],[-0.993558092453354,45.38887605927123],[-0.995576500646046,45.389542465693275],[-0.997277452594324,45.38999296599583],[-1.008951356363616,45.391309404048044],[-1.003770311870128,45.41422985584077],[-1.010554081685275,45.41409176939982],[-1.007679124698751,45.42639535614397],[-1.009115527079075,45.426853382425364],[-1.00888439062722,45.427216890771476],[-0.999987143356668,45.43693421348526],[-0.999476787059072,45.43729864928939],[-0.99871910348055,45.4382480399973],[-0.991641132082118,45.44586293012129],[-0.988137809033883,45.449392121734206],[-0.979916611802804,45.45816574105127],[-0.979568479127328,45.458527923006876],[-0.979342928143556,45.45863420446892],[-0.979212921162319,45.458875941593256],[-0.973312306541179,45.463052279668865],[-0.969533304072073,45.46159210898343],[-0.956059998570288,45.45423529473085],[-0.94710152484337,45.44999626598754],[-0.933925103914684,45.44354616378177],[-0.9262958533978,45.43668313860077],[-0.921394559389722,45.43190603174494],[-0.9109259971698,45.42403970971781],[-0.897546590092726,45.413923481801326],[-0.894934744831546,45.412235561748126]]]]}},{"type":"Feature","properties":{"fid":2909,"ID":"COMMUNE_0000000009755016","NOM":"Lacanau","NOM_M":"LACANAU","INSEE_COM":"33214","STATUT":"Commune simple","POPULATION":5389,"INSEE_CAN":"30","INSEE_ARR":"4","INSEE_DEP":"33","INSEE_REG":"75","SIREN_EPCI":"200070720"},"geometry":{"type":"MultiPolygon","coordinates":[[[[-0.998118091548148,45.03157850008708],[-0.988051783429996,45.02587877502211],[-0.984550524654921,45.02410831665338],[-0.982243249715499,45.0227683232742],[-0.978051643857741,45.015304928125666],[-0.977889282976536,45.01473736665606],[-0.977919784053171,45.014540645573526],[-0.979859959585225,45.012226449720394],[-0.980348082753422,45.01199532160349],[-0.980313562368791,45.01163504638503],[-0.985341014323092,45.00449164027502],[-0.985902569922714,45.00340140578079],[-0.990429071154767,44.9910865187426],[-0.990470451595054,44.99093628221618],[-0.990335662928602,44.99091677874061],[-0.992917945144258,44.983819230780554],[-0.994509879345954,44.97418967422303],[-0.994714833250572,44.97145430559166],[-0.994511301236707,44.970790889441915],[-0.988916580512552,44.958607704007534],[-0.988920829171801,44.95829292311273],[-0.988644124805691,44.958169431820835],[-0.981905926731435,44.95211676069109],[-0.980757017626585,44.95154580628301],[-0.980596054701644,44.95133521146601],[-0.996113334204098,44.95047256909466],[-1.005219522344666,44.948159517300724],[-1.005356759442014,44.94825013085816],[-1.005896248741023,44.94817839145516],[-1.010155480179909,44.94746939475339],[-1.010496655141343,44.94728759270804],[-1.011068104398353,44.94737875126233],[-1.023260848772162,44.94542329598977],[-1.024234413568499,44.94535107070847],[-1.024241462420018,44.94491898205092],[-1.027602433693623,44.94452311466708],[-1.028409445547129,44.94430633435654],[-1.028668480492626,44.9439895179016],[-1.029070391871903,44.943876674604915],[-1.033477736577362,44.941177111192935],[-1.034679972703078,44.94065022771966],[-1.043171201913716,44.93782438603172],[-1.043884898018502,44.93751261689814],[-1.046694196306963,44.93656826407267],[-1.047227765299418,44.93611788642681],[-1.052611469280798,44.93049428905433],[-1.052788304525885,44.930324656825775],[-1.053027896116132,44.930303291894326],[-1.057440974249689,44.92573179265784],[-1.057541686838192,44.925615419788365],[-1.057489330179614,44.92541809128543],[-1.063856474330344,44.91880772154604],[-1.064484172558784,44.91789221502567],[-1.064794204387025,44.91763564502271],[-1.072806933017403,44.90753946617427],[-1.073512417255601,44.907610949376384],[-1.085398214965823,44.91311003772364],[-1.085572994030855,44.91314057017214],[-1.086158367723202,44.9129206849728],[-1.089395103072818,44.91509598574144],[-1.091874365576123,44.91572138516466],[-1.111091493246672,44.92117646448077],[-1.113588897523224,44.920762110993394],[-1.113846887184362,44.92111318403729],[-1.117865128456511,44.92037911709006],[-1.12751619306463,44.920041522666004],[-1.151196152160582,44.92027492795599],[-1.165410276583461,44.92027545810248],[-1.165980999095696,44.92021978541591],[-1.168709557728809,44.92054654466869],[-1.214164934746069,44.92077997779853],[-1.214026269745061,44.92187261556462],[-1.213610132551388,44.92371422442356],[-1.213081302909938,44.92773756444132],[-1.211722210609175,44.934090672974854],[-1.211569991507371,44.93667603738144],[-1.210919996498553,44.93946240726746],[-1.210477390439013,44.943303045535096],[-1.21012275492915,44.94540919745493],[-1.209529544207761,44.947787668839894],[-1.209566971930429,44.948285760292954],[-1.209405672480035,44.94870752946484],[-1.209427230992714,44.949197205969405],[-1.209080824567367,44.95075484479679],[-1.208900895191385,44.9530581458674],[-1.208536424289466,44.95484909161739],[-1.208337532830374,44.95715401309388],[-1.207441002155203,44.962851193182644],[-1.207305209556028,44.96317371382007],[-1.207268718746359,44.96409116664341],[-1.206796202222208,44.96601783865525],[-1.206011511758064,44.972345535950566],[-1.205687787820938,44.973819355782176],[-1.205555256843076,44.97557266382805],[-1.205137513451473,44.97741881343676],[-1.204931037835486,44.98011623918597],[-1.20410794145252,44.98480438546391],[-1.203897487362382,44.988042050282814],[-1.203328442151374,44.99093802539804],[-1.202866290928087,44.99498767556819],[-1.202742904431716,44.997270810475726],[-1.202520526855876,44.99859111793704],[-1.202555052326002,44.99989720709138],[-1.202663858249887,44.999992276220695],[-1.203000094424463,45.00006973206072],[-1.202533912193658,45.00012341893277],[-1.202310135602698,45.00272863293279],[-1.202841210721334,45.00286184200045],[-1.202306913729096,45.00285498595444],[-1.202272944828723,45.00291036881837],[-1.201843969245901,45.0058298990981],[-1.201373314577147,45.00616326048734],[-1.201562406925873,45.00666735298588],[-1.201155925319245,45.01051383223144],[-1.200468340545933,45.01547635652744],[-1.200352265190113,45.0178926651052],[-1.199886322007245,45.020983098892174],[-1.199824651312439,45.02268504727985],[-1.199513282088136,45.02431256938848],[-1.199338155597446,45.027043984362],[-1.198855167907067,45.029621115744085],[-1.198853725640412,45.03077078226368],[-1.198481894376492,45.03442300105934],[-1.197892431495494,45.03873442864434],[-1.197818700836567,45.03998871185678],[-1.197118265383228,45.04439899810841],[-1.196970040502573,45.04627102296792],[-1.196509624972867,45.0493729634011],[-1.196202127385194,45.05300472325549],[-1.195545414343882,45.057001296409005],[-1.194787249950306,45.06432701853688],[-1.194248655722187,45.066661880223606],[-1.194280571469969,45.06762996499892],[-1.194196431542868,45.06825528237195],[-1.188708475630935,45.066470143695014],[-1.186847732506508,45.06654735642934],[-1.186263712694231,45.066156361127945],[-1.175927839750531,45.06323370452193],[-1.174603835582194,45.063256316611664],[-1.17097563935277,45.061537635614826],[-1.168107624238369,45.06112211200135],[-1.163659454548829,45.05986759854459],[-1.130209593717009,45.0509155492956],[-1.124022127764398,45.04943914266513],[-1.109650016369593,45.04567012380612],[-1.104434622719637,45.04132393335831],[-1.095076522002011,45.034623642847215],[-1.094535925818134,45.03409987668331],[-1.091272814802028,45.03162603215515],[-1.087874510060075,45.02846374949072],[-1.087125300634014,45.02828481246985],[-1.080823234481188,45.0234420392667],[-1.080593682332685,45.023344974674046],[-1.06610820318172,45.02232107298317],[-1.055034296783072,45.0231075643201],[-1.052245979651395,45.023364239489695],[-1.05138355190228,45.02379594753916],[-1.038438237703648,45.031402496831795],[-1.030070521456583,45.033160119548775],[-1.028813575073764,45.03348512282368],[-1.028677904499163,45.03363157961671],[-1.027882549581461,45.03363963943139],[-1.01947076730219,45.03309367386499],[-1.018127917283537,45.033090788848675],[-1.01762217134143,45.03300627539059],[-1.01199020481683,45.032658653103795],[-1.011879724884191,45.03253642036496],[-1.006802618409973,45.0321946750491],[-1.005798790406213,45.032202872804696],[-0.998118091548148,45.03157850008708]]]]}},{"type":"Feature","properties":{"fid":2976,"ID":"COMMUNE_0000000009753463","NOM":"Grayan-et-l'Hôpital","NOM_M":"GRAYAN-ET-L'HOPITAL","INSEE_COM":"33193","STATUT":"Commune simple","POPULATION":1545,"INSEE_CAN":"22","INSEE_ARR":"4","INSEE_DEP":"33","INSEE_REG":"75","SIREN_EPCI":"200070720"},"geometry":{"type":"MultiPolygon","coordinates":[[[[-1.051045702911932,45.457025382733974],[-1.05526900219792,45.45371780905753],[-1.054427080415885,45.453310964414925],[-1.055552838397599,45.45213145587846],[-1.053536798188385,45.45113592618923],[-1.054319527687581,45.45034662530978],[-1.054247074625361,45.45021399864596],[-1.053847789005051,45.449956142392345],[-1.053865578217064,45.44860302606943],[-1.05402706584768,45.448498905541406],[-1.054247677109538,45.447923788848584],[-1.055265495581984,45.447354994614116],[-1.056151842754116,45.44647717436521],[-1.056916983995357,45.445886851699214],[-1.058088813802046,45.445252945797364],[-1.060815157651703,45.43914739280238],[-1.056732988782985,45.43807260528765],[-1.054934407524262,45.437786057880395],[-1.054704551328641,45.437602323987925],[-1.054471553852483,45.43721763597131],[-1.054757798216872,45.43713875380411],[-1.055896022557477,45.436292391224555],[-1.056061187863119,45.43609887024714],[-1.056096864533839,45.43579823170592],[-1.056801566145046,45.4357150163292],[-1.057075005068652,45.435531098562464],[-1.057270476170215,45.435261641510834],[-1.058470649234957,45.43482596263264],[-1.058771693819266,45.43452923601746],[-1.059610121411966,45.434015579696],[-1.060241985866752,45.433409318395235],[-1.060282118120003,45.43308236845745],[-1.061003313628207,45.432384503516246],[-1.061406607509062,45.43173512430579],[-1.061610573896994,45.43105690288038],[-1.061309806447775,45.43046369906955],[-1.06066331810761,45.42973064570174],[-1.063802225269411,45.427809032373254],[-1.065023634856259,45.4264239678254],[-1.066392935240595,45.42550328148541],[-1.068448243925548,45.4235649464379],[-1.067578891276235,45.42318085122555],[-1.067747778486257,45.42282938608941],[-1.067145272125387,45.42150779820484],[-1.067037697314478,45.42061546096167],[-1.066415829814028,45.41880137040615],[-1.066290381493017,45.41804943825491],[-1.065024137142244,45.41678890237031],[-1.064158922654534,45.41624955174669],[-1.062231635626111,45.41468386799918],[-1.06292888483882,45.413837177770965],[-1.063330598561329,45.41365850604722],[-1.06709639189886,45.41365167477398],[-1.070119432543005,45.4133967039036],[-1.07082607849244,45.413291679279126],[-1.073020567319432,45.412753863477086],[-1.074673717682601,45.41118887489567],[-1.074978125190961,45.41034737565008],[-1.076538111104644,45.40871812087004],[-1.07818070185877,45.407552892078655],[-1.08334634780619,45.40472191465048],[-1.083663067739341,45.40427666807189],[-1.084444133437181,45.403740550299915],[-1.084649899244739,45.40342287450228],[-1.087119585492394,45.40109935498008],[-1.088664444374249,45.398646344287066],[-1.089884228875825,45.397708253402264],[-1.095060273271308,45.398790436261734],[-1.095944097688083,45.39855704072554],[-1.09918829741273,45.39728690046795],[-1.100251620701284,45.39801258578391],[-1.100678424635644,45.398489268586054],[-1.101133161643594,45.398841398348615],[-1.101810381259043,45.399138490575076],[-1.101786836969412,45.399322391982956],[-1.101267691593739,45.39960649726438],[-1.100969811292772,45.399836512087376],[-1.100926883309299,45.39998325294636],[-1.101205663002153,45.40029223463754],[-1.101440339403906,45.40041979204039],[-1.102194283113731,45.401409260716036],[-1.102160552373211,45.40171526094357],[-1.101854036875919,45.402348640915015],[-1.10187693656851,45.402433460856365],[-1.102193498749389,45.402508425935515],[-1.102204924028151,45.403252787473214],[-1.102427222860414,45.403489898986045],[-1.102727772601402,45.40412809221227],[-1.102626901941,45.404460897449134],[-1.102314647654124,45.40473923040254],[-1.102321985218702,45.404873310623515],[-1.102473395647721,45.40505170531341],[-1.102847475852217,45.40521202432675],[-1.104307165737057,45.405582326074615],[-1.105069564687478,45.40585283746908],[-1.106127297813933,45.40696730309121],[-1.107466781559931,45.407598048825164],[-1.108101574039827,45.40972616337196],[-1.108183326556115,45.41128216156833],[-1.112564199730185,45.41123230000107],[-1.121348017224375,45.41127461794646],[-1.129691428075225,45.41007553356416],[-1.129968643476182,45.40994719077799],[-1.130414976816262,45.40999294839555],[-1.153907147527195,45.40661830414127],[-1.156854690804725,45.40632048433712],[-1.157211175383272,45.40622609887225],[-1.157538019147317,45.40602641148045],[-1.160320492633691,45.40566158831324],[-1.160182353376634,45.40839888910081],[-1.160303425430149,45.409742442857855],[-1.16014591861066,45.41152014668595],[-1.159146837491733,45.41691789545829],[-1.15878221631904,45.418067583705806],[-1.157686573072222,45.42075837008025],[-1.156785346791481,45.42373859068828],[-1.156174854181515,45.42497493740842],[-1.155769792847398,45.42613332691721],[-1.154642518054392,45.42871343734089],[-1.153954556923692,45.431912048032025],[-1.153452131858187,45.43303706639846],[-1.153637658917087,45.433120359591555],[-1.153618840040323,45.43321122778132],[-1.153491123454807,45.433215962156375],[-1.153466788785067,45.43316456528423],[-1.153356012028416,45.43319031250507],[-1.153311456644245,45.433690607240685],[-1.153019065773448,45.434627496422685],[-1.151778488534586,45.43698093288611],[-1.15104792638662,45.43913331686583],[-1.150552906802712,45.44025624113854],[-1.150534672843346,45.4408006445159],[-1.150432278197328,45.440990188095725],[-1.15049759411369,45.44205268258705],[-1.150335449908843,45.44372233350644],[-1.150471582104087,45.446469296930246],[-1.150675937281096,45.44805504306925],[-1.150585550768918,45.45126756241781],[-1.150652039916865,45.45174570974881],[-1.151717849505033,45.457621437270646],[-1.152307967508147,45.4599954186468],[-1.153817423077643,45.464020635268454],[-1.154406012041014,45.46626933249474],[-1.154640149342866,45.46643558813757],[-1.154512493313736,45.46649351955543],[-1.154517548221734,45.46673228556559],[-1.154653373563582,45.46733139859561],[-1.154832833329707,45.467503287044686],[-1.15303831551391,45.46753190226445],[-1.135321331913094,45.46599564068734],[-1.117222262038614,45.46430203517611],[-1.114178771647979,45.464074729264325],[-1.113304638947695,45.46407163823888],[-1.11050728047692,45.46382798963794],[-1.096304637198652,45.46186640736871],[-1.08428665440961,45.4602914584532],[-1.082969203589242,45.46006083349182],[-1.078890535524828,45.45963675036186],[-1.062817402561738,45.457501918362986],[-1.051045702911932,45.457025382733974]]]]}},{"type":"Feature","properties":{"fid":3342,"ID":"COMMUNE_0000000009753708","NOM":"Vendays-Montalivet","NOM_M":"VENDAYS-MONTALIVET","INSEE_COM":"33540","STATUT":"Commune simple","POPULATION":2820,"INSEE_CAN":"22","INSEE_ARR":"4","INSEE_DEP":"33","INSEE_REG":"75","SIREN_EPCI":"200070720"},"geometry":{"type":"MultiPolygon","coordinates":[[[[-1.031208077120965,45.322705641592876],[-1.031508242438855,45.32123871048466],[-1.032055748993759,45.32013432660843],[-1.034271533220011,45.31700965025745],[-1.036522531456544,45.31444445821698],[-1.040037311188059,45.307744713608656],[-1.046155391647602,45.30393410923],[-1.052880207147392,45.30041401125849],[-1.053030196673372,45.30035086927138],[-1.053747054931769,45.30058093815364],[-1.054627812116991,45.30065809300004],[-1.054958369169644,45.300530694861585],[-1.056944828316689,45.29933609489914],[-1.058245153401314,45.29845669294545],[-1.061114691191198,45.29600734066514],[-1.062220850594705,45.293904217247785],[-1.062390154740003,45.294071177089464],[-1.064611502005536,45.295312213480955],[-1.065843788046895,45.29514838123877],[-1.071207577027734,45.29369446443524],[-1.07789173343638,45.2936680986835],[-1.078030867929127,45.293160809538065],[-1.078803173478613,45.293554596625334],[-1.079791970548441,45.2936600669348],[-1.080000888696574,45.29372186744306],[-1.080217758096568,45.29390960698691],[-1.080248792265744,45.294490032243516],[-1.08064005700492,45.29505279898407],[-1.080204850329556,45.295703441320015],[-1.080100570758074,45.296023723658024],[-1.080139160995172,45.296672398079],[-1.080345036699088,45.296866850691],[-1.08065385280917,45.29684475776524],[-1.081074963808475,45.296629219461465],[-1.081830083481947,45.29650877838287],[-1.082812902001185,45.29672354122969],[-1.083570082933768,45.296997030986034],[-1.084681742838291,45.29703485715308],[-1.085301878984215,45.296746209413385],[-1.085852913796814,45.2963690178284],[-1.088363111154674,45.2957064926662],[-1.094791359325004,45.29443699635936],[-1.095177796396651,45.29428939471488],[-1.096705900025403,45.29321633632478],[-1.100414674982569,45.292336476361385],[-1.101475351812197,45.29194320968465],[-1.102518753225742,45.29128097222192],[-1.10299394291743,45.29072614361532],[-1.106855254904924,45.29025522250334],[-1.120552672797002,45.29025509519804],[-1.123578526899832,45.290596133088464],[-1.124294338239217,45.290567917691185],[-1.125482146828626,45.290289646322755],[-1.127359111886741,45.290020177464655],[-1.13526153262806,45.289011237751936],[-1.141829734525346,45.288117006085855],[-1.143915871670328,45.28775925244394],[-1.144840481287786,45.287705128061994],[-1.16332650060353,45.28514248220013],[-1.163001040819963,45.2876576940056],[-1.162979038878056,45.28862782906028],[-1.161929155948921,45.29493637395009],[-1.161463288856243,45.300600100025264],[-1.161069253278437,45.302713001071155],[-1.161154269485275,45.30301280441617],[-1.161160902557845,45.304622976620074],[-1.161053528466854,45.306263541816435],[-1.161082775508366,45.31128757843039],[-1.160945840685591,45.31272095433717],[-1.160986813775097,45.315183753858186],[-1.160732221047724,45.3184113680183],[-1.160184437804462,45.32070942467163],[-1.160163327022093,45.32223948104749],[-1.160258207682791,45.323303555865685],[-1.159768203058448,45.327658026689264],[-1.159779467227603,45.33100649873735],[-1.159622263663636,45.33449559064121],[-1.159269784598644,45.33708303652473],[-1.159337152432027,45.33859988754054],[-1.159017606842191,45.34460443657226],[-1.1590940400661,45.34560969113161],[-1.158979038155947,45.34856972679197],[-1.158749858913826,45.3510290572412],[-1.158776663736168,45.35402169490003],[-1.158450546101824,45.3566902157784],[-1.158789771429004,45.363655850679386],[-1.159289576226395,45.36767057686959],[-1.159150547516695,45.369933599808384],[-1.159210876429591,45.37125325017051],[-1.159137054961797,45.37260944544306],[-1.159339902290525,45.37672358170488],[-1.160173250667968,45.37674671471302],[-1.15936865968548,45.37685145637555],[-1.159487782753781,45.37733214510707],[-1.159554044882756,45.37920973029654],[-1.160158173412829,45.379281056990294],[-1.159536198034519,45.37933031977007],[-1.15961753443181,45.38190526289175],[-1.159787472464596,45.383577917845095],[-1.159885602613401,45.390361389398905],[-1.158902115428001,45.390198649565285],[-1.153513516356996,45.388986620959095],[-1.152732708101991,45.38857285068261],[-1.125879906197672,45.3824657801071],[-1.125539341018843,45.38248013456632],[-1.124144562530129,45.38296162826396],[-1.120831777894356,45.38365077610411],[-1.118919444096538,45.38371033123507],[-1.115944722184297,45.38416237489281],[-1.115380984593223,45.384359827882214],[-1.115018706040112,45.38468602614019],[-1.114681269327986,45.38541706408666],[-1.114308997074517,45.38560837568412],[-1.11303695999676,45.38569298568017],[-1.112288364770279,45.38598647912464],[-1.111650040077736,45.38600631711104],[-1.110424401418368,45.385818691006904],[-1.108261994817865,45.38597560603502],[-1.106122315483307,45.38649231361262],[-1.105290451981154,45.3864732279207],[-1.103141076975257,45.38581896451264],[-1.102569875117565,45.38588137410737],[-1.101633053651055,45.38622587323568],[-1.100106890697031,45.38654325847952],[-1.097794316589512,45.387388931432824],[-1.096545610051865,45.387651929291565],[-1.092884555797409,45.38796345244811],[-1.093281222060726,45.38879741626121],[-1.093256123511149,45.38941236665153],[-1.08992246408692,45.38946205842874],[-1.087457593440835,45.38928427722229],[-1.084163074303351,45.389570406606154],[-1.079366918187816,45.389151063547985],[-1.077335491410389,45.388391931150984],[-1.073250093188563,45.387070040762794],[-1.071870777977401,45.3864944680921],[-1.071451332872519,45.38641054072435],[-1.068997490943146,45.38608318754185],[-1.062574559819274,45.38561585874901],[-1.061509426319042,45.3851703209515],[-1.060704687754092,45.385013773344745],[-1.056216823079932,45.38463727826295],[-1.05564831608624,45.38443877542482],[-1.0539293210327,45.383500213798726],[-1.052681605367112,45.382953010919046],[-1.050836953334631,45.38299272278834],[-1.048749953271376,45.3833414137998],[-1.047287670024611,45.38371256428253],[-1.0448191559812,45.38409390607963],[-1.043403155617008,45.38457423301938],[-1.032200702926342,45.38513153286779],[-1.028126957184279,45.380101049236224],[-1.027335922845463,45.379477635796704],[-1.028005546249406,45.37925518664336],[-1.03023051195547,45.37510968150964],[-1.033665317845033,45.369466208095986],[-1.034872809076545,45.368126147235],[-1.036427248975782,45.36363680120289],[-1.036085045687865,45.36232285124378],[-1.035552389759773,45.35947669505866],[-1.035841931947131,45.3589901952245],[-1.036848733629297,45.35799004298704],[-1.036997812714848,45.35754196680805],[-1.036998281346718,45.35582164861801],[-1.037588503941633,45.35514397017967],[-1.03808872675844,45.354354128019],[-1.040880292193699,45.349142930598035],[-1.03669097293648,45.347534183568186],[-1.036712202664425,45.34648753409386],[-1.036927681542844,45.34572149378352],[-1.038244872838449,45.34387521758289],[-1.039581709314444,45.34129699647085],[-1.038393540383605,45.338049870009414],[-1.035844187716433,45.33251305277587],[-1.035728620210001,45.331818466495456],[-1.035793021879211,45.32581495846476],[-1.0309280703122,45.323657022074876],[-1.031208077120965,45.322705641592876]]]]}},{"type":"Feature","properties":{"fid":3583,"ID":"COMMUNE_0000000009754168","NOM":"Naujac-sur-Mer","NOM_M":"NAUJAC-SUR-MER","INSEE_COM":"33300","STATUT":"Commune simple","POPULATION":1102,"INSEE_CAN":"22","INSEE_ARR":"4","INSEE_DEP":"33","INSEE_REG":"75","SIREN_EPCI":"200070720"},"geometry":{"type":"MultiPolygon","coordinates":[[[[-1.046155391647602,45.30393410923],[-1.037698633429329,45.29827836799887],[-1.032294465112037,45.29416372753868],[-1.031699997469679,45.29403370019659],[-1.030182337776107,45.29397933560526],[-1.028459593655903,45.29349145468969],[-1.028043477753519,45.293460468822346],[-1.026129240245372,45.29277929691352],[-1.024230773423122,45.29173237528347],[-1.021391562715143,45.289543581791776],[-1.019043979278172,45.287898746336204],[-1.018735297723306,45.287762884640394],[-1.007991375289654,45.285708061920005],[-1.007441121029799,45.28647431566413],[-0.995884689612954,45.28529588193543],[-0.987699685112512,45.284213308466846],[-0.982042351694297,45.280360613825415],[-0.978063074294665,45.279502484912896],[-0.972019636013824,45.27858146878388],[-0.970086180371188,45.277684589611],[-0.970220259991279,45.27757704666283],[-0.966697731270262,45.27651026393364],[-0.965719255261038,45.27587783094667],[-0.965286837974609,45.27592022340178],[-0.967199615125588,45.27403656671947],[-0.968200362727203,45.27238271100013],[-0.970684004370007,45.26939321936452],[-0.970775536317161,45.269172687541115],[-0.970775167261176,45.26837931707816],[-0.970046340471642,45.26028386488777],[-0.96988588496871,45.25941143772779],[-0.966994046181495,45.25273527935234],[-0.966673909763583,45.25178828303124],[-0.962454289148984,45.24986896458872],[-0.962582567485259,45.24969852587288],[-0.962225262710305,45.249089122605426],[-0.962629391186577,45.24881333194088],[-0.962872268324785,45.24831606703265],[-0.962697774091736,45.24806982026635],[-0.962758772098066,45.247725061803294],[-0.962541921527802,45.2471882111209],[-0.963173848122524,45.24690343419657],[-0.963452967839905,45.24384714542636],[-0.963046220802156,45.24358299674535],[-0.963030462130555,45.24346905742796],[-0.963891415671138,45.241685863247305],[-0.963879125720077,45.23420964072462],[-0.965084639212179,45.232447560103836],[-0.964732188315377,45.23165407898697],[-0.965565911529303,45.22384129012403],[-0.963621035196828,45.221822344386595],[-0.962424558549581,45.221393303047314],[-0.959791692578015,45.21918594961756],[-0.960171072172021,45.21895972427618],[-0.960523289884129,45.21921318802176],[-0.961255234564765,45.218688656152324],[-0.961967406756684,45.21846053177255],[-0.962640953004672,45.218424904135595],[-0.962999294185623,45.21792083393467],[-0.964628082065975,45.21748794920813],[-0.965269587846793,45.216338214243926],[-0.965997333885956,45.215863383634925],[-0.967382415639876,45.21519749640388],[-0.9677226965064,45.215175484319055],[-0.971707321281064,45.21651594690505],[-0.974451211686147,45.21664277395761],[-0.977654316791344,45.217091258985704],[-0.997720384904886,45.220233181298326],[-1.004419257496632,45.22140856789346],[-1.00611757279115,45.22162622435819],[-1.007307947361086,45.221698903116355],[-1.008262715559781,45.221990098360784],[-1.009453574781773,45.22263704748572],[-1.024707896310267,45.225165282484625],[-1.025292511740078,45.22538132495076],[-1.030699808957565,45.22589759169326],[-1.038585112064164,45.22683880375107],[-1.0399435155799,45.22692129092639],[-1.041569034117995,45.22688680127297],[-1.041841482282706,45.226033936900244],[-1.042233867196636,45.22613152955007],[-1.043670892889629,45.226242680494984],[-1.044491598090564,45.22642302602815],[-1.045296838937656,45.22698801094679],[-1.046853490160401,45.227709684565504],[-1.049602058383299,45.22797697712677],[-1.051546504127523,45.22806421311331],[-1.054475960228399,45.228625060068815],[-1.055074719564626,45.22880527577914],[-1.057403339232695,45.23131281874115],[-1.057450092321243,45.23158701413185],[-1.057267291301286,45.23175775104204],[-1.064005693487119,45.238791464382636],[-1.06448735445679,45.23923646532382],[-1.064970828384143,45.23942623958776],[-1.06527711871253,45.23979377058378],[-1.065815805572165,45.239848091362035],[-1.074993633952489,45.241864994177554],[-1.078163775035409,45.24219557445336],[-1.079356640030549,45.24205012140439],[-1.080589395597357,45.242449586360515],[-1.08065562815427,45.24236060953802],[-1.080792482317908,45.24236462492926],[-1.084661590920245,45.242583823829186],[-1.104801538768323,45.24331501996288],[-1.114073045197107,45.243579746956804],[-1.127274619456084,45.24456953035618],[-1.136345062499314,45.24554134779238],[-1.139177583475715,45.24590526505664],[-1.151618748485528,45.2478770683559],[-1.164175949312749,45.249475307543676],[-1.165905941141377,45.24963350554052],[-1.166237235987852,45.24959139172808],[-1.166890255776331,45.24980597564585],[-1.167432606345506,45.24980377286834],[-1.167811399357362,45.24998710656138],[-1.168804042231071,45.24996358373667],[-1.168698277219651,45.251399408215654],[-1.168110995665434,45.2555113733843],[-1.167237371711325,45.26040496037816],[-1.167092051723603,45.262746651494915],[-1.166217107664189,45.2666691623924],[-1.165939372957525,45.26959737887908],[-1.166094587175082,45.269828734863886],[-1.165857736596072,45.269854698759694],[-1.165900861288494,45.270243521368926],[-1.165794974196037,45.27082545122569],[-1.165480398373092,45.27151975747207],[-1.165501874184121,45.27163617614845],[-1.165608247483369,45.27165835909774],[-1.165597067810896,45.271713778858135],[-1.16543319127755,45.27170816677415],[-1.165444734464718,45.27205037763629],[-1.165308563168263,45.272432359684586],[-1.165313076292831,45.27252686861371],[-1.165466565696053,45.2725301631577],[-1.16546122748608,45.272629547810055],[-1.165247081561309,45.27263482636787],[-1.165000127982745,45.275685424749526],[-1.1643701736758,45.278977523262725],[-1.164341162203095,45.279956034378806],[-1.164069787990194,45.281741571484865],[-1.163827841976372,45.28296425949104],[-1.163439249523965,45.284087814632244],[-1.16332650060353,45.28514248220013],[-1.144840481287786,45.287705128061994],[-1.143915871670328,45.28775925244394],[-1.141829734525346,45.288117006085855],[-1.13526153262806,45.289011237751936],[-1.127359111886741,45.290020177464655],[-1.125482146828626,45.290289646322755],[-1.124294338239217,45.290567917691185],[-1.123578526899832,45.290596133088464],[-1.120552672797002,45.29025509519804],[-1.106855254904924,45.29025522250334],[-1.10299394291743,45.29072614361532],[-1.102518753225742,45.29128097222192],[-1.101475351812197,45.29194320968465],[-1.100414674982569,45.292336476361385],[-1.096705900025403,45.29321633632478],[-1.095177796396651,45.29428939471488],[-1.094791359325004,45.29443699635936],[-1.088363111154674,45.2957064926662],[-1.085852913796814,45.2963690178284],[-1.085301878984215,45.296746209413385],[-1.084681742838291,45.29703485715308],[-1.083570082933768,45.296997030986034],[-1.082812902001185,45.29672354122969],[-1.081830083481947,45.29650877838287],[-1.081074963808475,45.296629219461465],[-1.08065385280917,45.29684475776524],[-1.080345036699088,45.296866850691],[-1.080139160995172,45.296672398079],[-1.080100570758074,45.296023723658024],[-1.080204850329556,45.295703441320015],[-1.08064005700492,45.29505279898407],[-1.080248792265744,45.294490032243516],[-1.080217758096568,45.29390960698691],[-1.080000888696574,45.29372186744306],[-1.079791970548441,45.2936600669348],[-1.078803173478613,45.293554596625334],[-1.078030867929127,45.293160809538065],[-1.07789173343638,45.2936680986835],[-1.071207577027734,45.29369446443524],[-1.065843788046895,45.29514838123877],[-1.064611502005536,45.295312213480955],[-1.062390154740003,45.294071177089464],[-1.062220850594705,45.293904217247785],[-1.061114691191198,45.29600734066514],[-1.058245153401314,45.29845669294545],[-1.056944828316689,45.29933609489914],[-1.054958369169644,45.300530694861585],[-1.054627812116991,45.30065809300004],[-1.053747054931769,45.30058093815364],[-1.053030196673372,45.30035086927138],[-1.052880207147392,45.30041401125849],[-1.046155391647602,45.30393410923]]]]}},{"type":"Feature","properties":{"fid":3655,"ID":"COMMUNE_0000000009754380","NOM":"Hourtin","NOM_M":"HOURTIN","INSEE_COM":"33203","STATUT":"Commune simple","POPULATION":4028,"INSEE_CAN":"30","INSEE_ARR":"4","INSEE_DEP":"33","INSEE_REG":"75","SIREN_EPCI":"200070720"},"geometry":{"type":"MultiPolygon","coordinates":[[[[-0.948179507726108,45.22734517619308],[-0.947792497858745,45.22726690290444],[-0.946189087511839,45.22600912600461],[-0.943455925369655,45.223748148058064],[-0.943086781934137,45.223056175958774],[-0.942525916890315,45.22300836793118],[-0.937398068456984,45.21876996703237],[-0.937338793730543,45.218616992173814],[-0.935700182573151,45.21732336250175],[-0.935593206431855,45.21712699165139],[-0.934965858956412,45.21673259516385],[-0.930835190581198,45.21343334479925],[-0.929759332945152,45.21246510971629],[-0.92536143627485,45.20894790349361],[-0.920884704629932,45.205153841047164],[-0.920089539884952,45.20478149356333],[-0.920427988790683,45.203319041356885],[-0.921775966344941,45.20188692804288],[-0.928565227672574,45.18999219966388],[-0.92981679099626,45.18830282644521],[-0.93670533014894,45.18053666149098],[-0.937910767151423,45.17901289234946],[-0.943989153000362,45.1631330312052],[-0.943319537815456,45.15253662887373],[-0.949607081477742,45.139550141403255],[-0.950321812949974,45.138939719801044],[-0.95091529565275,45.13816410201524],[-0.951180865859666,45.137182834269474],[-0.951130971875357,45.13640567663726],[-0.951517677702346,45.135444455609125],[-0.95218102061266,45.1354227412048],[-0.970995305897954,45.13617670793633],[-0.972153569042662,45.13623641253227],[-0.97317529379307,45.13650742642715],[-0.982985759947898,45.13461385074922],[-0.984790793690377,45.13409855943121],[-0.987265762686732,45.13195991640473],[-0.99482526245078,45.12688933281612],[-1.009704675765303,45.123648487693515],[-1.045521449250875,45.11628994090747],[-1.055564411626462,45.12076189390763],[-1.056533531858487,45.120867267498106],[-1.057178746768438,45.12131711409009],[-1.057629468331597,45.12187682115562],[-1.058175013417751,45.12218152900216],[-1.058398752034356,45.12245648137692],[-1.059376718498002,45.12277067934302],[-1.060502240411481,45.12287212580499],[-1.061124488811011,45.12333811575766],[-1.063136262045357,45.123997781257174],[-1.063347941343526,45.12435160362752],[-1.063376618685359,45.125025854418695],[-1.063795922860556,45.12564258500861],[-1.064063914439802,45.125860014984596],[-1.065344590507465,45.12600985296503],[-1.066004341076113,45.126395110018265],[-1.067004849380809,45.12642261586802],[-1.068001215111642,45.12676041457043],[-1.068674986292424,45.12663844535956],[-1.069378548518233,45.12603392909304],[-1.069704021893959,45.12595622697359],[-1.070620524490658,45.12605438802089],[-1.071573791896886,45.12634233820273],[-1.071891019893938,45.12632623987939],[-1.072578583178803,45.12599186593953],[-1.072887318096779,45.12592919170319],[-1.076357047908689,45.12640640530005],[-1.076685348199014,45.126507097031535],[-1.07720607111846,45.12688836048382],[-1.077988486192381,45.12785330345492],[-1.078743307551416,45.128265665157656],[-1.080449965012441,45.128910052691424],[-1.081525818461314,45.12871287577818],[-1.083635206427464,45.12862839134005],[-1.08565595164001,45.12875989673896],[-1.087241976466468,45.12916426918909],[-1.097825104141229,45.12883514778472],[-1.140286227924739,45.1285902780375],[-1.141324481760707,45.12879875161271],[-1.142386106977541,45.12882421478717],[-1.142800175990882,45.12894587329338],[-1.153108828026439,45.128248412338415],[-1.186652677076363,45.12850448086269],[-1.186193114094884,45.13110773947454],[-1.186025674794224,45.13303729551166],[-1.184841551145162,45.139775780044836],[-1.184697980925975,45.14148082422733],[-1.183963964619445,45.1459328896711],[-1.183788865737448,45.14765985537508],[-1.18338904276169,45.149499848253335],[-1.183189856290036,45.151619945689305],[-1.182650785438089,45.15379607498838],[-1.182546142018945,45.15544375401041],[-1.181324800338235,45.16256500807861],[-1.181178850116736,45.16425751638901],[-1.180722794314259,45.16603017844496],[-1.180650322731195,45.16742778858233],[-1.180322536753548,45.16905858533542],[-1.180047250373561,45.17229239821529],[-1.179835332655646,45.173581623713666],[-1.179468457420326,45.17489559081152],[-1.179338219742128,45.17702031464149],[-1.178969357186741,45.17914225756276],[-1.178777723836158,45.18153708021977],[-1.178433347238331,45.18318652657026],[-1.17807037254043,45.185898845601955],[-1.177521076045632,45.18838821283783],[-1.177429691128392,45.1902328632415],[-1.176841865759379,45.19248111776573],[-1.176511713006712,45.19541221331306],[-1.1759104050284,45.19843550969422],[-1.175789469431627,45.200056747799216],[-1.175021969487297,45.20433688875013],[-1.174707102568114,45.20558306897245],[-1.174666586615288,45.20654126778405],[-1.174094196083092,45.21078885642783],[-1.173543271019101,45.21344958230909],[-1.173488149933247,45.21515041146806],[-1.173037481671235,45.217515241041944],[-1.17256878723686,45.22122515053083],[-1.17220747204778,45.22277331905469],[-1.172028703817558,45.22566989308799],[-1.17170736377632,45.227514121278496],[-1.171286815131002,45.231306986079325],[-1.170809608235782,45.233695340011046],[-1.170705797675932,45.23592367177209],[-1.170340287685637,45.237792989801065],[-1.17022767107182,45.23980163992123],[-1.169828869476045,45.24180655052332],[-1.169653193872034,45.244047485018946],[-1.169338471249471,45.24557316472725],[-1.169253582528238,45.247287732279524],[-1.168804042231071,45.24996358373667],[-1.167811399357362,45.24998710656138],[-1.167432606345506,45.24980377286834],[-1.166890255776331,45.24980597564585],[-1.166237235987852,45.24959139172808],[-1.165905941141377,45.24963350554052],[-1.164175949312749,45.249475307543676],[-1.151618748485528,45.2478770683559],[-1.139177583475715,45.24590526505664],[-1.136345062499314,45.24554134779238],[-1.127274619456084,45.24456953035618],[-1.114073045197107,45.243579746956804],[-1.104801538768323,45.24331501996288],[-1.084661590920245,45.242583823829186],[-1.080792482317908,45.24236462492926],[-1.08065562815427,45.24236060953802],[-1.080589395597357,45.242449586360515],[-1.079356640030549,45.24205012140439],[-1.078163775035409,45.24219557445336],[-1.074993633952489,45.241864994177554],[-1.065815805572165,45.239848091362035],[-1.06527711871253,45.23979377058378],[-1.064970828384143,45.23942623958776],[-1.06448735445679,45.23923646532382],[-1.064005693487119,45.238791464382636],[-1.057267291301286,45.23175775104204],[-1.057450092321243,45.23158701413185],[-1.057403339232695,45.23131281874115],[-1.055074719564626,45.22880527577914],[-1.054475960228399,45.228625060068815],[-1.051546504127523,45.22806421311331],[-1.049602058383299,45.22797697712677],[-1.046853490160401,45.227709684565504],[-1.045296838937656,45.22698801094679],[-1.044491598090564,45.22642302602815],[-1.043670892889629,45.226242680494984],[-1.042233867196636,45.22613152955007],[-1.041841482282706,45.226033936900244],[-1.041569034117995,45.22688680127297],[-1.0399435155799,45.22692129092639],[-1.038585112064164,45.22683880375107],[-1.030699808957565,45.22589759169326],[-1.025292511740078,45.22538132495076],[-1.024707896310267,45.225165282484625],[-1.009453574781773,45.22263704748572],[-1.008262715559781,45.221990098360784],[-1.007307947361086,45.221698903116355],[-1.00611757279115,45.22162622435819],[-1.004419257496632,45.22140856789346],[-0.997720384904886,45.220233181298326],[-0.977654316791344,45.217091258985704],[-0.974451211686147,45.21664277395761],[-0.971707321281064,45.21651594690505],[-0.9677226965064,45.215175484319055],[-0.967382415639876,45.21519749640388],[-0.965997333885956,45.215863383634925],[-0.965269587846793,45.216338214243926],[-0.964628082065975,45.21748794920813],[-0.962999294185623,45.21792083393467],[-0.962640953004672,45.218424904135595],[-0.961967406756684,45.21846053177255],[-0.961255234564765,45.218688656152324],[-0.960523289884129,45.21921318802176],[-0.960171072172021,45.21895972427618],[-0.959791692578015,45.21918594961756],[-0.95752376166864,45.22032029241796],[-0.955103398473116,45.22202255671551],[-0.953859510674466,45.222722949377314],[-0.952703817131613,45.22324620484876],[-0.95218995492679,45.22362772320192],[-0.950521672134177,45.22444317160559],[-0.950503423132375,45.224563723819585],[-0.950136426759649,45.22467768325259],[-0.948179507726108,45.22734517619308]]]]}}]}