{"type":"FeatureCollection","name":"COM_19015","crs":{"type":"name","properties":{"name":"urn:ogc:def:crs:OGC:1.3:CRS84"}},"features":[{"type":"Feature","properties":{"fid":3947,"ID":"COMMUNE_0000000009754311","NOM":"Ayen","NOM_M":"AYEN","INSEE_COM":"19015","STATUT":"Commune simple","POPULATION":712,"INSEE_CAN":"19","INSEE_ARR":"1","INSEE_DEP":"19","INSEE_REG":"75","SIREN_EPCI":"200043172"},"geometry":{"type":"MultiPolygon","coordinates":[[[[1.350993549573628,45.27373314200056],[1.350706413233067,45.2733497419796],[1.350443673558261,45.27317654785679],[1.34971324450364,45.273118036533845],[1.349288901884904,45.272974877121925],[1.349074164253127,45.27281769904866],[1.348937455698968,45.27252387634427],[1.347520202741414,45.271668055863856],[1.345783296651471,45.27148476243798],[1.34561319759713,45.271328237932266],[1.345505796012271,45.270950185141274],[1.344697413124798,45.27021051083244],[1.342958056565389,45.26933905439189],[1.342524666332795,45.26877243808001],[1.340955643267175,45.268394318585365],[1.340608485964124,45.26805953569412],[1.339865638775074,45.26794943866407],[1.339457000393201,45.26753808612992],[1.339543653352467,45.26719803376768],[1.339452908039694,45.266133941079524],[1.339619868093074,45.2652384915267],[1.339948282339985,45.264488639740634],[1.340950172714957,45.26287787393669],[1.341863716302622,45.2616629679317],[1.341961566678274,45.2613744164283],[1.341613689705714,45.26055058395136],[1.341627623268462,45.26003923301432],[1.341309640317103,45.25812518085912],[1.341298265734824,45.25752159047226],[1.340217753843784,45.25543680685062],[1.339026393747846,45.254422113973675],[1.340052206574982,45.253715948520316],[1.339265398163378,45.25303329274373],[1.339489067524172,45.251559584672314],[1.339234040008017,45.25117482979366],[1.338824887060108,45.25087064160564],[1.338555784775488,45.25078738651828],[1.337817853604645,45.25073408547808],[1.337109121090925,45.25030024791918],[1.337064945807392,45.250199620878],[1.337304507200324,45.249819516972764],[1.337187007839984,45.2494413061677],[1.337343963932574,45.24815394103058],[1.337317223789702,45.24725471613318],[1.336928439595203,45.246568056665105],[1.335932507121682,45.24550670229708],[1.335886209985047,45.245263743942125],[1.337101489997756,45.244355987324774],[1.337278312626877,45.24432619558409],[1.337261333769643,45.244040443988744],[1.336766290653264,45.24362599390688],[1.336637423663778,45.24307379243629],[1.3367299475345,45.24257892370009],[1.336939071126119,45.242149734731946],[1.337148131678272,45.24116665877088],[1.337291668355812,45.240927426395665],[1.338599938229457,45.23963286952405],[1.338393862473362,45.239446978381366],[1.338476685242566,45.23936265032437],[1.339152127777838,45.238983620398585],[1.340357502563523,45.23857373128136],[1.340801815995759,45.23850737850977],[1.34140180948375,45.2382641102568],[1.341710358642619,45.238004806168846],[1.342630668522186,45.23774917257153],[1.343374412244323,45.237644020339815],[1.344811215594134,45.2377238522021],[1.344451309166257,45.23760954507519],[1.343644608177691,45.23717339631379],[1.342727591788764,45.23688961243413],[1.342616521650872,45.23668082134609],[1.342370195893219,45.23651955819241],[1.341867841057691,45.23660937254591],[1.340707102993329,45.236249004397614],[1.336251983659229,45.23616474817816],[1.3356840251431,45.235889704894646],[1.335429241655758,45.23584177909726],[1.334528923474135,45.23594004158452],[1.333685774045362,45.23625800176651],[1.332794336377813,45.23622939440902],[1.331931199556409,45.236320085231156],[1.332092080825254,45.2355011145036],[1.332048491479648,45.235125802898345],[1.331731170239767,45.23439876272109],[1.330879297384855,45.233432276664466],[1.330051662324081,45.23293447231429],[1.327026726237742,45.231582411226796],[1.32515657389922,45.230446621384566],[1.32497478808945,45.23000619104862],[1.324562090309833,45.22957310555654],[1.32374951549012,45.22968070121592],[1.322538734612711,45.229424763724126],[1.321919418476541,45.22937853805426],[1.321043768217387,45.22963377047579],[1.320323291944276,45.22973011645028],[1.318640943350212,45.230235283198034],[1.317912217510621,45.23026664433255],[1.317174460473667,45.22937201719654],[1.316958080065801,45.229277794325846],[1.316903988293052,45.22908514534434],[1.316301998812353,45.22829612979212],[1.316099644510791,45.22773739159944],[1.313923075587253,45.227558663644345],[1.312583607233073,45.22772577250832],[1.311683076473493,45.22821291873133],[1.311229974600763,45.228613156161984],[1.310965084908435,45.2291954629333],[1.310642182563222,45.22946257172718],[1.310820622853786,45.23009391034697],[1.310620873999486,45.230587138286495],[1.309784034948039,45.23107343218647],[1.308624533558727,45.23127113705497],[1.308702151310269,45.231611850337615],[1.309039938284069,45.232115913139964],[1.309200847489248,45.233073018464154],[1.306378159703231,45.23284203739505],[1.305299222706371,45.23265185608364],[1.304408055602826,45.23278423874004],[1.304226925181022,45.232872453925076],[1.303352020757323,45.23335001784588],[1.302185914998473,45.23413927351426],[1.301192842357159,45.234435799364014],[1.300745107639384,45.23486489862728],[1.30034662526771,45.23505787841089],[1.30014587599091,45.235538465707165],[1.299745724876617,45.23582778606712],[1.299517634715501,45.236326869759345],[1.299623192245472,45.23700395266102],[1.299000671199606,45.23772939694734],[1.299050230323773,45.23815254953798],[1.299569440206744,45.23859996178069],[1.299870298953139,45.23922687882969],[1.300303708115163,45.239478444780566],[1.300537971462364,45.23986477788906],[1.300977690227252,45.24016056824603],[1.301345740209346,45.24059126344905],[1.301380428100917,45.2408754909849],[1.30178326014981,45.24133643435039],[1.301813278326998,45.24164851050452],[1.302014855242938,45.24206226340601],[1.302077485407243,45.24230818795072],[1.301943303151904,45.242570035531855],[1.301993930787871,45.242791460600856],[1.302511631794681,45.243248742662225],[1.303011113781195,45.243467077073994],[1.303361278922677,45.243900195698636],[1.303570717270555,45.24447527886815],[1.303775408318906,45.245625796038546],[1.304081820654286,45.24628250665139],[1.303761865412084,45.24640644206949],[1.303533938615246,45.2466065263666],[1.304158652850798,45.24706812664499],[1.304335870637648,45.24736172102233],[1.304688826752316,45.24753639504407],[1.304707011896004,45.24786089994224],[1.304534306435162,45.24838335117388],[1.304783245514864,45.249086021112234],[1.305171973010957,45.24938462322606],[1.305131282421564,45.24954882267534],[1.304966091723317,45.24965619525138],[1.306687939325642,45.25043522655926],[1.306978942408641,45.2500055282062],[1.308157973376888,45.25035391461039],[1.309124579434792,45.2503496283598],[1.309241384841709,45.25095482126754],[1.310335951422925,45.252703295675225],[1.310771607817414,45.252590996571996],[1.310715353264253,45.25251179109018],[1.31125294670218,45.25235960147574],[1.311370534630092,45.25247665933932],[1.312691712905663,45.25221741423822],[1.312882124359465,45.25224550625007],[1.313080482736982,45.25247455949632],[1.312813195940079,45.25283798441153],[1.312487818939696,45.25301410025919],[1.311418500302319,45.253882375568594],[1.312258441564381,45.25524241208961],[1.311857493154616,45.25526067471928],[1.311829951530746,45.25537013635697],[1.311433392206567,45.25558029924947],[1.310875643566793,45.25639685532215],[1.310231722062445,45.2569004861295],[1.309972417356004,45.257293746853875],[1.310127449210955,45.25764823958698],[1.309937024611952,45.25774623206746],[1.310171187166516,45.258435156732006],[1.310841101107503,45.25926305976175],[1.311764949724597,45.25966519004651],[1.312382555951301,45.26070574442807],[1.31283708712768,45.2618681221749],[1.312068794082337,45.262181654600305],[1.312570589091355,45.26266746814495],[1.311545519657239,45.26366881073609],[1.31093714592898,45.264091026351124],[1.310748566973876,45.26437998375695],[1.31072769678252,45.26477414780599],[1.310060737916771,45.266581556125665],[1.310134979846617,45.26716178881866],[1.310975975132384,45.26874521036542],[1.310831017036447,45.269404089233596],[1.310867645105892,45.26983694920174],[1.311966252108874,45.27096042565829],[1.313277322216093,45.271724138789324],[1.313605612475031,45.272129874776695],[1.314144271426013,45.2723280323385],[1.315468770198961,45.273493606197],[1.316427165335792,45.27407003865935],[1.317923723091003,45.273129779670526],[1.318316020442216,45.27276822030178],[1.318956724211872,45.273093978288955],[1.31875111897585,45.273440334369745],[1.319130626524687,45.27358744000346],[1.319033611164076,45.273970553812816],[1.319241487129224,45.27409886726035],[1.319915301138741,45.275654487441734],[1.319238332781138,45.27610724193466],[1.319112505870969,45.2763458209233],[1.31906146125879,45.277107894039226],[1.317939766074088,45.277544048163115],[1.317726786477985,45.27788038505854],[1.320235336753076,45.27989229377281],[1.321235688739918,45.2798857000684],[1.32181792385919,45.27952968063043],[1.322358659830932,45.27961975204125],[1.323112393274712,45.27962655372965],[1.323781364961238,45.279524904010664],[1.324304504269165,45.279351716127465],[1.325237191319907,45.27943143462864],[1.32585051984482,45.279398288331656],[1.327471956273318,45.27837691176657],[1.327647741859726,45.278470505022746],[1.327740183225251,45.27874838276885],[1.327947437165162,45.278813625747915],[1.328504012790989,45.27867334137905],[1.32906790559318,45.27867186155704],[1.329721330703368,45.27853481956684],[1.330538770633144,45.27850109369726],[1.33062288742356,45.27901481110318],[1.333269746280942,45.27995943064616],[1.333906005653825,45.280055372729166],[1.335116395727389,45.280021162324125],[1.335938539681312,45.280343217390595],[1.336380685548513,45.280617284195394],[1.336445854786228,45.28052819019427],[1.336374901734771,45.27957156155353],[1.337000334515906,45.27938902898187],[1.337158059809541,45.27944721371604],[1.337264509971928,45.279684762677284],[1.337410437967576,45.279753579243184],[1.338066231174933,45.27966515802879],[1.33855589498508,45.279714763819875],[1.339174063398922,45.279647392355486],[1.340203832318348,45.27968069385203],[1.340635488118414,45.27949346358895],[1.340779593137874,45.27902366996572],[1.341461930018246,45.27885726782055],[1.342603061405359,45.278233836505414],[1.342803054927382,45.278286335254734],[1.343057251817029,45.278532372156846],[1.343334234856741,45.278569799279396],[1.343820665379519,45.27842749948474],[1.343521471685848,45.278150176337356],[1.343592877552297,45.27789365319353],[1.344431774088013,45.27808169938106],[1.344819117193736,45.2780541098766],[1.345197649672064,45.27767874472759],[1.345338439877967,45.27723321404257],[1.346333551486893,45.27628335792068],[1.346856042556207,45.27604250923106],[1.347355147598174,45.27603097347821],[1.347817354104734,45.2756289171239],[1.348606572690798,45.275684706105956],[1.349029714444894,45.27556756791902],[1.349277392902859,45.275301935930386],[1.34924366573012,45.274976310429054],[1.349772041430615,45.274880536897534],[1.350385730939957,45.27453114118987],[1.350734344144152,45.274173329677474],[1.350993549573628,45.27373314200056]]]]}}]}