{"type":"FeatureCollection","name":"COM_64315","crs":{"type":"name","properties":{"name":"urn:ogc:def:crs:OGC:1.3:CRS84"}},"features":[{"type":"Feature","properties":{"fid":4119,"ID":"COMMUNE_0000000009761354","NOM":"Laroin","NOM_M":"LAROIN","INSEE_COM":"64315","STATUT":"Commune simple","POPULATION":1035,"INSEE_CAN":"08","INSEE_ARR":"3","INSEE_DEP":"64","INSEE_REG":"75","SIREN_EPCI":"200067254"},"geometry":{"type":"MultiPolygon","coordinates":[[[[-0.428370330049911,43.27156755549182],[-0.429091384073124,43.27262783842526],[-0.428884649637106,43.272694728989336],[-0.43192532357985,43.273286948540445],[-0.431373787703898,43.27408241753846],[-0.432968881526559,43.27465029987727],[-0.434345558543161,43.27529533689553],[-0.433739569816557,43.27552800008707],[-0.434124455967337,43.27574176302049],[-0.432157643248549,43.27712787217064],[-0.433357960278139,43.2782044188656],[-0.432260516478898,43.27866969151456],[-0.432601676811498,43.279080237673526],[-0.432166565546113,43.27932726929258],[-0.432217858562757,43.279567847559136],[-0.432469545279611,43.27980025681312],[-0.432749693687038,43.280282973474435],[-0.432810415599483,43.28093023445438],[-0.433307415713127,43.28070824510596],[-0.434087600565725,43.28054388001555],[-0.434369577968036,43.2800018752682],[-0.434828253858197,43.28031593722466],[-0.434820424554699,43.28080510577981],[-0.433872843527641,43.28105583451283],[-0.434411438789979,43.28155284125809],[-0.434980162658287,43.28139699425658],[-0.435647066406366,43.282433760037385],[-0.435679747999407,43.283788732834395],[-0.436145592836453,43.28490482664019],[-0.436918442129934,43.28627047017771],[-0.43739946184393,43.2873302538744],[-0.437471413256933,43.288371540387345],[-0.438049113766103,43.28853053664532],[-0.438398525045458,43.28827180226407],[-0.438502969646845,43.28853499959842],[-0.438791904765735,43.28883284264999],[-0.4388136428683,43.28899062319985],[-0.439107640449644,43.28912532980581],[-0.439403266154623,43.2894112531843],[-0.439820451543133,43.28952402753104],[-0.439842625731709,43.29041202954007],[-0.440050364991628,43.29062961751153],[-0.440063709699814,43.290791267097894],[-0.439874737528227,43.291218678450164],[-0.439868315805313,43.291895994708554],[-0.439714160313348,43.29195672890212],[-0.439372101963227,43.29176052426111],[-0.43929887896766,43.29181417908137],[-0.439293689645712,43.29218171345619],[-0.439507436199062,43.29247924859603],[-0.439358018644924,43.29276403476269],[-0.43971173647195,43.292907644456776],[-0.440113829104884,43.29280840125314],[-0.440297373597896,43.29286828672777],[-0.440353882114396,43.293319396388924],[-0.440773833581627,43.29347800150632],[-0.440712576094726,43.29375277868691],[-0.440337327912537,43.29415731077697],[-0.440370567942225,43.29428050975061],[-0.440784028106041,43.294288952245545],[-0.441507704571936,43.29459995629269],[-0.441719413354675,43.29504882338961],[-0.442123297115213,43.295578007832894],[-0.442628650303855,43.295741989481634],[-0.442719828019197,43.2958444330537],[-0.44280921213071,43.29632961191137],[-0.443127304640929,43.296598604969674],[-0.442929027541832,43.29676699933006],[-0.442562259806686,43.29679759552162],[-0.442513860622371,43.2968747729578],[-0.44291802430903,43.29736702967466],[-0.443298047843244,43.2975169944031],[-0.44447767613046,43.29755592825326],[-0.445072704612944,43.298332928928154],[-0.445238311349988,43.298669808566466],[-0.445234412757206,43.298913947334945],[-0.44544062941567,43.29904333514315],[-0.445513733278451,43.299565049942785],[-0.445993231868365,43.299708232131444],[-0.446100654721237,43.299896596083855],[-0.446562383363488,43.29959823465629],[-0.44751450811749,43.29958406552065],[-0.449479469092839,43.29886043669973],[-0.451071025495498,43.299848702166074],[-0.450910234426976,43.30008704826897],[-0.450554957008167,43.3002892854764],[-0.449407139709171,43.30037095779179],[-0.449917366086393,43.3013361316778],[-0.450796066029304,43.30211305311401],[-0.451522369728787,43.30201241742994],[-0.452621211744035,43.302079958735725],[-0.452909219894119,43.302524571177514],[-0.453306514878,43.30263253155828],[-0.454351162282746,43.30214532246727],[-0.455763739647137,43.302325259748145],[-0.455733430496534,43.301264622573655],[-0.45650336454064,43.301994554616755],[-0.456755838319153,43.30211343820546],[-0.45849270815932,43.3010817896229],[-0.458858797422301,43.300936806911515],[-0.459879311520678,43.30080868665075],[-0.4605106570065,43.301303514344916],[-0.461065667761993,43.30241577957216],[-0.46116555728317,43.30292942832875],[-0.461087321309485,43.30331011642761],[-0.460605958340463,43.30383517983541],[-0.460155768820573,43.30455103514592],[-0.46016613622698,43.30494959538086],[-0.460734746906098,43.30561031293285],[-0.461361024876911,43.306122409994636],[-0.461630302405038,43.3062947713408],[-0.462375495265399,43.30652842062231],[-0.460063066348719,43.308941824810866],[-0.458880650796834,43.30994944937072],[-0.458457303863576,43.30998370925701],[-0.458488929537036,43.31009975386973],[-0.457392629245728,43.31067329610021],[-0.455890169073898,43.311876615575066],[-0.454876359618865,43.31240787392438],[-0.454164025326318,43.31309336618995],[-0.452837262175827,43.31354726480778],[-0.449808182073041,43.314980249108324],[-0.448527142954404,43.31382985914369],[-0.447059693261292,43.31354081439058],[-0.445463161139048,43.313361216396785],[-0.442850374025959,43.31361196664734],[-0.441709137815377,43.31085608480082],[-0.438415558840544,43.310482804295034],[-0.43711210404606,43.30981923669899],[-0.435878199430421,43.309308316400696],[-0.435204740229143,43.310007747328065],[-0.434714438624589,43.309208448125794],[-0.432855110928738,43.30691202497546],[-0.432166355417649,43.305739945401264],[-0.431775111683311,43.30467727019303],[-0.431289611750156,43.303977755709404],[-0.430757043226641,43.30275659139454],[-0.430278739040906,43.30221892093974],[-0.426465979476853,43.300920844973646],[-0.42455567088936,43.300578024113506],[-0.422849271598126,43.299869446295176],[-0.420981151515417,43.29936405427431],[-0.419275251644527,43.299223565855954],[-0.418316373561893,43.29928992366252],[-0.417514380731814,43.29923695868672],[-0.416969614397805,43.299176753545275],[-0.416172050888589,43.29896966884015],[-0.415255891090006,43.29855022959993],[-0.414014877530673,43.29749545744163],[-0.41330675514694,43.297070329735774],[-0.41310508334912,43.29599621515063],[-0.413824547342415,43.29457335504106],[-0.414870619501606,43.29329593696713],[-0.41615346074933,43.292000216899034],[-0.417048373366495,43.29073205917043],[-0.419932216174947,43.28947748047384],[-0.422753465837811,43.28629884314976],[-0.423613652795264,43.28330836144616],[-0.423586106232744,43.28249167093984],[-0.42436883097028,43.2797548554577],[-0.426154847976583,43.27888875697925],[-0.426427784508021,43.27854605067403],[-0.426313672759543,43.27507053471724],[-0.426722676559191,43.27343054288223],[-0.427239462870109,43.27256777262406],[-0.427909536363592,43.271817185837946],[-0.428370330049911,43.27156755549182]]]]}}]}