{"type":"FeatureCollection","name":"COM_24445","crs":{"type":"name","properties":{"name":"urn:ogc:def:crs:OGC:1.3:CRS84"}},"features":[{"type":"Feature","properties":{"fid":4191,"ID":"COMMUNE_0000000009755368","NOM":"Saint-Marcel-du-Périgord","NOM_M":"SAINT-MARCEL-DU-PERIGORD","INSEE_COM":"24445","STATUT":"Commune simple","POPULATION":138,"INSEE_CAN":"08","INSEE_ARR":"1","INSEE_DEP":"24","INSEE_REG":"75","SIREN_EPCI":"200034833"},"geometry":{"type":"MultiPolygon","coordinates":[[[[0.682528897993445,44.89622036099009],[0.682553940162907,44.89644246434479],[0.68206855992841,44.89705654466698],[0.68102331844893,44.89744906338231],[0.678435250029536,44.89803812071032],[0.678007686803058,44.897988649381794],[0.67691030124804,44.89829266876387],[0.67519445201002,44.898321618874775],[0.674575232256323,44.89849330694244],[0.67395770860695,44.89883796897117],[0.67394186574105,44.899036700405716],[0.672088240551388,44.89969773876546],[0.668839197435347,44.901304970533246],[0.665700456934807,44.90214519615666],[0.664588986847667,44.90247942657797],[0.664329426554797,44.902960369906005],[0.664294186242853,44.90328930080563],[0.664088405617583,44.903604737200766],[0.663751602221083,44.90374897854157],[0.663442465126033,44.90447658200549],[0.662743153251482,44.90486450186622],[0.661384975034901,44.90530790514769],[0.661770141908334,44.906041113131344],[0.661446366785874,44.90626759005203],[0.661311777617965,44.90682051611763],[0.662215747747474,44.90763580307701],[0.663052543465229,44.907508390855575],[0.663681152335006,44.907844981059256],[0.664675813203979,44.90751820933537],[0.665230311208187,44.90768659484988],[0.665542850904816,44.90769946869457],[0.666625359476028,44.9075762924903],[0.66727660327892,44.90770436490598],[0.668243336284636,44.907621977332695],[0.670898864175441,44.90777226634777],[0.673573182017231,44.90743918712698],[0.673781800139639,44.90748228795141],[0.674773994554196,44.90803900224455],[0.676460786015102,44.90813734964036],[0.676632579724903,44.90787612530063],[0.677426100205246,44.90787470462368],[0.679212990375035,44.90883170633124],[0.682864675774902,44.90963123027581],[0.682870163144253,44.90977456217279],[0.683345384720184,44.91020692003669],[0.683308187742404,44.9103709794801],[0.683494856796565,44.91051628818353],[0.684876199316715,44.911076520037064],[0.684807068236708,44.91143087096994],[0.685868488937629,44.91160431061577],[0.686834180869086,44.91151723499411],[0.686985311159531,44.911325822442215],[0.687327287496306,44.911240166269565],[0.687952125281348,44.91130361370146],[0.688247069507173,44.911098078559775],[0.688589578640733,44.911091694525766],[0.688725061930441,44.91112603920318],[0.68860466464213,44.91149463790683],[0.689619978934001,44.911649067398535],[0.689931039476587,44.9117600216326],[0.690329303633229,44.912215968740384],[0.691023793821074,44.91268167452117],[0.691351054184268,44.91273801640439],[0.691683855809835,44.91259811189721],[0.692500136890417,44.91263038235186],[0.693057581882412,44.91273023174168],[0.693576058825986,44.912945464211745],[0.692678396988743,44.91442925243265],[0.694566393195257,44.91762552877333],[0.694398331557167,44.91798233606755],[0.694382504615589,44.91852154914939],[0.694528102833069,44.91880379900707],[0.694438831988605,44.919032535301014],[0.694544932963106,44.920183177173044],[0.694129867627464,44.92136714082065],[0.694116248616074,44.92182173092347],[0.696114180075166,44.921825345131765],[0.697178255013029,44.92200142974],[0.697802859272606,44.92198104589359],[0.697917422784258,44.92240226227036],[0.698929606001957,44.92245295299404],[0.700752009429314,44.92469748331574],[0.701628688333725,44.92474534461567],[0.702505103133912,44.92495442528984],[0.703040458233056,44.92491595271736],[0.702675274008836,44.9253191388986],[0.702598868333314,44.92560579483283],[0.702715097405335,44.92598740785892],[0.703415807837605,44.92658647005758],[0.704698707179914,44.928884633896935],[0.704895165110633,44.928917515168266],[0.705049045673874,44.930145695023455],[0.705507575633788,44.93102527515048],[0.705580759130945,44.93140599639018],[0.705387755216516,44.93175329885057],[0.704029823433984,44.93252420633096],[0.703511438184018,44.932920628903084],[0.703479913928447,44.93399996256915],[0.703344074766865,44.934313314651924],[0.703400781494618,44.93453877038919],[0.704078371219345,44.93517878377415],[0.704255145455771,44.935631003280484],[0.704304603986641,44.93612653040036],[0.704685436889843,44.937015318665146],[0.704070796152777,44.93815106553853],[0.703091160685272,44.93903246484451],[0.70426214005543,44.939703389102576],[0.706164773122194,44.940067838873254],[0.707101510786427,44.94032766452752],[0.709486713870629,44.94123614848628],[0.709330021675622,44.941284261408086],[0.712067163448071,44.942552129571325],[0.713041690259852,44.942695585910556],[0.714864623101889,44.9436500282625],[0.715900536768336,44.94431084330092],[0.716113168717767,44.941270722986694],[0.716548202164747,44.940211388489786],[0.717038058857376,44.939393675384466],[0.718391343162186,44.937770417406114],[0.718712675436302,44.93763379672447],[0.719271087065081,44.93600231860339],[0.717878211409788,44.93339672676178],[0.717836528592357,44.93304998918093],[0.717987092923479,44.93265315542117],[0.719867050712126,44.934600395782134],[0.72022985420097,44.935033885393],[0.720220257856878,44.93520753003185],[0.720371028631131,44.93539797520277],[0.72156982924992,44.936697996031384],[0.721966722635566,44.93651157351352],[0.72249161175489,44.93645207375933],[0.72392078583753,44.93604629792965],[0.725209927645373,44.93590335392916],[0.726661408910967,44.934008191308465],[0.726115460367622,44.93368086573518],[0.725289883196174,44.93299472772144],[0.7255960372865,44.932543422558574],[0.726230475592942,44.93200155507893],[0.726021788352207,44.93155052286875],[0.726001057829521,44.930748448849506],[0.726487237853721,44.92998466947995],[0.727424489264235,44.92938503937842],[0.727411183933398,44.928148967045644],[0.727752815753961,44.92741555426404],[0.728161955415855,44.92689339065897],[0.728175918550067,44.92679909966201],[0.727926292796538,44.926607545134196],[0.727761312979818,44.926235773822675],[0.727471226869224,44.92591638817722],[0.727459372359983,44.92514512244962],[0.727586075814417,44.92495946152047],[0.727981517874448,44.92468111638178],[0.728745005088154,44.92433102948811],[0.728922394888538,44.92433375452287],[0.72669631086769,44.92273177617691],[0.727211321456593,44.92141103683419],[0.727345079455493,44.92073822757226],[0.72678807787162,44.92028007255777],[0.726736053682351,44.919874581787134],[0.726653590099924,44.918343460688845],[0.726715841765199,44.91730799846647],[0.727070886724151,44.91608577171112],[0.728218329041838,44.91601826729536],[0.730648249913443,44.91608594229155],[0.731712986604466,44.91621397108775],[0.732752726196209,44.91649009892012],[0.734586159745038,44.91654371173187],[0.733963153784003,44.91577349815586],[0.733846011844816,44.91519014228978],[0.733405829935493,44.91472719819343],[0.732903510508423,44.91448456221475],[0.732167475215033,44.91431641694349],[0.731655992934359,44.913987118660515],[0.731360270955031,44.913494689506095],[0.731399812500647,44.91308116415062],[0.731125178204753,44.912506298432625],[0.729023027721929,44.9125182902212],[0.726976418012337,44.91231700618269],[0.725495845209533,44.91247405381046],[0.723748606458656,44.91329846062286],[0.72228671437621,44.913712556083254],[0.721956904975726,44.9138742296477],[0.722072338313922,44.91352891607158],[0.722005044735478,44.91321948774245],[0.72184593390991,44.91320451561484],[0.721833368708504,44.9130457300645],[0.721177544569587,44.912433296134544],[0.721113844761583,44.91228517101847],[0.721526637479191,44.910766906997],[0.721479951010077,44.90963824059302],[0.720943673886418,44.90957860050837],[0.720124618235132,44.90908530973063],[0.719404123872339,44.90847514035979],[0.718304818562606,44.90851561688558],[0.718353115129159,44.907141199841064],[0.717506962404614,44.90691034442789],[0.716598297029599,44.90637825552083],[0.712363812037488,44.905940746844585],[0.711233914448333,44.9048059731595],[0.711058686550427,44.90431687016049],[0.710621963354564,44.90421059122482],[0.710118680455479,44.90396512703265],[0.707534443418528,44.9039649648632],[0.706136135794519,44.903694701405506],[0.705031164910162,44.90362774099608],[0.704184462813639,44.90310313291795],[0.703316699847658,44.90275282425593],[0.702278789691446,44.90216299771755],[0.701591772426421,44.901577720554165],[0.700536534555616,44.90011290956342],[0.698438168451156,44.899950550564164],[0.698171483886741,44.90018011473257],[0.697590781679656,44.90034101888046],[0.693961106505324,44.90052693029288],[0.691231411996692,44.898767836875614],[0.687241111411926,44.89672842319932],[0.682528897993445,44.89622036099009]]]]}}]}