{"type":"FeatureCollection","name":"COM_33131","crs":{"type":"name","properties":{"name":"urn:ogc:def:crs:OGC:1.3:CRS84"}},"features":[{"type":"Feature","properties":{"fid":4039,"ID":"COMMUNE_0000000009756328","NOM":"Coirac","NOM_M":"COIRAC","INSEE_COM":"33131","STATUT":"Commune simple","POPULATION":217,"INSEE_CAN":"12","INSEE_ARR":"3","INSEE_DEP":"33","INSEE_REG":"75","SIREN_EPCI":"200069599"},"geometry":{"type":"MultiPolygon","coordinates":[[[[-0.192618425344306,44.68413485877715],[-0.193776083898698,44.68664231618207],[-0.193390495037953,44.68705890621319],[-0.192752363734953,44.68821170836818],[-0.192792330771097,44.688871903488966],[-0.191595260827152,44.69074902960055],[-0.191261850672544,44.69110644103739],[-0.191311964021006,44.691968172832084],[-0.190454816285034,44.69204425198445],[-0.190029236835908,44.69215743785951],[-0.189385682521402,44.69252558730094],[-0.188868548418994,44.69300722169178],[-0.187535972255422,44.69305282967452],[-0.181330886328645,44.692441233911175],[-0.18050305990509,44.692477648639],[-0.178923140348647,44.692728486415525],[-0.178497184461608,44.692723605061275],[-0.178121791956825,44.693032624728126],[-0.177853885149569,44.69385844129628],[-0.177299661035669,44.69433387586498],[-0.176144500992978,44.695666305160174],[-0.174822425759142,44.696123220019906],[-0.173813965824181,44.696250362277766],[-0.17373971850849,44.69679310024022],[-0.173804425279814,44.697066954459714],[-0.172436832083647,44.69729989183287],[-0.170515823410874,44.6978225787826],[-0.170066423818933,44.69782824678205],[-0.16921423498997,44.697590463977974],[-0.168187996592733,44.697559485115185],[-0.167891289485485,44.69747247309056],[-0.167716452143003,44.697306286447564],[-0.165865088208087,44.69731602465199],[-0.163260515288402,44.696803057987786],[-0.163226450755612,44.697141009236454],[-0.162915419375203,44.697922966452325],[-0.161920629946413,44.6998011697308],[-0.160998851304458,44.701293447815594],[-0.160528511276114,44.700926656654154],[-0.15864436287085,44.70026415395398],[-0.156576012517896,44.69965012379659],[-0.156963674193638,44.698858792336104],[-0.157146806869639,44.69867787093779],[-0.157839435353465,44.69877433631025],[-0.158162645746567,44.69782536133676],[-0.157236952992285,44.69762742798645],[-0.157252786720212,44.696693533551574],[-0.155754270590452,44.69695792999578],[-0.155812155010408,44.69582731919236],[-0.15559848786599,44.69453956997861],[-0.155334576433232,44.69366231011094],[-0.155740518241725,44.69326510257964],[-0.156483480040776,44.69207530611042],[-0.155997026079159,44.69015743123213],[-0.1548784218261,44.690053283713446],[-0.153295364682907,44.68972990522867],[-0.153746354418948,44.68900976344888],[-0.153926612536903,44.68839464637772],[-0.154165618330311,44.68801661961576],[-0.154630089089824,44.68760513330194],[-0.155054143172404,44.68744167214882],[-0.154646214374104,44.68669826559393],[-0.15457268771481,44.68635527861034],[-0.154692514652747,44.684098457507],[-0.157625469474808,44.68421840459261],[-0.158994437087158,44.684419888139196],[-0.160308404739614,44.68490133643489],[-0.164116350183059,44.68575746274682],[-0.164196051506592,44.686209290056276],[-0.165953111114195,44.68637075650279],[-0.166643310814624,44.68633658593318],[-0.16621097753541,44.68590296203252],[-0.166185535473163,44.68547300901679],[-0.165976047659764,44.68504922445877],[-0.165940188169846,44.68474841361333],[-0.165727167211761,44.684598635780794],[-0.165713929644333,44.68445305161907],[-0.16557334970485,44.68437868699085],[-0.165287352702147,44.68391924867252],[-0.164643918397844,44.68345922384946],[-0.164377378954282,44.68282893711583],[-0.16440096676229,44.68270932972425],[-0.164691362218494,44.682618129830146],[-0.164866532529395,44.682319390676184],[-0.164762982073506,44.68155559820388],[-0.165376021030784,44.680936186336844],[-0.165264884560325,44.68073393747879],[-0.164966939625621,44.680510904582],[-0.165251038880663,44.68021805809943],[-0.164988032788618,44.67989761815192],[-0.165144457079592,44.67908584263913],[-0.164670972534067,44.67600894906898],[-0.164240835993335,44.67507340072059],[-0.163932491424787,44.67329373302643],[-0.16283241013786,44.670815910455886],[-0.164200125544412,44.670730837391986],[-0.165019634129845,44.6707542401438],[-0.166727095681117,44.6706035503499],[-0.167707869856167,44.669363615631596],[-0.170650955637242,44.67001269549176],[-0.169760489987597,44.672542109144054],[-0.170282651739299,44.672733472923014],[-0.172240423320822,44.673125137132956],[-0.178015829636495,44.67379276964098],[-0.178189448159445,44.67391572396875],[-0.17934554327128,44.67779738309196],[-0.18034732082016,44.67903360278173],[-0.180854804749948,44.68005877742995],[-0.182535479881621,44.679921234523285],[-0.183412308712837,44.67970498867418],[-0.183720638760616,44.67977540375903],[-0.185702415185488,44.67960301610439],[-0.187700966430147,44.67932559152734],[-0.18902884807246,44.67904674489804],[-0.189509397626679,44.67979424716588],[-0.189690795248362,44.68090086980699],[-0.190317214764406,44.681035076463225],[-0.190374276714211,44.68081628580362],[-0.192229777390723,44.681356524085174],[-0.192403923160287,44.6834256408898],[-0.192270156277783,44.6836502505902],[-0.192387827926093,44.68405501598422],[-0.192618425344306,44.68413485877715]]]]}}]}