{"type":"FeatureCollection","name":"COM_19219","crs":{"type":"name","properties":{"name":"urn:ogc:def:crs:OGC:1.3:CRS84"}},"features":[{"type":"Feature","properties":{"fid":4218,"ID":"COMMUNE_0000000009753612","NOM":"Sainte-Marie-Lapanouze","NOM_M":"SAINTE-MARIE-LAPANOUZE","INSEE_COM":"19219","STATUT":"Commune simple","POPULATION":60,"INSEE_CAN":"08","INSEE_ARR":"3","INSEE_DEP":"19","INSEE_REG":"75","SIREN_EPCI":"200066744"},"geometry":{"type":"MultiPolygon","coordinates":[[[[2.362211753714782,45.41500184273248],[2.361470962384119,45.41493459208307],[2.359240064017876,45.41514068197589],[2.357837002989959,45.41518218099164],[2.355172504965759,45.415069635080506],[2.355157744798856,45.415680980220195],[2.354970825052985,45.41625351464946],[2.355235787449276,45.416448643268126],[2.355128964847294,45.416839740407326],[2.355164949177742,45.417264976907646],[2.354797936795978,45.41748978802469],[2.354780135344351,45.41759144054462],[2.355112134982372,45.417849989278764],[2.355145417658136,45.41806719793892],[2.354869011669692,45.418637416771496],[2.354185630629031,45.419348468963975],[2.354002216128063,45.41972741776295],[2.354547407694985,45.42078772909271],[2.354255798381187,45.42145421135514],[2.354661822292804,45.42172669505144],[2.354677874253662,45.42221665237926],[2.354987634003417,45.42285147711777],[2.355009864783299,45.423139760880936],[2.354851828724164,45.423535066079495],[2.354141278768963,45.42448819367944],[2.353860546444464,45.42465676848903],[2.353028137882033,45.42486988679181],[2.352710139505341,45.42516341152417],[2.352595421751772,45.425460810677954],[2.352759054851227,45.4262343737786],[2.352683106326709,45.42638701830808],[2.352347249227621,45.42645621756534],[2.35053562837522,45.42586852688673],[2.35034379894613,45.425869216653126],[2.349959360449694,45.42615604538636],[2.349701021130223,45.426048289917155],[2.3489134204859,45.42603561525274],[2.34861655326087,45.425942041371144],[2.348443077429352,45.425795154444735],[2.345551835170154,45.42523982552796],[2.345744575688288,45.426139637666274],[2.345616172998842,45.42618391284489],[2.343444286792188,45.42546433381248],[2.342869355784837,45.42541954356894],[2.342550831091414,45.42564459962202],[2.342294333920774,45.4261392647588],[2.341847173025699,45.426319440360636],[2.341336927059258,45.4263191458901],[2.340698377130757,45.42559950466692],[2.339563617220251,45.42477698405003],[2.338849421135054,45.42386238107646],[2.338142851058667,45.42456509650497],[2.337826628363077,45.42459564715779],[2.336841924168396,45.423955883565625],[2.335351637334204,45.423143823603425],[2.334300713153709,45.42387418941856],[2.334678749213753,45.42455540200011],[2.333735092204578,45.42465515619525],[2.333416335697208,45.42479013614641],[2.334054299583569,45.42672457628497],[2.33315972406608,45.426993909439936],[2.333096724202873,45.427128608248076],[2.333734773278016,45.42852365782774],[2.333862054556298,45.42910793146579],[2.333670623840963,45.429287792658585],[2.333989800039519,45.43018747729783],[2.333877048950831,45.43041823358559],[2.331982821673598,45.4301116051937],[2.332579904805856,45.43097783004692],[2.333697776658492,45.43150406031042],[2.332456486111532,45.432096405088224],[2.331774725787774,45.431677218746856],[2.332265654153848,45.431266817767465],[2.33207341173421,45.43108737584566],[2.331115981489573,45.43072777660016],[2.331115936589661,45.43041260467626],[2.330029314144195,45.4297379542614],[2.329837481970321,45.42973770852298],[2.329773385478693,45.42996244808206],[2.329902245480426,45.4304125629136],[2.329709868187487,45.430457338241645],[2.329327274222432,45.43036770320562],[2.329134626111821,45.429692983965765],[2.329007277833336,45.42964809802291],[2.32862399707429,45.42982770312874],[2.328560189059575,45.43108710756107],[2.328240334611495,45.43162638704067],[2.327090970588599,45.432121069883316],[2.327055801892652,45.43227934528337],[2.325743043880243,45.432640661724854],[2.325037913245865,45.43299121369435],[2.324843106439099,45.4332349747468],[2.323001792383096,45.43320046179981],[2.322122586811042,45.433559850074836],[2.320750475006379,45.43353984168315],[2.320360849284295,45.4339201902489],[2.319566111607188,45.43427286660433],[2.319361926708484,45.4342356079191],[2.318930722079187,45.434563470750696],[2.3188879322982,45.43471539407072],[2.319485632737995,45.435623116561025],[2.319325610620886,45.43584366658574],[2.318405563179446,45.435773243498],[2.318144885894446,45.436483048025295],[2.317953019452365,45.43648368238267],[2.317506487216345,45.4360784458409],[2.317313907154368,45.43603314963445],[2.316616787720761,45.4367646065858],[2.316347451322698,45.43682419865975],[2.316229529897524,45.437468232640576],[2.316355828203616,45.438327172266035],[2.317528880476957,45.44123480426077],[2.319724469163145,45.44213152559814],[2.320006588026536,45.44489775060128],[2.322434553799227,45.44500699455941],[2.323014185512638,45.44363093885903],[2.325043887781493,45.44377104048074],[2.327087591265452,45.444446081957075],[2.327279474188928,45.44444633239992],[2.327663404680335,45.44422171012944],[2.328302637095914,45.444041839297846],[2.32977173882925,45.44399659737781],[2.33002808098149,45.44363703132493],[2.331624552845724,45.44363665001911],[2.333286391330591,45.44341241203295],[2.334053123212091,45.44219770080945],[2.332967193725368,45.441656356143994],[2.333222555623714,45.44116260401272],[2.335459548613345,45.44161261815226],[2.335650751420078,45.44188299775891],[2.335714249571808,45.4422426699639],[2.336201111512815,45.44249949086238],[2.336879101541865,45.44260525664701],[2.337759222958802,45.442602351932635],[2.33880547527841,45.442290650716686],[2.339354010497775,45.44220293322607],[2.340202230012647,45.44230067648857],[2.340634859252252,45.44206278937358],[2.340889631738867,45.441613140743314],[2.340826634713546,45.44120845009229],[2.339804297178407,45.44026322524166],[2.339867295673756,45.44012852239918],[2.340953504911579,45.439678361191135],[2.340890086908744,45.43855417618867],[2.342231867753787,45.4385539487663],[2.342231427693241,45.43783445434501],[2.343509546749713,45.43769966532282],[2.343765682223798,45.43756428975007],[2.343956262473394,45.43756450418229],[2.34421198427454,45.43778932124224],[2.343957354821846,45.438013855179285],[2.34408495088701,45.43814877448992],[2.345042800321796,45.43859921413243],[2.345361919348378,45.43832912914795],[2.345681911833766,45.43841924441728],[2.346960537234287,45.439003910513414],[2.347407846772209,45.439363108081004],[2.348760227351323,45.43976988559109],[2.348806702430939,45.43918753841955],[2.349552517969813,45.438195924348456],[2.349987461319595,45.437207006820124],[2.350522636821264,45.436833702583534],[2.351310509301789,45.436726601565084],[2.351075589101092,45.4373474807768],[2.350725580332368,45.43752735401675],[2.35038151284638,45.43796480061892],[2.349643518219759,45.43927343783649],[2.349771442865347,45.44003779495632],[2.34996255810093,45.43999297773858],[2.350602040282663,45.43945278617203],[2.350921066762424,45.43940780736471],[2.350730195330181,45.440308092952804],[2.350985431488595,45.44057791611303],[2.351113873661138,45.44053273426132],[2.351304373628229,45.43999264178329],[2.351560204165533,45.4399923201149],[2.352902880636385,45.44057728831192],[2.353157958694036,45.440531934157534],[2.353668966812362,45.44003780968057],[2.358589200461049,45.44219571143204],[2.362172051449451,45.44332284338158],[2.360339857495698,45.44513319983875],[2.361593907358412,45.44543390356973],[2.362369696427974,45.445385187203236],[2.363402916710546,45.44508669019223],[2.364744890137533,45.44485927036663],[2.365305008620076,45.444875948368235],[2.366480499741773,45.445112218088184],[2.367359738784437,45.445077558805494],[2.367475292405265,45.444478484818355],[2.3660660014402,45.44376814771313],[2.365874120314192,45.44354374187004],[2.366129975951168,45.44331826479899],[2.364301518592106,45.44179329488048],[2.366266810442375,45.440853499926426],[2.36612457423719,45.440426765129985],[2.366188994506402,45.4397130418471],[2.365983781084993,45.439312965680195],[2.365762405546671,45.43909649737248],[2.366160544164397,45.438506226746775],[2.366191788231161,45.437560890744315],[2.366829041320568,45.43652622744929],[2.366574006890266,45.4361213687974],[2.366126087666997,45.436031490830416],[2.365551303723421,45.435402401714214],[2.365487367975135,45.43517691805073],[2.365934261909093,45.43513171963549],[2.365806639932332,45.43432236004581],[2.365853748604132,45.43378053286018],[2.366179549935935,45.433586068317744],[2.366178201878563,45.43325558177362],[2.364143356806161,45.43135393978995],[2.363439428948677,45.42793619911152],[2.363566390760595,45.42667623802849],[2.363502482268,45.426226532367124],[2.36283353442572,45.42556807940139],[2.361941811114846,45.424377067835906],[2.362160063043775,45.42285288530125],[2.362351417393409,45.422223633176735],[2.362862152059518,45.42217791021633],[2.362990004759829,45.42240285772767],[2.362862376889541,45.422493081705554],[2.362798422230401,45.42271783987159],[2.363373549066688,45.42330282091778],[2.363629550890904,45.42339252176971],[2.363628520369562,45.4234825645613],[2.363948457011144,45.42357262751207],[2.364203713768671,45.42339217690997],[2.364650253943378,45.42325783407436],[2.364906507835507,45.42343758205586],[2.365545631089127,45.42357177068303],[2.36618322319128,45.42316745627007],[2.364969220016802,45.42231322997104],[2.36465009768288,45.42159283426581],[2.363627686593139,45.420873851230354],[2.362861556997226,45.420109490140156],[2.361757061692563,45.41807981643341],[2.362211753714782,45.41500184273248]]]]}}]}