{"type":"FeatureCollection","name":"COM_64409","crs":{"type":"name","properties":{"name":"urn:ogc:def:crs:OGC:1.3:CRS84"}},"features":[{"type":"Feature","properties":{"fid":4182,"ID":"COMMUNE_0000000009761833","NOM":"Moumour","NOM_M":"MOUMOUR","INSEE_COM":"64409","STATUT":"Commune simple","POPULATION":818,"INSEE_CAN":"14","INSEE_ARR":"2","INSEE_DEP":"64","INSEE_REG":"75","SIREN_EPCI":"200067262"},"geometry":{"type":"MultiPolygon","coordinates":[[[[-0.645454406525801,43.215464531121036],[-0.644324534067337,43.21443655336004],[-0.643902924416561,43.21394023147754],[-0.643246451120529,43.21344823832327],[-0.642946693029246,43.21328277069054],[-0.640570035797701,43.21245353359853],[-0.64126018960037,43.21133347959165],[-0.643064639734888,43.20933926848963],[-0.643101701120576,43.20852220023758],[-0.642944593246984,43.20825646772406],[-0.643523899526136,43.20682498265981],[-0.643956047526186,43.20606570591851],[-0.64273367500009,43.20501203654178],[-0.641708516386369,43.20462523852066],[-0.641472037330318,43.204603507086716],[-0.639891949624034,43.2040832482844],[-0.638934257627333,43.20355547882614],[-0.636355737255336,43.20267985421219],[-0.635435277231291,43.201745598116304],[-0.6386687562008,43.19944126509712],[-0.639508694359706,43.199059048357014],[-0.64021520846589,43.19845441447106],[-0.640483738822591,43.197969912983915],[-0.641071093782183,43.197661941700154],[-0.641333867691709,43.197359523375376],[-0.642023035398237,43.19704630832989],[-0.645075766296481,43.196214712978154],[-0.646355622610103,43.19603728217588],[-0.649145469018641,43.1960329684057],[-0.649665413577163,43.195964048808115],[-0.649860590928035,43.19581967434307],[-0.650346262998241,43.19590949071504],[-0.652693297091989,43.19581201711689],[-0.653674043397547,43.19590666114343],[-0.654588301029492,43.19590359874344],[-0.655928910590137,43.19567536985518],[-0.65742365165861,43.19517986397853],[-0.658019178475895,43.19620689927961],[-0.65854068066617,43.19658991415304],[-0.659074631915039,43.19687795624321],[-0.659860784125019,43.197008862091536],[-0.660788575851804,43.197315947411056],[-0.660922969933557,43.19741673955929],[-0.660949192577574,43.197577932440055],[-0.660519661066469,43.198412831707905],[-0.660382059483482,43.1990379197984],[-0.660032001892491,43.19969002785278],[-0.658542838051922,43.201110153764425],[-0.656463703290572,43.202506136999105],[-0.656219451531359,43.20275033786183],[-0.65622148722564,43.20295737520661],[-0.657588843709816,43.20446971978271],[-0.658881901929389,43.20486709365662],[-0.659544438521154,43.20535698291274],[-0.659914502252055,43.20552452051042],[-0.660175321481065,43.205929885225046],[-0.660102895941272,43.20649603501423],[-0.6607260742552,43.205355607590086],[-0.660874276378712,43.20532446433423],[-0.662753125189456,43.20358491267612],[-0.663138428617829,43.20337192452565],[-0.663414592871913,43.203340033669136],[-0.663647022340132,43.20358877228549],[-0.663774877342072,43.20358623046041],[-0.66396247387541,43.2034582951887],[-0.664344900939381,43.20339397733838],[-0.665535196542665,43.20281235274249],[-0.66600061478729,43.2028919846839],[-0.666270906619085,43.20305838890349],[-0.666579660031734,43.203016377445174],[-0.667340493583167,43.203696478961454],[-0.668019665852976,43.20390480562702],[-0.668311077500534,43.20407408890784],[-0.668513087324343,43.204076223320946],[-0.669125993555765,43.20455873915106],[-0.669400103430378,43.20453320620676],[-0.669636163605151,43.20464493812664],[-0.670187068492326,43.20455865921804],[-0.670316497033951,43.20467761976645],[-0.670359346689006,43.20504175306976],[-0.670524596383892,43.20502712524468],[-0.670597267637716,43.205163324938745],[-0.670906746108028,43.20530677383979],[-0.670976219097067,43.205431376058506],[-0.671224995751053,43.205452624812544],[-0.671993505470524,43.20586499607355],[-0.672097176535548,43.20604336241666],[-0.672439344768711,43.20623612097055],[-0.673023736914525,43.20609555979449],[-0.673253105082395,43.20583111426652],[-0.673485403796162,43.20588353514313],[-0.673911284985684,43.205824907378584],[-0.674930905740205,43.2061593691067],[-0.675558529701981,43.2062145251289],[-0.677420284721877,43.20604841581532],[-0.677741865332081,43.20595640910496],[-0.679877571579021,43.20491285656704],[-0.685143557840204,43.201961403570024],[-0.68546868842009,43.20213759388808],[-0.686301230871992,43.202318054300875],[-0.687320836865927,43.202093201716536],[-0.687658188780913,43.202325698064314],[-0.687945228372485,43.2023293911724],[-0.688531584499252,43.20258668849527],[-0.688514525461653,43.20301319866469],[-0.688743629765341,43.20368972857],[-0.689511698228325,43.204863800207754],[-0.689993602784289,43.20514267358244],[-0.691410209998014,43.20567771585298],[-0.692011593239001,43.20603443607901],[-0.692572461457337,43.206642874902094],[-0.693350035518311,43.207155644299235],[-0.693652745337567,43.20755770162376],[-0.694056135685568,43.207840147849836],[-0.69305505088864,43.20827874404285],[-0.691704464421388,43.209181336037375],[-0.688857724072932,43.210810447229704],[-0.687190134352577,43.211917424149306],[-0.680470889005723,43.21576231535107],[-0.678458204602083,43.21729334541637],[-0.677881021869957,43.21781909546888],[-0.676643454602872,43.21864739961199],[-0.672071661342079,43.220405958900656],[-0.669470555127908,43.22120943766573],[-0.661766325421871,43.22382953742944],[-0.661012100848015,43.224013615312195],[-0.659002804176537,43.22514433737692],[-0.66050930634584,43.22641424643966],[-0.662550124019497,43.227584059601],[-0.657268273207866,43.23156324176953],[-0.65465254313111,43.230746874777815],[-0.65383075644882,43.230235314939314],[-0.653556344475533,43.229966357576835],[-0.653411748193268,43.22964708020121],[-0.65337567529392,43.22888289356827],[-0.653604332878082,43.228234910921486],[-0.655175258434034,43.226206958762745],[-0.65542584974211,43.22571131091959],[-0.655405414257754,43.22538873149785],[-0.65506090590184,43.2246349957638],[-0.654869615010411,43.22260639820906],[-0.654204075166946,43.2209243412442],[-0.65327962326178,43.220130813094194],[-0.650759903306688,43.21870150871732],[-0.64852855300855,43.217761259551914],[-0.64700127813593,43.216934040416206],[-0.646278672302009,43.21627320929291],[-0.645919408824108,43.21582881434286],[-0.645454406525801,43.215464531121036]]]]}}]}