{"type":"FeatureCollection","name":"COM_64426","crs":{"type":"name","properties":{"name":"urn:ogc:def:crs:OGC:1.3:CRS84"}},"features":[{"type":"Feature","properties":{"fid":4226,"ID":"COMMUNE_0000000009761602","NOM":"Orin","NOM_M":"ORIN","INSEE_COM":"64426","STATUT":"Commune simple","POPULATION":266,"INSEE_CAN":"14","INSEE_ARR":"2","INSEE_DEP":"64","INSEE_REG":"75","SIREN_EPCI":"200067262"},"geometry":{"type":"MultiPolygon","coordinates":[[[[-0.662908831319549,43.235329574968866],[-0.662067991648106,43.23436487183401],[-0.660937867709863,43.23270309587246],[-0.660529227017479,43.23247382667388],[-0.657268273207866,43.23156324176953],[-0.662550124019497,43.227584059601],[-0.66050930634584,43.22641424643966],[-0.659002804176537,43.22514433737692],[-0.661012100848015,43.224013615312195],[-0.661766325421871,43.22382953742944],[-0.669470555127908,43.22120943766573],[-0.672071661342079,43.220405958900656],[-0.676643454602872,43.21864739961199],[-0.677881021869957,43.21781909546888],[-0.678458204602083,43.21729334541637],[-0.680470889005723,43.21576231535107],[-0.687190134352577,43.211917424149306],[-0.688857724072932,43.210810447229704],[-0.691704464421388,43.209181336037375],[-0.69305505088864,43.20827874404285],[-0.694056135685568,43.207840147849836],[-0.694193462648532,43.20806236744794],[-0.694265612757975,43.20851644318272],[-0.693924646729539,43.20922869847037],[-0.693775766287936,43.20988394831351],[-0.694141422885765,43.21061522990886],[-0.69400676975897,43.210723397131034],[-0.693469040615653,43.21088138515569],[-0.693335504028555,43.211141695747806],[-0.693148946050951,43.2112660467146],[-0.692388513576815,43.211483881517864],[-0.692360089741852,43.21163613636878],[-0.692737892828141,43.21196088745319],[-0.692827660311914,43.2121901406101],[-0.692563418315233,43.212678245691095],[-0.692297915402943,43.2127233528147],[-0.691960957275735,43.21238279424093],[-0.691776669082415,43.21240801133909],[-0.691401870481758,43.21293861768838],[-0.691522094473952,43.21333612168074],[-0.691389944320707,43.21359908390756],[-0.691026395949193,43.213593513276095],[-0.690834198208704,43.213880140965124],[-0.690395177385864,43.21398430834141],[-0.690261198838103,43.21410325346135],[-0.690203776214299,43.21443749801198],[-0.689969125955179,43.214503155507835],[-0.689883591499255,43.2147636208721],[-0.689675696671882,43.21495893345347],[-0.689650237339466,43.21536952668641],[-0.689868930810752,43.216248128809184],[-0.689778488043097,43.21645113086083],[-0.689836273410196,43.21666167019372],[-0.689664997458155,43.21710246474188],[-0.689859492693044,43.21746771554341],[-0.689589930316454,43.21766153516344],[-0.689278340675524,43.21812243603603],[-0.688918982288298,43.21825989208046],[-0.68905810765559,43.218548695087094],[-0.688842914558567,43.21866861438872],[-0.688725288286419,43.218947285896405],[-0.688308915962985,43.21915602687702],[-0.688427014743232,43.21936630643503],[-0.688286568816737,43.219596230596416],[-0.68809432224349,43.21965142898868],[-0.687069093366181,43.219581112681475],[-0.686869841561329,43.21962304089065],[-0.686577477528319,43.219884268130734],[-0.686348386590342,43.22040357458265],[-0.686189032089785,43.22049186429437],[-0.685760989141549,43.22051819409751],[-0.685641523294496,43.22061412521621],[-0.685843293410399,43.22161398173765],[-0.685287965852829,43.22171039343725],[-0.685176658558605,43.22187628368725],[-0.685191497160411,43.22212791450663],[-0.685388745888811,43.222575025169235],[-0.685952667558004,43.222632303764364],[-0.686187535228892,43.22280077649963],[-0.685880023138893,43.22280587898517],[-0.685602833902065,43.22293871522243],[-0.685427342397528,43.22287086925465],[-0.685199379825281,43.22298401312757],[-0.684814325518604,43.22291251765663],[-0.684489052488402,43.22308301273272],[-0.684344016251681,43.22345356512095],[-0.684908557924002,43.22400249729327],[-0.685212846228788,43.224101064596404],[-0.685310001576951,43.22421481038772],[-0.68535161805361,43.224904967955126],[-0.685491578943479,43.22522616627343],[-0.685181690878478,43.225155706008124],[-0.68463494881253,43.225329262648145],[-0.683907026649188,43.225346013037615],[-0.684672074176675,43.226142041416914],[-0.683595172931675,43.22663355963614],[-0.683909176693553,43.227752059975856],[-0.682766003901708,43.22788113147129],[-0.682886180804292,43.228066133696025],[-0.682358303148756,43.22828495940485],[-0.682471786643935,43.22844227521224],[-0.681473623907111,43.2288563429533],[-0.68146524615144,43.22926545334346],[-0.680926289713861,43.22961972387773],[-0.680877786121627,43.22988252189321],[-0.680327903451895,43.230876513521906],[-0.680000567849866,43.23118934278274],[-0.680309175331847,43.23162546408547],[-0.680494458693712,43.23230982550154],[-0.680355683096166,43.23264414020012],[-0.67976850034931,43.23297663640017],[-0.679905144361619,43.23318809612063],[-0.680142589406591,43.233242133279205],[-0.679751201496847,43.23326538519273],[-0.679649196883708,43.233403937857595],[-0.679901854521129,43.23350338221102],[-0.680168268995203,43.23381847622097],[-0.679828882224195,43.23429020361366],[-0.680166710747637,43.23454703193237],[-0.680562400909716,43.2353439860603],[-0.68019012490274,43.235724985757855],[-0.681138873525644,43.236136574322806],[-0.680783253511193,43.23648909264309],[-0.681345238157796,43.23678419848511],[-0.680875271125255,43.23748731022629],[-0.680583507120794,43.237296449360024],[-0.678287655891937,43.23942065757957],[-0.678113325977152,43.23937166833683],[-0.678000651721597,43.23955560824714],[-0.677887117091863,43.23951355178779],[-0.677937570546763,43.239763972532124],[-0.677541016523794,43.240189914734366],[-0.678164796560638,43.24054596810124],[-0.678882771440989,43.240756528266566],[-0.679436534653765,43.24109605096555],[-0.678529876353266,43.24165465028136],[-0.678369614164177,43.241884337304526],[-0.6781276676179,43.241972727450495],[-0.677587587318169,43.242446785233184],[-0.677059093123595,43.242368437744865],[-0.675548548339317,43.241956130993294],[-0.673905846518927,43.24140242171821],[-0.672682316732303,43.24085423670647],[-0.672123365446526,43.24052926535808],[-0.670433827319763,43.23914143938986],[-0.669455411192019,43.23851464659272],[-0.668562923504162,43.238231615391584],[-0.666097039851164,43.237842648328474],[-0.665241334839966,43.237556540268386],[-0.664483234464147,43.237061799659024],[-0.664063104491715,43.236671743756794],[-0.662908831319549,43.235329574968866]]]]}}]}