{"type":"FeatureCollection","name":"COM_24007","crs":{"type":"name","properties":{"name":"urn:ogc:def:crs:OGC:1.3:CRS84"}},"features":[{"type":"Feature","properties":{"fid":4043,"ID":"COMMUNE_0000000009754132","NOM":"Allemans","NOM_M":"ALLEMANS","INSEE_COM":"24007","STATUT":"Commune simple","POPULATION":543,"INSEE_CAN":"16","INSEE_ARR":"3","INSEE_DEP":"24","INSEE_REG":"75","SIREN_EPCI":"200040400"},"geometry":{"type":"MultiPolygon","coordinates":[[[[0.325797134832303,45.26379930600913],[0.325609208042764,45.26391373476697],[0.32522004327378,45.2638882053641],[0.323482894580614,45.263373622240664],[0.323100284817979,45.26307885850242],[0.322838055400221,45.262429300021445],[0.322625989461935,45.262249436112135],[0.322142180777265,45.262043240507545],[0.321190775672842,45.261957375151596],[0.320723892506562,45.26198312302259],[0.317551941529363,45.262496262523705],[0.316578529599155,45.26254947726252],[0.315182928915879,45.262388927708834],[0.314242630857743,45.26194018607552],[0.313159328131861,45.26170602907541],[0.312431007069212,45.26180924580363],[0.312155498112866,45.26194046637309],[0.311186112235324,45.26188381453136],[0.310078900215235,45.26153733386267],[0.309332661519589,45.26103375706906],[0.308616289066745,45.2610480420552],[0.308148982941486,45.26134671644475],[0.307861868676736,45.26206146585506],[0.307584865450848,45.26238184003034],[0.306289433343668,45.262656951352554],[0.304943918744647,45.263070488591055],[0.304137100076769,45.26310779139027],[0.303331266388424,45.26299285044751],[0.302678886423117,45.26300233527926],[0.301948231581253,45.263179306814116],[0.301445550702887,45.26391766900432],[0.301710923065825,45.26404930885525],[0.301949460974947,45.26431364202415],[0.302036422582151,45.26462567057608],[0.301942244803324,45.26491080278288],[0.301613816615678,45.26510649093634],[0.301182840310216,45.26523303127195],[0.300893944005321,45.26550805530552],[0.300544698836642,45.26608073942802],[0.29949170580234,45.26680039694575],[0.299229953011671,45.26719950435323],[0.299174338111897,45.26771531119906],[0.299297352765393,45.268336341559824],[0.299707259253104,45.26888231531855],[0.29976417578103,45.26912965213842],[0.299575972408616,45.2695116172651],[0.300075750154458,45.27025707068874],[0.299236449492662,45.27033049557327],[0.29927411962412,45.271633292729334],[0.298315120600868,45.27180652878479],[0.299143352047375,45.272857241073844],[0.299071531660156,45.27389161028661],[0.298755720976637,45.27474709999245],[0.298834776914747,45.27495893405179],[0.299030986562649,45.27512314479363],[0.298683076053011,45.275956236083374],[0.298665857501333,45.276943273385996],[0.297801887745015,45.2770233016909],[0.298233754990413,45.27751214986686],[0.298671059187088,45.277704711328006],[0.297548852992117,45.277767686489014],[0.29689853400313,45.277625830028136],[0.295487952946226,45.2775304499846],[0.294238916645236,45.277340756948426],[0.294230974490018,45.2778460049892],[0.292750191250612,45.277882233980236],[0.292217921993131,45.27767473536203],[0.2906246373146,45.277767674906514],[0.289994089552519,45.2775082306451],[0.286453899940327,45.277539484757845],[0.286146532414664,45.277457243719105],[0.285388554994236,45.27792806622482],[0.285143027603727,45.278200502917485],[0.28509835056584,45.27838411617644],[0.285228983883803,45.27913418981639],[0.285712567575598,45.279869407544645],[0.2858545471022,45.28025576524881],[0.285832814110423,45.281723813735105],[0.285980521779008,45.28311939354742],[0.285500436036365,45.28417178163661],[0.285439318393765,45.28471898714592],[0.285156695286385,45.284913942069906],[0.283573181980679,45.285587247612476],[0.282785141667635,45.28612219585144],[0.280918564347114,45.28697148333137],[0.279753825878632,45.28729993802875],[0.279039087803739,45.28740417881094],[0.275966820926923,45.28766724012141],[0.274272348298543,45.287578195823826],[0.273246052182799,45.28768471545752],[0.273119256563733,45.28785010534014],[0.271536877106595,45.28742678901614],[0.27097204371495,45.28704991247978],[0.270663504021801,45.28696489793037],[0.270090014836115,45.287233803903334],[0.268804513307282,45.28640504934252],[0.268017225836176,45.285593859305116],[0.267079670149084,45.285661045070604],[0.266511760569486,45.28446328136036],[0.26186117703039,45.28155015461589],[0.261345054425105,45.28184654837935],[0.258805986431931,45.283831347079776],[0.25612958711477,45.28559468630812],[0.255994395550604,45.28608510542408],[0.256112780324508,45.286739418886434],[0.256088385362418,45.28728661590798],[0.25630410732793,45.28803792065323],[0.256177990379366,45.28813663673502],[0.255706569185097,45.2882232746422],[0.255456005682474,45.2884126375862],[0.255127256212313,45.28886767194452],[0.25382039192754,45.28945996387658],[0.253452910843728,45.28937976081584],[0.253240492560463,45.28907992227879],[0.253613810844825,45.288679145585654],[0.253579561468639,45.288389990464836],[0.253423710961788,45.2883149849261],[0.252995829681542,45.28834682018152],[0.25276933676043,45.28846198723723],[0.252678529271105,45.28862103183075],[0.252810900667058,45.289379306436],[0.252669718396424,45.28952449972767],[0.252462899733356,45.289577080988906],[0.252580301133254,45.28981061688384],[0.252769200730132,45.28991436593211],[0.252227317171773,45.290316404149344],[0.25238449076917,45.29067525306309],[0.252344621683031,45.29104367599021],[0.252605330983152,45.29111495238092],[0.253250014953561,45.29186418885505],[0.253720059546856,45.29198745527216],[0.253684055994631,45.29238120099284],[0.254029981315827,45.29264016884871],[0.25443655378151,45.29254924185635],[0.254652594703414,45.29275005883402],[0.255192282954661,45.292781326523375],[0.25531707275698,45.29283934928779],[0.25524760637015,45.2929538708373],[0.255349115776335,45.293069885915195],[0.255769960734997,45.2931297681535],[0.255833113312819,45.293298900339295],[0.256012928800198,45.29340602454745],[0.256186189927252,45.29341297876555],[0.256414744703937,45.29323028139634],[0.256883837287933,45.29347694507203],[0.257237187918093,45.29345587976731],[0.257244709699883,45.29356237993663],[0.257087396913922,45.293698173467234],[0.257319548907955,45.29388316251502],[0.257659699654969,45.29389691030918],[0.257625356075189,45.294153748482046],[0.257705552377725,45.29426203077222],[0.257854980903505,45.294286417515],[0.257901322457275,45.29464163908874],[0.258195661681869,45.29491194217005],[0.258189728219565,45.29539562311669],[0.259493056270749,45.29526629412822],[0.259715808265041,45.29507173509217],[0.260078179729833,45.294919338620026],[0.260502542328976,45.295037852451856],[0.26077794974372,45.2950184702863],[0.261524529941411,45.29546381874877],[0.264051568427863,45.29666991289918],[0.265340439038543,45.297147420681064],[0.266577458056986,45.29800566024826],[0.268066616191853,45.29726360292289],[0.268787276516997,45.297067673497054],[0.26997547972119,45.29686513426819],[0.270958809927395,45.296831471705424],[0.271900273488881,45.29726168244833],[0.272933713204235,45.297430142120476],[0.27320561996416,45.29779536004175],[0.273342003450294,45.29785184274791],[0.273899028015937,45.29792128236198],[0.274592380178289,45.29760482057947],[0.275282897807659,45.29752884569224],[0.27584700098116,45.29758403250166],[0.276099044455229,45.298199229780025],[0.277348350789962,45.29862697981252],[0.27875899663097,45.29888835735962],[0.278990799773647,45.298873274900544],[0.279778554830303,45.29926363852664],[0.280139890777987,45.29921025939736],[0.280512711561072,45.2993923121257],[0.280761740976685,45.29912897652707],[0.281210443528071,45.29911645994401],[0.28132300668422,45.29916424484764],[0.281270779951174,45.29931884341434],[0.281420816716058,45.29956665393253],[0.281496270943223,45.29961623952275],[0.28172266035471,45.29947668565154],[0.281865472648619,45.299480156596125],[0.281940329796171,45.29980362276554],[0.282550111561241,45.2999698037123],[0.282818492122203,45.30038266242493],[0.28295216584268,45.30044267110613],[0.284096686984392,45.30069120751877],[0.284877097370493,45.300552485710654],[0.284900375500225,45.30107020801497],[0.285111783692811,45.30105461758329],[0.285526604262734,45.30074213867401],[0.286074067187592,45.30066803030463],[0.286325511628685,45.30082639538722],[0.286995157819277,45.300969677839745],[0.28709353604938,45.301072972793015],[0.28761569005418,45.301099151555135],[0.287953957142295,45.30136232890998],[0.288287625030284,45.30048746925498],[0.288497132044596,45.30043218376211],[0.290146207287228,45.30075415470048],[0.291011819114297,45.30062195960049],[0.291635382106346,45.30071544556696],[0.292125249544794,45.30069667404103],[0.292924398673053,45.30082864054534],[0.293383844049785,45.30098932063854],[0.293991012393671,45.300921123408514],[0.295014441409014,45.300982819689175],[0.295589283012987,45.301317465036135],[0.296109305924276,45.30180845118197],[0.297289596987248,45.30263703657192],[0.298258664370784,45.30268837907201],[0.298634706880183,45.30243708287131],[0.299569996342067,45.302474083769326],[0.300511067821291,45.302892324545184],[0.300804450673098,45.30289760311142],[0.301827077120012,45.30355655615887],[0.30281725633998,45.303673237406606],[0.303582038576715,45.30398899509669],[0.303619151032631,45.30427729728364],[0.304327123589053,45.304949362731094],[0.304587516549858,45.30500338904659],[0.305194849774814,45.30548652391028],[0.30707623229587,45.30565616772175],[0.307790792079027,45.305453533851605],[0.308151458078304,45.30551987575848],[0.308507933470666,45.30588433418437],[0.309032968602365,45.30585191847966],[0.309224868096532,45.3060024908514],[0.309101485197492,45.30617791319608],[0.309419769710069,45.30640810735806],[0.30944918905558,45.306565582417036],[0.309936886442489,45.30667191330738],[0.310085713653818,45.307238593619964],[0.310466249016567,45.307343245954115],[0.310894861484231,45.30761573068649],[0.311012578553533,45.30753116730222],[0.311801544588402,45.308115033559716],[0.311807202372128,45.30823589836624],[0.311587608168177,45.30842072377152],[0.31187530769187,45.30865017541588],[0.312169800354377,45.30876536739789],[0.3124863944304,45.309348688534435],[0.312625182062491,45.30991242087237],[0.312897084350676,45.31017842957259],[0.313086763353402,45.31074608661656],[0.313213873520431,45.31083743387193],[0.313403174308167,45.31093658132292],[0.31358769855265,45.310922993573634],[0.313845704530814,45.31110667860475],[0.314828818426111,45.310869903610396],[0.314800489418965,45.311060227291044],[0.315066760190358,45.311099053110944],[0.315364205042989,45.311259355157965],[0.315806701798922,45.31156278583955],[0.315988567893246,45.311842843420145],[0.316438497999531,45.31207167008211],[0.316578385671685,45.31205700653611],[0.316750068374639,45.31191246623054],[0.317548384437611,45.31198657046024],[0.318359420895127,45.31219431589698],[0.319211373122815,45.31253367493227],[0.319770223247495,45.31312638249627],[0.319990110865508,45.31322715215289],[0.320166299344527,45.31346652321999],[0.320131235881865,45.313744079654555],[0.320341674960486,45.31390859031542],[0.320242007971106,45.31401611995096],[0.320266745893545,45.31421852738194],[0.320176742659664,45.314310972156655],[0.320269840382006,45.31447267201156],[0.320107173361504,45.31490754264423],[0.320915777471351,45.315087280421636],[0.321197365668005,45.31533908426441],[0.32125636417935,45.31570538537943],[0.321482256615331,45.31615947156962],[0.321611837432729,45.31577516155389],[0.322171990207591,45.3154921553566],[0.321900940415321,45.31488833149629],[0.323817771947242,45.31337103986274],[0.324583553810823,45.311677537700895],[0.32450709348563,45.31154146642277],[0.324598381444377,45.31131570757232],[0.324862732414433,45.310942726664834],[0.325148914655403,45.310700005034555],[0.325811309345985,45.310386992833834],[0.325981682844164,45.31008293854065],[0.326234613366053,45.309947534268076],[0.326585406116786,45.30942255245467],[0.32739798918808,45.30794818533306],[0.327620988843529,45.307052557905756],[0.3285724400852,45.305449962724786],[0.3285967948667,45.305101875004446],[0.329543530843108,45.30527404032307],[0.330341528706437,45.305326424574574],[0.330976786001559,45.305337980863264],[0.331720481640533,45.30516472210742],[0.3324746517523,45.30437275369034],[0.334235763558032,45.30326782799728],[0.334545843272504,45.302950875159],[0.334620637715192,45.30277517004602],[0.33444918062315,45.30006192269586],[0.334691559772142,45.29921179540024],[0.334658742036228,45.298456917289464],[0.334382357403681,45.2973232405615],[0.334607665455102,45.296776327642796],[0.334958247053715,45.29633240526328],[0.335531339324259,45.29593342528359],[0.335794053229304,45.29535136371602],[0.336251654042006,45.295311810914804],[0.336250111470575,45.29497031419963],[0.336100010766926,45.29479916220513],[0.336427406712862,45.29427900390886],[0.336390224497406,45.2941222540351],[0.337718027550995,45.29339527266055],[0.33788575790746,45.293277637494654],[0.337912780001856,45.293139534632196],[0.33773896681186,45.29258311528293],[0.337875310347919,45.29234760966165],[0.336917602567836,45.29067336755447],[0.336755367369994,45.29011542035314],[0.336701796890306,45.29000783253283],[0.336373238156742,45.29001892671688],[0.335970266644292,45.290171498089684],[0.335780366812046,45.29005885997548],[0.334654277228158,45.28870492656259],[0.33423227544371,45.28789482396113],[0.333007265971728,45.28698268240112],[0.332989385012987,45.2867696318068],[0.333176719191892,45.28661553274013],[0.333434883689329,45.286608175399905],[0.333625877220544,45.28651092270112],[0.331309849063226,45.28378345325257],[0.330976574871684,45.28290788359776],[0.33073085488943,45.28257587389067],[0.330410224033056,45.28218261232334],[0.32943587092509,45.281476423709165],[0.328196260473659,45.28026115729209],[0.326348554002205,45.278315980755494],[0.325616430039406,45.277377698156684],[0.327083542588658,45.27682716642045],[0.328243931151961,45.27671165264817],[0.330012084080043,45.27613584344692],[0.330292634988132,45.27582000375277],[0.331249314291052,45.273562545701],[0.332205189738474,45.27227988806296],[0.330478464600017,45.27188729726861],[0.328164307709888,45.27147883859619],[0.328204296553688,45.27123023157618],[0.32769639947758,45.27117844945514],[0.327576505135319,45.271071073182156],[0.328203834530664,45.26924362906201],[0.327004537722698,45.2691627022583],[0.326516761675986,45.268878049691914],[0.325819704519845,45.268620822544044],[0.325954531620738,45.267033873088316],[0.325968674729739,45.26466471664804],[0.32601296955593,45.26451261511878],[0.326266665468231,45.264383541866614],[0.325797134832303,45.26379930600913]]]]}}]}