{"type":"FeatureCollection","name":"COM_24295","crs":{"type":"name","properties":{"name":"urn:ogc:def:crs:OGC:1.3:CRS84"}},"features":[{"type":"Feature","properties":{"fid":4188,"ID":"COMMUNE_0000000009754751","NOM":"Montrem","NOM_M":"MONTREM","INSEE_COM":"24295","STATUT":"Commune simple","POPULATION":1203,"INSEE_CAN":"17","INSEE_ARR":"3","INSEE_DEP":"24","INSEE_REG":"75","SIREN_EPCI":"200040095"},"geometry":{"type":"MultiPolygon","coordinates":[[[[0.584654751794709,45.15388898734],[0.586178888651444,45.1535310141865],[0.586713668608039,45.1536768075594],[0.58677982184768,45.15344222090514],[0.588451476727651,45.152645100712036],[0.589210089670749,45.15205884177939],[0.589635431204642,45.151524832523],[0.589856631741744,45.15079453507629],[0.589935222704931,45.150064759863525],[0.590717178580504,45.14923126861544],[0.591328160786713,45.148996734952576],[0.591659166665895,45.14867147607607],[0.592370981279725,45.148223816010656],[0.593706646123638,45.147714842099376],[0.594485029647121,45.14758299377718],[0.599020015040488,45.1473023494046],[0.600098254519541,45.14718322178249],[0.600442197934333,45.14705910054704],[0.600951416680044,45.146465600153775],[0.602069091118272,45.14569420479531],[0.602382100284334,45.14531177736519],[0.602678497955799,45.1449010666465],[0.603351580917294,45.14327603270586],[0.60396882181356,45.142239835207484],[0.604511915831663,45.14153714839429],[0.605428754817182,45.140696550762364],[0.608525300716699,45.13921537790325],[0.609805622726445,45.138920329372525],[0.611506468899447,45.13894055131106],[0.612376030343569,45.13902402856705],[0.611182721519707,45.13719503716921],[0.610724587505895,45.13680687969566],[0.609962403960848,45.13644553522175],[0.609619187217774,45.136078752783064],[0.609445009320803,45.13556875915558],[0.609554705806166,45.135473821975765],[0.609521912796171,45.13537763227872],[0.61119522715423,45.13359833719755],[0.611168000258912,45.132508665166434],[0.610952087123387,45.13118884613589],[0.610118273464257,45.129736878497205],[0.610049751079719,45.129196721108215],[0.610617955515757,45.128526978702546],[0.610442667930215,45.12786472539256],[0.610501385983484,45.1271165039592],[0.610223203121552,45.12645024380324],[0.609908974974042,45.1249013108142],[0.610366141471961,45.123137401987165],[0.610264006299055,45.12011027387924],[0.610109476420888,45.119528638213964],[0.610182851113833,45.11935995688536],[0.610028403357883,45.11883597508342],[0.60771709375169,45.11742707497761],[0.607799911171244,45.11677035579126],[0.608555320762242,45.115291208790545],[0.608766317289453,45.115117373231556],[0.608615593659619,45.1147150793507],[0.609193725727857,45.11425635287812],[0.609465643361743,45.11384780926687],[0.60916024816296,45.11221348903702],[0.608552373130084,45.11000786951468],[0.608839793749143,45.109474447696364],[0.609465398084628,45.10912393666588],[0.607691289583865,45.107567105564534],[0.606808639841189,45.106968936150956],[0.606945439324604,45.10665568748683],[0.60570344369942,45.103667141884806],[0.605444047480058,45.103575992356106],[0.605288266158212,45.10379784898787],[0.604750957135467,45.10419617430329],[0.604210350140345,45.10484935672957],[0.604445927276489,45.105318339086004],[0.604245278721505,45.10602296756788],[0.603639876170428,45.107118857070496],[0.602578143296441,45.106693362843146],[0.598751332476771,45.10685241116635],[0.598360739082249,45.10712054714172],[0.597254421176415,45.10684537799912],[0.594703837738669,45.10696603013739],[0.593831819609988,45.10709944861877],[0.593036120222788,45.10726243371254],[0.59114412609266,45.107951227728094],[0.589310708854308,45.10919796442035],[0.588692934044237,45.109481873762356],[0.587090349627271,45.10988769831105],[0.586754190968031,45.11021913040191],[0.577811378995461,45.10736324106303],[0.571296858598952,45.10543515570635],[0.56740292222421,45.10330626783772],[0.567025281316824,45.10385833965587],[0.565461193205229,45.10448989983994],[0.564885825290998,45.10502503480455],[0.563161407344234,45.10723221431054],[0.562479228312163,45.10881537041609],[0.562607313435305,45.10934966056523],[0.562964975972702,45.10998716021439],[0.562571943206838,45.1103650231477],[0.562375850226878,45.11133183017178],[0.562059805336867,45.11207350895096],[0.562212810946025,45.11294075135096],[0.562081550981045,45.113266684156336],[0.561730579988121,45.11370041555738],[0.561029383974195,45.115541690659775],[0.559501735371341,45.11611632160663],[0.558665735965034,45.11629349874209],[0.556109798188242,45.11652396486627],[0.555250363390547,45.11694562988002],[0.555203931282824,45.11765807222448],[0.555365334696104,45.11879666245553],[0.555269953160235,45.11978458805331],[0.556006033292305,45.120584451531165],[0.556456716658459,45.12043308029893],[0.557506396672997,45.121394749244644],[0.556247866960513,45.12221215527728],[0.556308606940495,45.12259814294665],[0.555201659477096,45.123701722714415],[0.554659495960354,45.12457625619108],[0.553823938499742,45.12558308035383],[0.553443049695051,45.12628998806238],[0.552977284707534,45.127540038614065],[0.553100855246524,45.12791479593988],[0.552943926205772,45.128592385208016],[0.552732716145038,45.12891115073734],[0.552463527511164,45.13104743488722],[0.552594809710664,45.131420560572494],[0.552669682707603,45.13261671508329],[0.551400125149039,45.13228436348561],[0.551246453269419,45.13306111558767],[0.552021886637258,45.134272651934396],[0.55268508215459,45.13485113245136],[0.554267956581606,45.13483090523058],[0.559488421487404,45.13681720680689],[0.560784049428575,45.13757612920898],[0.560343773752019,45.1379817849221],[0.560454970383024,45.138175194603164],[0.561138800852172,45.13842977267393],[0.562265715143965,45.13871024680832],[0.563451753562313,45.139182077341985],[0.565787814341151,45.14054470263297],[0.56625515474645,45.14071524982973],[0.566808285030402,45.14113719789128],[0.565656287458256,45.142540786183474],[0.565867212569356,45.14272465573802],[0.564711405717597,45.144097524464854],[0.564149364201722,45.14504734571304],[0.563658647532626,45.14506185201371],[0.563526112033114,45.145211198569264],[0.563216238731903,45.1453404559705],[0.562922124788365,45.14566283606801],[0.56275775049476,45.145958322695606],[0.562936499084899,45.146237884431564],[0.562592087551964,45.1462249541762],[0.562785575486891,45.14724622768775],[0.562564375949854,45.14741435536809],[0.561678622918884,45.1474085099486],[0.561230383136009,45.147528431786164],[0.560807333350868,45.14812094213562],[0.56054881050521,45.14870623916272],[0.560771468475649,45.14970022926978],[0.5605362673377,45.15077158897857],[0.559568006253181,45.15113777214739],[0.55946047868865,45.15144260617276],[0.559007444506317,45.15193356123594],[0.558161681237721,45.151564624945934],[0.556575117270358,45.150639855016685],[0.556107010429175,45.15144576284097],[0.556075276240741,45.15179279229202],[0.556189872292499,45.152199780403144],[0.556493326188532,45.15265504638888],[0.556451577634432,45.15395855018264],[0.556045349476491,45.15471716886999],[0.555315744431912,45.155649770121705],[0.554337509790584,45.15644449349621],[0.553178048064204,45.15707398371402],[0.55370630603171,45.15757112230792],[0.553707271243639,45.15792697654504],[0.553187744860119,45.158625448761626],[0.552857241501309,45.15858396806212],[0.551947386029657,45.15918198696669],[0.552295887850878,45.15988778726515],[0.552635516427065,45.16111588143146],[0.554635218321656,45.163254188087905],[0.555888647749062,45.16408790612541],[0.556997922792297,45.16455000840219],[0.563692258548459,45.16618186151286],[0.564199715528769,45.166196543288414],[0.564806425620362,45.16603772484056],[0.568182815114151,45.1647970333968],[0.569374749446859,45.163801452259406],[0.570342411100984,45.162837910572065],[0.57059408555177,45.16229207751148],[0.570619357519913,45.15966218097221],[0.57052491290024,45.157764762404064],[0.570187022888371,45.155522427120864],[0.570256884740293,45.15423845454561],[0.570705515952332,45.15352485283882],[0.571816329684564,45.152485148669726],[0.572552672882871,45.151975986370545],[0.5730465557966,45.151860615001425],[0.574762527068909,45.15204026482524],[0.57533620996558,45.15202210665362],[0.576119986195959,45.151739161146814],[0.576694518758646,45.15164264198585],[0.5784398215507,45.15088150162114],[0.579494487472739,45.150956638694424],[0.582467015304342,45.15204714329763],[0.583606174352379,45.15278888563988],[0.584654751794709,45.15388898734]]]]}}]}