{"type":"FeatureCollection","name":"COM_16176","crs":{"type":"name","properties":{"name":"urn:ogc:def:crs:OGC:1.3:CRS84"}},"features":[{"type":"Feature","properties":{"fid":4164,"ID":"COMMUNE_0000000009753199","NOM":"Lachaise","NOM_M":"LACHAISE","INSEE_COM":"16176","STATUT":"Commune simple","POPULATION":306,"INSEE_CAN":"09","INSEE_ARR":"2","INSEE_DEP":"16","INSEE_REG":"75","SIREN_EPCI":"200029734"},"geometry":{"type":"MultiPolygon","coordinates":[[[[-0.240272636495492,45.49437370320653],[-0.24230806736823,45.49545766298685],[-0.24309903505032,45.49577006207294],[-0.246194383637636,45.49667912096621],[-0.246200997795171,45.496814113837964],[-0.245737922184351,45.49726640680031],[-0.245873813033744,45.4976617202286],[-0.245493561517791,45.4979088399961],[-0.245305106268721,45.4982143990673],[-0.244819582238487,45.4981734642402],[-0.244726593557639,45.49820499226717],[-0.244708004173151,45.49839118263751],[-0.243869204468098,45.498576752272875],[-0.243359424157396,45.498932150863375],[-0.242577351307249,45.49986949648209],[-0.242208086492672,45.50052454253181],[-0.242382918895309,45.50106022741308],[-0.242538830815087,45.501206227588916],[-0.241861043020365,45.50162595363724],[-0.241649320259701,45.50236747032731],[-0.241660302413631,45.50262129901132],[-0.241991774679801,45.503139842948194],[-0.241914054490907,45.50338902420026],[-0.242308921371499,45.50332534598871],[-0.242472397704318,45.50316200705407],[-0.242933882338167,45.503054044179954],[-0.243312463499294,45.503150350185884],[-0.24370720456872,45.50310649760769],[-0.243933530922232,45.50320720203559],[-0.245481734114481,45.50309755256613],[-0.245918902617079,45.50299028042671],[-0.247216531166289,45.50311045736667],[-0.247361916353998,45.50403992435554],[-0.248383798872128,45.50378414298606],[-0.249325107416486,45.50248075165871],[-0.250818429394277,45.5020472723582],[-0.253009393656756,45.501162763732964],[-0.260270808666467,45.506200839130884],[-0.261240023256929,45.50666295288608],[-0.265894411389555,45.507890285018725],[-0.267815574652448,45.508670716582124],[-0.26567188839833,45.51049052471884],[-0.265907083173681,45.5105882252435],[-0.265381324552746,45.51110731438006],[-0.264987164687777,45.5117063881158],[-0.265603487483992,45.511920077191554],[-0.26530188442506,45.51239298946371],[-0.262997288057095,45.513573036380336],[-0.260927195116935,45.5147750607802],[-0.260242949363426,45.51525997438519],[-0.260055198586302,45.5152717359001],[-0.259775576197115,45.515072571992505],[-0.258920822247124,45.51509919311215],[-0.257867380940738,45.51495132720596],[-0.25665904068636,45.51500351366016],[-0.255979999345473,45.51527195279904],[-0.254620961372569,45.51603325323929],[-0.254402968121472,45.51649109170578],[-0.25373562477848,45.51693762166207],[-0.252873958555418,45.51772143241057],[-0.25266730690806,45.518088814996446],[-0.252661768981674,45.51840981461168],[-0.252915036302779,45.518531352414136],[-0.255691609457922,45.519051985417356],[-0.255648844912033,45.51950294195461],[-0.255416689873025,45.52000355118489],[-0.253560454846862,45.520617931334385],[-0.252890697192664,45.5209149199935],[-0.255356004367183,45.52117601536183],[-0.256477462439313,45.52147604652699],[-0.257759063847565,45.52199222279008],[-0.261084298079595,45.52259504159705],[-0.261915314184697,45.52259883788515],[-0.26307690944548,45.52273000843871],[-0.264181771114697,45.52248519733667],[-0.264729503012546,45.5226206788203],[-0.265715158216256,45.52265960455884],[-0.266371210564221,45.52278381607054],[-0.266474266077678,45.52285742311131],[-0.26647238866947,45.52302150352799],[-0.26589638039111,45.52501918779735],[-0.265512675806005,45.5259063545305],[-0.265548762276241,45.52647579020097],[-0.265336307883453,45.5272011592491],[-0.26464674264912,45.52801159955221],[-0.263325579601238,45.52915853151922],[-0.26289632624321,45.529425156164905],[-0.261128808339661,45.53017857171091],[-0.258829980827485,45.53149262861192],[-0.257406027900343,45.53065253673427],[-0.255611425244821,45.52983218812488],[-0.25475802051979,45.52918640991949],[-0.254659255427482,45.528726938932756],[-0.253204920917923,45.52883127167038],[-0.252690117970615,45.52877679135996],[-0.252152877936317,45.530504699428214],[-0.251555110830257,45.53192252988778],[-0.250745866572183,45.5328832445083],[-0.24927339072146,45.533971294170414],[-0.248363140730437,45.534434727975516],[-0.247653276044321,45.53431286589224],[-0.247197714886527,45.53443869469568],[-0.246870176587039,45.53412282086697],[-0.246120386858013,45.53397596800081],[-0.245472518976508,45.533708103109475],[-0.244954840072449,45.53373658266948],[-0.244329255235053,45.53363028914178],[-0.243924347863853,45.53317514944645],[-0.243656899084631,45.53305309821795],[-0.243447950756136,45.53248414857535],[-0.242707172114326,45.5321838043948],[-0.239891499297005,45.53141972924786],[-0.23964941792392,45.53140238083374],[-0.238609261604035,45.53203530834864],[-0.238440073683684,45.5320365830764],[-0.23706501278125,45.53130388029488],[-0.236520629965256,45.53087436658258],[-0.236338664944158,45.530568688023465],[-0.235919636628727,45.5304194451663],[-0.23538411254331,45.530339347194605],[-0.234613745545009,45.53043183788976],[-0.234439504713906,45.53025841437484],[-0.234220513920107,45.530197130449],[-0.233492506600783,45.53022440627544],[-0.232802087171833,45.53047860524136],[-0.232213222191528,45.53040723781465],[-0.231926445197189,45.530238852503636],[-0.231851069625736,45.52993550673905],[-0.231200338331509,45.52966043564514],[-0.230703342577831,45.52931695068035],[-0.230298905776006,45.52926369874571],[-0.229845919889791,45.52897121509973],[-0.228486990925204,45.52868856069728],[-0.228009674725454,45.52841839902264],[-0.226566843671172,45.52797140805326],[-0.223767096907822,45.527186657195024],[-0.221913860149317,45.526581962144114],[-0.220420054596109,45.526249010309044],[-0.219052350983977,45.5254816411978],[-0.218810345969603,45.52504518002051],[-0.218569192640444,45.524910602188555],[-0.217634806915982,45.52489322491484],[-0.215616190673528,45.5257459316069],[-0.215358544600243,45.52574700191134],[-0.215107962434477,45.5256487354891],[-0.215032599474829,45.52541026867596],[-0.214845659213702,45.525259711159876],[-0.215394881438727,45.5239849834752],[-0.215682215864035,45.52190846142221],[-0.216913201903249,45.521602830243886],[-0.217918748734037,45.518736979757094],[-0.218080667278987,45.518633204381615],[-0.21892055646634,45.518570372474315],[-0.219319767077144,45.51838048376376],[-0.220388656125361,45.51689616049184],[-0.222516379044124,45.5145297823077],[-0.223478967622755,45.514219161440344],[-0.22402903938253,45.51411143951082],[-0.224529163350138,45.51426920708204],[-0.224892181586476,45.51374418179642],[-0.225841425017112,45.51313832303088],[-0.226888053405383,45.51220161174585],[-0.227007331645419,45.511761991781924],[-0.227707837297049,45.51131016563307],[-0.227967531530377,45.5108827285485],[-0.228725258914869,45.51040131206634],[-0.228896339914314,45.510213442765604],[-0.230146378815445,45.50947001667831],[-0.229957766425633,45.50807945184148],[-0.230136196134728,45.5064106615685],[-0.230489951356998,45.50577232836313],[-0.23093136739805,45.50562714239624],[-0.233680687249306,45.5055632835261],[-0.235139490816537,45.50525988804017],[-0.234954604653929,45.50470465608996],[-0.235039344967045,45.503783866565314],[-0.2359970375937,45.502624319560475],[-0.237733198099598,45.499124357689524],[-0.23841336037097,45.49861356450525],[-0.23865217524255,45.49824798514278],[-0.238627123370189,45.49770887457699],[-0.237975994118671,45.49731129876777],[-0.238267861382376,45.49686668408573],[-0.238045860807032,45.49661984621841],[-0.238048364559977,45.49626739531174],[-0.238242938755195,45.4957147374492],[-0.238721781416197,45.49526833038],[-0.240272636495492,45.49437370320653]]]]}}]}