{"type":"FeatureCollection","name":"COM_47271","crs":{"type":"name","properties":{"name":"urn:ogc:def:crs:OGC:1.3:CRS84"}},"features":[{"type":"Feature","properties":{"fid":4153,"ID":"COMMUNE_0000000009756524","NOM":"Saint-Pierre-sur-Dropt","NOM_M":"SAINT-PIERRE-SUR-DROPT","INSEE_COM":"47271","STATUT":"Commune simple","POPULATION":358,"INSEE_CAN":"07","INSEE_ARR":"2","INSEE_DEP":"47","INSEE_REG":"75","SIREN_EPCI":"244700449"},"geometry":{"type":"MultiPolygon","coordinates":[[[[0.242406982199376,44.63589170525066],[0.241447706697796,44.63621008117922],[0.240076869526239,44.637512675550845],[0.239468122221068,44.637911851514374],[0.237672264457569,44.63835973913082],[0.233594651802784,44.63902527300964],[0.231183920667914,44.64030173820959],[0.230608507954372,44.64048280351199],[0.229562359657915,44.6405890129029],[0.229108581288146,44.64070825951888],[0.226569476397935,44.64184628829632],[0.225518771553358,44.64060921843358],[0.224078556901108,44.639493878324316],[0.222430290045527,44.63860750546089],[0.220724269444602,44.63794666271954],[0.219308654965586,44.637563345443255],[0.218642606391628,44.63715202845849],[0.217910422733131,44.63654716720801],[0.21617323281993,44.637030416522016],[0.214378996676377,44.637288796957336],[0.211698919933002,44.637906759775014],[0.207924532518759,44.64054371142842],[0.207591563072157,44.6406938476837],[0.206163123729387,44.64107844605321],[0.205279182593046,44.641856042473435],[0.204163464351221,44.64084502486011],[0.20329237884662,44.639812258564724],[0.201894467077328,44.6386670602185],[0.201389870800808,44.63813180458598],[0.200090892019211,44.63933935869952],[0.198271204137868,44.640740896214886],[0.1964257194212,44.64194897390057],[0.195439879226467,44.641880729283706],[0.192917798401601,44.64291484009035],[0.191381024994406,44.64415319802898],[0.18803953004529,44.64496549671582],[0.187374798140299,44.64541522323635],[0.186498450924542,44.646185665611526],[0.183339703035892,44.647377228435666],[0.181379707560056,44.64783625614697],[0.180814051773354,44.647792106713595],[0.17868399017778,44.648773745378094],[0.17753466692674,44.650707355052624],[0.176745264387643,44.65245826612762],[0.176741689017033,44.65270590775324],[0.177144462156423,44.65365937768375],[0.17681061658757,44.6543526147286],[0.177459846754274,44.65499707911361],[0.177850015916414,44.65564844091597],[0.178225577979353,44.65601205815753],[0.178817320784872,44.656393801372275],[0.180433594840866,44.65716020598707],[0.180645041184866,44.65792861455102],[0.181802407732615,44.6588121183589],[0.182002255316944,44.65905593556884],[0.18232763264371,44.65981823538523],[0.182274242833238,44.66005289703193],[0.182432222534969,44.66009926194773],[0.182699193945497,44.659985349968046],[0.182978819294053,44.659996977435604],[0.183047395434307,44.66026627580287],[0.182508052901623,44.66070295990623],[0.182730612799663,44.66135093402144],[0.183173174018849,44.66120906315079],[0.184135348901537,44.661429049952574],[0.185694150437495,44.661455216193836],[0.187338333441683,44.66123760109765],[0.187937295243779,44.66152759067995],[0.188226096723186,44.6617601451156],[0.188535456566764,44.66218780399905],[0.188795075709239,44.662322323690226],[0.18912068786288,44.66237384060571],[0.190634109033949,44.66224744122472],[0.19131125795249,44.66228626079509],[0.191823152817815,44.6624497009309],[0.192757887068496,44.663170684785136],[0.193302207435445,44.66331692399443],[0.195786873885628,44.66295115080419],[0.197590042587477,44.661516773634666],[0.198456755541413,44.660611767329364],[0.198786943137912,44.66046969093912],[0.199385934973037,44.660556928811666],[0.200323489723213,44.66117161883963],[0.201737982402649,44.661282187989485],[0.203258085473372,44.6618079941204],[0.203548345185092,44.661809028128374],[0.204178970414515,44.661361040267394],[0.204800822669233,44.66116596301377],[0.205437897156549,44.66109648355452],[0.205584933786897,44.660982189156016],[0.205607381447147,44.660733224211334],[0.205210080875364,44.660345733400774],[0.204903525106963,44.659477685497635],[0.204946231811145,44.65932922580726],[0.20525032644737,44.6590765691203],[0.205769908837871,44.65898339985604],[0.206356379119438,44.65906848200884],[0.206575888044712,44.65914699477926],[0.207191062471565,44.659671505092625],[0.207412572661799,44.65978610015118],[0.207564602408618,44.65977462485855],[0.208294118829894,44.65921470606869],[0.209200396860012,44.659162811191976],[0.209402249756369,44.65903728375306],[0.209176478177275,44.6581424613566],[0.209266507913908,44.65785376346262],[0.209615350128246,44.65756348893387],[0.210106899025081,44.65744977414494],[0.21180678706507,44.65740256330237],[0.212021099704295,44.6572800481271],[0.212571998458669,44.65640030839338],[0.2132466930069,44.65625786562483],[0.213974653901087,44.65575282430668],[0.214413103435341,44.655640455765734],[0.215342633053655,44.65572962779821],[0.215840548031709,44.655690817687685],[0.216552342529571,44.65551235519031],[0.216693417001879,44.65521142496845],[0.216526056989287,44.65458834107124],[0.216586957154664,44.654505195854476],[0.217042165734503,44.65443647906767],[0.21764753395233,44.65462377149559],[0.217845236215706,44.6546071258652],[0.218074145670825,44.654469652819635],[0.218618587619538,44.65374376654037],[0.218891751778071,44.65355335530757],[0.220724254365069,44.65329675018172],[0.221880091376763,44.652199759297325],[0.221845179136343,44.65116743363573],[0.221967159726684,44.65097141531822],[0.223188075456634,44.65031925563371],[0.223910815915439,44.649737452853714],[0.224020194309739,44.64943842198155],[0.223958889981023,44.64914591582007],[0.224097307960477,44.64838549010481],[0.225209561945109,44.64765761576891],[0.225091799721899,44.64694841307556],[0.226217497423259,44.64625419796224],[0.226653917071331,44.646257939227425],[0.227390800686976,44.646617832935945],[0.227794361577185,44.64672524124781],[0.228445635223947,44.64674787456239],[0.228690053182403,44.646601761928345],[0.228998114559423,44.646085203694696],[0.229642572278004,44.6460409983783],[0.230269007817914,44.64623505598082],[0.230602878780167,44.6464767324272],[0.23079216985753,44.64670758017898],[0.230953096431381,44.647233187214724],[0.231370444515422,44.647394076075656],[0.231885275461142,44.647240314252095],[0.232715588045577,44.64664944031506],[0.233108981324886,44.64660433555254],[0.233320124416909,44.64675014746521],[0.233516080915209,44.64735950237481],[0.233800471859756,44.647709831020464],[0.234067585563917,44.64787235567047],[0.235748698899635,44.64850984043486],[0.236100599146756,44.648461885744354],[0.236472282087444,44.64793338580887],[0.236629883394465,44.647858953350145],[0.237985214152246,44.64767752222588],[0.239400307368484,44.64766692102631],[0.240200951732135,44.64726802722922],[0.240471895941017,44.64699193254161],[0.240759135217251,44.64599648957114],[0.241154441710849,44.64560278741644],[0.241315248034684,44.64512756444622],[0.241243744723023,44.64455195907453],[0.240772761410569,44.64347633967879],[0.240691914267122,44.64278249379603],[0.24081861449181,44.64261720300893],[0.241442149211181,44.642329187356815],[0.24165842697552,44.64213820544785],[0.241732532086269,44.641449127661666],[0.242041146120057,44.64078932176855],[0.242016024226207,44.6403229729367],[0.241523537726716,44.639068459913204],[0.241501748998119,44.63809593577254],[0.241843473935112,44.63781620122659],[0.242326256306864,44.63772194928562],[0.242320943008689,44.63726330175844],[0.242697413244159,44.636788954796295],[0.242667940815207,44.636463025513386],[0.242408934381528,44.63623856763203],[0.242406982199376,44.63589170525066]]]]}}]}