{"type":"FeatureCollection","name":"COM_40047","crs":{"type":"name","properties":{"name":"urn:ogc:def:crs:OGC:1.3:CRS84"}},"features":[{"type":"Feature","properties":{"fid":4203,"ID":"COMMUNE_0000000009760304","NOM":"Bonnegarde","NOM_M":"BONNEGARDE","INSEE_COM":"40047","STATUT":"Commune simple","POPULATION":255,"INSEE_CAN":"04","INSEE_ARR":"1","INSEE_DEP":"40","INSEE_REG":"75","SIREN_EPCI":"244000881"},"geometry":{"type":"MultiPolygon","coordinates":[[[[-0.708214504521753,43.541304703861215],[-0.709326177032212,43.54128200541088],[-0.712840748565026,43.54203726122252],[-0.713443806797421,43.54175090380515],[-0.715388505298505,43.5411114486586],[-0.71740177464014,43.54061372332184],[-0.71809553265617,43.540638583465146],[-0.719606180921175,43.54113623244679],[-0.720304273272838,43.54147618438681],[-0.720908907733053,43.54123386568261],[-0.721799892673399,43.541703200979335],[-0.72187143313988,43.5418898990443],[-0.722255969231659,43.542148723651366],[-0.72394915888269,43.54259591531845],[-0.728538543435439,43.54529087640736],[-0.727072463459359,43.54616903303962],[-0.726336617381694,43.54648885281291],[-0.726247671102619,43.546682863634395],[-0.726656551938706,43.54695344931898],[-0.726823846193774,43.5472413411146],[-0.727106393330725,43.5474351995515],[-0.732293662925012,43.55036529623994],[-0.73234854190931,43.55054265517821],[-0.732001049696079,43.55117882205535],[-0.732028870465933,43.55213985468428],[-0.732198745472468,43.55254294663699],[-0.732656282940797,43.55298928522595],[-0.732737744110963,43.553346778730784],[-0.732635628462203,43.553814173742296],[-0.733078959300423,43.55463210579596],[-0.733889073637235,43.55575717802825],[-0.733837692559944,43.556357039814195],[-0.732751736348947,43.557922068301814],[-0.731473255786819,43.55942254820244],[-0.731068262426169,43.56031830425975],[-0.730357997669565,43.56109124447323],[-0.730164577394864,43.56154556417107],[-0.730243806407925,43.56301195574647],[-0.730112152066125,43.56313988384384],[-0.729702481542393,43.563259353467274],[-0.729247617529176,43.56420815993717],[-0.729050191414902,43.564391491123615],[-0.728789408110236,43.56451484768389],[-0.728286949777282,43.56456003603049],[-0.727997309001703,43.564715908225246],[-0.727416881303565,43.56552490108781],[-0.726638687108622,43.56588310402774],[-0.726312211136942,43.566330276570376],[-0.726020396506238,43.566452890259534],[-0.725910066962299,43.5662990481623],[-0.725581757202218,43.56664179485776],[-0.725824768779241,43.56761796645725],[-0.725271208930759,43.56847916897757],[-0.725264923253666,43.56866854151173],[-0.725374948607336,43.568951201836406],[-0.725722468924636,43.5693428056544],[-0.726924933345878,43.57038511503577],[-0.726855213953203,43.57055144563026],[-0.726069511310048,43.571272002024486],[-0.727446785027299,43.57185793162808],[-0.728480662809768,43.57202058089725],[-0.728770549608355,43.572744732794405],[-0.728817552038091,43.57327726325703],[-0.728525541682335,43.57337827193832],[-0.72766430942651,43.57339434602022],[-0.725819270636593,43.57604105711419],[-0.725664918236225,43.57583918309943],[-0.724683544657599,43.57526486114051],[-0.723134604865372,43.574420863078885],[-0.722476842656162,43.574155186721896],[-0.719220240109203,43.576322344924655],[-0.716655947516496,43.57778112683421],[-0.717345849842423,43.5784087403436],[-0.716014047049213,43.579022718640445],[-0.716243581189609,43.57918059735789],[-0.715176794626782,43.5797737806865],[-0.714652406333119,43.57934856111877],[-0.713918379075046,43.57972317054649],[-0.713350996559578,43.58041364039382],[-0.713249549643721,43.581966397446806],[-0.712871025828424,43.5820144754302],[-0.712693880606894,43.581938566801874],[-0.712186936697236,43.58201265290946],[-0.711906160814563,43.581809678812434],[-0.711207877754762,43.58181824383422],[-0.710932241330517,43.58159887822622],[-0.710691232049818,43.581876441200514],[-0.710213256890349,43.58172794399048],[-0.709257954444087,43.5822839280381],[-0.708788320236628,43.58243688945737],[-0.708067516640354,43.58240386846339],[-0.707692858071857,43.58226263953962],[-0.707346248155159,43.5822294415635],[-0.706783310141094,43.58243422120831],[-0.70645768423677,43.582438135049046],[-0.706265900981136,43.58234650260479],[-0.706094844023149,43.58238386941167],[-0.705911176454227,43.58230276820206],[-0.705563136570517,43.58242003771453],[-0.704706243293453,43.582428570909634],[-0.704186533220605,43.58228597567738],[-0.704004466449316,43.58276688081749],[-0.704046836302886,43.583231119643635],[-0.703633965042815,43.58391806394721],[-0.702723706221081,43.583868051745206],[-0.702146377026049,43.58431109376013],[-0.701743411883106,43.58440320150609],[-0.701466948961918,43.58457386244791],[-0.701192854613153,43.58460842960311],[-0.701125342212912,43.58477196469965],[-0.701557535239762,43.58495989474226],[-0.701639770156968,43.585216504731164],[-0.701043005079777,43.58570433979681],[-0.700110892091975,43.58575773465833],[-0.70008370230141,43.58545150790979],[-0.698727150609043,43.585629248603965],[-0.698005226005262,43.58602134830501],[-0.697719919020277,43.58595900821191],[-0.697438002742902,43.5863721439421],[-0.696892673646625,43.58633216933736],[-0.695303249826661,43.585896285415885],[-0.695025765772924,43.58530133420847],[-0.694540491615472,43.585000791441836],[-0.693480068696203,43.5839658997802],[-0.693259174927686,43.583806779192564],[-0.692114638403759,43.58352415242106],[-0.6915956363759,43.583295903407155],[-0.68991587797256,43.583437688024446],[-0.689768827795239,43.58342467205995],[-0.689706123584135,43.583278181997834],[-0.689340528416936,43.58312307190041],[-0.688871188038822,43.583127313810294],[-0.687906981854673,43.582237724996254],[-0.687742394978718,43.58222169931329],[-0.687859170691654,43.581513357243416],[-0.688447491256114,43.58012244888183],[-0.689306627113059,43.57883942802759],[-0.689616570699163,43.577590383800114],[-0.690149959807009,43.57679131445938],[-0.690628225600848,43.57640665248554],[-0.691212135185956,43.57608504957771],[-0.693296931747144,43.57544486084564],[-0.693926204249369,43.575173941557296],[-0.697395819034187,43.57274270697814],[-0.695545945757271,43.57187345674991],[-0.694037813177794,43.57105829870834],[-0.69266777073231,43.56996279955401],[-0.694278197545511,43.56955850551713],[-0.693942037919605,43.56935917782881],[-0.694407809963864,43.569070400912445],[-0.695038610468755,43.56726637953512],[-0.695472431236111,43.567058850599416],[-0.697624121700064,43.568404204988056],[-0.698704879855308,43.56712526486564],[-0.699209428412391,43.56680451980626],[-0.700028044155015,43.56522645194372],[-0.700371193723923,43.564842748846246],[-0.700190869481449,43.56389052092159],[-0.700242243845231,43.5633618420406],[-0.700666076834864,43.56332667127793],[-0.700784592642862,43.56280200739222],[-0.700409607400691,43.562365332185415],[-0.700477650927911,43.56205676376101],[-0.70051836526413,43.56165094794489],[-0.70097566393572,43.560963407306225],[-0.701344045043746,43.560683325075665],[-0.703495512757954,43.5605873929874],[-0.705390821505505,43.56020742876853],[-0.705502470439098,43.56032521449063],[-0.706016150736884,43.56014734032119],[-0.706702350971117,43.560262612782665],[-0.707704370893121,43.5600707486588],[-0.707785288456436,43.559866219645706],[-0.707980900431995,43.55877235218075],[-0.707774004090942,43.55848398298522],[-0.70725982144456,43.55723512668375],[-0.707209723183144,43.55678557303712],[-0.707252053545326,43.55642473567902],[-0.707653189780188,43.55582825648535],[-0.707757363379995,43.555466206337],[-0.707519656643377,43.55401064637356],[-0.707536610630433,43.55264366367588],[-0.707702490028613,43.552297519957975],[-0.708540472770612,43.55171583126195],[-0.709177862526558,43.55056002564623],[-0.708305468532974,43.550053017406874],[-0.708429950012619,43.549871319224636],[-0.708404801099602,43.54969293454043],[-0.708826264379469,43.549411911565116],[-0.708799874406804,43.549099361347956],[-0.70934489995997,43.54894831989592],[-0.709394376751368,43.5486025510014],[-0.709735469583208,43.54830445648165],[-0.710056432285704,43.548154768246334],[-0.710051799992309,43.54806395341192],[-0.709762807526895,43.547903599611494],[-0.709586203709897,43.5469530693202],[-0.710207669943796,43.54647154523093],[-0.709795426966822,43.5461667879279],[-0.709619350884119,43.54593321688181],[-0.709643859534645,43.54568017611625],[-0.709320744156272,43.5456047560578],[-0.709579396987585,43.54537253171208],[-0.709322231374576,43.54488052379895],[-0.70959797907393,43.54481705076319],[-0.709671128749962,43.54472267541882],[-0.709338392668615,43.54447914951435],[-0.708965604511694,43.544363093344046],[-0.708611000538336,43.54389603339016],[-0.708564820015427,43.54354543005347],[-0.709093494434167,43.5432571372703],[-0.708828493615431,43.54237538503815],[-0.708427457738879,43.54180272747072],[-0.708214504521753,43.541304703861215]]]]}}]}