{"type":"FeatureCollection","name":"COM_23028","crs":{"type":"name","properties":{"name":"urn:ogc:def:crs:OGC:1.3:CRS84"}},"features":[{"type":"Feature","properties":{"fid":3989,"ID":"COMMUNE_0000000009751058","NOM":"Bosroger","NOM_M":"BOSROGER","INSEE_COM":"23028","STATUT":"Commune simple","POPULATION":117,"INSEE_CAN":"02","INSEE_ARR":"1","INSEE_DEP":"23","INSEE_REG":"75","SIREN_EPCI":"200067593"},"geometry":{"type":"MultiPolygon","coordinates":[[[[2.275495629039042,45.991209111503714],[2.275844603568803,45.99080520373314],[2.276213741562715,45.99014477263706],[2.276009194734059,45.99007862734006],[2.275629612749604,45.989765517758435],[2.274635866413719,45.98968711634224],[2.274610002953541,45.98988506741355],[2.27411590008259,45.98992963041157],[2.27369930534139,45.98928938453002],[2.273105210615788,45.989471083104306],[2.272587820846915,45.98932277643637],[2.271476092897531,45.99005766931967],[2.270782789904721,45.990315262855695],[2.269986198133391,45.989593309538456],[2.2693849191791,45.989341787013664],[2.270014840817031,45.98879742481242],[2.269830075796824,45.98860442089534],[2.268955024137224,45.98922104390175],[2.268626214601376,45.98897938016124],[2.268931747201571,45.98844463594707],[2.268626493485081,45.98818061092269],[2.268203574379025,45.98870198859921],[2.267853739761544,45.98868171740017],[2.266895863809165,45.988143308265265],[2.267195908884398,45.98792461958693],[2.267735774256895,45.987838057728936],[2.268074002468961,45.98698203755131],[2.267464871555073,45.986546745483146],[2.266902687649794,45.9859820774272],[2.266033099755949,45.98473641433576],[2.265349831078846,45.98434205462559],[2.264625282135975,45.98462102030868],[2.263425969478238,45.98475641210735],[2.263036999293926,45.98467013254051],[2.262491591928489,45.984689996420165],[2.261078196635665,45.98508692458405],[2.260640300200227,45.98546949473158],[2.260361279065699,45.9858531007709],[2.259704334967808,45.986192812339596],[2.257731621636821,45.986102456456216],[2.255892434089304,45.985786909782924],[2.255076349639937,45.98595174635737],[2.254354066938051,45.9862486723684],[2.25255350063091,45.987751501318954],[2.251544812103047,45.98801680184576],[2.249918348982067,45.98858418560765],[2.249357286203884,45.9886119876623],[2.247504088063955,45.988184546064865],[2.246050519213831,45.98801008289704],[2.245697279407937,45.98852193583096],[2.245604448221069,45.98954522423087],[2.245069302381929,45.9906024875764],[2.244538547557682,45.99096186426],[2.243407614950814,45.99137216412467],[2.243527894435128,45.99164492857205],[2.243940592324996,45.99489590853871],[2.242833955000952,45.994848894223956],[2.242652701080742,45.99487559920942],[2.242546642107765,45.99497755099071],[2.24250330432141,45.995497769736176],[2.242651481567886,45.99590310005381],[2.242367634966183,45.996248808211895],[2.242250104023259,45.99671449865671],[2.241731045958375,45.997625968123906],[2.240893725734233,45.99865867647971],[2.24121764073341,45.99915704045491],[2.242031035482663,45.99920481014627],[2.241722749817072,45.9999159700179],[2.241170487523524,45.99995279655669],[2.240814839542276,46.00025569499364],[2.240625613742216,46.00104599616806],[2.240744322703502,46.00143312074765],[2.240473865566585,46.00183564775492],[2.240596551464754,46.00202828382609],[2.240488423221911,46.002466119046524],[2.239872300629815,46.00319502192462],[2.23944065141273,46.0039458722369],[2.239402257594872,46.00504066379028],[2.239303888669748,46.00514536590976],[2.238945830435319,46.00524562241774],[2.239146361780018,46.0057899910979],[2.240202351090788,46.00680657528794],[2.240434647818974,46.007204367533305],[2.239490532527013,46.00781670177756],[2.23871318068756,46.00748999132224],[2.23850726856239,46.00752102696687],[2.236885946666556,46.008970786191874],[2.236166716735779,46.01032214490265],[2.235615314441153,46.01103345102931],[2.23477303952319,46.01081974310086],[2.23466060747158,46.01128365954176],[2.234275778763469,46.011539513251805],[2.233585840487468,46.010410081680725],[2.23304470892032,46.010474861203754],[2.229938544619056,46.00820155826797],[2.22926868145909,46.00795476017621],[2.228342066792644,46.00777014792315],[2.226919575709666,46.007006704012106],[2.225537444167904,46.00686758887989],[2.225423457661074,46.00762055792067],[2.224733739899691,46.00759242724069],[2.224895442119319,46.007764635190576],[2.227948811401337,46.00945507206686],[2.228051084728586,46.01027165361878],[2.228583616962646,46.01045178490294],[2.228805597886252,46.010658617776464],[2.229298894915254,46.010779943867064],[2.229675981592146,46.01117063836005],[2.229527617909933,46.01133622869407],[2.228601650870624,46.01183873158127],[2.228716265301459,46.01214479306911],[2.22861046843672,46.012592539387455],[2.228645708350681,46.012936783615785],[2.228016433306357,46.013201758661076],[2.228276768552054,46.013531326520955],[2.229042479848304,46.01395258533955],[2.229498402609398,46.014437472167195],[2.229504731340882,46.014723885273995],[2.229241902061398,46.014848172943786],[2.228635634786127,46.01494580852202],[2.229692462870695,46.015716650275984],[2.230328604650963,46.01644049955573],[2.230195044933375,46.016655720772455],[2.229961882977738,46.01779961698232],[2.2319087038834,46.018989826162425],[2.232359392730807,46.019761935976156],[2.233278556645171,46.019476384557315],[2.23385988635397,46.019965703631286],[2.234436273117162,46.01997500154774],[2.235107270924605,46.01978051382638],[2.235300772420355,46.020180756137364],[2.236821564182096,46.020134272953236],[2.236737656672056,46.0210576557203],[2.237063213781145,46.02256283858386],[2.236632691135667,46.022659899146],[2.236139433953691,46.02252689916808],[2.235783916588,46.02290092589463],[2.235528842981365,46.02302347950981],[2.235817965176147,46.023520722813466],[2.236979900144926,46.02335024486203],[2.236746036707282,46.0239006975617],[2.236777779590839,46.02459432234579],[2.237680293193455,46.02392859753184],[2.238452580652089,46.02445069519858],[2.239798663739829,46.02423910027476],[2.240048580360487,46.02374098005011],[2.241169425246048,46.022987538626495],[2.240797408436705,46.0226860703479],[2.240686395954855,46.022487209365146],[2.240644710966154,46.022229377541514],[2.240832580000547,46.02135531752258],[2.241234957920653,46.02104822843155],[2.241669100061358,46.020874629405306],[2.241991004099444,46.02087228002618],[2.242288794355173,46.02121287171357],[2.243041233618725,46.0212989473603],[2.245055111305731,46.022907222990625],[2.246709098873228,46.023711596693516],[2.248061817970459,46.02461840954924],[2.24855590333677,46.02403183732122],[2.248758193696025,46.023323558595884],[2.251175043649967,46.0216528542395],[2.252015591909109,46.020869538120856],[2.252866196342327,46.02048611847879],[2.253581796738278,46.02042959719912],[2.25395579160634,46.0203032834758],[2.25420557732448,46.02037606939393],[2.254478533748236,46.02026529864472],[2.254649405682299,46.01996114212197],[2.255523293125854,46.01976516648871],[2.256320469509763,46.019219274502326],[2.257040059125577,46.017717404239264],[2.256761258351854,46.017114021004836],[2.256740809603953,46.015853142350736],[2.25636958227693,46.014916855573034],[2.256642126120036,46.014260354782486],[2.256656599172515,46.013858812495485],[2.256407609603104,46.01334657744211],[2.255926406192153,46.01299401259748],[2.255622625964034,46.012615595250324],[2.255223434788862,46.01155214566887],[2.254665168725769,46.010974836297],[2.254510169075923,46.0105865878967],[2.254658385366414,46.01004454195118],[2.254527117894339,46.009144947349306],[2.255836487846692,46.00922649669561],[2.257034812421427,46.00863100338919],[2.257599340360438,46.008552754922526],[2.258389816842683,46.00829857785233],[2.258359790915133,46.00707455858886],[2.258887627260982,46.00693662856751],[2.258925583059324,46.00632541572405],[2.25875495041796,46.005753362468276],[2.259325655446326,46.00271779962517],[2.263465127712863,46.00065555095034],[2.263522931660873,45.99971577191095],[2.263964347225657,45.99888384780611],[2.264317347555577,45.99770554392154],[2.268054387995005,45.99720023670713],[2.268359271857997,45.997301264438875],[2.269815065127339,45.99713685402957],[2.271746033059225,45.99738612236519],[2.272696019114094,45.997070735516104],[2.273526198714147,45.99731470250171],[2.274080476886259,45.997219197007865],[2.274275096719259,45.997060149454285],[2.274843677927827,45.99607500795956],[2.273700160350169,45.995784015661734],[2.272994836322009,45.9952841999045],[2.273199494930412,45.995049574078315],[2.274405100323381,45.9943539879627],[2.275311046331286,45.99404189964201],[2.275355540904924,45.99390080101088],[2.275238524495733,45.993564154655296],[2.27533814504353,45.9931613543843],[2.274623710295079,45.99217790554128],[2.274607617975209,45.99202651339574],[2.274724138180601,45.99181203270259],[2.275495629039042,45.991209111503714]]]]}}]}