{"type":"FeatureCollection","name":"COM_17055","crs":{"type":"name","properties":{"name":"urn:ogc:def:crs:OGC:1.3:CRS84"}},"features":[{"type":"Feature","properties":{"fid":3923,"ID":"COMMUNE_0000000009754360","NOM":"Boscamnant","NOM_M":"BOSCAMNANT","INSEE_COM":"17055","STATUT":"Commune simple","POPULATION":336,"INSEE_CAN":"27","INSEE_ARR":"1","INSEE_DEP":"17","INSEE_REG":"75","SIREN_EPCI":"200041523"},"geometry":{"type":"MultiPolygon","coordinates":[[[[-0.030781957850232,45.18773450297537],[-0.031704203022409,45.18672006820786],[-0.032063300646256,45.186692291423796],[-0.032409926686142,45.18652878906551],[-0.032505702445392,45.18639192563262],[-0.032902722252698,45.1863820383832],[-0.033396239838237,45.1864830632877],[-0.033978486903417,45.1863645132776],[-0.035352369865257,45.18636950705352],[-0.036513817492479,45.186170311621375],[-0.037788902157171,45.18637349844254],[-0.040861579653158,45.187645954154675],[-0.041338479075188,45.18769873884297],[-0.04192595315521,45.187535851612694],[-0.042559094537144,45.18786010483703],[-0.043120958266085,45.18795201573608],[-0.043373460516311,45.18818932514121],[-0.044667901333194,45.18811527393091],[-0.04568436173928,45.187710885992786],[-0.046434056114793,45.187578690147475],[-0.047768718267505,45.18756477861716],[-0.048767313660564,45.1876969973621],[-0.049635182443722,45.1875588483454],[-0.049978816977596,45.18773778579134],[-0.050328396764029,45.18762911224959],[-0.050824783873054,45.187688532765335],[-0.051289605207311,45.18756679396074],[-0.051679760966788,45.18766425744419],[-0.052560660652041,45.1872752260775],[-0.053013518922526,45.18726103687457],[-0.053205296483708,45.18708638561374],[-0.05336438893077,45.18708293432773],[-0.053520410839162,45.18651097866404],[-0.054612870163145,45.185238479380914],[-0.056057023082268,45.184246489573795],[-0.056652273392217,45.18350571031842],[-0.056687201492772,45.182445070386386],[-0.056996788675213,45.18190945192855],[-0.057008175006537,45.181489231568534],[-0.057342526229706,45.18098717511317],[-0.057505208711402,45.180328525862315],[-0.057223719577569,45.179725298334056],[-0.057205736280269,45.17928065218767],[-0.057005771937616,45.17867699312168],[-0.057189489511962,45.17851877463925],[-0.057620543237015,45.177619390089625],[-0.057938797826116,45.17731240813705],[-0.059591755569517,45.17643899534063],[-0.059988556680736,45.174985467646174],[-0.059922861497949,45.17490256666566],[-0.061054802872871,45.174658862125106],[-0.061946153489865,45.174697482344186],[-0.062682048395748,45.17489805364222],[-0.064814775094637,45.17515487732046],[-0.066020867069662,45.17579756373411],[-0.066596310693704,45.17599891433305],[-0.068290006691491,45.17631008946868],[-0.068476036689738,45.176240996231385],[-0.069068476588861,45.176287779791195],[-0.070200699929015,45.17667474145533],[-0.073277941927761,45.1768684697787],[-0.074204058804479,45.177236738701225],[-0.076598615730947,45.17845030357691],[-0.077502938281547,45.178792114487095],[-0.077352172278301,45.17896928344104],[-0.077848671480025,45.17956293149451],[-0.078288974659326,45.17934533557817],[-0.079735121751683,45.17899996026898],[-0.080190547647712,45.17861793884553],[-0.080649201791578,45.17787899036848],[-0.081223902307381,45.178157782920806],[-0.081186025194808,45.17821019155842],[-0.081793440099154,45.17845834170663],[-0.082241140007621,45.178513559104026],[-0.082057225515152,45.17864389205233],[-0.085910882075116,45.1790510173492],[-0.087395016937822,45.17904781143227],[-0.088930973297274,45.17961264954465],[-0.089665371548425,45.179414800598934],[-0.09015487347103,45.17912010153266],[-0.090753464408377,45.17895484125373],[-0.092880740041623,45.17915361701157],[-0.093171010108371,45.179218560985255],[-0.09464451877417,45.17989679055179],[-0.094991044100862,45.18017193018314],[-0.095274333210834,45.179421560034974],[-0.096333023263216,45.17801890060165],[-0.097477971493507,45.17794206917538],[-0.099927342419515,45.176622410816556],[-0.100179300968761,45.1764793433688],[-0.099802945985553,45.17596535367893],[-0.102584600566365,45.174827437355496],[-0.102965116934464,45.17431583894924],[-0.103448715643781,45.17400862737095],[-0.103507727690916,45.174336792358666],[-0.10418030793636,45.17525163368614],[-0.104721586219085,45.17572948185499],[-0.10565646000962,45.176297298116346],[-0.106529132381842,45.17764720207739],[-0.107427227481169,45.17860621093957],[-0.108380978974412,45.181021665305295],[-0.107904963097054,45.1815800973486],[-0.107159431799665,45.18203519469545],[-0.106523211429914,45.18218807429347],[-0.106005120472251,45.18242597145394],[-0.106993943403655,45.18295353142517],[-0.108766740313754,45.1842188864707],[-0.10871187849701,45.184400637653646],[-0.108008048236537,45.18537632377443],[-0.106312447108881,45.185498324436594],[-0.104309258361126,45.186001015065585],[-0.102586540152351,45.18687343817442],[-0.102346732041046,45.1871441304624],[-0.101832868367487,45.18839924504039],[-0.101629336120593,45.189185264823635],[-0.100417127931072,45.18901889877573],[-0.099590535246052,45.18925632243829],[-0.098686009830979,45.18969685132287],[-0.097475267336469,45.1911181698674],[-0.094288337134691,45.19420275802375],[-0.093811415595257,45.19493326173219],[-0.093703966445012,45.195385893818305],[-0.093679942456025,45.196285867690776],[-0.093568774102282,45.19664849172187],[-0.09378698843582,45.19727412235565],[-0.093557011150822,45.19804553898564],[-0.092529854107566,45.19961129444975],[-0.091888035830305,45.20008143048231],[-0.091602973473062,45.20043445080943],[-0.091142293451533,45.20065446354938],[-0.090969498117774,45.200894437907195],[-0.090850580444958,45.20141676990977],[-0.090915654780571,45.20183218215314],[-0.090521776934428,45.20249909522409],[-0.090505455563926,45.20282574894926],[-0.091014249732073,45.203565892003425],[-0.091468374401251,45.20400927942028],[-0.091795266041827,45.20521582568322],[-0.089427817503333,45.20562378665615],[-0.088235762945802,45.20619563122203],[-0.086867049266972,45.206385771166],[-0.085932307027352,45.206309786901095],[-0.085567340914681,45.20754718452374],[-0.08542541104883,45.209452447082874],[-0.085217869744862,45.20971049283672],[-0.084395658419976,45.21028739184037],[-0.081841527113112,45.211659120892065],[-0.080243329225646,45.211413065764994],[-0.08003560584133,45.21092949492826],[-0.079774803829462,45.21080062190227],[-0.078820579737033,45.21081161988637],[-0.07878854256037,45.210092519222826],[-0.078946527426462,45.20852023765047],[-0.077370977848278,45.20824378336619],[-0.07643425571411,45.20836331344741],[-0.074264107893039,45.207868010181095],[-0.07361645550442,45.207542521284005],[-0.073029397456679,45.207553274778114],[-0.072253795082827,45.207311498189135],[-0.071150969013,45.20719225708378],[-0.07080993495714,45.20708719773053],[-0.069894952729493,45.20704567900062],[-0.069510377796284,45.20682106537798],[-0.069330539482463,45.206448448066254],[-0.069078437830461,45.20638419155701],[-0.064898756808559,45.206640484336454],[-0.063602165463684,45.206938290887656],[-0.063295065100496,45.206916981165215],[-0.062668353760365,45.206716109043974],[-0.062176305757919,45.20669266086442],[-0.061391340337111,45.20692955037798],[-0.060397948107259,45.20689911511957],[-0.058806195188567,45.207114845943735],[-0.056443353009973,45.207216501406684],[-0.055206714090316,45.20749274357083],[-0.054530754739052,45.20736976713323],[-0.053513724958672,45.2067677221502],[-0.052781979444168,45.206673294061716],[-0.052281954670639,45.206806810891955],[-0.051509277742937,45.20719918303686],[-0.050077456514102,45.20737977982091],[-0.049546128198004,45.20689418733686],[-0.048835887849253,45.206633345111925],[-0.048693244676128,45.20563252242197],[-0.047891033195992,45.2051110674726],[-0.047831573445629,45.2038592723126],[-0.047369939488005,45.203528558437384],[-0.04640795829415,45.203068224037054],[-0.045839072127069,45.2031774598348],[-0.04536747084572,45.20313085356863],[-0.044909210373155,45.20323526459693],[-0.044616571676986,45.20317476298559],[-0.044390727046844,45.202960154992944],[-0.044534494452344,45.202651665989215],[-0.044501185102535,45.20250840001958],[-0.043077839872064,45.20130010022811],[-0.042544103530885,45.20018378202191],[-0.041954880347587,45.19947536484053],[-0.041726327275977,45.19932750663061],[-0.040992359295285,45.19933038267955],[-0.040549545265178,45.198945966233296],[-0.040434251021716,45.19867787925628],[-0.0404897591025,45.198152835739506],[-0.041005722905338,45.19784502654664],[-0.040613097297543,45.197539440279506],[-0.040827189187645,45.19704792251375],[-0.040738178142926,45.196747582002885],[-0.040296787014508,45.19671635261041],[-0.037761826168522,45.19699622101463],[-0.037227288602537,45.196869295973684],[-0.036182005521226,45.19639672874935],[-0.036123513033725,45.19609465412462],[-0.037149358380804,45.194875512621245],[-0.03711391396933,45.19455208644247],[-0.036353617698547,45.19385911173523],[-0.035289063627753,45.19399168974948],[-0.03497661339462,45.19389385781442],[-0.034330239342373,45.193279771344756],[-0.034181954145123,45.19287290831073],[-0.033302931282862,45.19231560124264],[-0.033306617799414,45.19191451923026],[-0.033450997071391,45.191827695866436],[-0.033550658072643,45.19134020477344],[-0.033207684909036,45.19129005428969],[-0.032899614178382,45.19108486929315],[-0.032456540425801,45.19050579808202],[-0.032158410401857,45.19031926390765],[-0.032225710967245,45.190174163542885],[-0.032538886460386,45.18995750506603],[-0.032480026754997,45.18969508726555],[-0.032718520878788,45.18941738152255],[-0.032590229913561,45.18890905287186],[-0.03306417525148,45.18832128398836],[-0.032902246473712,45.188178808044526],[-0.03288870578113,45.18785929197851],[-0.032249103831907,45.18767302642876],[-0.031941822128334,45.187739944695615],[-0.031493855404066,45.18765659857141],[-0.030781957850232,45.18773450297537]]]]}}]}