{"type":"FeatureCollection","name":"COM_23020","crs":{"type":"name","properties":{"name":"urn:ogc:def:crs:OGC:1.3:CRS84"}},"features":[{"type":"Feature","properties":{"fid":4174,"ID":"COMMUNE_0000000009751053","NOM":"Bellegarde-en-Marche","NOM_M":"BELLEGARDE-EN-MARCHE","INSEE_COM":"23020","STATUT":"Commune simple","POPULATION":357,"INSEE_CAN":"02","INSEE_ARR":"1","INSEE_DEP":"23","INSEE_REG":"75","SIREN_EPCI":"200067593"},"geometry":{"type":"MultiPolygon","coordinates":[[[[2.280985844389788,45.98452974192008],[2.280914500491811,45.984848977094664],[2.280542473763632,45.985440964360194],[2.281167270716443,45.98567276521858],[2.282366423510035,45.98693480672114],[2.282721120115184,45.987572827225264],[2.283510220490225,45.98749137043329],[2.286177349337016,45.98743616709027],[2.286986076017346,45.98693606375258],[2.288150574511929,45.98639496572685],[2.288845159611193,45.987427732766555],[2.289195408960707,45.98821609290753],[2.290221757326468,45.98867099196557],[2.290822141660554,45.98879812476856],[2.292375839133165,45.98893391519143],[2.293950859915391,45.98901938757424],[2.294646666588043,45.98895978485537],[2.295038474272347,45.99044449346151],[2.295042557705448,45.99083174603315],[2.296353826548194,45.99194754821883],[2.297290588118912,45.99214337436815],[2.299222838583767,45.99188158340065],[2.300261451301305,45.99199336533345],[2.299803558796557,45.99152766477003],[2.299616274327585,45.991117667386405],[2.298884807039671,45.98859976921368],[2.298632275663869,45.9872285028888],[2.298824939850527,45.987011767905734],[2.299156553310354,45.98612950174254],[2.299566035996035,45.985624136876034],[2.300051012471894,45.9856829675429],[2.300591040846223,45.985882618403224],[2.301895221467363,45.98643638355019],[2.302483964503352,45.98676870307325],[2.303213918916851,45.98686595001972],[2.303568144469603,45.987151794606504],[2.303787447593681,45.9876871554972],[2.305037351981169,45.98783891520857],[2.305512253773848,45.98767432976439],[2.305627433728533,45.987760585966875],[2.305364174177553,45.98804533955061],[2.305367610225069,45.98828490087515],[2.305858141255218,45.98852024389086],[2.306250723010031,45.98894229456989],[2.306036388181829,45.9893426168267],[2.306485580500089,45.98968126441052],[2.307064814286189,45.989337205672015],[2.308207011349916,45.9894279359038],[2.308804217844976,45.98919474292165],[2.31043779678889,45.988217721594246],[2.310877122886639,45.98779804810289],[2.310802113241238,45.98749501476259],[2.311159455863504,45.98732878990435],[2.311098510740525,45.98724376975684],[2.310288595554628,45.98692815940472],[2.309749901440834,45.98692757962301],[2.309313813365553,45.98667727649559],[2.308066661595277,45.98620499307368],[2.306761821065561,45.98590434342121],[2.307100663023019,45.98556601744036],[2.307528889723462,45.98531018492423],[2.30787172672592,45.98413979409938],[2.308181982163829,45.98196331457584],[2.308095790792803,45.98172955156448],[2.307572294831731,45.981448990020226],[2.307870674681972,45.98062773200588],[2.308261254304432,45.98028071365685],[2.307867288648865,45.97956148720235],[2.30722637161392,45.97947832225904],[2.307118609628861,45.97829076818536],[2.306798443098586,45.97704698190198],[2.30673080904004,45.97698172993963],[2.306402343884334,45.977013038284916],[2.306727878042035,45.97670164801626],[2.306774515096333,45.97607516651561],[2.307075800142127,45.975329572719176],[2.307055534319697,45.97509261005063],[2.306945194675921,45.974828980887075],[2.306170393832681,45.974305532845996],[2.306083771401257,45.974005126490034],[2.304903629326251,45.974694897275064],[2.303831164662447,45.97514037440826],[2.303470063688456,45.97479145091186],[2.302052472440531,45.974238804366195],[2.301319248315155,45.97471786651922],[2.300423607516227,45.975068946374044],[2.299532152539058,45.975699208787894],[2.298692939477254,45.97516720606078],[2.297826537492629,45.97433785412995],[2.297625412341708,45.97400611304119],[2.297553968751513,45.973531992063215],[2.296371797994397,45.97396861349217],[2.295974541338935,45.974027380458566],[2.293650518360617,45.97386702302802],[2.293176805131168,45.973744297021256],[2.292600986749874,45.97342641704711],[2.291018071193451,45.97358761856742],[2.290602096869592,45.973795737325084],[2.289749144312558,45.97393717723409],[2.289464258270743,45.9738948663294],[2.289110180457806,45.97370983678459],[2.290066989077959,45.97522962826891],[2.290072584694484,45.976097773275015],[2.289286039222959,45.97589472356253],[2.288948543490033,45.97622490029144],[2.288914201328621,45.977183748135836],[2.289188824225484,45.97782214612994],[2.289549786474816,45.978276476609764],[2.28913066306539,45.97832517681437],[2.288770159241321,45.9785354383177],[2.288294600676825,45.97855316303453],[2.287360510597018,45.978869678740324],[2.286559525952714,45.9784828114511],[2.285947259510403,45.97828533906233],[2.283624512964711,45.9779158620221],[2.282931965575308,45.97773497545002],[2.28002055564034,45.97665297841651],[2.279769802043535,45.97696296739476],[2.279212210373708,45.97693330462108],[2.276925661914545,45.97627394915363],[2.27633359373552,45.97670602411172],[2.276215361880147,45.97725008944565],[2.276056411119233,45.97735443555354],[2.275376679683912,45.977379805979474],[2.274358715551865,45.97719588365122],[2.274217217633087,45.97813152876123],[2.273082645683575,45.97777844844976],[2.272902539902424,45.97831040648872],[2.272726939238682,45.97850109203969],[2.272725732630207,45.978690195746836],[2.272340755706758,45.97928117272793],[2.272836638828288,45.979192503495256],[2.273188475011068,45.97925239587877],[2.273581651520322,45.97970338262302],[2.273914123789038,45.980742025285416],[2.275396527534016,45.98038590363538],[2.276519645211971,45.98043630896239],[2.27666458579762,45.98031746419607],[2.277015328427104,45.980264771350214],[2.277911034679183,45.98041907301331],[2.278197279782062,45.98035966157341],[2.278906924328246,45.98002558263177],[2.280551456163149,45.979910867453185],[2.281110756425655,45.98000987507959],[2.281796701280185,45.980599571287925],[2.28261665602553,45.9807200356376],[2.282711258532372,45.981786861934744],[2.282451865592791,45.981966225365696],[2.281986337918169,45.98210375779741],[2.28184711045687,45.982280279456305],[2.281863443037361,45.98241456194495],[2.282254658244987,45.98282498169458],[2.282267269967572,45.98314565018421],[2.281717674874917,45.98388420269734],[2.281138808582332,45.984291171898334],[2.280985844389788,45.98452974192008]]]]}}]}