{"type":"FeatureCollection","name":"COM_17299","crs":{"type":"name","properties":{"name":"urn:ogc:def:crs:OGC:1.3:CRS84"}},"features":[{"type":"Feature","properties":{"fid":3972,"ID":"COMMUNE_0000000009751147","NOM":"Rochefort","NOM_M":"ROCHEFORT","INSEE_COM":"17299","STATUT":"Sous-préfecture","POPULATION":23188,"INSEE_CAN":"13","INSEE_ARR":"2","INSEE_DEP":"17","INSEE_REG":"75","SIREN_EPCI":"200041762"},"geometry":{"type":"MultiPolygon","coordinates":[[[[-0.939859022934161,45.958167304655035],[-0.941631566150693,45.953044786505025],[-0.941420559155391,45.953004353684534],[-0.941469757200643,45.952879117993625],[-0.941248345776986,45.95224217789801],[-0.940672057164507,45.95141473845877],[-0.940643473465767,45.95088919098838],[-0.940785317659366,45.95066786138556],[-0.940795854719088,45.95027348834997],[-0.940610430196701,45.94883916750538],[-0.94071682105748,45.948519895346145],[-0.9413158496572,45.94813116321373],[-0.941588643154738,45.94843902546721],[-0.941970585576413,45.948610545502774],[-0.943439979006234,45.94907685117534],[-0.944253656560738,45.94917650841377],[-0.945322425526162,45.94917439536959],[-0.94659257848231,45.94900656050911],[-0.948636921445471,45.94847808596358],[-0.949664257330352,45.94809689413792],[-0.950762856563897,45.94753828869492],[-0.952189865806807,45.94645968139933],[-0.952668273310779,45.94579649939455],[-0.952961706070699,45.94451946430374],[-0.953109568240652,45.94274531281877],[-0.953512626134553,45.940313972740405],[-0.954092974735708,45.93799454336547],[-0.954368945798658,45.93568395087136],[-0.954254567872101,45.93542287354723],[-0.953911569789007,45.93464143960975],[-0.953123399189431,45.93356270662243],[-0.950449976767352,45.93070062809876],[-0.948510688569379,45.92800039643386],[-0.947979181019873,45.92682250852906],[-0.947870891805344,45.925078049925574],[-0.947960499583451,45.92465206124668],[-0.948024337868516,45.924335166714954],[-0.948421409158405,45.92358467617513],[-0.951201592153466,45.92018129582548],[-0.952383428880982,45.91904451041862],[-0.95382950196737,45.917900272182344],[-0.955096081110277,45.91708146863278],[-0.956314167281114,45.916541145510074],[-0.957807768996872,45.91622197787912],[-0.959513762004522,45.91612616648816],[-0.963725911424846,45.916139931567734],[-0.96615507070529,45.91602316651513],[-0.968565675266925,45.91563110123814],[-0.972358422013575,45.91522107413488],[-0.976348648909686,45.91482741342364],[-0.978188080478466,45.91477350854795],[-0.979842213313647,45.914908228988104],[-0.98204903658102,45.915486898326364],[-0.984141683052199,45.9163436493497],[-0.98619002260848,45.91756889447872],[-0.989071585050686,45.919505855550526],[-0.990197663837911,45.92071218350263],[-0.992788614518506,45.92435621428445],[-0.994445953022909,45.925616775458096],[-0.998050190471639,45.9275316042228],[-0.999610109001587,45.92826627430954],[-1.001480127013046,45.92871584786115],[-1.00349041459842,45.92929927899328],[-1.005166584234656,45.92980074062029],[-1.006181130562765,45.93023004884849],[-1.007629975246855,45.93133552366543],[-1.008439980937485,45.9327350299468],[-1.008629326665942,45.933294556075],[-1.00884008178607,45.933917340431066],[-1.009050964309189,45.935198327937634],[-1.009120165326783,45.93634368075549],[-1.00893303293826,45.93758918889019],[-1.008062806685035,45.939499084913024],[-1.007459912380118,45.94041308962299],[-1.006776726429375,45.94107657072434],[-1.002353949293592,45.944148227933965],[-1.000909484547718,45.94529304063471],[-1.000037494641211,45.94609930428528],[-0.998650019250917,45.94820773466643],[-0.997723413062184,45.95055862844779],[-0.995642195169866,45.95618270901314],[-0.993367234994238,45.95558049999645],[-0.993548102675471,45.95524050566003],[-0.993411395422637,45.95513803628663],[-0.993123158203714,45.95508509679497],[-0.992886589684002,45.95520976010631],[-0.992932591933985,45.955469613357096],[-0.992859142595717,45.95552630480743],[-0.992637332103269,45.955498068540464],[-0.992399505398399,45.955587610989326],[-0.991989627543298,45.95540822334535],[-0.991821915415222,45.955234714781845],[-0.991562092060393,45.955234867282186],[-0.991418578929389,45.955466244225235],[-0.991414206619763,45.95570894085001],[-0.990289138107726,45.95646994982545],[-0.989528909712375,45.9561297962068],[-0.989896953842524,45.95553615647917],[-0.989815186281729,45.95512157971605],[-0.98666386936384,45.95557170804525],[-0.984988681100717,45.956288032663196],[-0.983122887498256,45.95685415744676],[-0.980364590475323,45.95791419885717],[-0.979091280724221,45.95814743796263],[-0.978684551459522,45.958225760445764],[-0.978708459928956,45.95852065648486],[-0.980182015032556,45.965076922840666],[-0.979816106377363,45.96554151571168],[-0.979601172389714,45.966448910560175],[-0.979602945104718,45.967009666733674],[-0.9797323311492,45.96715388576112],[-0.979760224708262,45.96771823135369],[-0.979451310755435,45.967684015265576],[-0.979413026873168,45.96792339408064],[-0.979031988748118,45.9680540082572],[-0.978443306553661,45.96851380712785],[-0.978169648275698,45.96919965703242],[-0.976790340161652,45.971046909262895],[-0.976015881263678,45.9719784668837],[-0.975538271158991,45.97224049367053],[-0.974970298858146,45.971788893087165],[-0.973486344048168,45.971043970987274],[-0.971625344154894,45.9705385763044],[-0.970764877785131,45.97045877768996],[-0.969686489599993,45.97035145490073],[-0.969219381405369,45.97106390177433],[-0.968000977380323,45.972188593814586],[-0.967808584868268,45.972622713516046],[-0.967532599378257,45.972883945955516],[-0.966787301060743,45.97332572806883],[-0.966125639441824,45.9736004767371],[-0.965487421080535,45.973805875906585],[-0.964868175972962,45.97387987029661],[-0.964517170677831,45.97362077862405],[-0.964253359117921,45.97353084227909],[-0.963671036967757,45.973507062364966],[-0.96329055436745,45.973789976584456],[-0.962648047408813,45.97393600208756],[-0.962183650929181,45.97463389465377],[-0.961839375138189,45.97462971982517],[-0.961184926544262,45.97500516787171],[-0.959722602156591,45.97493643286308],[-0.959239440717332,45.97483522637431],[-0.95861430553909,45.97542061354338],[-0.95818584697687,45.97616952451354],[-0.956485224418276,45.97600629681445],[-0.956505844083102,45.97591541344721],[-0.955255552023379,45.9757742894418],[-0.955251729601477,45.975001731756535],[-0.955024621554854,45.97419911047237],[-0.953709649442081,45.97223985560319],[-0.953158191832269,45.97106176889492],[-0.952027146996455,45.970040972458044],[-0.951645697244734,45.96905079062221],[-0.951104711614826,45.96855756285096],[-0.95019687256673,45.96745682659334],[-0.948981673963897,45.966432631027104],[-0.948515023812641,45.96592958500586],[-0.948258593667328,45.965311006936105],[-0.946623898933861,45.964619699441705],[-0.946450358935716,45.96409289655683],[-0.945535731129632,45.96367038224985],[-0.945659148290667,45.963552474124],[-0.944633177294602,45.96274884558914],[-0.943398973811204,45.96161886918915],[-0.943445466039361,45.96152798851447],[-0.943219595140391,45.96147905982713],[-0.939859022934161,45.958167304655035]]]]}}]}