{"type":"FeatureCollection","name":"COM_16104","crs":{"type":"name","properties":{"name":"urn:ogc:def:crs:OGC:1.3:CRS84"}},"features":[{"type":"Feature","properties":{"fid":4281,"ID":"COMMUNE_0000000009750839","NOM":"Condac","NOM_M":"CONDAC","INSEE_COM":"16104","STATUT":"Commune simple","POPULATION":460,"INSEE_CAN":"08","INSEE_ARR":"3","INSEE_DEP":"16","INSEE_REG":"75","SIREN_EPCI":"200043016"},"geometry":{"type":"MultiPolygon","coordinates":[[[[0.225415768402874,46.04938627965931],[0.226339006308708,46.04873398925979],[0.227285807106724,46.04879409500304],[0.227754520268506,46.04871184998939],[0.228320914717165,46.04692360801072],[0.2300063285848,46.04780998754823],[0.230582414845531,46.04790786084135],[0.23237421020421,46.047916481991926],[0.23303262475283,46.04784425331139],[0.235072215101348,46.047171384060164],[0.236184202684099,46.04723995027667],[0.237824515380839,46.04691501072457],[0.23966557351293,46.046792264725525],[0.240050280391592,46.046655663616704],[0.24084857774114,46.046760696949654],[0.242385271694088,46.045895248939814],[0.244396559165774,46.04557653760395],[0.244475040096715,46.04543067496286],[0.246188275009053,46.044371240675446],[0.247050684528035,46.04399663376163],[0.247548909550599,46.043530281927694],[0.246587645991463,46.04332132092569],[0.245847740671117,46.043033032846694],[0.24509313641778,46.043115610797976],[0.244234321471288,46.04308302016821],[0.244027421917047,46.043209541470816],[0.243721171533524,46.04371748959995],[0.243379215586685,46.04387947026035],[0.242991719443054,46.04389167058034],[0.242396798679773,46.043731229803036],[0.239542620200279,46.04241291069316],[0.238757266365698,46.04230908292276],[0.233985215070305,46.04202963793976],[0.232354092954434,46.04163480869826],[0.232341149400083,46.040324373576546],[0.234020957472472,46.03864528754423],[0.235192515033436,46.03719165666361],[0.23516580881584,46.036642269520584],[0.238467039478637,46.03538921518246],[0.238564312704255,46.034457204439725],[0.239443121330525,46.034501140920995],[0.241737595368287,46.034409238266555],[0.242917578750162,46.03242052142589],[0.244067570276741,46.029660675365086],[0.243678611960406,46.02911059074983],[0.243539491137971,46.02866029054125],[0.243263301453091,46.028467056315726],[0.243730422167851,46.02691601518592],[0.243549501363241,46.02479687177888],[0.255999389061351,46.02349701521288],[0.257780512008732,46.023003119099755],[0.256201299954381,46.021446642406644],[0.255445569447896,46.02080662357471],[0.254998596751177,46.02017408029466],[0.254304847620022,46.019458966658995],[0.254048024073121,46.018904011060386],[0.253881092032526,46.018154807633366],[0.254085146649646,46.01663249634932],[0.254042805216147,46.01618545691497],[0.253117285308059,46.01643513332006],[0.251815178209965,46.01653420494442],[0.250630321929165,46.01677126295946],[0.24883095262565,46.01690869005355],[0.248251958872512,46.01679731607937],[0.246593245326936,46.01601095431636],[0.245451863761653,46.01607691641017],[0.244961131339643,46.01580458291964],[0.244617235148405,46.016370182070595],[0.244026848501995,46.016408982867176],[0.243656723778653,46.01623328581095],[0.243479946709373,46.0158640631175],[0.243632793386171,46.01547222510099],[0.243555457097455,46.01520904158032],[0.243841244496768,46.014693391153905],[0.243484486394145,46.01474147658331],[0.243014194795522,46.014577756433454],[0.24271206441238,46.01459383033315],[0.2416291734566,46.01388087481985],[0.241051543283229,46.01366587630329],[0.239858711663093,46.013417866301005],[0.239154266867588,46.01335925248476],[0.238231164861197,46.01338000181689],[0.236314584647323,46.013715303465226],[0.235048212464385,46.01366998527236],[0.23125741326897,46.01267545206763],[0.227887630738334,46.01207944366731],[0.225097875440468,46.01183002998601],[0.223442633862944,46.01139391069085],[0.222530891418813,46.01139498682129],[0.22002090269016,46.01172627504299],[0.218132271243638,46.01137986067392],[0.21723296856978,46.01128839136243],[0.216277252715262,46.01126400849482],[0.214483022410437,46.011352357398664],[0.213187062184328,46.01130516451904],[0.211726622543998,46.01151791708114],[0.210091479398519,46.01206424393534],[0.210511183069923,46.012305249660244],[0.210850285786404,46.01293712882369],[0.212010939538321,46.01404696395851],[0.212766579795214,46.015008960905895],[0.213436845055626,46.01484884336705],[0.214029227106324,46.01482196455971],[0.213124210483052,46.01530159100964],[0.211732638826095,46.01586294603518],[0.210274383426155,46.016692958874096],[0.210100398500493,46.01691033376559],[0.209468562144121,46.01722996459247],[0.208959237578055,46.017352576185495],[0.2087114223725,46.01754650490335],[0.207546279146682,46.01805301879336],[0.206525425720636,46.01887574539183],[0.206267491002412,46.01937037225254],[0.206170108040254,46.01998879830104],[0.206785333279565,46.02004811948393],[0.207288146270183,46.02081830226191],[0.209699411621954,46.02221307491293],[0.209707560930352,46.02235834535276],[0.211513595392989,46.02485006990064],[0.211901556463374,46.02556604283088],[0.211795996677079,46.02598964359394],[0.211620208394971,46.026242118052494],[0.210801687102405,46.02707797356218],[0.210681367900912,46.027103845515995],[0.210605510558957,46.02752817661589],[0.21069257934233,46.02813222387638],[0.209469509078847,46.028552637443426],[0.20944807708122,46.030300154887605],[0.209209576170176,46.0304114183981],[0.209948140316973,46.03156042809111],[0.210371411371639,46.032677342696836],[0.215608739400588,46.0383377028633],[0.216316441870057,46.041582652815855],[0.215545122340122,46.04176464090756],[0.215898356336215,46.0427608704597],[0.216548797852627,46.04276873615669],[0.216732949152786,46.043552667390024],[0.217343804128599,46.04454710775307],[0.218253633905702,46.04664005373106],[0.218623324494458,46.046877992359065],[0.218918858507736,46.04686812367598],[0.219577516027964,46.046740113869824],[0.219740662322122,46.046584629797216],[0.222419720828671,46.04603759624209],[0.223976893308715,46.0475904045259],[0.225415768402874,46.04938627965931]]]]}}]}