{"type":"FeatureCollection","name":"COM_17366","crs":{"type":"name","properties":{"name":"urn:ogc:def:crs:OGC:1.3:CRS84"}},"features":[{"type":"Feature","properties":{"fid":4072,"ID":"COMMUNE_0000000009754564","NOM":"Saint-Martin-de-Coux","NOM_M":"SAINT-MARTIN-DE-COUX","INSEE_COM":"17366","STATUT":"Commune simple","POPULATION":459,"INSEE_CAN":"27","INSEE_ARR":"1","INSEE_DEP":"17","INSEE_REG":"75","SIREN_EPCI":"200041523"},"geometry":{"type":"MultiPolygon","coordinates":[[[[-0.110983343439712,45.11540073750427],[-0.110450363466773,45.11634284478846],[-0.110374343154321,45.11724066064969],[-0.111259849232061,45.12000125406507],[-0.112302989043928,45.12223119964562],[-0.113875656176608,45.12491672609297],[-0.115549228112285,45.126920883921734],[-0.117812271084868,45.130042130894765],[-0.120196061912255,45.129827662134424],[-0.121015686981115,45.128958580052306],[-0.122676826574777,45.13020966374941],[-0.123121979351374,45.12995209313175],[-0.123383128319165,45.12988710644127],[-0.125095491732487,45.12970846111518],[-0.125218979512829,45.12970860412422],[-0.125429636464508,45.13001538441492],[-0.126706854803155,45.13004535411806],[-0.127461897473893,45.13018457478805],[-0.127281270306797,45.133734616334166],[-0.128054267253108,45.13603510124514],[-0.130470209143941,45.136026773040754],[-0.13030649883421,45.13664953358415],[-0.131727439187955,45.137968515705126],[-0.133679118715573,45.140576484126946],[-0.132539805107652,45.14114826364938],[-0.133244319540104,45.14151865434202],[-0.130945849757354,45.14242305146762],[-0.131536731327371,45.1426515637886],[-0.132844857797475,45.14290948725691],[-0.134784927369167,45.1429018259882],[-0.136363885935722,45.14322058029601],[-0.13593993031585,45.14446883767772],[-0.134751011853166,45.1462450266514],[-0.136268149413973,45.14566530482159],[-0.137650550837644,45.14447839341488],[-0.138953756276456,45.144126327553906],[-0.139624401033971,45.14674683082631],[-0.140578733091958,45.14675690634622],[-0.141990440860578,45.14661261276113],[-0.142432842278847,45.148907922260804],[-0.140464398171106,45.14889037713641],[-0.135637328081302,45.14964796785381],[-0.132757253010942,45.14949731581612],[-0.132412422051313,45.149661092445335],[-0.132135802345383,45.149678773491786],[-0.131063244488654,45.15151292711197],[-0.131478754308896,45.152200529560986],[-0.131551258559942,45.15258507367851],[-0.131030144249959,45.15457946070819],[-0.130005913632963,45.156551018305755],[-0.130053979917082,45.15824917948358],[-0.129758266536249,45.159267631216565],[-0.128719746935007,45.16046371303536],[-0.127097871323062,45.16186537338814],[-0.12662796700794,45.162117341102764],[-0.12554951320116,45.1624656570556],[-0.124175938003185,45.16527957499442],[-0.123558656784351,45.16640433323143],[-0.121187646275012,45.17143224271436],[-0.119485620475389,45.17225209995002],[-0.118974113078442,45.17237723719466],[-0.118867953807338,45.17264333083483],[-0.117896305501435,45.17319764012424],[-0.116926649686202,45.17328600776854],[-0.115043395746578,45.17373689381656],[-0.114661274197166,45.173898047487725],[-0.112649578744904,45.174262365968424],[-0.112042768570563,45.1744153603143],[-0.110911909526515,45.174857802966365],[-0.109159974637394,45.17501476742758],[-0.107669357446074,45.17499141286001],[-0.105819525839601,45.17457974637124],[-0.105724029489023,45.17435171996087],[-0.105016809857211,45.17423443369225],[-0.103999541197316,45.17394824988417],[-0.103581456022364,45.17369225001418],[-0.103541673951567,45.17352665117377],[-0.103364222725231,45.17340543142301],[-0.102661135524696,45.17292667081291],[-0.102181792664612,45.17273724942345],[-0.101681784829675,45.17240512418988],[-0.100186349504439,45.17128425577694],[-0.09970590676171,45.170799291622664],[-0.099304371603608,45.170175165426585],[-0.099203426883553,45.16934354400309],[-0.098501322766924,45.16844481693244],[-0.098484413618302,45.16724501239612],[-0.098327064379333,45.16704933665143],[-0.098228846686727,45.166450125191105],[-0.097683459588044,45.16566598866618],[-0.097400973558479,45.16532690617838],[-0.096818864311044,45.1649366677369],[-0.096257989978309,45.164768410116515],[-0.095835749497555,45.16482608448972],[-0.095628293382141,45.16473722521923],[-0.095419414671119,45.16441592005496],[-0.095340909677228,45.1640567553438],[-0.095030990388446,45.16375086852472],[-0.094905383468063,45.16311637144739],[-0.094633176841724,45.16266345870626],[-0.094425407240396,45.16249981460173],[-0.093560471014921,45.162107493590185],[-0.09328181901483,45.161744867146325],[-0.093072173236046,45.1605125647748],[-0.09286833275527,45.16030465522801],[-0.092476186527445,45.15943334784362],[-0.091763735090584,45.159102567914594],[-0.091394375364113,45.15868838571821],[-0.090906985078069,45.15855771559383],[-0.090751221440556,45.15818266789101],[-0.090413571314988,45.158019011488996],[-0.090382097486484,45.15779550930654],[-0.090154962006932,45.1576035595804],[-0.089908297246449,45.156943578077716],[-0.089572530529473,45.156744724366035],[-0.088713933139159,45.156510787752836],[-0.0893918516025,45.15582700199625],[-0.089650526716432,45.15566845241471],[-0.090884762622825,45.15523416965363],[-0.091670436206857,45.15518626364797],[-0.093421628474499,45.154865578567296],[-0.094769486231407,45.15443711144806],[-0.096375343315326,45.15367796977302],[-0.096758694907609,45.153333919028825],[-0.097559385084289,45.15305216804423],[-0.097716819442224,45.15279098134407],[-0.097682391976836,45.15235400135196],[-0.098039975397203,45.15207373871717],[-0.098155725986655,45.15149742191386],[-0.097769095649663,45.151162137318636],[-0.096781478719294,45.14855474035529],[-0.096274247813666,45.147467677141016],[-0.094835805658253,45.145637818870476],[-0.094926946140179,45.14535234410241],[-0.094716027240339,45.14455621801987],[-0.095215567757987,45.144356727989255],[-0.095490845275694,45.14364893246029],[-0.095364133386519,45.1432694819974],[-0.095822204627843,45.14303419485112],[-0.096198829819049,45.1426389689675],[-0.09711775014339,45.14235663833705],[-0.097451428962264,45.14178418268535],[-0.097353252794635,45.141483238640056],[-0.097060256302475,45.14138865081971],[-0.096668118583102,45.1410445072869],[-0.096832732184997,45.14093630943616],[-0.096815195975519,45.14055112551765],[-0.096403347313613,45.140149858320676],[-0.096139273487273,45.140025630047745],[-0.095796585125192,45.140045056350715],[-0.095156996223398,45.13964650282097],[-0.094620857454514,45.13959830584918],[-0.094213490650833,45.13939244534843],[-0.093420065203076,45.13853768978323],[-0.092331103101013,45.138116443706586],[-0.091561757846794,45.137580898193306],[-0.091597239332616,45.13737085990472],[-0.090813376559717,45.13721687625008],[-0.08979246785737,45.137196510462616],[-0.08943124268579,45.13704161860346],[-0.088956642998383,45.13658619708525],[-0.088907146939109,45.13631273400389],[-0.08899800889898,45.135975910387764],[-0.088680951606912,45.13567561754808],[-0.088656333428256,45.13539155329741],[-0.087844828020183,45.13533563382114],[-0.087322744700901,45.13510319056823],[-0.087259045894878,45.13468774739779],[-0.08699868710924,45.134353441045306],[-0.087366378241868,45.13370438458819],[-0.088081831905442,45.13312859638838],[-0.088409071668117,45.13273836955972],[-0.088350872186141,45.13256066376882],[-0.087784040182869,45.13202489306622],[-0.087866529598103,45.1316747861669],[-0.087731174303766,45.131482997275356],[-0.087849278937939,45.13131662840419],[-0.087199794848034,45.1297225571164],[-0.087587233704943,45.129316248210884],[-0.087868818537416,45.129159769327764],[-0.088366886691996,45.129073886175384],[-0.088680840009148,45.12892732165367],[-0.089150125930696,45.128551178844845],[-0.089220465146611,45.12844199966204],[-0.089123746469633,45.127958989825935],[-0.089404126110672,45.12778091394366],[-0.089868823885886,45.127276038475415],[-0.089937571913213,45.12709211206824],[-0.089916614911009,45.126252873169754],[-0.090234633843972,45.12553579858122],[-0.090267528823914,45.12523302026503],[-0.090037630854372,45.12452842967863],[-0.089696928407606,45.12402965593171],[-0.089753288486049,45.12357574499533],[-0.089638379803768,45.12338519464796],[-0.088947504388696,45.12288350823385],[-0.088348302757505,45.1222900701267],[-0.088015363140449,45.122115470460045],[-0.087599962808226,45.12162326615178],[-0.087857556102541,45.121517011079426],[-0.089494955979217,45.12125177692817],[-0.090258518466478,45.12127296391822],[-0.092050982115352,45.121142161488464],[-0.092671937303378,45.121185309305645],[-0.09326009829279,45.121325780788055],[-0.094223608888078,45.12114225033623],[-0.097857423470953,45.121051239116625],[-0.099551496194799,45.120431951741786],[-0.100812554210191,45.120175210578644],[-0.101521076510162,45.119457148772725],[-0.102255353369116,45.11899698044148],[-0.103825038733423,45.118431548593385],[-0.104347709694957,45.11837824656283],[-0.106018853990928,45.1178757374703],[-0.106285981067064,45.11773583214199],[-0.106632544518843,45.117376547255624],[-0.107139534063288,45.11711010820337],[-0.108780210484357,45.116678691259786],[-0.110983343439712,45.11540073750427]]]]}}]}