{"type":"FeatureCollection","name":"COM_33282","crs":{"type":"name","properties":{"name":"urn:ogc:def:crs:OGC:1.3:CRS84"}},"features":[{"type":"Feature","properties":{"fid":4167,"ID":"COMMUNE_0000000009755853","NOM":"Mérignas","NOM_M":"MERIGNAS","INSEE_COM":"33282","STATUT":"Commune simple","POPULATION":299,"INSEE_CAN":"27","INSEE_ARR":"3","INSEE_DEP":"33","INSEE_REG":"75","SIREN_EPCI":"243301454"},"geometry":{"type":"MultiPolygon","coordinates":[[[[-0.087557848879544,44.804906173432606],[-0.086473176351024,44.80439847550346],[-0.086100820410222,44.804070963794196],[-0.085104133911672,44.80343646491794],[-0.084823000536296,44.803087489505785],[-0.084406906890624,44.8030233829585],[-0.083951697804077,44.8027999838249],[-0.082648688742563,44.80253258641989],[-0.081262040939615,44.801778252919604],[-0.080688242466492,44.801584266517374],[-0.079854990610336,44.80148218052522],[-0.078521543855587,44.8015129131516],[-0.07685953570819,44.80185278399787],[-0.075557321774834,44.801668175105554],[-0.075501425295951,44.801456188248565],[-0.075193712675387,44.801429585929974],[-0.074856511005573,44.80114160904102],[-0.075637029009435,44.80051177916147],[-0.075835603989072,44.80023236457822],[-0.075830989456856,44.800032470063776],[-0.075012684912447,44.79930103448446],[-0.074470525853444,44.79862049985106],[-0.073633927359501,44.79801660404053],[-0.07325137738462,44.79789386296812],[-0.072244466762044,44.79780824946824],[-0.071960411613737,44.797658447096524],[-0.071236387513379,44.79656667686318],[-0.07060903994157,44.795460511932255],[-0.07047962313538,44.79506044967523],[-0.070009885690791,44.794406722549994],[-0.069847369730276,44.794304005013075],[-0.068363188901262,44.79439826052419],[-0.068209324090744,44.79387453545198],[-0.067796291126331,44.793911196143206],[-0.067728029397509,44.793680628262635],[-0.067808526668732,44.79330088254879],[-0.067979141892307,44.793134881583924],[-0.067975457007707,44.79281242671641],[-0.068217743768005,44.79247595503312],[-0.068171404947461,44.79209071021838],[-0.068456662212656,44.791869277006185],[-0.067914991944691,44.79084722513251],[-0.067042570672329,44.7903253675554],[-0.065818894285533,44.789881696348424],[-0.066312313894861,44.787886758502374],[-0.066317113853087,44.78653693619966],[-0.0648663715693,44.78561660746005],[-0.065184061022343,44.78538707771824],[-0.066202428287834,44.78499130091239],[-0.06642145249109,44.78471584361649],[-0.068143087790778,44.78415552648755],[-0.068400486781971,44.78388801249333],[-0.068545001678641,44.78185407158341],[-0.068476867727943,44.78132437205092],[-0.06807812260341,44.78036954809594],[-0.068098085905914,44.77902020915771],[-0.067530296281525,44.7786530069918],[-0.066178012954139,44.777192085473985],[-0.066169951469765,44.77639493148253],[-0.065480331197569,44.77550941802789],[-0.064933611760339,44.77511008687644],[-0.063046603916061,44.77425587308739],[-0.059634538159629,44.773640168162316],[-0.060115813629897,44.773024116580785],[-0.061477299583181,44.77161610342267],[-0.06174756284308,44.77086532066124],[-0.062465533487786,44.77104279374024],[-0.063664020062226,44.770846580969206],[-0.065144460565206,44.770718238049305],[-0.065735459526143,44.770793787114016],[-0.066043879641236,44.77065100510546],[-0.066924480362524,44.77072574107327],[-0.067062518110905,44.77070570208504],[-0.067142061665321,44.7704944705005],[-0.067257732539072,44.770435406906],[-0.068461696711567,44.77027052448802],[-0.069333742138988,44.77042026038023],[-0.071484557193936,44.77040840709699],[-0.07207440380112,44.77034700371593],[-0.073190317079771,44.76993673815236],[-0.074009265063973,44.76992483065274],[-0.075232436755561,44.769695370446705],[-0.07568715641011,44.769452994618796],[-0.076130495361859,44.76946501289047],[-0.07719509057157,44.769019189954705],[-0.079236501006527,44.768742628077426],[-0.079849681568598,44.76873819775132],[-0.081160548679217,44.768955829529],[-0.082394358645237,44.769428769864774],[-0.086113574696936,44.770339755116915],[-0.086601513351532,44.77056492699218],[-0.086456068220038,44.77081855539212],[-0.086983259713303,44.770883155543196],[-0.087574002847662,44.77106851801681],[-0.088363049677814,44.77106454611161],[-0.088685373832455,44.77119881973524],[-0.088664498834903,44.77141744352232],[-0.090325996622033,44.771499955522074],[-0.092475668975318,44.77128229959736],[-0.092438781210009,44.772175320344836],[-0.092585028783753,44.77287942543884],[-0.092874512489162,44.773657919501545],[-0.093548493164646,44.774573443076136],[-0.096180071427744,44.77481258594499],[-0.098488852089834,44.775253509408294],[-0.099670406940554,44.77587459159104],[-0.101683115200034,44.77651925126801],[-0.103070556281726,44.77729401411749],[-0.108259318029056,44.779096565877126],[-0.109005902455609,44.77919185142534],[-0.108112144087358,44.78085045699734],[-0.104280540591895,44.787224388579084],[-0.103413200490252,44.78893086799111],[-0.103266119556039,44.78965849868552],[-0.103297799862427,44.78998017377397],[-0.103113498021442,44.79046917746837],[-0.103377653649572,44.79108257834092],[-0.103382255914833,44.79187624119425],[-0.103245680553597,44.792335977520516],[-0.103417564027083,44.79242396908777],[-0.103438536550348,44.792689180537224],[-0.103257125392109,44.79284112506111],[-0.102994085320294,44.79332512520208],[-0.102612471826682,44.7934033842566],[-0.102089257458223,44.79369013497712],[-0.101778534910725,44.79372315836898],[-0.101469113494015,44.793871474011134],[-0.101203749154998,44.79413028153721],[-0.100193258998282,44.794713573387256],[-0.099795227896298,44.79532027444701],[-0.099483864660636,44.795525402277974],[-0.09925863046311,44.795961482946986],[-0.099267954273329,44.79672708228336],[-0.098945891030668,44.797105501892204],[-0.098889152257739,44.797384599848435],[-0.098130438502577,44.79838160458247],[-0.098212291202634,44.79917761348107],[-0.098342703006608,44.79950013481256],[-0.098177854569866,44.80006787515772],[-0.097762057873405,44.80035340345583],[-0.096931101265522,44.80036220577546],[-0.095716309504882,44.80169629796788],[-0.095574541662384,44.801971461524396],[-0.09614160694658,44.80217997673167],[-0.096077642362018,44.80262686329681],[-0.095920115619338,44.80289165535008],[-0.095457111141144,44.80319380997507],[-0.095116947560928,44.80365831911653],[-0.094611118539898,44.803734610616424],[-0.093988607963387,44.80401328000406],[-0.093547890947123,44.80403098552143],[-0.092530040818091,44.80441618521322],[-0.092583566614158,44.805434636967945],[-0.092218073956702,44.80525561990814],[-0.091823331383819,44.804890007184],[-0.091191018918148,44.80462292105882],[-0.090447136049956,44.803776889294866],[-0.090187300518194,44.80372376499852],[-0.089867944181191,44.80373897386251],[-0.089777049099349,44.80413434762823],[-0.089350229448343,44.804404832811954],[-0.088487428402663,44.80457213426017],[-0.087851509990045,44.80495295576703],[-0.087557848879544,44.804906173432606]]]]}}]}