{"type":"FeatureCollection","name":"COM_86143","crs":{"type":"name","properties":{"name":"urn:ogc:def:crs:OGC:1.3:CRS84"}},"features":[{"type":"Feature","properties":{"fid":4129,"ID":"COMMUNE_0000000009747770","NOM":"Mairé","NOM_M":"MAIRE","INSEE_COM":"86143","STATUT":"Commune simple","POPULATION":174,"INSEE_CAN":"04","INSEE_ARR":"1","INSEE_DEP":"86","INSEE_REG":"75","SIREN_EPCI":"248600413"},"geometry":{"type":"MultiPolygon","coordinates":[[[[0.743543203423275,46.8717201707256],[0.744637306969715,46.871310157593534],[0.745133076261656,46.87104334261705],[0.746590532613218,46.86988650812393],[0.747751165471758,46.86882292995891],[0.748418766727956,46.86799199659513],[0.749415165159663,46.86635952420203],[0.749978223557713,46.86444024380052],[0.751476197215097,46.86305985828083],[0.751622337633948,46.86279789531219],[0.751957548388046,46.861239855217455],[0.752195797226294,46.86075180300305],[0.752378438076164,46.86046443048414],[0.753012982916342,46.86007779278073],[0.753923318369903,46.859911811817604],[0.75486625050269,46.85987796789388],[0.756820418384068,46.86015837341569],[0.758362208031972,46.86107474280469],[0.758894462163812,46.86173093888474],[0.760536697846488,46.86317346294738],[0.761068493377378,46.86352428849125],[0.76271142649916,46.8644758902846],[0.765517470244144,46.86575810546801],[0.766193619215164,46.86589012724639],[0.76687646629911,46.86589166825274],[0.768410744206527,46.86559626049779],[0.769409483184309,46.86532558370382],[0.769848523702238,46.865188172448676],[0.770216012192583,46.864938582989126],[0.771323702289328,46.86403047896801],[0.772169480605229,46.86303983207759],[0.772371430302312,46.86221686643642],[0.772158490390975,46.861264270576115],[0.771460211083673,46.860267148091026],[0.770991002901335,46.85979868599565],[0.769775503822859,46.85902212162074],[0.76834088886834,46.8584971040583],[0.767703203864112,46.85816677606222],[0.766906058287126,46.857564029576835],[0.76644223302706,46.85690289385434],[0.766189775931911,46.85627468269832],[0.764645531764644,46.85630864886118],[0.764051796928129,46.855996267263585],[0.762938409812018,46.85589896654457],[0.761752218968393,46.855530016947405],[0.76126862164336,46.85515851225707],[0.760004328228751,46.854615082304015],[0.758120976073067,46.85348490564513],[0.757597759134151,46.85324682313401],[0.755666478291772,46.852610177763445],[0.755270653523871,46.85221333587607],[0.754707937493084,46.851883494042205],[0.753634014329681,46.851375231424605],[0.75244632869199,46.85095120771759],[0.748807052595677,46.848956972736445],[0.74826971704052,46.84874469127167],[0.747801420798145,46.84785099282287],[0.747381062333386,46.84741490912755],[0.747090400742048,46.84723807623288],[0.746290734402314,46.84702064800416],[0.745647882662455,46.84660001555453],[0.744399949029431,46.846050421256564],[0.743581833018988,46.84589836650871],[0.742057288371563,46.845844137158615],[0.741556115727735,46.84605678553477],[0.741208573980253,46.84611121393695],[0.738815366083359,46.84588945928913],[0.737438259783211,46.84617134382606],[0.736329171142492,46.8458198533817],[0.736104479473663,46.845636182964725],[0.735687089802004,46.84560274824762],[0.735336147291987,46.8453616456752],[0.734270678539414,46.84519204438901],[0.73396581872552,46.84507344641819],[0.732794696617836,46.844793660027605],[0.730035372846331,46.844351027104715],[0.726485996229916,46.84415393619858],[0.724537585619639,46.84356595635509],[0.722774300226531,46.843196887725796],[0.72180875901963,46.84327505368158],[0.719402857970439,46.842985083000166],[0.718023330025867,46.84310545239296],[0.717224779879128,46.84295900044942],[0.715745487909462,46.84258104525854],[0.714900232791294,46.84220395608733],[0.71356237236357,46.84136849316151],[0.713064173841268,46.84085596679168],[0.712169808814884,46.84064812384439],[0.71096275510018,46.84063312055669],[0.708233479190534,46.83871330553828],[0.707508036502882,46.83848537048711],[0.706715451449667,46.83878934352893],[0.705963556133473,46.83924815305177],[0.704572294029006,46.83961583578351],[0.704077566285541,46.83985997836907],[0.702247767005915,46.840012605770035],[0.701380925165355,46.839899807742185],[0.698093068396479,46.84035290650424],[0.697438929250267,46.840764075944925],[0.696564875905642,46.841005998813394],[0.695171867698583,46.841813108435865],[0.694309422539456,46.841874193325225],[0.692853804151429,46.84217739360119],[0.690751128936709,46.84155331129162],[0.685841797258455,46.84056290120516],[0.684751721841975,46.83996087281459],[0.684081928590898,46.83990685623001],[0.683189139871647,46.8399411242625],[0.680436401518716,46.83929744995139],[0.679167202386437,46.839201591402784],[0.675250758710418,46.839187368055974],[0.666952690236735,46.83810328764221],[0.666557180019801,46.838143006683275],[0.667659743717515,46.839943496699895],[0.673103745815198,46.84696716828981],[0.674698754864124,46.84914144766847],[0.675133066081228,46.849942901794876],[0.676059667430087,46.850899321637904],[0.679605826590532,46.85559182718188],[0.683080158441229,46.855869909646],[0.683828178994419,46.85600296826851],[0.685548973314049,46.85663299646542],[0.68588416858816,46.85680908132591],[0.686595433645621,46.85743410050235],[0.687445625384419,46.85846544889908],[0.687639253416789,46.858851263519554],[0.687756010297187,46.85965348745149],[0.688194860460517,46.860754929627845],[0.687952620252575,46.860923009783164],[0.687542124506509,46.86177138785117],[0.689636787024143,46.8636780343388],[0.690299886322812,46.864388532944275],[0.690738693292491,46.86524675583908],[0.691249180301045,46.86673424450349],[0.691757823287066,46.86783436598042],[0.690798920759486,46.86866905259145],[0.691361573998704,46.86914963515428],[0.691237389793724,46.86922821268558],[0.691230380835856,46.86945416279474],[0.690160756124522,46.86998937277533],[0.690116424470844,46.872352076481576],[0.691959994287609,46.87350509608785],[0.693307975215648,46.87423740906336],[0.709240346147638,46.875649977009374],[0.71801400471128,46.87722849973683],[0.720172287279131,46.878225154109735],[0.720972289874617,46.879004827947064],[0.720960497917232,46.87912889765392],[0.720562048791803,46.879544360513016],[0.72105919218744,46.87984244171991],[0.721120159354718,46.879954440449296],[0.720526062770838,46.880523661068175],[0.720564464485201,46.880609992372705],[0.722171945202432,46.88021485380828],[0.722421281898754,46.88025221359923],[0.722439644217375,46.8803777806377],[0.721838033722357,46.88100090392597],[0.721777361279289,46.881162738471964],[0.721857422166787,46.88153903326749],[0.722007674460347,46.88168342346778],[0.723542224014643,46.882085784017654],[0.726382595910118,46.88317686619408],[0.72746194380428,46.88265772902194],[0.728800656952109,46.883001207050675],[0.729393549407885,46.88330474218654],[0.730898688057315,46.881308643965525],[0.731584399057074,46.880180914590206],[0.732025384004136,46.87824669843031],[0.732495282027671,46.87734620322814],[0.733215087616919,46.876500168220225],[0.733872231535975,46.876114977123656],[0.734643274785316,46.87539334416885],[0.736209702677098,46.87424598615442],[0.737687638129069,46.873454463784846],[0.739003588674801,46.872955185301386],[0.743543203423275,46.8717201707256]]]]}}]}