{"type":"FeatureCollection","name":"COM_17085","crs":{"type":"name","properties":{"name":"urn:ogc:def:crs:OGC:1.3:CRS84"}},"features":[{"type":"Feature","properties":{"fid":4052,"ID":"COMMUNE_0000000009751393","NOM":"Champdolent","NOM_M":"CHAMPDOLENT","INSEE_COM":"17085","STATUT":"Commune simple","POPULATION":419,"INSEE_CAN":"18","INSEE_ARR":"5","INSEE_DEP":"17","INSEE_REG":"75","SIREN_EPCI":"200041689"},"geometry":{"type":"MultiPolygon","coordinates":[[[[-0.821411288960724,45.9114434550056],[-0.821904387541465,45.91212818788508],[-0.822395369257443,45.91220534673484],[-0.823167771375279,45.91203858249914],[-0.824160271071868,45.91161914510239],[-0.824622797487107,45.911509734543095],[-0.825162944554045,45.91155095881219],[-0.825667717064887,45.911715087146334],[-0.825901987825293,45.91190820364137],[-0.826359134110085,45.91436117594964],[-0.826010376228701,45.91640597802231],[-0.824262273858947,45.91835207441789],[-0.823709634031559,45.91930387223023],[-0.823341098695217,45.919651713234664],[-0.82284433564302,45.91982718544054],[-0.822040551083516,45.91985977245611],[-0.821342018014685,45.920106069150684],[-0.821000407440124,45.92056298059296],[-0.820711148309878,45.92134628498583],[-0.820029496417673,45.92226455668479],[-0.819556255625982,45.92259338308551],[-0.816700513994749,45.923792418328915],[-0.815202895620877,45.92417834102524],[-0.813905103084618,45.92493164333447],[-0.813289965999759,45.92502181122304],[-0.812386469248196,45.92479083312263],[-0.811653162402689,45.92479752704271],[-0.810274195390952,45.925069394054454],[-0.808326967786391,45.925642568754704],[-0.807217317867682,45.92568084183079],[-0.806553230083316,45.92554903883728],[-0.805033786533629,45.925321609491846],[-0.804063804808147,45.92539932661982],[-0.803105931151836,45.92535311732197],[-0.802839664223382,45.92525749515241],[-0.801606875960554,45.92442896994139],[-0.800710219946345,45.9243148703575],[-0.798558880105774,45.9235406292382],[-0.797740062857334,45.923337344145764],[-0.796363878498389,45.92273175401068],[-0.795703568223305,45.922560095058635],[-0.795237501747198,45.922470262185236],[-0.790077165899947,45.92208081889438],[-0.788702873831612,45.922007880418256],[-0.785318549732078,45.92259184278139],[-0.784480318869509,45.9225937606908],[-0.783755588714298,45.92238632554013],[-0.780328005379885,45.921851888944886],[-0.778622485669271,45.92077298378375],[-0.777507036911194,45.92051816654742],[-0.776917741166574,45.92047655193233],[-0.776552724787806,45.92052210236379],[-0.775525374850056,45.9210621709865],[-0.77518652325683,45.9217532349552],[-0.774779814708154,45.922151765368525],[-0.774483306872198,45.92229238570607],[-0.774223034367106,45.922320908311235],[-0.772886684798203,45.92202834332921],[-0.771590585389243,45.922115763628184],[-0.769150139287295,45.92167697442756],[-0.768788351441038,45.921675512685724],[-0.768121251798048,45.92174282493181],[-0.765778015763922,45.92219593154134],[-0.763862914675977,45.92243099310228],[-0.761955541477319,45.9227982873659],[-0.757256871896812,45.92343414044509],[-0.755911119018799,45.92374119530039],[-0.75419085189971,45.923898397958716],[-0.749586006888516,45.92642668429885],[-0.743306969399981,45.920715454237005],[-0.743827732876901,45.920585522011955],[-0.74398806940405,45.91916304502117],[-0.744227361605952,45.91884500191567],[-0.745083688221875,45.918350558367294],[-0.745541945172296,45.917966660150135],[-0.744137335095169,45.91677992883553],[-0.743748817596023,45.91655569997591],[-0.743402053661461,45.916489653749956],[-0.74222235256204,45.91648273542374],[-0.741290109187635,45.91616380840111],[-0.740734718804359,45.9156503005042],[-0.739748858053315,45.91438926152231],[-0.740677102889422,45.91318569187641],[-0.740218402561799,45.91284026864326],[-0.739945890418272,45.91245983559878],[-0.739908944379687,45.91111691603814],[-0.739748156090558,45.91042266904695],[-0.739912920834461,45.90959684933055],[-0.73877494038765,45.90839492952976],[-0.738150538468116,45.90830920435454],[-0.736764522516422,45.90754278142111],[-0.736433759718788,45.907844901195844],[-0.736193865423548,45.90765900838354],[-0.735741104835254,45.90753333945133],[-0.735330882380902,45.90752075363128],[-0.735277482375467,45.90757119943444],[-0.732964720806068,45.907153584404945],[-0.734931905271014,45.90489344207861],[-0.735754481187912,45.90407473813571],[-0.736607457427556,45.90376166633722],[-0.737637009570745,45.90357707228127],[-0.738002067935732,45.90353344638143],[-0.73918931284664,45.9036366107903],[-0.740946086579207,45.903759677661334],[-0.746108955469543,45.903269535568285],[-0.747087906704498,45.90311988711135],[-0.747295958772982,45.9030652091185],[-0.747274314753881,45.90299380615193],[-0.747995640443884,45.902872524416416],[-0.749697281357181,45.90235631073653],[-0.750960914234929,45.90183657844169],[-0.752433108535022,45.9006445919045],[-0.75563048989957,45.90205021792265],[-0.756744908076328,45.9026757909927],[-0.757757693676044,45.90347692219959],[-0.758941239320199,45.90382791978102],[-0.759274083666929,45.90408820486597],[-0.759391949707921,45.90430154924747],[-0.760052887644538,45.904033449068365],[-0.759916251742718,45.90394243419602],[-0.760458031704763,45.903574621316054],[-0.760848768432329,45.90337771065251],[-0.761048776958308,45.9034134261064],[-0.761462818288685,45.90314181341985],[-0.763966743798575,45.90259507026269],[-0.764457180719835,45.9025913566432],[-0.764918456148293,45.90244436961088],[-0.765638154380702,45.90241317979895],[-0.768047988900461,45.90266281546479],[-0.768900725188264,45.903349286247],[-0.769169362729573,45.90382173884975],[-0.769572711220401,45.904186924760616],[-0.770095301408048,45.904407494728844],[-0.770826475050438,45.904543572656834],[-0.773428154300943,45.90583877266557],[-0.773647909787596,45.905992808024834],[-0.773868368215835,45.9064398141995],[-0.774678727960426,45.9065813380959],[-0.775595949906528,45.90628475253866],[-0.777140228623845,45.90622504100926],[-0.776792478657071,45.90746273415768],[-0.777596505693142,45.908340093195065],[-0.778184821451376,45.90872701657249],[-0.778262924065416,45.90935727601512],[-0.778646750385499,45.909436400659004],[-0.779628939671904,45.90950272906525],[-0.780590956415812,45.90916223410107],[-0.782672676696284,45.908822127611955],[-0.783319834268311,45.9088617714722],[-0.784060389844989,45.909302169240235],[-0.784504403523118,45.90935491802017],[-0.785512326017615,45.90945729658146],[-0.788111737598711,45.90939635319355],[-0.789450823255007,45.910032122199624],[-0.790468590169051,45.90922628537943],[-0.790559218908741,45.90872289624301],[-0.792216802338928,45.90912617435837],[-0.792863760080339,45.90912520170773],[-0.793231871167357,45.90925709375413],[-0.793480104029626,45.909223519902845],[-0.79511913108623,45.90935691937709],[-0.795960396957169,45.908895933046196],[-0.798150114649664,45.906639754563066],[-0.800026297199858,45.90687960599572],[-0.801419921691725,45.90718163650096],[-0.80415640772889,45.908284103929354],[-0.804944611601135,45.90808447688445],[-0.805611624369116,45.90745798889646],[-0.807139515102578,45.90800155007519],[-0.807604065825408,45.908089578425006],[-0.807985137055238,45.908072232579656],[-0.809229828322618,45.90866587717366],[-0.810859670909262,45.90879665419888],[-0.810912338753035,45.90907255348493],[-0.812512380985561,45.90914571168476],[-0.812526914118761,45.90907580263516],[-0.813284056768211,45.90906198102613],[-0.814298618994926,45.90877441355939],[-0.816377028100639,45.90892964103235],[-0.816158741997566,45.90946982456427],[-0.820261627654802,45.91036079192081],[-0.820915123961164,45.911440394309004],[-0.821411288960724,45.9114434550056]]]]}}]}