{"type":"FeatureCollection","name":"COM_33396","crs":{"type":"name","properties":{"name":"urn:ogc:def:crs:OGC:1.3:CRS84"}},"features":[{"type":"Feature","properties":{"fid":4145,"ID":"COMMUNE_0000000009755618","NOM":"Saint-Étienne-de-Lisse","NOM_M":"SAINT-ETIENNE-DE-LISSE","INSEE_COM":"33396","STATUT":"Commune simple","POPULATION":181,"INSEE_CAN":"10","INSEE_ARR":"5","INSEE_DEP":"33","INSEE_REG":"75","SIREN_EPCI":"200035533"},"geometry":{"type":"MultiPolygon","coordinates":[[[[-0.097042790652596,44.90171741822257],[-0.096018409407772,44.90114318673009],[-0.095088341296782,44.90092222872782],[-0.094764487824087,44.90065914068578],[-0.094063820500927,44.90036780708307],[-0.092371622135491,44.90028068992272],[-0.092095810447473,44.90003788164637],[-0.091435556906431,44.89997336950457],[-0.09155221945323,44.897788707784294],[-0.091439490515315,44.89742242079551],[-0.090970816661159,44.89634791601978],[-0.090541616429216,44.89564443965809],[-0.089757696754013,44.89480666773128],[-0.089445195847221,44.894288257219735],[-0.088721002860316,44.892278372435925],[-0.086580321402503,44.89255955842137],[-0.085141103834664,44.89245809681684],[-0.083007505849236,44.892107392527805],[-0.082330451965619,44.89261184725089],[-0.081491726194807,44.89354246780731],[-0.081440812867496,44.893907897895296],[-0.081714854688358,44.89428142889874],[-0.081786525757833,44.89470923225014],[-0.08172184605185,44.894731751208234],[-0.080459119846692,44.89410543338385],[-0.079735260241638,44.89315780579397],[-0.078709061868397,44.892382546021295],[-0.077860588641797,44.89188887865074],[-0.077636839579364,44.891345452746464],[-0.077349956776639,44.89106057001276],[-0.076046360778902,44.890819177588924],[-0.07590042029299,44.890816012646845],[-0.07573599086504,44.89096112847434],[-0.074349364472255,44.890939164400166],[-0.074515770521741,44.890691278743915],[-0.073401277922435,44.89054643520407],[-0.072189174583981,44.89074847414764],[-0.070672242400659,44.891425662687155],[-0.070060739526271,44.891114599629425],[-0.068684015132678,44.889975920015765],[-0.068341061314152,44.889777261760685],[-0.068460366136165,44.889687466052294],[-0.06789094055378,44.8893572086373],[-0.067616921239215,44.88856467014677],[-0.067558973881969,44.88826983413526],[-0.068640372142517,44.88662891681113],[-0.069663217480936,44.88637448234205],[-0.070619290147589,44.88638228146448],[-0.070963585019966,44.886026764269545],[-0.07217082773961,44.88576089796038],[-0.072694374216879,44.88518416817862],[-0.073018971852241,44.884955333024664],[-0.073353636665722,44.883707157646974],[-0.075184062883478,44.88385199017809],[-0.075658557124735,44.88356042770624],[-0.076189949620343,44.882873537609115],[-0.076748779532521,44.88185520739512],[-0.076687232759285,44.88128746427636],[-0.077200669532597,44.88078217294517],[-0.078394307871335,44.880732859170884],[-0.080353553719298,44.88017843783059],[-0.080253812792831,44.87942344109116],[-0.081157211141647,44.87865862476218],[-0.08187042985781,44.87687731529681],[-0.082349233060056,44.87620446784852],[-0.082864123881142,44.876327124579404],[-0.083579348567908,44.87488363288968],[-0.084153001919205,44.87397747873042],[-0.084619841197756,44.87359508414109],[-0.085172720553766,44.873994190533494],[-0.086183164839662,44.87446436844186],[-0.086658720644217,44.87479353568964],[-0.086790454925429,44.874792575274085],[-0.088176423766083,44.8745332699168],[-0.089450017146042,44.8740743430691],[-0.09091829810434,44.87342346618197],[-0.091296813590823,44.87314081316914],[-0.09157893048688,44.872718481069704],[-0.093048744325466,44.871912554518694],[-0.094839793336384,44.87065974893747],[-0.097221391698492,44.868560582943836],[-0.098020636157723,44.8680508165172],[-0.097915320240737,44.86632647761754],[-0.098066136480724,44.86591410002027],[-0.098375485104647,44.865642362336445],[-0.099782962474839,44.865203900135334],[-0.100365013654646,44.86509843836586],[-0.101073564353334,44.86453081289942],[-0.102721624349952,44.86379275315941],[-0.103037107879668,44.86347217438035],[-0.103448990381026,44.86276415746221],[-0.103688786772716,44.86258715560263],[-0.103929641042344,44.8625209507289],[-0.104345755714583,44.8624624570619],[-0.104875014369087,44.8625026129897],[-0.105496341212101,44.862397826506516],[-0.10676539052644,44.8624821423101],[-0.109079216118918,44.863587784728516],[-0.110427870149367,44.864490673943614],[-0.11066773879836,44.86426950366094],[-0.111199936476695,44.86401941367121],[-0.11235645013333,44.864358211406035],[-0.112754182008664,44.86419658251874],[-0.114012621454862,44.86465955081766],[-0.114245999342909,44.86457280933046],[-0.114746627293636,44.864165005041734],[-0.115557015772776,44.86306100938291],[-0.116619367726315,44.862205826130655],[-0.11730618315916,44.862185633340005],[-0.116034428942962,44.86476858995507],[-0.113835768871012,44.86724959421052],[-0.113540069935353,44.8680174667121],[-0.11174151402286,44.87086293370611],[-0.111664354157759,44.87116244006352],[-0.111740297445158,44.87218929818713],[-0.111952805548086,44.872868130387374],[-0.112250028044726,44.873109384547156],[-0.11229713045769,44.874210036295],[-0.11272334917835,44.87549738518268],[-0.112785421375555,44.87604527963164],[-0.112400910527365,44.876149770561575],[-0.111917363929493,44.877256291481665],[-0.111656502551915,44.87847100013911],[-0.111041830224891,44.88039032825371],[-0.110214035686433,44.881323577273676],[-0.109961391117901,44.88239028084231],[-0.109975937707112,44.88297284750454],[-0.108714670387436,44.88324334719374],[-0.108844947373293,44.884496652237424],[-0.108784791163006,44.884760540104025],[-0.108098265033096,44.88540869058912],[-0.107164723437851,44.8860367191649],[-0.106638912710884,44.886589356452816],[-0.105762090174959,44.887372566474994],[-0.105397210419751,44.88838292950852],[-0.10342608495747,44.88792175110972],[-0.102780002966359,44.88783619017081],[-0.099152275823063,44.88813124257416],[-0.098741111172601,44.8886959573272],[-0.097706983207716,44.88931860068683],[-0.097797065588363,44.88938907130828],[-0.097461032031485,44.88968497718027],[-0.098323926087408,44.889978065293754],[-0.098107413983975,44.89046436098124],[-0.097809377134976,44.89043843776658],[-0.097512274019435,44.891301812949166],[-0.09697198343533,44.89138806726572],[-0.0964610910875,44.89308635823543],[-0.096509636636414,44.89323097266177],[-0.096723234814839,44.89321960917208],[-0.096496480356377,44.89402605603272],[-0.096455750961438,44.89480388775698],[-0.096459700648604,44.89494433975483],[-0.096643750112644,44.89501759731207],[-0.096682670211967,44.89521744367067],[-0.096639911503902,44.89529252143318],[-0.096317828885479,44.89538259714768],[-0.096032330525172,44.895676187749686],[-0.096814960789986,44.897108640998994],[-0.096425864416118,44.8974546790774],[-0.096415171405259,44.897605450964534],[-0.097042790652596,44.90171741822257]]]]}}]}