{"type":"FeatureCollection","name":"COM_23208","crs":{"type":"name","properties":{"name":"urn:ogc:def:crs:OGC:1.3:CRS84"}},"features":[{"type":"Feature","properties":{"fid":4136,"ID":"COMMUNE_0000000009750334","NOM":"Saint-Léger-le-Guérétois","NOM_M":"SAINT-LEGER-LE-GUERETOIS","INSEE_COM":"23208","STATUT":"Commune simple","POPULATION":398,"INSEE_CAN":"14","INSEE_ARR":"2","INSEE_DEP":"23","INSEE_REG":"75","SIREN_EPCI":"200034825"},"geometry":{"type":"MultiPolygon","coordinates":[[[[1.847165516900638,46.147102174825186],[1.846347961135497,46.14636080054896],[1.845816211902846,46.146200498762475],[1.844845835593957,46.14619603875375],[1.843939628667648,46.14628228185559],[1.842772764565263,46.14650185083189],[1.84205924026341,46.146544111957915],[1.842918232904879,46.144703066027155],[1.842468140048676,46.14429682007948],[1.842273816285938,46.14429574030262],[1.84149444523972,46.14469665945167],[1.840328800437147,46.144736999307476],[1.839941101490287,46.144689812613194],[1.839368936182241,46.14356274059348],[1.838786563560278,46.1434703325432],[1.838728636612449,46.14284023183507],[1.838352318787028,46.141399051019675],[1.838094174578562,46.1413531826326],[1.837057894833337,46.141528098017744],[1.836216177065061,46.14156990986668],[1.835116610323768,46.14142985499526],[1.834991436517464,46.140979179212216],[1.832951783835318,46.14112124690349],[1.833127228480347,46.14085197315066],[1.832916483640224,46.14010052077105],[1.83296513715291,46.13970116067913],[1.834307507962121,46.138899014856975],[1.835464115594982,46.13891268045299],[1.835718851480762,46.13936288276413],[1.835912202835794,46.13940899322425],[1.837238917991495,46.13879307388592],[1.836570106765817,46.1381972425006],[1.836051961610684,46.13819463558165],[1.835085466643036,46.13783079696985],[1.834631469082884,46.13791889998144],[1.834418369334007,46.138376011870065],[1.833651531409527,46.13885895898046],[1.833458503170664,46.13885877781352],[1.833201893261302,46.13849770893051],[1.833591754876643,46.138318894384696],[1.833466939100873,46.13791324959246],[1.833856437836612,46.13769030176421],[1.833795763583314,46.1373753744253],[1.831915969069875,46.1376820695319],[1.831976970072842,46.138042030629364],[1.831717267499276,46.13813121938292],[1.829324044531316,46.13803002763753],[1.82912125176403,46.13897355287884],[1.828728550951482,46.13946662762364],[1.828211001984331,46.13937483315016],[1.827953503210991,46.13923888953969],[1.827694435532607,46.13923711652897],[1.827499207139471,46.139461148588445],[1.828011028495281,46.140003180423264],[1.827100124673419,46.14049450393353],[1.826840421818044,46.140582781135656],[1.825874576726095,46.1401288120445],[1.825680268049899,46.140127703882754],[1.825420877208187,46.14026191100182],[1.825028766191457,46.14066492076653],[1.824768708620446,46.140709060845346],[1.824511562483872,46.140617241830554],[1.825034768616636,46.13990038457535],[1.824778239198022,46.139719414394015],[1.824455351650492,46.1396728449041],[1.824129599020587,46.13994145030999],[1.823934326394139,46.13998535853063],[1.823678104266963,46.139669300939225],[1.824789998601559,46.13850464418777],[1.825440214064003,46.13814753293263],[1.827127331618184,46.13770566812766],[1.827065715706775,46.13725473847755],[1.826961934235805,46.137140192735956],[1.828161152911179,46.13703729692572],[1.828593980841807,46.13690937559793],[1.828813949856661,46.13661805290128],[1.82869070770144,46.13656544855015],[1.828554348662469,46.13627765569205],[1.827967470766817,46.13585462938647],[1.827734980528117,46.135519012899756],[1.827018657976879,46.135455780692034],[1.82572179026856,46.13576478955547],[1.826768139727692,46.134509378023886],[1.82676939838018,46.13432927364037],[1.820639252906861,46.13259248944107],[1.819477068717001,46.132362472314085],[1.818632600677275,46.1327184293386],[1.818179262399337,46.13271641446236],[1.81811643859849,46.132445584136036],[1.818315854644707,46.13190730616138],[1.817542915713282,46.13158855787258],[1.817090556919822,46.13154151931518],[1.816631431315809,46.132168949441876],[1.815915828211516,46.13261538741795],[1.813633573624811,46.134404455345894],[1.812653339140661,46.13534433335801],[1.812521846874798,46.135614035988574],[1.812713227813418,46.13592944187211],[1.813483595256667,46.13660843137151],[1.813154254599481,46.13710121492617],[1.812951007415353,46.13709458793558],[1.812483396536203,46.13691228368525],[1.811147368588932,46.13699016697704],[1.810961033721667,46.137099889488226],[1.810887687836343,46.13731616367551],[1.811078745270974,46.13758653945837],[1.81136999994187,46.138793675855815],[1.811546343394098,46.13890629364294],[1.812158326082325,46.13984120287154],[1.812027806920817,46.139885767886575],[1.811576038789517,46.13974865530935],[1.810671197710905,46.13965452890705],[1.809828193787744,46.139875348987125],[1.809373820137181,46.139918318212274],[1.808600820330485,46.13959950922226],[1.808148403183851,46.13955243507183],[1.807432317759291,46.13995378657371],[1.806979236839161,46.13999675981971],[1.806527480406406,46.139859627164924],[1.805621915701763,46.1390846066194],[1.805333237282031,46.139133804864606],[1.805136258980284,46.138957918906165],[1.803626629842225,46.13867635347429],[1.803378129786479,46.13759572858239],[1.803250239926736,46.13746019308057],[1.801377559532102,46.13713604577801],[1.800281153346071,46.13668137878586],[1.79938073833578,46.13609188310725],[1.799251202542195,46.1360914142841],[1.797838335819881,46.135004763991084],[1.797723640384635,46.13480001612355],[1.79856075590429,46.13449186642864],[1.801235510569093,46.133852792098004],[1.800897301124472,46.1332647378899],[1.800384826498596,46.13276760288481],[1.800062000547877,46.13272096403876],[1.799413376712487,46.13276364150648],[1.797274450357674,46.13324804304257],[1.795848617727809,46.13346618758757],[1.794358701102619,46.133593574809794],[1.794255143466122,46.13341325749021],[1.794742297108375,46.133291444914484],[1.795824519334816,46.132793189619655],[1.796408360638045,46.13269220816725],[1.796714772208352,46.13248291533941],[1.797763775505168,46.132021214201686],[1.797684809293638,46.13190059948236],[1.797436755972486,46.13181151625826],[1.797410888105102,46.131691463587934],[1.798267621933497,46.130958444805586],[1.798531688525715,46.13037495346105],[1.798412170298435,46.129384838877684],[1.798157806374172,46.12893365230448],[1.797318304613261,46.128704119400076],[1.796936758778001,46.128028236004255],[1.796680377465653,46.12784720225253],[1.796160665285605,46.12797948458154],[1.79572567902482,46.12726070248558],[1.794186614681341,46.12721555124537],[1.793922126969855,46.12734512961112],[1.792801917643348,46.12751334507391],[1.79188452134942,46.1285888036486],[1.79085070342701,46.128538174445445],[1.790004124111106,46.12898395689044],[1.787269150200098,46.130770379994665],[1.786937525398091,46.131533243610015],[1.78628644219254,46.13198018653028],[1.785571988593868,46.13224632936017],[1.784665620728362,46.13228706678613],[1.783243160153568,46.132234911084524],[1.781752524588254,46.1324530852757],[1.781751821440335,46.1325431372136],[1.782200755848833,46.13286045844626],[1.782263422904348,46.133130408223906],[1.78154273520543,46.13402597496466],[1.781864554041727,46.1341176854637],[1.784584727390841,46.133951399895395],[1.784778016694892,46.13399759740006],[1.7852272992386,46.1343590391638],[1.785550122213378,46.13440572017002],[1.786393139763376,46.13418508020416],[1.787105250992447,46.134143154848886],[1.788452834073182,46.13465556674503],[1.788337995135539,46.13481104489979],[1.788248560328815,46.13534144089963],[1.787958889161319,46.135787746120094],[1.78824823632479,46.13635370452282],[1.789018326935488,46.137031959521764],[1.78856357008955,46.13720993035191],[1.786357624128833,46.1377834735529],[1.786161932614331,46.13796240166683],[1.78594745159537,46.13998644514029],[1.78483332673074,46.14132992486447],[1.784376824628578,46.141642949818994],[1.784053960086372,46.14159626549831],[1.783344552442054,46.14127796410653],[1.782758108845381,46.14172467984933],[1.782691920940347,46.14190498995445],[1.783077170477379,46.14217659444086],[1.783140256323402,46.1423114588058],[1.782553483374135,46.142714040960236],[1.782726742116514,46.14302209980397],[1.783202497275291,46.14371164861808],[1.7838055944301,46.144151293090786],[1.784232140434338,46.14425582510158],[1.784555411762843,46.144869887094444],[1.78647361333422,46.14513535697705],[1.786537913421796,46.14556742805243],[1.786019701168828,46.145564592908016],[1.786015920040229,46.1459698194988],[1.786464313245337,46.146376275127984],[1.78646391755338,46.1465113598832],[1.784896080905357,46.14651261196467],[1.784995845644803,46.14674693277655],[1.784956083120627,46.14731388135184],[1.785293331450869,46.14829283063982],[1.785334088231055,46.14838332576754],[1.785717741335787,46.14855403705196],[1.787987485938289,46.15086127836668],[1.788526370966863,46.151103882082595],[1.789178748956576,46.15107751511313],[1.789760897899429,46.15188524538927],[1.790109818606683,46.15216364246567],[1.790622914149008,46.15240145836962],[1.791113865762312,46.15240938530683],[1.79115745284581,46.15219550818848],[1.791332536044901,46.15207128812715],[1.791840834066087,46.15182092660666],[1.792390143649671,46.1517087893629],[1.795471801994218,46.15181895539577],[1.79586120089878,46.151730322434034],[1.796119358584845,46.151776286758825],[1.796310989875864,46.15213765316022],[1.797277479625026,46.15250182132614],[1.798630971426845,46.15318347970642],[1.80070021470672,46.15337285173952],[1.800761700612574,46.153642777284226],[1.805102481038992,46.15330396208109],[1.805294230418064,46.15348429536117],[1.806071672263839,46.15348796511347],[1.807490103891967,46.153990081101085],[1.807682498230768,46.15426047591271],[1.807614440086735,46.15452993837745],[1.807221434715464,46.155022938267464],[1.807020482310508,46.15574220028896],[1.806632071670579,46.15578495191528],[1.806419025168598,46.15747672218295],[1.805465493266301,46.15930840622445],[1.804826822127646,46.160069892648536],[1.804622146383755,46.160660327289754],[1.803608051891828,46.16044972338185],[1.802831807307442,46.160446050425634],[1.80198648635975,46.1607568502695],[1.799780388284619,46.161241501775145],[1.799765705032771,46.1628606074624],[1.800477847026596,46.16277446594443],[1.800798541252628,46.163045325999654],[1.800276124375581,46.163582867155796],[1.800722077493516,46.16434947351248],[1.8014913997358,46.16502852942735],[1.801945987512027,46.16498559180182],[1.80226603201301,46.165346499547],[1.802651543041879,46.16561803722698],[1.801925423039664,46.16705492934336],[1.80152433554423,46.168267396251096],[1.801043093444936,46.171189235197566],[1.802787647950882,46.17155705485882],[1.803109053871186,46.171738756774566],[1.804146661191974,46.171653316551485],[1.804337118784971,46.17201465529193],[1.804075229057158,46.172373035788546],[1.803427141197374,46.17236981658685],[1.803100777751796,46.17259332836053],[1.802964528636681,46.17331236438942],[1.803092501374549,46.1734478998942],[1.804643990315206,46.173815457906876],[1.805096371684169,46.17381751317634],[1.805104266918421,46.17309802609563],[1.806075799089136,46.17301187332264],[1.805565860617701,46.17220048868493],[1.80693244886328,46.171532197135114],[1.807000234135399,46.171216802272504],[1.807322313687043,46.17130844041406],[1.807901650628132,46.17167115159859],[1.806986432417351,46.1725666389826],[1.807049592407299,46.172702390174635],[1.808079013115397,46.17347148587709],[1.808337943381603,46.173427370514275],[1.810094690567577,46.172581212586735],[1.809263608839325,46.1714530777502],[1.809784697346237,46.17109559933817],[1.810566310437796,46.17073904437401],[1.811083465755239,46.17074175398398],[1.812246095425152,46.17110694104178],[1.814122616151261,46.1712499177549],[1.815543200995886,46.17161686151219],[1.816384404688432,46.17162112252161],[1.817619958314352,46.17113145647044],[1.819162157164357,46.172353375523315],[1.819421400337073,46.17235426760499],[1.819619999276797,46.17186010757789],[1.819430391081188,46.17145467559863],[1.819498726707989,46.17105012173205],[1.819825969014114,46.17060142627103],[1.820086793606883,46.17046814603517],[1.821057925623641,46.170517850214914],[1.823838553564356,46.17093481389455],[1.825127998699555,46.17143536777563],[1.826609368649003,46.17229722179032],[1.827964006938396,46.17284344514406],[1.828675961491675,46.172891311239916],[1.829195059801703,46.172803899818405],[1.82984502841674,46.17253681613617],[1.832000586217112,46.17047683939235],[1.835074768594337,46.16720685325549],[1.83886963661022,46.16281482200067],[1.840570033356568,46.1609778841457],[1.843809046458244,46.15715459317777],[1.844095886925328,46.15658023815769],[1.84425688037,46.15588932777938],[1.844163843403402,46.15550743481669],[1.843941693245427,46.15522599394164],[1.840250767430912,46.15284415915254],[1.839132519801137,46.152289686402916],[1.83825248069726,46.15199160323833],[1.83832221266168,46.15188064386969],[1.843200170845671,46.149337638320524],[1.847165516900638,46.147102174825186]]]]}}]}