{"type":"FeatureCollection","name":"COM_17091","crs":{"type":"name","properties":{"name":"urn:ogc:def:crs:OGC:1.3:CRS84"}},"features":[{"type":"Feature","properties":{"fid":4077,"ID":"COMMUNE_0000000009749706","NOM":"Charron","NOM_M":"CHARRON","INSEE_COM":"17091","STATUT":"Commune simple","POPULATION":2014,"INSEE_CAN":"09","INSEE_ARR":"3","INSEE_DEP":"17","INSEE_REG":"75","SIREN_EPCI":"200041499"},"geometry":{"type":"MultiPolygon","coordinates":[[[[-1.014995023357504,46.28624694324655],[-1.038566635676076,46.2894928384637],[-1.038959974946715,46.290204711836545],[-1.039184542007451,46.29012821594324],[-1.039865222709743,46.29022217211745],[-1.040295751568174,46.290151887426426],[-1.041075695365038,46.28981132061725],[-1.04119351172773,46.28941671975236],[-1.041039002379892,46.288716209238984],[-1.041211154837987,46.28845853390637],[-1.042828316001885,46.28716311956716],[-1.042983646500164,46.28263127780702],[-1.043635201970803,46.281153750487064],[-1.043708836127031,46.28109432922182],[-1.043819680191023,46.281168834351725],[-1.043851379933051,46.28101713074501],[-1.044328701728383,46.28054302498996],[-1.044119423945131,46.280262833994854],[-1.043415553623808,46.280011941066704],[-1.04288591049027,46.27995412014731],[-1.041952457183807,46.280027857589786],[-1.041436758821421,46.279859532392315],[-1.042415906003767,46.27922514763949],[-1.044720550347695,46.27815683028742],[-1.045152674065903,46.27809187682051],[-1.045466373055796,46.2781663813666],[-1.049722789448386,46.280980532260756],[-1.05056559762657,46.28138603615548],[-1.053925098600632,46.281549518108356],[-1.054897270390132,46.28185751089724],[-1.056013206380436,46.28205217142822],[-1.056670598046444,46.28246424138752],[-1.057934726064109,46.2837446175203],[-1.058193143112298,46.283721876764886],[-1.061379419852344,46.28244324193916],[-1.064169609775743,46.283221846380776],[-1.065249952376089,46.283601630739014],[-1.066315324753538,46.28082338340827],[-1.067520096141255,46.277123136543736],[-1.06718645522704,46.27611617316814],[-1.067489936100851,46.27393679963778],[-1.067453347684622,46.273322264762044],[-1.066921092890099,46.27001051134694],[-1.066091369965375,46.263132451262464],[-1.067169160585329,46.26315072436036],[-1.067946610163229,46.26318604044275],[-1.068651030893136,46.262693778474244],[-1.069473011894507,46.26192950811192],[-1.0699645167885,46.26170363528155],[-1.070093704286047,46.26169270094565],[-1.070670213482735,46.26198044375316],[-1.07134756205977,46.26205087711768],[-1.072552721598227,46.261981585168925],[-1.073315930784277,46.261755887374925],[-1.073418629392406,46.26156375887384],[-1.073035839342936,46.26089219156205],[-1.073208197692886,46.26065789489385],[-1.073560296041385,46.26046314641807],[-1.073974538831415,46.26042216127657],[-1.074928755497875,46.26040511129667],[-1.075358291050142,46.26055202415718],[-1.075664404976266,46.2605428590962],[-1.076093178717603,46.26020829961555],[-1.076120621511275,46.25975647626685],[-1.076689644929382,46.259542221481645],[-1.077186110740581,46.2595929536766],[-1.077612152769056,46.25984998830666],[-1.078237334693337,46.25988347795196],[-1.07903721526656,46.25974929817936],[-1.079194835047643,46.259544373751694],[-1.079868880564947,46.259466096671986],[-1.080261090339408,46.25982712714506],[-1.081506363317103,46.26003491925831],[-1.08182137303146,46.260162474118076],[-1.082436098402123,46.2601602488384],[-1.082771481679635,46.25988131224924],[-1.08327357141425,46.26002468978606],[-1.083774831049034,46.26006981141719],[-1.084260066626614,46.26049241041846],[-1.084366508313986,46.260716714436015],[-1.083287126613032,46.26112966769296],[-1.083257496188844,46.26135975910673],[-1.083450470992664,46.261628746664734],[-1.083692396583072,46.26176974074689],[-1.083952938600609,46.26181178236102],[-1.085032383338719,46.26180007063969],[-1.085617023525278,46.261638409348684],[-1.085980752648413,46.261669526400134],[-1.086412694856192,46.26200476481003],[-1.086547292166753,46.26243183662945],[-1.086892805616326,46.26263672910472],[-1.087940622306647,46.26220143239831],[-1.08811534685874,46.26205178455958],[-1.08836039555468,46.26157319810248],[-1.088555627756868,46.261506669232645],[-1.089018740967954,46.26180651371263],[-1.089283406408138,46.26188626591716],[-1.089714945556114,46.26181574763252],[-1.090038141698664,46.261669775024714],[-1.091411936050917,46.26173488174254],[-1.092599758946013,46.26145139794653],[-1.097548700390132,46.26179530140076],[-1.098578234653917,46.26195026891448],[-1.105427840463112,46.26199810203623],[-1.105850057383112,46.26211541136701],[-1.107085059453353,46.26213213979963],[-1.107039084347606,46.26219511532632],[-1.107161605741516,46.26223397278934],[-1.10758845066001,46.26220503364734],[-1.110066041287279,46.261785512220534],[-1.110748951890611,46.26196371592631],[-1.111200296966483,46.2623820227311],[-1.11205839050155,46.265911820417536],[-1.109417554274647,46.26682599717684],[-1.107233266984812,46.267050959893346],[-1.107660006448921,46.26795528287933],[-1.107954104211246,46.268166480489064],[-1.109638396029862,46.26734280773639],[-1.111882846692363,46.266413199637924],[-1.112141565010007,46.26639573198486],[-1.112422865307698,46.26657491980536],[-1.113551453578083,46.27006878197248],[-1.113548730092698,46.27044759489535],[-1.114850444965092,46.27430488599342],[-1.116395144848719,46.27782876376964],[-1.116819264028571,46.27776202140572],[-1.116938152222221,46.27789026979538],[-1.120338805689281,46.285918572189644],[-1.120302630772338,46.28602538136979],[-1.118031857588047,46.2866143370829],[-1.117792979432233,46.286741104407035],[-1.119465880882822,46.28981848229184],[-1.12113329907693,46.28928201181473],[-1.121356625111004,46.28938032515681],[-1.121332889110198,46.289462338124],[-1.121769005444737,46.28995059572289],[-1.122487916748116,46.291187843162845],[-1.123670247101498,46.294119732408525],[-1.119916297515521,46.29557307444196],[-1.12144614410003,46.297644803279496],[-1.121506949470928,46.298192640382844],[-1.122073734243671,46.29848049758056],[-1.122319061879107,46.29874933723216],[-1.122410078813517,46.299007534797525],[-1.122154479539926,46.299413541486906],[-1.122133030827062,46.29980205073593],[-1.122395204894025,46.30062212283845],[-1.122829948162165,46.30143594409876],[-1.123019186142033,46.30153008042351],[-1.123079981289214,46.301490908410685],[-1.123120930153636,46.30153360860344],[-1.124245847596462,46.30157941851718],[-1.128526075602223,46.30157844369023],[-1.128627164887425,46.301676669959555],[-1.128552829462278,46.302087839473884],[-1.133189130159157,46.302321745493266],[-1.133097996622032,46.30263073421182],[-1.132218846836798,46.302686999139574],[-1.131138629795638,46.302458401176196],[-1.130838990017662,46.30262527119481],[-1.130529457169136,46.302592320151675],[-1.130144217101417,46.30233217977788],[-1.12985559558003,46.30226600674],[-1.128579949432202,46.30222301356817],[-1.128205487064383,46.30232947079803],[-1.126334817030676,46.302228680814615],[-1.12711788467808,46.30786300375171],[-1.126087120848657,46.3078769242323],[-1.123008469201073,46.31103261755337],[-1.122558364921254,46.311707160401134],[-1.120919849318068,46.31320559706773],[-1.118822156393019,46.31576118071329],[-1.116192770727233,46.3159247997229],[-1.111392401389458,46.31525335568452],[-1.108195053225781,46.313573497682285],[-1.106522112343787,46.31330293028082],[-1.105156136406688,46.3133422732652],[-1.105577953070706,46.3134316592106],[-1.105785211577354,46.3139561835157],[-1.105670472201193,46.314109100440106],[-1.105043311974251,46.31412720645564],[-1.105327155055046,46.31478783069646],[-1.104535589121413,46.314956132242045],[-1.104039892651706,46.31521745797532],[-1.102693729200229,46.31618028794473],[-1.102103925761583,46.31640171436261],[-1.101735129234269,46.31649885803814],[-1.100099804970053,46.316331435097254],[-1.099341590609352,46.31566082981348],[-1.099088224808216,46.31526689728131],[-1.098719185602436,46.31428471956376],[-1.098369928613666,46.31292402167445],[-1.098016353783455,46.312425492103124],[-1.097795419882955,46.31227294401581],[-1.097012504740505,46.312070289023126],[-1.09647227801734,46.31211948425091],[-1.095493374619774,46.312357582022784],[-1.094935978339372,46.31282035960402],[-1.094143089043027,46.3150733329034],[-1.093469524334944,46.31631392447917],[-1.09270891266956,46.316983266944895],[-1.091730341587452,46.31738361963482],[-1.090083825861612,46.31769254370322],[-1.087791896634528,46.31774148850482],[-1.08654951043515,46.317485825738615],[-1.084537520515846,46.31685741503578],[-1.083607365979777,46.3169484865895],[-1.078041144703282,46.316977567387816],[-1.077130153498929,46.3170814243769],[-1.075596139293333,46.31743389672465],[-1.074898855837207,46.317786160983594],[-1.074696113924675,46.31803416335447],[-1.074580470082123,46.31842061122971],[-1.074647832207834,46.31918462296134],[-1.074794720192483,46.31960134959433],[-1.075164131379703,46.320087656354936],[-1.075480108748672,46.320345947838554],[-1.076723167666137,46.320767615656585],[-1.078521786680269,46.32080329283147],[-1.079407700572042,46.32095549958401],[-1.080326738743734,46.32127242112072],[-1.080971581408047,46.32169924896626],[-1.081276004900276,46.322098601316256],[-1.081511356332397,46.32298462929079],[-1.081495696872048,46.32336750156616],[-1.081355851802958,46.32369080576928],[-1.08081619196482,46.32430705622092],[-1.080416956348438,46.3246252273247],[-1.079527655896396,46.32507366348928],[-1.079294385281683,46.32515685900083],[-1.077508255782209,46.325325421758514],[-1.076343725914613,46.32553933271667],[-1.07531253264284,46.325953139631025],[-1.074675277167556,46.326291528295414],[-1.073950906455027,46.32682328239424],[-1.073423632329492,46.32701346140876],[-1.073050416925109,46.32710525577956],[-1.072649243018991,46.327066404740364],[-1.07122181878882,46.326599884784436],[-1.070317536967654,46.32616694753282],[-1.068785438307065,46.324975591174336],[-1.068461287414528,46.32425772224147],[-1.068522635054974,46.32363067372561],[-1.068682602445653,46.323331915750714],[-1.069275590022497,46.32290587719956],[-1.070422780282801,46.32275667578859],[-1.072294005704929,46.322700592578315],[-1.072688228333605,46.322611654962934],[-1.073206038142863,46.32227754883565],[-1.073540254357039,46.321872464217385],[-1.073664641044198,46.32130627248586],[-1.073598873922455,46.32058097561369],[-1.073428124885957,46.320088459159756],[-1.07296917497502,46.319745109347146],[-1.07235701019265,46.31954609513229],[-1.069351363459,46.31901156190078],[-1.06665731274868,46.31804654727556],[-1.066214971642952,46.3179956213554],[-1.065480241839784,46.318055219048595],[-1.064995531478297,46.318274498189474],[-1.06487631770068,46.31892885644621],[-1.064968698476229,46.31976861763435],[-1.064808028613239,46.32037306047549],[-1.063826100064687,46.321589292115625],[-1.06281429317243,46.32233410663713],[-1.061958507810006,46.32269194136197],[-1.061339747927785,46.32268425653905],[-1.06099207113305,46.322541569755145],[-1.059169601119331,46.32083568134866],[-1.058353300860031,46.32023541652302],[-1.057021203783204,46.31933072995727],[-1.056715367320327,46.31922531195418],[-1.056193488462257,46.31918980408824],[-1.055598975228883,46.31924524380869],[-1.055229822264034,46.31940896898363],[-1.054966048550507,46.31966000803309],[-1.054866292680124,46.31998184697367],[-1.055016613634585,46.321113489109],[-1.054935941400736,46.321727688344595],[-1.054559049931214,46.32273473933525],[-1.054152681516975,46.32325684275875],[-1.053630441755097,46.3235152760192],[-1.052706697236302,46.32374742184827],[-1.051379875920842,46.323914554939854],[-1.050860186935654,46.32389156651587],[-1.049743684062984,46.32326134595344],[-1.049209389968484,46.32268975998673],[-1.049193132307828,46.32243516889426],[-1.049807218260081,46.32139626036645],[-1.050015300797207,46.32058638358308],[-1.049870038683879,46.319837763509135],[-1.049667365556508,46.319473488407205],[-1.049281782833188,46.31906432325377],[-1.048909394909846,46.31883321610692],[-1.04801943871586,46.318642148927374],[-1.047345749596701,46.31870036027043],[-1.046737673571908,46.31792220306191],[-1.045588392520234,46.31751491979466],[-1.045269810651887,46.31723680706197],[-1.041533870192985,46.309617050815575],[-1.041217844689152,46.30861571108101],[-1.040064109739491,46.30756385549589],[-1.037690368879717,46.305635581566065],[-1.037487262291658,46.30528122252033],[-1.028577464452852,46.3023437320315],[-1.028698291303984,46.30205904329182],[-1.028870401369302,46.30204664032539],[-1.030285976625942,46.302048825100734],[-1.032398129045862,46.302182304045864],[-1.035797414891471,46.301969867023224],[-1.036717260921882,46.30179478955716],[-1.036357970490455,46.301650642825166],[-1.035646086756325,46.29847411637774],[-1.035386844251322,46.29839855230079],[-1.034697035174769,46.2965953575056],[-1.034017522624555,46.29523089929374],[-1.033591704018436,46.2939548257101],[-1.03295985177844,46.293870822075576],[-1.031334201163708,46.2934334088117],[-1.020647757815914,46.29120837908668],[-1.020374234803236,46.29127394374236],[-1.019980226938027,46.29155835483329],[-1.01866086127284,46.291746507738445],[-1.015144382991185,46.2924449662651],[-1.014129371541772,46.29029429167923],[-1.014313497317552,46.28940058256994],[-1.014178008517321,46.28936208289316],[-1.014200820978503,46.2891412778749],[-1.014995023357504,46.28624694324655]]]]}}]}