{"type":"FeatureCollection","name":"COM_19192","crs":{"type":"name","properties":{"name":"urn:ogc:def:crs:OGC:1.3:CRS84"}},"features":[{"type":"Feature","properties":{"fid":4096,"ID":"COMMUNE_0000000009754711","NOM":"Saint-Chamant","NOM_M":"SAINT-CHAMANT","INSEE_COM":"19192","STATUT":"Commune simple","POPULATION":480,"INSEE_CAN":"02","INSEE_ARR":"2","INSEE_DEP":"19","INSEE_REG":"75","SIREN_EPCI":"200066751"},"geometry":{"type":"MultiPolygon","coordinates":[[[[1.871311328523455,45.122919957146394],[1.870807500770661,45.12355601006426],[1.870532725656495,45.124627519307786],[1.870877725695252,45.12492817621445],[1.871018267258999,45.12521235467566],[1.870977870547404,45.125700915135056],[1.870664437429987,45.12629296993705],[1.870508204821719,45.126407551941426],[1.870522751587457,45.12663192285598],[1.870755897447729,45.12705481542296],[1.871212668115508,45.12742774208121],[1.872702891506332,45.12815330519772],[1.871841261324716,45.12949804007441],[1.868306510496753,45.134250180053876],[1.868685230611154,45.13452146959672],[1.868501587349935,45.13492032883133],[1.86676256656327,45.137109799170375],[1.866356641611555,45.13748928761463],[1.864763611945147,45.13862212563071],[1.863709982749658,45.13994323872331],[1.863471139766693,45.14005066683586],[1.863270803788133,45.140391716455824],[1.863813715999501,45.14078626318547],[1.864815036114644,45.1410386909758],[1.865484695477825,45.14152096709996],[1.866580107124171,45.14190310721572],[1.866999795065775,45.14260345691463],[1.868186565613795,45.14318822085123],[1.868975211037972,45.14332679108582],[1.869764211512285,45.1433221797822],[1.870467392305075,45.143408545088704],[1.871608586059746,45.14335435632621],[1.872497090110941,45.1435263294651],[1.873130924022943,45.143518325125136],[1.873833060071,45.14365688756851],[1.874335270118466,45.14386636907612],[1.87473900572113,45.14422703957347],[1.874967237302087,45.14458323752261],[1.8757994585634,45.144897795987475],[1.876214045362378,45.14528918738436],[1.876604108985616,45.14531832950764],[1.877085205098525,45.14550327238844],[1.877585314765222,45.14550200107997],[1.878152343419942,45.14533660905154],[1.878455778184507,45.144800260673236],[1.878796030443493,45.14458485920473],[1.878888826364161,45.14427241807783],[1.879326845130107,45.14387699718583],[1.879669442812602,45.14373455713792],[1.879715107086295,45.14355131395533],[1.879392325880348,45.14276914114217],[1.88055767598692,45.14347692530328],[1.881318208888205,45.14375020063198],[1.881824664810324,45.144066850017666],[1.882141847736917,45.14411325234901],[1.882847647337195,45.143306271465775],[1.883609242271704,45.14339944212555],[1.88380592374728,45.14272603664674],[1.883806077047831,45.14259096352159],[1.882664610756591,45.14240574158831],[1.882666705100139,45.14204646393399],[1.883303376206039,45.14195918661269],[1.883563307883343,45.14124048951413],[1.885791646488042,45.14070986125583],[1.886058769987629,45.139181684223196],[1.887328698020025,45.13936635215104],[1.887144312145537,45.13846671809698],[1.888860609613034,45.13827761219601],[1.889076645772375,45.13745851151647],[1.889001400372808,45.13663560960933],[1.891202310969678,45.13677006900186],[1.890986425244468,45.138737306724195],[1.893011097871892,45.13916624052643],[1.892940841068951,45.139501428202216],[1.894095245401827,45.13961013126884],[1.894183521713906,45.13881406795268],[1.895082491209054,45.139164262850265],[1.896024715977163,45.13983725572685],[1.89639879807996,45.140287602471695],[1.896185085210573,45.14041425899815],[1.897143976876204,45.14166282368872],[1.897721684922818,45.141338051238094],[1.897878192590866,45.14133779645736],[1.898761552075899,45.14170851847107],[1.898767009787717,45.14130244906004],[1.899280582968766,45.141261592006266],[1.899324991729126,45.14139710438628],[1.899768513647837,45.14129522079175],[1.899883126993369,45.14161332523104],[1.900981448269144,45.14147106596356],[1.901206214025036,45.141364320027435],[1.901784999065077,45.14137181991636],[1.902069349803543,45.140887451109684],[1.903596109399794,45.14108616670825],[1.904735665651669,45.14163045242495],[1.906064613409558,45.14244583127603],[1.906318689249627,45.142401496550896],[1.90683277283123,45.14168433875118],[1.908302127882142,45.140655054452246],[1.907926395512314,45.14002373323213],[1.908565811059049,45.13953201785369],[1.908692158796049,45.139577378035355],[1.90900188082141,45.14065739716752],[1.909636738207277,45.14066000175173],[1.910586722506776,45.14048828323903],[1.910972726162099,45.14065954357419],[1.911408133393345,45.140711519067025],[1.911347801961353,45.140999988601266],[1.911995795314971,45.14091626058794],[1.91275543766754,45.14117580421027],[1.912879046489032,45.140969895425265],[1.912636632570168,45.14041553096337],[1.913800537285583,45.14075825025426],[1.91422247167877,45.14065249737499],[1.91470129976979,45.14004121972151],[1.915188524838318,45.140504309004676],[1.915481758088374,45.140473841722596],[1.916091542267817,45.13993226864237],[1.916462066719255,45.14011506584009],[1.916916252749566,45.13978899561151],[1.917797045658045,45.14036305201303],[1.91836531469916,45.1399930579319],[1.919459978175976,45.13950929586856],[1.919833720159883,45.13913110684413],[1.920501157936238,45.138038968119126],[1.921151870062971,45.137877771553086],[1.921116732714177,45.137720746350624],[1.922313597258374,45.136749879761034],[1.922635218168963,45.136829527986436],[1.922347996735901,45.13727519798016],[1.922763769492215,45.137354854798296],[1.923349506070155,45.13699941272553],[1.923949461407154,45.13636765438632],[1.924645969371108,45.13587459876938],[1.924691870774549,45.13560489430502],[1.924554339339102,45.135148821200275],[1.924921805943281,45.134696715499075],[1.925144823998923,45.13342016973885],[1.925115653633438,45.13282016289137],[1.925217254545769,45.13269687438571],[1.92586993266386,45.13242941249179],[1.92664114904603,45.1318848365512],[1.927606309450286,45.13177345418259],[1.928454557567071,45.13138989349978],[1.929337605226872,45.131181355223674],[1.929934459375158,45.13050541315954],[1.93010098448928,45.128983385462476],[1.93096161089912,45.12781650143714],[1.93073574313464,45.12605838687481],[1.930836901767349,45.12429440301429],[1.930630243447399,45.12386018832544],[1.9299579071751,45.12349984873953],[1.929524784412746,45.123135497905295],[1.929356089718878,45.12211452824245],[1.929211715760281,45.121882617746415],[1.928988756950911,45.121636445136524],[1.927671116452178,45.12070438743782],[1.927508777110174,45.12048130683264],[1.927385023506662,45.12003707756064],[1.926870873506058,45.12025184995219],[1.92642616581095,45.12029439517861],[1.926109979829024,45.12006893091225],[1.926052638285734,45.11921381746915],[1.925484306268775,45.11880672625859],[1.925165959367851,45.11876043517015],[1.924910680374104,45.118939872692124],[1.924593144480404,45.11898363640136],[1.924662988166895,45.11812974863748],[1.924220066479286,45.11794808110738],[1.923964861696605,45.11799154374672],[1.922562230588191,45.118706494549194],[1.922180245121961,45.11879465302799],[1.922055326679268,45.118479175879536],[1.922697033293251,45.11771726194691],[1.923983623119475,45.11556311470145],[1.924049045393365,45.11520355177586],[1.921022453772035,45.11499331069946],[1.921114762018379,45.11409822053795],[1.920954846320775,45.114081364968165],[1.920930924815891,45.11393705579002],[1.920533984277804,45.1138791848417],[1.920290895065437,45.11375706679598],[1.920311369265952,45.11348711934857],[1.919642300662425,45.1128358914389],[1.919910895865228,45.112756549223164],[1.919882512440389,45.111724318040814],[1.920779876819174,45.110693847082615],[1.920783480276955,45.1102436395325],[1.920497525532407,45.10964204910957],[1.919524392541238,45.10900048325578],[1.918640437059306,45.108680346270404],[1.917151684215857,45.10886040285619],[1.91614912829693,45.10882094597847],[1.915621488212216,45.1086852454207],[1.914616804842088,45.10823153076816],[1.91443001079496,45.10855208605516],[1.914028126428953,45.108816517267066],[1.913875786987763,45.1081486741798],[1.911203491260852,45.10876825959713],[1.910694881355322,45.10876599336793],[1.910510060606916,45.108135648377036],[1.91031933624913,45.108134685087684],[1.90942460182372,45.10876168055259],[1.908913096601276,45.109298769226335],[1.907762564318593,45.11019429506063],[1.906677932694962,45.11077438476818],[1.906864950461732,45.111225561438985],[1.906986069981408,45.1119903619613],[1.905970453998733,45.112030829389184],[1.904699709543618,45.11191659940733],[1.904501881288176,45.111433795604995],[1.904026088819345,45.111053616787885],[1.903742362275725,45.110995897963804],[1.903693022427698,45.110853135823966],[1.904842259630481,45.11009271142888],[1.904468828011911,45.10896703599813],[1.904026433538244,45.10883031686271],[1.902756170733203,45.10882502776811],[1.901804109469005,45.1094522994788],[1.90142205213409,45.11045167929575],[1.900712093587097,45.11021145588933],[1.899510129199275,45.109577362274564],[1.898748081814631,45.109529316564036],[1.896523718937844,45.10979908373902],[1.895890331772255,45.10948214512361],[1.895640709954883,45.10898620533355],[1.894930545737303,45.108758549577466],[1.894805803464417,45.10844304270419],[1.894616476807491,45.10830699314051],[1.89366459935684,45.10821380694281],[1.889851791901319,45.10855771728964],[1.889537747233204,45.10810704688264],[1.888520899910949,45.10814824299825],[1.887141987003124,45.11136634749763],[1.887131506235663,45.11170122533138],[1.887420837308096,45.11230744118707],[1.888405588806312,45.113244767501996],[1.889041856527277,45.11341679864295],[1.889656464990131,45.11378311640118],[1.890573537319464,45.11409660994218],[1.89149970164603,45.1147217559183],[1.890828264183118,45.1150392560098],[1.888728686779361,45.11548030453191],[1.887961679450885,45.11606157968037],[1.887124744836441,45.117407569865364],[1.885532843328058,45.11789594787089],[1.885017399755638,45.11823208211004],[1.884124798602946,45.11860226151525],[1.883678265457921,45.118607698003075],[1.882793704729303,45.11882936611943],[1.880239093222876,45.118864077911084],[1.879667696088342,45.11881691644071],[1.879352094343435,45.11863544779646],[1.878462761852258,45.11858688576915],[1.878387196987958,45.12007103966172],[1.877563093325606,45.11981331161087],[1.877390174770435,45.119113688457205],[1.876948366099302,45.118567142983494],[1.876617313644219,45.11902846341275],[1.87540444857123,45.1196988137317],[1.875782026624951,45.12015016618369],[1.875843643952772,45.12037501035377],[1.872542405738102,45.12009134744417],[1.872084234299497,45.12161845638034],[1.87252883144851,45.121710299943565],[1.872395672780801,45.12238432503542],[1.872141661038637,45.12242858229469],[1.872015018411625,45.122338152475926],[1.871824246284728,45.12233712334008],[1.871311328523455,45.122919957146394]]]]}}]}