{"type":"FeatureCollection","name":"COM_40067","crs":{"type":"name","properties":{"name":"urn:ogc:def:crs:OGC:1.3:CRS84"}},"features":[{"type":"Feature","properties":{"fid":4207,"ID":"COMMUNE_0000000009758901","NOM":"Carcen-Ponson","NOM_M":"CARCEN-PONSON","INSEE_COM":"40067","STATUT":"Commune simple","POPULATION":631,"INSEE_CAN":"13","INSEE_ARR":"1","INSEE_DEP":"40","INSEE_REG":"75","SIREN_EPCI":"244000766"},"geometry":{"type":"MultiPolygon","coordinates":[[[[-0.864024736150239,43.89055548905157],[-0.857718696873539,43.89240767322905],[-0.856889569052889,43.892527988593635],[-0.856392982602445,43.89292306467653],[-0.856109662012556,43.893284471831336],[-0.85618381111603,43.893478271020975],[-0.856432580664277,43.89363796695147],[-0.850847125304112,43.89389831677958],[-0.844586654237148,43.893978540079864],[-0.831469819446506,43.89400386410201],[-0.829776999621253,43.89386147415833],[-0.827604635323237,43.89388815014636],[-0.817217952022362,43.894549356171176],[-0.81328482006163,43.894870688173114],[-0.808435422786867,43.89505447771401],[-0.806668144851179,43.895233276909615],[-0.801974781414382,43.89547800644512],[-0.801447796125355,43.89559097076655],[-0.796574301639416,43.8958255244206],[-0.791315120342126,43.89518760383406],[-0.790052421665096,43.89495397210616],[-0.778268497258706,43.88669447945591],[-0.776180691883947,43.884304441030444],[-0.774407478138031,43.882072867805114],[-0.77299273733725,43.880080241868214],[-0.771950228238776,43.87819636124767],[-0.772264320885145,43.877219677218385],[-0.77452483135413,43.8742232891201],[-0.773870708895438,43.87393689654215],[-0.77245329451514,43.873747176961814],[-0.771959092500788,43.87354353553414],[-0.770626985392321,43.87345715484723],[-0.770240573324416,43.87364079206116],[-0.770122164792312,43.873620559290835],[-0.76904919169647,43.87304499588777],[-0.768590776957974,43.87328877596982],[-0.768104974271867,43.873287541081915],[-0.767267576726666,43.8729786117035],[-0.766709222010417,43.87255733195334],[-0.766510098191928,43.871747949917015],[-0.766259608541037,43.87161334924139],[-0.763808249911878,43.871682653393016],[-0.763127400195927,43.871915165701566],[-0.76273592678978,43.871908850840256],[-0.762249059612223,43.87177789093026],[-0.762009250195631,43.87188076189244],[-0.761592505188608,43.87179332863273],[-0.761214637416759,43.87257937046951],[-0.760329361564896,43.87231798883855],[-0.759764625496882,43.87350057642672],[-0.759239373635085,43.87409168145367],[-0.759190904777204,43.8739041535579],[-0.758074246495802,43.87313628852483],[-0.757586019194992,43.87311707154892],[-0.75702370852492,43.87322113061126],[-0.756856844546927,43.87308903389549],[-0.75703554570345,43.872568440262],[-0.756929574907297,43.8717531338331],[-0.757319034364886,43.87112347364948],[-0.757304241767631,43.87078522908077],[-0.757119634111233,43.870421301512565],[-0.7583450589447,43.86904028193377],[-0.759549139651431,43.86803567606549],[-0.761522379164438,43.86689281354861],[-0.762911828199016,43.866378193954716],[-0.765596973539105,43.865608905657005],[-0.766380575582913,43.865444001876945],[-0.76984803261683,43.865076435401],[-0.770904044089756,43.86458675049554],[-0.771197887808498,43.8642657633115],[-0.772233464572835,43.86220462134295],[-0.772848918809639,43.86136166806756],[-0.773243401111814,43.861169632088156],[-0.775707320938998,43.860393323648815],[-0.777706372316437,43.85929160432391],[-0.778920764233828,43.858526066484686],[-0.779174324900827,43.85825600445959],[-0.779422839947789,43.85794737597482],[-0.779598692009651,43.85744395821367],[-0.779747762022215,43.8553323790697],[-0.779919028470459,43.85477866724321],[-0.780132891419273,43.8543982618331],[-0.780530303720343,43.8540259071846],[-0.781965397966423,43.853079698608404],[-0.783940361986529,43.85148857795992],[-0.789001748168966,43.84887033466741],[-0.791567533111106,43.84738917053818],[-0.794926521252842,43.84471450773091],[-0.795790723195235,43.84438170274172],[-0.796701587693969,43.84432025296337],[-0.797212149316943,43.844472750006545],[-0.799031614331392,43.84538238695471],[-0.799799748895108,43.84543940520968],[-0.800372931545554,43.8453167173134],[-0.801044936398197,43.84495813535225],[-0.802182414083131,43.84411211808277],[-0.802732487702107,43.84343703889292],[-0.803264371770932,43.84082554691608],[-0.803538217151809,43.84028353073353],[-0.804243934327472,43.839666079338144],[-0.80593786902543,43.83932765530107],[-0.806452022949029,43.839142125786665],[-0.806937048875268,43.83865038663998],[-0.807362840630095,43.837718347208494],[-0.810000313623797,43.83872535454982],[-0.814309755209771,43.84003329225069],[-0.815822933549853,43.84028756054898],[-0.816531601173758,43.84064746041534],[-0.818801621337445,43.84092023606395],[-0.822040159033703,43.841435607184735],[-0.825171435690069,43.84166814194344],[-0.828364854420718,43.84429407261435],[-0.828400735036902,43.84518206641815],[-0.8277785774852,43.84553907264186],[-0.827582808432032,43.845775692637275],[-0.827794542818055,43.846111526884485],[-0.828449258918195,43.846295759518284],[-0.828583676006526,43.84917323629754],[-0.82812043380203,43.84917148343641],[-0.827651701738977,43.85984102683323],[-0.827806487926855,43.860199587179444],[-0.828523870102578,43.86107447689592],[-0.829175001626896,43.86170392102828],[-0.829234930912525,43.861891922622924],[-0.829892869445698,43.862696814906094],[-0.830674791802428,43.86310362175325],[-0.834021640388565,43.864265395133906],[-0.835751849290087,43.8646063890296],[-0.837837633044603,43.86480870579914],[-0.840198517361021,43.86515716650371],[-0.840431434477901,43.865028232449795],[-0.841203956214517,43.86492353986669],[-0.841376664391507,43.86476969489833],[-0.841378716997528,43.86459663354135],[-0.841155469836381,43.86449908200903],[-0.840747459629876,43.8645242643959],[-0.840334314592032,43.864436102090046],[-0.840088246190648,43.86418438293142],[-0.839978618995669,43.86377649376418],[-0.840541304099394,43.86316293055298],[-0.840683902466526,43.86313538382288],[-0.841157177196441,43.863284495307035],[-0.841329777780633,43.86322165355064],[-0.841296375178849,43.86307687079407],[-0.840836205685902,43.862826388265276],[-0.839862835037216,43.86283273658389],[-0.83971692939879,43.86270002378246],[-0.839825388781036,43.86222048598527],[-0.840783528323994,43.86163624312987],[-0.840925777894884,43.86125191914239],[-0.841097725159047,43.86127199103452],[-0.841467284242751,43.86154548547461],[-0.841901639885747,43.86146801545103],[-0.841906597424231,43.86106059644374],[-0.841452354661979,43.861009025647114],[-0.840605434925928,43.86072891961226],[-0.840620567074093,43.86063918943323],[-0.841305713197459,43.86025466325625],[-0.841164330471247,43.85985600371046],[-0.841142792445119,43.85936933128893],[-0.840909461994882,43.859158611839234],[-0.841075287072756,43.858921218491716],[-0.841024125828818,43.85860497430332],[-0.869158499692092,43.86063583711337],[-0.877804439076218,43.87094165732693],[-0.879565093534797,43.8729324433802],[-0.873506143913028,43.88011529928278],[-0.873229432236798,43.8806450085463],[-0.871520246569993,43.88258969823566],[-0.870710491541669,43.88337888760352],[-0.869183038579115,43.88539727962611],[-0.866601530491489,43.88796749033651],[-0.864400322564006,43.890380004002864],[-0.864024736150239,43.89055548905157]]]]}}]}