{"type":"FeatureCollection","name":"COM_17440","crs":{"type":"name","properties":{"name":"urn:ogc:def:crs:OGC:1.3:CRS84"}},"features":[{"type":"Feature","properties":{"fid":4213,"ID":"COMMUNE_0000000009751132","NOM":"Ternant","NOM_M":"TERNANT","INSEE_COM":"17440","STATUT":"Commune simple","POPULATION":381,"INSEE_CAN":"18","INSEE_ARR":"5","INSEE_DEP":"17","INSEE_REG":"75","SIREN_EPCI":"200041689"},"geometry":{"type":"MultiPolygon","coordinates":[[[[-0.585091866620837,45.95448922658161],[-0.584360019608103,45.9544042456985],[-0.582356461767992,45.95439829789593],[-0.581778155712407,45.95428950860075],[-0.581276364088429,45.95408544806943],[-0.580426645653168,45.95393656697588],[-0.577158413216409,45.95375961428303],[-0.575280350980166,45.953377288735005],[-0.573429605787745,45.95383328793365],[-0.571522600673799,45.95390071949354],[-0.567825117859558,45.954377953402854],[-0.566287910240563,45.954209181526],[-0.564342292178095,45.954319173553635],[-0.563525382561408,45.9544566832003],[-0.562500054055325,45.95474858130448],[-0.56072480101563,45.95491534270491],[-0.559057983584589,45.95498041121345],[-0.557750866197044,45.955511889980876],[-0.556055500288426,45.95553544525475],[-0.554794375408101,45.95573913394803],[-0.553997567987858,45.95600844842452],[-0.553616017049801,45.95604387022862],[-0.55300372505282,45.95606850924558],[-0.552742986819202,45.95593337399475],[-0.552658253980233,45.95568183860893],[-0.552731272584091,45.9552513783049],[-0.552437042487227,45.955057801512844],[-0.551244748091305,45.955066388777105],[-0.550608211817758,45.95515577584071],[-0.549679572508893,45.95486401695913],[-0.547670723208093,45.955356997818946],[-0.547279996575219,45.95518987053019],[-0.546898067477447,45.954858410996465],[-0.546624233905283,45.954218887842316],[-0.545849544834113,45.95380869574241],[-0.54536577624007,45.953440761861586],[-0.544818841415187,45.953275817789354],[-0.543654734650829,45.95311938820138],[-0.543073801816219,45.952887895901256],[-0.542514066295898,45.95196165921908],[-0.542434089481572,45.95140169020864],[-0.542469198049959,45.950240489398425],[-0.541275729565553,45.94980732609889],[-0.540405467346036,45.94871322601211],[-0.540130007535972,45.947765463056456],[-0.540153712266277,45.94739064081155],[-0.54143322289566,45.94697290370038],[-0.542961155495014,45.9462192612907],[-0.541605835846481,45.945337769585365],[-0.539819700596178,45.943904569312785],[-0.535152426984025,45.93947414785696],[-0.534660872666587,45.939243429891654],[-0.533314556320277,45.93894026265742],[-0.531380215538839,45.93827144760645],[-0.529870242191448,45.93747037310795],[-0.531281088502458,45.93666555436413],[-0.534069098209358,45.936445061775885],[-0.535329728966825,45.93587744397388],[-0.561825321487118,45.9421257531246],[-0.563841617330447,45.942415593170324],[-0.571545008983882,45.942794583307],[-0.5726766058224,45.942790395246064],[-0.587417722872806,45.93911654743288],[-0.587739611363797,45.94022951008397],[-0.587813410428841,45.940826615420534],[-0.58774918213572,45.94118922206479],[-0.587513638899273,45.94161946083508],[-0.58567132415025,45.943982817463],[-0.585404979722125,45.94447622547218],[-0.584918188878845,45.944918027273005],[-0.584463853757522,45.945560716619724],[-0.584278737462963,45.94720266228228],[-0.583797662018449,45.94866558712067],[-0.583979548498851,45.94870038846162],[-0.584155289571409,45.949791849876945],[-0.584814773837491,45.95059214776326],[-0.585369713762912,45.950818845922335],[-0.58511013974164,45.951099301994574],[-0.585192644169689,45.95433008696485],[-0.585091866620837,45.95448922658161]]]]}}]}