{"type":"FeatureCollection","name":"COM_24045","crs":{"type":"name","properties":{"name":"urn:ogc:def:crs:OGC:1.3:CRS84"}},"features":[{"type":"Feature","properties":{"fid":4283,"ID":"COMMUNE_0000000009756292","NOM":"Boisse","NOM_M":"BOISSE","INSEE_COM":"24045","STATUT":"Commune simple","POPULATION":249,"INSEE_CAN":"19","INSEE_ARR":"1","INSEE_DEP":"24","INSEE_REG":"75","SIREN_EPCI":"200040889"},"geometry":{"type":"MultiPolygon","coordinates":[[[[0.630289613987826,44.70675128724675],[0.628876604527333,44.70758389482605],[0.627457229748625,44.70859648840489],[0.627255922357248,44.70899748712771],[0.626812058600452,44.70951938341548],[0.62558770687804,44.710547845410986],[0.625547872939815,44.71083341294031],[0.624859116643612,44.711470742961716],[0.624850220276284,44.7117713853757],[0.624178929936909,44.71217400411419],[0.622728980386402,44.71387582297449],[0.62232502605625,44.714198605471665],[0.622340026039931,44.714531286015294],[0.622163780384226,44.71490579481561],[0.622087033996373,44.716004802620304],[0.623681996109069,44.715657151999864],[0.623618899692498,44.71595483013886],[0.624388953610071,44.71596685310606],[0.624289332821432,44.716381739573876],[0.625500828887865,44.71620056912368],[0.628502847701083,44.719064288237604],[0.62650728898555,44.72019243677723],[0.626273191884319,44.72047113889554],[0.626184249174591,44.721950885383045],[0.624473317566841,44.72363543261082],[0.625265153577776,44.72361278719136],[0.627108863916823,44.72441160579464],[0.626610064269813,44.72539438980647],[0.626856259805603,44.72554828245853],[0.626925224617904,44.72577043257025],[0.627618937938149,44.72585825450321],[0.627992868673348,44.72603920016402],[0.630648578640427,44.72766057635003],[0.631745183172751,44.72844332633122],[0.632843117087686,44.72844428467661],[0.631718821059756,44.730420703941775],[0.631787343959403,44.73062392667792],[0.631702572839959,44.73089682797907],[0.631094956431622,44.73131346681586],[0.631965117863335,44.73153383492609],[0.633138870919281,44.73156613348867],[0.635693450299154,44.7320854650917],[0.636651181275902,44.732327480788385],[0.637839600094213,44.73285362619012],[0.638423201075084,44.73279761967613],[0.639584385512467,44.73246749978208],[0.640728354729036,44.73321063555721],[0.642108582774172,44.733503035467166],[0.642966534949222,44.733775296308586],[0.644050180624272,44.734240598030624],[0.644511164968945,44.734578258313356],[0.646693572526724,44.7331853390416],[0.647914113572939,44.73267355238128],[0.648400487480581,44.73276674563826],[0.649479715889316,44.73182591193259],[0.649623721040494,44.731584879630724],[0.650209996849405,44.731252354596855],[0.650769373540541,44.73162450099641],[0.651255303972463,44.73209146123329],[0.652457760322469,44.73273843793865],[0.652327332436953,44.73286627395798],[0.653026296966723,44.73328550168322],[0.652902013727753,44.733538665370446],[0.6544162219321,44.733983265378036],[0.654873266535372,44.73429557831463],[0.654474680795889,44.73509686285352],[0.654236288470568,44.73587451868712],[0.654675474713015,44.73710066096571],[0.654932910306096,44.73741234905884],[0.657092663904814,44.73701491626153],[0.658467721200028,44.73688907696595],[0.659448014288562,44.73704850524875],[0.660454273911455,44.737312953855735],[0.661456314696537,44.737435895044975],[0.665811969659432,44.737533183332495],[0.667246431117572,44.73762014989304],[0.667988786318988,44.737453843562896],[0.67103639892962,44.73712707225831],[0.672815967400436,44.737027574861195],[0.675060921116486,44.73716389262327],[0.677502898830738,44.736231576142984],[0.678175839347587,44.73618443920326],[0.678637745446628,44.73589239132016],[0.680142529862214,44.73528443382957],[0.681334576560194,44.73450688522012],[0.680790828149726,44.73420998193075],[0.682882483536924,44.733494486346196],[0.683420833337353,44.73318600546845],[0.68408188327857,44.73238290989503],[0.684536361877711,44.73230054337116],[0.685427313192994,44.73189764776115],[0.687659280893403,44.730469855485616],[0.688344193782859,44.72908359304653],[0.68960232874747,44.7274904234674],[0.686756667501411,44.72593227833384],[0.685459957055641,44.72499098889959],[0.685065118875844,44.72500705342544],[0.68275299530727,44.724580404411334],[0.68178372100319,44.723666638054006],[0.681151451509825,44.71895904136719],[0.676910251811919,44.71857200681892],[0.677796486454785,44.71665683327595],[0.678023113839189,44.71569515485807],[0.678522490992602,44.7151030714051],[0.679656822184632,44.71439820054879],[0.680048865167632,44.713988500899376],[0.680005241961646,44.71372909143669],[0.679578690695198,44.71304554207141],[0.678666834579229,44.71298139156525],[0.67612549560424,44.71145005637513],[0.674204221535486,44.70983261515586],[0.673821260344591,44.70974710990021],[0.673588997669987,44.70870464435197],[0.672332976067628,44.70752717017766],[0.671865664979691,44.70749662703004],[0.671580042277413,44.70737893498231],[0.670083173441924,44.70576674290877],[0.669768247010872,44.70562501147576],[0.66944524654403,44.70586139529405],[0.668296862853519,44.703796266562286],[0.668977087088928,44.70341159218215],[0.668275367831703,44.7025771924614],[0.668609763447215,44.70224828256022],[0.669073976691284,44.70210854652459],[0.669633855374882,44.70127459719292],[0.669741319093767,44.70084453345676],[0.671037357754658,44.70034761688505],[0.672461252505004,44.69950661335446],[0.672627202159585,44.699555136982134],[0.673003797830318,44.69948739842819],[0.673349750031994,44.698877707038925],[0.675624967121193,44.69784650167941],[0.676797494635518,44.69755498294875],[0.676935243902399,44.6974299783501],[0.677015741006684,44.69700925089113],[0.677152227378039,44.69685359659967],[0.677802620530356,44.696545704001004],[0.678316599223396,44.69617730296362],[0.678552676729396,44.69611740648535],[0.677631067408868,44.693510431983384],[0.677109533280857,44.69231780137583],[0.675997090391868,44.693236551394506],[0.675050493705903,44.69383813502487],[0.674805823127592,44.693739324409016],[0.675174059168637,44.693108481752525],[0.671819864173807,44.691563561390296],[0.670801590435944,44.69084501074315],[0.671723614502309,44.68964670012806],[0.67175532019396,44.689154697883474],[0.670887234347174,44.68907968768026],[0.668223957974092,44.6884507701086],[0.665334982743235,44.68924730088914],[0.660003647464695,44.68987054827784],[0.65813427163775,44.690282243933176],[0.656886937998561,44.69033960357709],[0.655790019221871,44.690120023902885],[0.655898905856143,44.69099238823166],[0.655306750424443,44.69193186364262],[0.655281831787294,44.692257382431265],[0.65569285592198,44.69315146034757],[0.656163534383377,44.6938261331055],[0.656175903014449,44.6939840143981],[0.655826035424711,44.69462329388942],[0.655816245801542,44.69497975674114],[0.655543376826151,44.69549817385758],[0.65508003235432,44.69610262319236],[0.654758850395941,44.69614355376312],[0.654608373282818,44.696512347124106],[0.654628082124054,44.69676675750249],[0.650789177368441,44.69764636849991],[0.649898793552101,44.7001601937701],[0.649426095400646,44.700502324211314],[0.648650121992827,44.70148380285649],[0.648235956981999,44.70254051663936],[0.648002179442633,44.70290663253354],[0.646873319086756,44.70368785444905],[0.64603009100686,44.70407073126817],[0.645173604599548,44.70419662350069],[0.645069917438664,44.70450155256936],[0.644299545589206,44.704531095164455],[0.643288218800292,44.704886055609904],[0.642735743716962,44.70483916442743],[0.640677392787368,44.70413960724374],[0.639280380717292,44.70453584782556],[0.638573986300598,44.70451537571339],[0.636794909083729,44.70465574357984],[0.635690835926514,44.70460154252052],[0.633937607254686,44.705178352306326],[0.632334944588683,44.70580789409037],[0.630915852158959,44.70612609948289],[0.630289613987826,44.70675128724675]]]]}}]}