{"type":"FeatureCollection","name":"COM_23071","crs":{"type":"name","properties":{"name":"urn:ogc:def:crs:OGC:1.3:CRS84"}},"features":[{"type":"Feature","properties":{"fid":4162,"ID":"COMMUNE_0000000009751847","NOM":"Croze","NOM_M":"CROZE","INSEE_COM":"23071","STATUT":"Commune simple","POPULATION":187,"INSEE_CAN":"09","INSEE_ARR":"1","INSEE_DEP":"23","INSEE_REG":"75","SIREN_EPCI":"200044014"},"geometry":{"type":"MultiPolygon","coordinates":[[[[2.191186863210459,45.80600723156903],[2.190338102874435,45.8059336075834],[2.189630805159746,45.80578444695325],[2.189305349132241,45.80558759425995],[2.188526433992042,45.80479222666049],[2.188136693801261,45.804589505235526],[2.187227008618487,45.80384541921415],[2.186923398686555,45.80321555798086],[2.185861040169949,45.80278644993496],[2.18401470965818,45.802522770295454],[2.183308805554379,45.80280583818639],[2.183110807578063,45.8035698634168],[2.182240764566544,45.80371935780257],[2.181026216026985,45.80322246169484],[2.18063459199524,45.80340963374926],[2.180222179693244,45.803349005324755],[2.179940744825169,45.803138936874404],[2.179930424400435,45.80296685897757],[2.180552296138471,45.8015800421257],[2.18031742012728,45.80118300045434],[2.179355486009534,45.800326803734045],[2.179163227165547,45.79992196452952],[2.179103766279924,45.798032201661044],[2.178734787189507,45.79548639624976],[2.17824728857549,45.795111826355765],[2.177543728281259,45.79420436231102],[2.17685084694571,45.79361846401418],[2.175107009351585,45.79246294940477],[2.174834154492305,45.79271760865543],[2.17400951412445,45.792423404531036],[2.173268967108819,45.79244589958205],[2.171534349312952,45.79274296673171],[2.171272092393757,45.793148085396844],[2.1712112741351,45.79548543967499],[2.17104676602543,45.79555267270729],[2.168577305238921,45.79428546175541],[2.164692977147104,45.79286094629189],[2.164411852118095,45.792893086046064],[2.164203106954244,45.79341655559901],[2.163908588836253,45.793482815489185],[2.163414760873024,45.793363887321725],[2.162143177592774,45.79283394315616],[2.161596907746499,45.79252370305203],[2.160943785531915,45.79246841958575],[2.160150663787356,45.79256158051085],[2.159000908626972,45.79257283162177],[2.159142960280136,45.79195161611686],[2.158232694024387,45.792129442186884],[2.157843755124398,45.791971647848385],[2.157503251604269,45.79150802970236],[2.156991815091899,45.791448377494994],[2.156089671095112,45.79084187544632],[2.155712605756043,45.7922664136249],[2.156531314521748,45.79209963068322],[2.156339745540856,45.79250524364592],[2.156713788464115,45.79330141567341],[2.156288148709145,45.79352337025635],[2.156269401165098,45.79373936005452],[2.1560417808491,45.79397630186605],[2.15607174959048,45.79445831560171],[2.155700273853424,45.795178672463095],[2.155225162163305,45.79560377554658],[2.154989599193622,45.796611519550936],[2.155116305825253,45.79716540056],[2.154575704195395,45.7989237132856],[2.152305351138842,45.79879051741348],[2.150817907932939,45.79898466155344],[2.14670617568167,45.79987040880368],[2.145045729946624,45.80075748811936],[2.143720035463986,45.801226529346046],[2.142010493994762,45.80758849717597],[2.140159265682993,45.8075591046738],[2.14026029031313,45.80876210010065],[2.141262599095527,45.810139455032655],[2.141662969826605,45.809732751959956],[2.142576703779187,45.809768511959334],[2.143531239169176,45.80991353983307],[2.14404995042963,45.810178630953196],[2.144647245759423,45.81085766443889],[2.143998539837064,45.81108598906588],[2.143651720513206,45.811776777776146],[2.141616287629309,45.81290141081603],[2.142124062355547,45.81370585329061],[2.141867676063683,45.813878610625046],[2.142929750876488,45.815562589085424],[2.143442546183729,45.816627320637295],[2.14346581235203,45.81761809529512],[2.143198106395127,45.81901731067392],[2.14239158400942,45.82036110399524],[2.143764698854006,45.821432364034365],[2.142127443264456,45.822937355530364],[2.141776760400468,45.8237046564303],[2.141735785282659,45.824434686417014],[2.142475916844813,45.8252138760114],[2.145108278830676,45.82649369314008],[2.146425999230255,45.8274951583211],[2.147132028514987,45.82848748779774],[2.147938661825874,45.830224420729934],[2.148185450628072,45.83226331189633],[2.151090788499052,45.83550912967735],[2.153065325496368,45.83705127249807],[2.153666914874438,45.83772848698465],[2.154049415178405,45.83832661102409],[2.155365521240204,45.83904158418946],[2.156529871840779,45.83940329656612],[2.154734777237768,45.840770411934386],[2.153808230966749,45.84120023906689],[2.150772833091061,45.84202307279908],[2.149720899142171,45.84272659005986],[2.145883863617094,45.84221945744996],[2.145554362959047,45.843112106869576],[2.148134223939115,45.850440404718135],[2.149169581305603,45.852494241858444],[2.149383591552663,45.852656149948736],[2.149771604902675,45.85340201900854],[2.150015508007238,45.853547940993394],[2.150169859347177,45.85381836459303],[2.15059543147773,45.85405120311833],[2.150629252194758,45.854365747175386],[2.151053001275963,45.854466190279425],[2.151417850992177,45.85479312653712],[2.153062936557893,45.85408233191389],[2.154356074186363,45.8543855939027],[2.154822836002802,45.854034271902734],[2.154782277131269,45.853400886512496],[2.155908901111985,45.85355249441198],[2.156529898314895,45.853564335899236],[2.156981377912014,45.85328403397779],[2.157367285181091,45.85358409161756],[2.157485748353411,45.853421976647994],[2.158054919557321,45.85362073627993],[2.158276378137705,45.853296389589815],[2.158783948788599,45.8533091748133],[2.159181643141884,45.85351295584386],[2.159751615174748,45.85399808545153],[2.159653294242638,45.85436117360574],[2.160072481960136,45.855270236275636],[2.160783734357602,45.85545022600592],[2.160589182856525,45.8561241880487],[2.162035200464213,45.857568583971904],[2.162243405891733,45.85854091260048],[2.162110888067159,45.859289181608084],[2.162273874571397,45.859674921631076],[2.162590388596092,45.861494562455306],[2.163060071028612,45.86299024080823],[2.163336424305523,45.863381321382604],[2.164848400470885,45.8645731154452],[2.165906402658518,45.86621091008508],[2.167511839271569,45.865916562198045],[2.168220218627553,45.86569934377437],[2.169670155924335,45.86502919552447],[2.173137319796741,45.86375873536448],[2.172967206390508,45.863584586703325],[2.172428197329179,45.86334109707613],[2.170435125919891,45.8627618455767],[2.17051688258253,45.86246796852147],[2.170163487124699,45.86179717224533],[2.169311314639191,45.86121006227043],[2.168791907162445,45.861036941369754],[2.168245379138683,45.86009815781699],[2.167433274554111,45.85942127405378],[2.167953571325768,45.85876500875661],[2.167631268922838,45.858685188670485],[2.167574299163442,45.858446125418965],[2.168581536441478,45.85840401054103],[2.16865508964074,45.85805604197212],[2.16966459064101,45.857520437299584],[2.170578514205662,45.85725428476403],[2.17123429284689,45.85529681617046],[2.171701964790179,45.854277230145705],[2.171874707410162,45.85401643870347],[2.17236689166784,45.85359498917904],[2.171940092546275,45.85240765051055],[2.172192976572703,45.85101366446743],[2.172903741351227,45.84993551844096],[2.173772269633661,45.849593363407976],[2.175805640886565,45.849601910196895],[2.176498448834556,45.849461974655995],[2.176595809372505,45.84880979221487],[2.176877991231603,45.848725396371904],[2.178958904975097,45.84900079294113],[2.179286296649324,45.848735711004366],[2.180441212029975,45.848368568829734],[2.181645161617499,45.84773521027329],[2.182540935948901,45.84763543108886],[2.182945903509409,45.847351088107004],[2.183395052694912,45.84721565211252],[2.185346805597614,45.84611307258547],[2.186071263686447,45.84522045606144],[2.187428576086594,45.844226124859055],[2.187857111403827,45.84400046921615],[2.188530892214096,45.84330739284071],[2.190235485251903,45.84261179982058],[2.191051672796584,45.84169369417734],[2.192075839503521,45.84020883054143],[2.192062921579734,45.839771076382966],[2.192240982104916,45.839401327794775],[2.192430908793428,45.83830853131851],[2.192220472040388,45.8373695661321],[2.192205389216767,45.8364635165172],[2.192426132454004,45.834936881045394],[2.19269421495923,45.83457678086445],[2.193002813180734,45.83444120358905],[2.193221801144234,45.83444276786467],[2.19461984348772,45.83266067342811],[2.195021864803535,45.831329842285555],[2.194935414025464,45.83098612114647],[2.193849942191024,45.82909985665015],[2.19385550478002,45.8287189687312],[2.194463567875548,45.826861894999546],[2.194535810675714,45.826236536344204],[2.194365573821221,45.8255446095278],[2.193305622995449,45.82341897817667],[2.193437880942522,45.82186019104145],[2.193380906121777,45.82144013343292],[2.192961667593541,45.81980986614221],[2.192639753978538,45.81971661081553],[2.192515512694371,45.81949328962837],[2.19224657655719,45.81930045224418],[2.192049937756004,45.81795184069304],[2.191681771611809,45.817235979850636],[2.191190659212886,45.81585824230594],[2.191865119986628,45.815444321061904],[2.19172774066443,45.81488770589196],[2.19162609466702,45.81452946470775],[2.191362345104167,45.81442401436841],[2.190913216487374,45.81396242329682],[2.190534742318708,45.81298622917876],[2.190363323976823,45.81282020172737],[2.189665052762517,45.810207234532385],[2.191164150079331,45.80852497233648],[2.191076440013448,45.80668904803118],[2.191186863210459,45.80600723156903]]]]}}]}