{"type":"FeatureCollection","name":"COM_86237","crs":{"type":"name","properties":{"name":"urn:ogc:def:crs:OGC:1.3:CRS84"}},"features":[{"type":"Feature","properties":{"fid":4201,"ID":"COMMUNE_0000000009750359","NOM":"Saint-Pierre-d'Exideuil","NOM_M":"SAINT-PIERRE-D'EXIDEUIL","INSEE_COM":"86237","STATUT":"Commune simple","POPULATION":728,"INSEE_CAN":"06","INSEE_ARR":"2","INSEE_DEP":"86","INSEE_REG":"75","SIREN_EPCI":"200070035"},"geometry":{"type":"MultiPolygon","coordinates":[[[[0.289798180951722,46.161522319722735],[0.290279091190008,46.15974076991374],[0.290234036923503,46.15915673736906],[0.290341845676829,46.158365513607706],[0.290636841494822,46.15772201660804],[0.289090467058233,46.15752924392027],[0.286353004881713,46.156619621650144],[0.283778534351908,46.155693105764136],[0.282812694422757,46.15527265422577],[0.281995298581695,46.154813398637984],[0.282664619591227,46.15417887766766],[0.284362013411668,46.152209301313434],[0.285124232649233,46.15257802059109],[0.285095907673037,46.15102849172977],[0.285133588584066,46.150633845100444],[0.285275509587881,46.15043811240675],[0.286431901444808,46.15056936574786],[0.286569714399636,46.150404168026604],[0.28782503680403,46.14966198117868],[0.288512121994416,46.14968829899983],[0.288733702333499,46.14958546700487],[0.288977670769673,46.14958047894632],[0.289211816723406,46.148462499157475],[0.288687584835258,46.14844638049905],[0.288115397615431,46.14866608202239],[0.285074305238784,46.148950225093635],[0.283774713136621,46.1488056208827],[0.282947889587876,46.14880025848135],[0.282248059558429,46.148926775140595],[0.281228193598664,46.14774184927937],[0.28073384333135,46.14777686625499],[0.28002536419318,46.14805183044906],[0.279301413002028,46.14748846966569],[0.27834271779862,46.14752856903123],[0.278099472963929,46.147101060806115],[0.278097554687963,46.14646038811203],[0.277758367781785,46.14619006024148],[0.277597509236438,46.14561765894685],[0.277298687724792,46.14552669965792],[0.277759180861064,46.14510254581475],[0.279092008047732,46.144444306221416],[0.279414574315514,46.1443439121223],[0.280393301256563,46.14423851024793],[0.281067009485381,46.144245633],[0.282422459638969,46.14480427516511],[0.282995857660482,46.144847729575346],[0.283398044796873,46.144971781260516],[0.283847678175356,46.14494919906744],[0.285781476958229,46.145111668055684],[0.285890368935542,46.14414207102026],[0.286231345101811,46.14332849080571],[0.286565509369817,46.14270486200384],[0.287282897906113,46.14211651768276],[0.286573533794126,46.14086517284502],[0.288659096895787,46.14044556076226],[0.288399960010112,46.140286199588715],[0.287105794459649,46.13880374512917],[0.286359739305584,46.13816421407039],[0.285285138884834,46.13745915759001],[0.283503453400121,46.13611456999666],[0.282656558570064,46.13560234692165],[0.282646327612209,46.13549488056909],[0.282970087011995,46.135421536913995],[0.285864949205709,46.134069867730354],[0.285444247472116,46.13311644189842],[0.284812338502025,46.13064334797444],[0.282302159446593,46.13064185190393],[0.277637011895942,46.13013993567488],[0.277208173765516,46.12958903731894],[0.274925421390709,46.13012353471772],[0.274015465483464,46.13002329946119],[0.270213297501803,46.13114111528506],[0.270061784169208,46.13098249555761],[0.268944538783511,46.13140163250805],[0.268353483978635,46.13135137146303],[0.267784306195013,46.132449542196376],[0.268216411220322,46.13280323152531],[0.266503111378754,46.13410362325111],[0.264478673479447,46.13439004654298],[0.263014611063062,46.13448450998243],[0.262973302707927,46.13487095651425],[0.260822138030555,46.13556603117397],[0.260655522137538,46.13591791800222],[0.25993723774632,46.13657185284323],[0.259629039972771,46.13698159150729],[0.259227700430131,46.13769903546412],[0.258378722467743,46.138814738173075],[0.257363712994726,46.13962097563001],[0.258174760555695,46.140510057452595],[0.258231186405625,46.140885347521035],[0.258371625659745,46.14103200232541],[0.257564595854301,46.14177388451603],[0.256904265437971,46.142121950866205],[0.25560944395396,46.142456482586645],[0.254826052695744,46.1428024641019],[0.253513254960104,46.14323655258109],[0.252098327297388,46.14358706204178],[0.251223778216502,46.14365599861747],[0.250404416405194,46.1437100462339],[0.250115565359982,46.143524647017315],[0.248897738360803,46.14358885630437],[0.247549070547438,46.143780531184746],[0.246998157924515,46.143677072730725],[0.246621550086276,46.143484130515894],[0.246459969400852,46.1432684692972],[0.246713457758702,46.14304755509647],[0.24654761773171,46.142710150997935],[0.246543870816968,46.141390044074484],[0.245949803028726,46.1405457835462],[0.246042553233873,46.14019572839158],[0.246697795452118,46.139459254599466],[0.243059557150508,46.139662909892905],[0.24296814058411,46.14096629192293],[0.243018313978626,46.142366819508695],[0.242367121874278,46.14278891061466],[0.24047190654742,46.143306017221356],[0.240291763804919,46.14343409177548],[0.241465571648468,46.145844053159735],[0.241487135955964,46.146111283843915],[0.241773705492627,46.14621285353442],[0.240089069907611,46.14671614939818],[0.241575251790719,46.15008249004818],[0.241852491538578,46.150885739631576],[0.241993967818668,46.151733446333544],[0.240596910053743,46.15177429680115],[0.239072676587532,46.15194629308784],[0.238884325162371,46.152082275890244],[0.237312755286802,46.15242159215715],[0.236247838756681,46.152766009263324],[0.229945167987543,46.15423703666372],[0.228689583404252,46.15463259897274],[0.228552427728731,46.154755398003026],[0.226588391198476,46.15475070520338],[0.228374263868167,46.15779386682807],[0.226089945625411,46.158428300356924],[0.226915738841594,46.15963693868567],[0.227907490913998,46.16151368767421],[0.228679656171301,46.16137304500459],[0.229657735391977,46.1614942159537],[0.229191256535334,46.16474730801262],[0.229465423518156,46.16732916813996],[0.229705674460198,46.167784646131864],[0.230050120047273,46.16815436216499],[0.231597621862253,46.16902103969992],[0.230186336518893,46.17046434520926],[0.229415332720388,46.16996348888272],[0.229275708270965,46.17010875534952],[0.229256248084534,46.17044256661636],[0.228706823437376,46.17120315924551],[0.228240617792307,46.171651316754776],[0.227955906069496,46.17228050491038],[0.226343538334939,46.17374679274158],[0.226187267255691,46.174092581581334],[0.225946102768514,46.17670602000333],[0.225621663480329,46.17724773348439],[0.223800223243973,46.178817009733166],[0.221496138029639,46.180258223872535],[0.219827164284231,46.18096526694779],[0.217723379822787,46.181650828477544],[0.216641994336424,46.18228030585418],[0.218519416306399,46.18362828441626],[0.219548692816663,46.1841030940198],[0.220744761555499,46.18433328548239],[0.222118714384233,46.18438129693559],[0.223257773806634,46.184226224224204],[0.225567123879109,46.18370866714448],[0.227164173910728,46.18324396656501],[0.229215206782087,46.1828308614866],[0.234384314691092,46.182244964256824],[0.238691284034682,46.181157635649186],[0.240507979617711,46.18078368770172],[0.242619507915651,46.18047903755713],[0.243981407300258,46.17988766138529],[0.244357648261933,46.17983461501791],[0.24574561269556,46.179679049534926],[0.246360801033191,46.18034360402043],[0.24664246681318,46.18090816849746],[0.254292644951899,46.18013999034716],[0.256312107906649,46.17978060395745],[0.255571455870107,46.178018325515886],[0.258092135857416,46.17868377012491],[0.259959103548062,46.178830622307714],[0.261524230262444,46.178788162087805],[0.26441829969443,46.178289326686134],[0.265979327915519,46.17851070721795],[0.267896008960616,46.17831082950128],[0.26808148586926,46.17859730962367],[0.271127449397669,46.1785632807142],[0.273250473675867,46.17823041211931],[0.275116403479982,46.17821570702802],[0.275050657995236,46.17797265662748],[0.275119112196388,46.177717507165355],[0.27599244034862,46.17635177586709],[0.275695048085797,46.17560220420725],[0.2755633005495,46.17399883118629],[0.274749471758802,46.1723151261443],[0.274880027081448,46.1710451137792],[0.276418547957212,46.17020170893897],[0.278631439669804,46.16933119125343],[0.28027290502943,46.17226727773722],[0.28561840659646,46.17117603692679],[0.28602970805458,46.16928561677553],[0.287185523766097,46.16699850867042],[0.287955909540191,46.1642958309405],[0.289798180951722,46.161522319722735]]]]}}]}