{"type":"FeatureCollection","name":"COM_40028","crs":{"type":"name","properties":{"name":"urn:ogc:def:crs:OGC:1.3:CRS84"}},"features":[{"type":"Feature","properties":{"fid":4165,"ID":"COMMUNE_0000000009759833","NOM":"Bastennes","NOM_M":"BASTENNES","INSEE_COM":"40028","STATUT":"Commune simple","POPULATION":244,"INSEE_CAN":"04","INSEE_ARR":"1","INSEE_DEP":"40","INSEE_REG":"75","SIREN_EPCI":"244000881"},"geometry":{"type":"MultiPolygon","coordinates":[[[[-0.757398405911191,43.656135407057285],[-0.757222446513569,43.65596853367753],[-0.757175053349923,43.65551075528014],[-0.756596434318769,43.65487946781159],[-0.756632339877966,43.65425396078669],[-0.757010657924938,43.653685078427564],[-0.757285461407484,43.65359990882117],[-0.757389086647336,43.65326932961607],[-0.757383840294601,43.653132586972696],[-0.757112281906586,43.65296451543137],[-0.757357373305313,43.652577698723974],[-0.757375409443867,43.65209603959485],[-0.757089417353045,43.65115917142633],[-0.756523566393614,43.65115711461963],[-0.756307427032576,43.65092587050682],[-0.756287860968757,43.650759896261725],[-0.755034379169327,43.64957901416361],[-0.754916446484609,43.649369596923485],[-0.754510073268895,43.647636064109825],[-0.754785190407915,43.64653387392597],[-0.756322959135089,43.64558081307345],[-0.756526296046129,43.64527651572478],[-0.757151438431664,43.645218868378734],[-0.758253912531552,43.64545999209726],[-0.758716636036599,43.645838541759154],[-0.759625101902687,43.645977365069655],[-0.760470243616505,43.64664444770369],[-0.760948420440973,43.646823374254225],[-0.76217754156087,43.647065481277615],[-0.764800743255707,43.6472277528293],[-0.766159557651572,43.646724850381204],[-0.768975505312425,43.64497060601962],[-0.76932180420147,43.64463429876109],[-0.769480261033831,43.64425225991172],[-0.768721177984121,43.64282017046326],[-0.769194883125226,43.64278031683765],[-0.769568253845037,43.642610621438756],[-0.769835640963849,43.642357222928666],[-0.770101234683722,43.6417372537861],[-0.770636841864234,43.641582643495006],[-0.770997351870623,43.64116116069614],[-0.771301693980822,43.6409794418098],[-0.772010387029044,43.640872865192385],[-0.772282542841356,43.64067334373795],[-0.772798930150286,43.64054731501132],[-0.772866139157504,43.64021167892197],[-0.773187137394927,43.63956725720255],[-0.773397206778191,43.63949870577447],[-0.774032842706484,43.639526171957776],[-0.774114814118468,43.63932064064048],[-0.773951194452771,43.639020947631934],[-0.774273658669376,43.63881336759066],[-0.774933008983208,43.63856075118848],[-0.774964018575418,43.63841013813344],[-0.774777778314646,43.638143661879134],[-0.774032970408802,43.63794613566417],[-0.773899583310179,43.6378417705721],[-0.774279529740265,43.63754661614341],[-0.774015156213656,43.63728015092885],[-0.774249366012856,43.63697564618559],[-0.774122628670207,43.63663323527251],[-0.774500508683278,43.6365516449848],[-0.774657455475024,43.636429986762906],[-0.774472514057265,43.63614544918731],[-0.774550955676221,43.63598057710005],[-0.775067965672558,43.63554463434448],[-0.775412604341264,43.63565516858489],[-0.775559210714749,43.63582843494612],[-0.776266302027481,43.63590565055802],[-0.777064102572117,43.636719278294606],[-0.777699915512011,43.63699444055375],[-0.778011693823991,43.63696378063119],[-0.778482520233264,43.636617706931965],[-0.780363555198545,43.636760356315776],[-0.781187658729876,43.637031648982195],[-0.781692018786472,43.636460990400984],[-0.78223310689842,43.63554493780364],[-0.78273380675045,43.63514465634336],[-0.783260596951729,43.634989387423666],[-0.784056620510277,43.63496706748981],[-0.784404923585498,43.63532066737983],[-0.784674816426889,43.63546350369161],[-0.785400898257328,43.63567782410514],[-0.786187722316714,43.63574138742304],[-0.786924318767828,43.63564544893927],[-0.787313687256015,43.63571925498936],[-0.787564652207622,43.63604471040443],[-0.787693182773266,43.63661945792765],[-0.787660112009998,43.63726379835112],[-0.787555997325002,43.63762145164854],[-0.787281998445794,43.63788593678505],[-0.78632113286875,43.63841758410541],[-0.786010877956397,43.638790527346686],[-0.78590580142799,43.63949052530711],[-0.786194010100108,43.63979757152424],[-0.787339102773853,43.639800898846666],[-0.789530321039697,43.638929962346225],[-0.790105736448359,43.63896574091434],[-0.790793340359916,43.63867240394272],[-0.791216433146948,43.63873060710662],[-0.792247917880791,43.63926663161007],[-0.792612638597549,43.63936109850009],[-0.79305933474388,43.639363520329965],[-0.793748978688705,43.63960698618723],[-0.794340938815165,43.64006105003272],[-0.79476824576923,43.640594730274216],[-0.79459332111154,43.641025130347685],[-0.794215422907037,43.64153738756328],[-0.793415695298593,43.6421796785112],[-0.793308834921187,43.64253293116803],[-0.794225341972501,43.64275496260042],[-0.794769799413,43.642790898300554],[-0.79816590534448,43.64265601409911],[-0.798576645523598,43.642695704417775],[-0.80001155423941,43.64306531556208],[-0.8015593560898,43.64345347937858],[-0.802056734127116,43.643789202540404],[-0.802373172311872,43.644482581842865],[-0.802323696785883,43.644671687046255],[-0.801742152715313,43.645404597724884],[-0.801684841519693,43.64590566599381],[-0.801847344827352,43.64607384139561],[-0.802687520390132,43.64647143664354],[-0.803113143828624,43.646585359583746],[-0.803894574443703,43.64662106396296],[-0.80419193032305,43.646708844756596],[-0.804646156924308,43.647552340264596],[-0.805844294299544,43.648762547400615],[-0.805451151050492,43.64938078031625],[-0.804882812286398,43.64941599725569],[-0.804754607344196,43.649334906686086],[-0.804687114959591,43.64897242993897],[-0.803990087613898,43.648470744112466],[-0.803210488830215,43.649061058074594],[-0.803140330503039,43.64940583237255],[-0.802791382399274,43.64968109000075],[-0.801386346298546,43.649689715148384],[-0.800912448236718,43.6500639255824],[-0.800492669342402,43.65022544494233],[-0.799495490192759,43.65030445815865],[-0.798423921035455,43.65021580442035],[-0.7980669614409,43.65037061401926],[-0.797682875952471,43.650677710964665],[-0.797330856026969,43.65073865839931],[-0.796102143799066,43.65134911663154],[-0.79481942696798,43.65135067976725],[-0.794427931062404,43.651265259205054],[-0.794276106105136,43.65155792707085],[-0.794254320349129,43.65195955949074],[-0.794465502787108,43.65239449576938],[-0.794425460832662,43.65282018769803],[-0.79301764689414,43.652469365762336],[-0.792864408569036,43.652590922192466],[-0.792711314067888,43.65256473643165],[-0.792508466869434,43.65272405718551],[-0.792498007565153,43.65335320514728],[-0.791886205828657,43.653725880947746],[-0.789798234172362,43.65402753052079],[-0.787752216661351,43.654119584489194],[-0.78741030662125,43.65474677055263],[-0.786201550356166,43.65509877814158],[-0.786121196277767,43.65519706600823],[-0.785965220113375,43.65542770835256],[-0.785950039233288,43.65583631463664],[-0.785686198933157,43.65668778521313],[-0.785810705670365,43.657295114123826],[-0.785587390637223,43.657501977607104],[-0.784675199575522,43.658963372430854],[-0.784134697729818,43.65887679622143],[-0.783361732580528,43.65964779662755],[-0.782245123761257,43.66098386318705],[-0.780868090300379,43.662962264220916],[-0.780217685492751,43.664106427281446],[-0.779384601039182,43.664475914692154],[-0.776851046590497,43.66529095612485],[-0.776097642238406,43.66532614170428],[-0.774515374312721,43.6652306619052],[-0.774224795227997,43.66530290997918],[-0.7740079640313,43.6655527630767],[-0.774033410576317,43.66567529358112],[-0.772591032970999,43.66576320197312],[-0.77144213024147,43.6655589481294],[-0.77063869381633,43.664457182026396],[-0.769896849226185,43.66447931223762],[-0.769273721948333,43.66496665256985],[-0.768697467196338,43.66492177533419],[-0.769118647260479,43.664024357895705],[-0.768803706927295,43.663745212155945],[-0.766301383395264,43.66296085277226],[-0.764684241324581,43.66289977198865],[-0.762584927692724,43.663016608155985],[-0.762443362968982,43.6628638645132],[-0.762714119655251,43.662622078496184],[-0.763465441815177,43.66157362898377],[-0.760883030927834,43.66139998049519],[-0.760349693860051,43.659456444249365],[-0.759883541816721,43.65893298033007],[-0.759213261102726,43.656886983979476],[-0.758611924242363,43.65683661852105],[-0.758307334713946,43.65673274852226],[-0.757398405911191,43.656135407057285]]]]}}]}