{"type":"FeatureCollection","features":[{"type":"Feature","properties":{"fid":323,"ID":"COMMUNE_0000000009755890","NOM":"Canéjan","NOM_M":"CANEJAN","INSEE_COM":"33090","STATUT":"Commune simple","POPULATION":5836,"INSEE_CAN":"23","INSEE_ARR":"2","INSEE_DEP":"33","INSEE_REG":"75","SIREN_EPCI":"243301165"},"geometry":{"type":"MultiPolygon","coordinates":[[[[-0.632862187795742,44.74219742562045],[-0.632682132920333,44.741915833346724],[-0.632711161979608,44.741640899532925],[-0.633070800559758,44.74149210799798],[-0.633521683859314,44.739741495370346],[-0.633499356732639,44.739102337761686],[-0.633824036624535,44.73825621883577],[-0.634112083365797,44.73778261800078],[-0.63431321404844,44.737627308537874],[-0.633728061756405,44.735968382789956],[-0.636667908978245,44.736281917269466],[-0.638254608378906,44.73670925028882],[-0.643957184160304,44.7381322407438],[-0.647311681107211,44.73990360922374],[-0.648250739885716,44.7405783566097],[-0.649484775056573,44.74116045771124],[-0.650185365381892,44.74248565198209],[-0.650348575450111,44.742603744144446],[-0.65927304272879,44.74320950714922],[-0.657824237613635,44.74486884965011],[-0.657245667127782,44.7457342533029],[-0.656374235975413,44.74651108677299],[-0.656917222225852,44.74680949989467],[-0.657023768752982,44.747008766378656],[-0.670500578619848,44.75299794474548],[-0.671440066509909,44.75332280482081],[-0.671564662619963,44.753274511113936],[-0.671675838283975,44.75300134259684],[-0.67569029600661,44.753656781555485],[-0.675916198403793,44.75432614501477],[-0.676777302797217,44.75507626485227],[-0.678119867274229,44.75678557704292],[-0.679494056561088,44.7571986805087],[-0.679499955402107,44.757540071191535],[-0.679826222744809,44.75821510778335],[-0.680330934426094,44.758678720903205],[-0.681318676705951,44.7598346873107],[-0.682775789758505,44.76160864452283],[-0.683017205958353,44.762088212990065],[-0.683014214005973,44.76298869880556],[-0.683166930361992,44.76300254730218],[-0.684437515247276,44.762661959632574],[-0.684556896990632,44.76409734612154],[-0.685007037390042,44.76621662372051],[-0.685287873833351,44.76814595525406],[-0.685244622717776,44.76877919903164],[-0.685598634902921,44.76896840804956],[-0.687223183762666,44.77218963733759],[-0.68752242763278,44.77235362562137],[-0.678899577305822,44.77705214939549],[-0.67728621917662,44.776259404831514],[-0.669748765169008,44.777989260556474],[-0.669101784792187,44.77759609909808],[-0.667719573680631,44.77776444372361],[-0.666239655984761,44.77666789875877],[-0.664227637512398,44.77765647889508],[-0.662872793072322,44.778167245733535],[-0.661421183903773,44.77818368621657],[-0.66027636076591,44.77811156056766],[-0.659087000074659,44.777860638293944],[-0.658290674907127,44.777543549993894],[-0.656479195426715,44.77718245717735],[-0.65580940401607,44.77682602563786],[-0.655385147593169,44.776742687382416],[-0.654228310879682,44.77681600250274],[-0.653222347457278,44.77697175405259],[-0.652079070469056,44.77740961604387],[-0.651194427426309,44.77746581397345],[-0.65117623708666,44.777770143311955],[-0.650109725149324,44.777851252973704],[-0.645810724767577,44.77852636633214],[-0.645259915067989,44.77822814476484],[-0.645421515889226,44.77753966279811],[-0.646292727066828,44.77704232960836],[-0.646799996468013,44.776669629395904],[-0.647164149844014,44.776275501574275],[-0.645621917090453,44.77268963400412],[-0.645080628172466,44.77210810177499],[-0.64357589393167,44.76784773748927],[-0.643226209349615,44.76621983332392],[-0.642122002742897,44.76434906730928],[-0.6420372665443,44.76407606617848],[-0.642314325969227,44.76362713726997],[-0.642301094669657,44.76295432648374],[-0.642612518701992,44.76233302605574],[-0.643158434284348,44.76158234050327],[-0.643355530884668,44.760836818668956],[-0.643063432207441,44.760799561545284],[-0.642572159128384,44.76057778632155],[-0.642419786931404,44.76031512186997],[-0.641760500475027,44.75978432745716],[-0.641095416300123,44.75953491473898],[-0.640857933189535,44.759540018430705],[-0.639758607693667,44.760007858528354],[-0.638368701875581,44.760794367011485],[-0.637583814516657,44.761371722087084],[-0.636005677261556,44.75748863470366],[-0.635435300736037,44.7576858095864],[-0.635497875957463,44.75607140008084],[-0.635486915277549,44.75580408557326],[-0.635393786168502,44.75579182139403],[-0.635340386187274,44.75494638987305],[-0.634888409433791,44.754959423749035],[-0.634897927965937,44.755087090203666],[-0.631797345446084,44.75515907721515],[-0.631624399602433,44.75498810233764],[-0.631033112383786,44.754920069423854],[-0.630790099416486,44.75480005865872],[-0.630584821203007,44.7546571801037],[-0.630449448322324,44.75432364671816],[-0.630836940786166,44.753880141575124],[-0.630715718809723,44.75308019475922],[-0.630586562664431,44.75284289247363],[-0.630768673295551,44.75227453742276],[-0.631495975921,44.751354838954704],[-0.632141661610395,44.750914577321105],[-0.633576445438109,44.75033576362779],[-0.634116496997059,44.75004225599781],[-0.633539429724893,44.747492610821716],[-0.633659522400858,44.74690465554923],[-0.634241172015479,44.74570942608761],[-0.634271695756485,44.745105483686935],[-0.633400469596584,44.74414810330159],[-0.633091777525953,44.744048279834054],[-0.632862187795742,44.74219742562045]]]]}},{"type":"Feature","properties":{"fid":748,"ID":"COMMUNE_0000000009756120","NOM":"Cestas","NOM_M":"CESTAS","INSEE_COM":"33122","STATUT":"Commune simple","POPULATION":16757,"INSEE_CAN":"23","INSEE_ARR":"2","INSEE_DEP":"33","INSEE_REG":"75","SIREN_EPCI":"243301165"},"geometry":{"type":"MultiPolygon","coordinates":[[[[-0.771499849302384,44.693222620468205],[-0.790834700168616,44.70261416731577],[-0.79723053811086,44.70624350967673],[-0.804637918799517,44.710650743392534],[-0.806296486494621,44.71153199338087],[-0.811554238735968,44.714565186109844],[-0.813201220441655,44.71558915292159],[-0.823570910782108,44.721599364150265],[-0.837086069762442,44.73656017701714],[-0.837429396989782,44.737088192314516],[-0.820861578471107,44.73965328337589],[-0.819488756842367,44.7399413189236],[-0.819499464653496,44.74006173098605],[-0.797216678837871,44.74368283539281],[-0.795136370571635,44.74409757828939],[-0.789200409707766,44.746003529149824],[-0.788929825519001,44.74600467734828],[-0.777172597922048,44.749808941488425],[-0.767803466405029,44.75269063669148],[-0.766715875070453,44.752958379083246],[-0.764003855651099,44.753902355566524],[-0.759015380199787,44.75542199656585],[-0.750482994544292,44.74940746813198],[-0.734507655620234,44.758499085005354],[-0.732502579113056,44.75952748238031],[-0.731873068223257,44.76001107091209],[-0.726045047787564,44.7637143065823],[-0.716718226514834,44.77009979812623],[-0.714398286334766,44.771620611147995],[-0.713534341289368,44.77208400818784],[-0.707757607455236,44.774356829322144],[-0.705844310198872,44.775180652042295],[-0.704585771474915,44.775591380269915],[-0.699355295170824,44.7775994185774],[-0.688987585384699,44.782338963528645],[-0.688179606270816,44.782118007198385],[-0.687054543056682,44.7816354067857],[-0.686335436673626,44.78118705743243],[-0.685553530213816,44.78053349527622],[-0.684662170831797,44.78000524340634],[-0.682617740354578,44.77906737774948],[-0.678899577305822,44.77705214939549],[-0.68752242763278,44.77235362562137],[-0.687223183762666,44.77218963733759],[-0.685598634902921,44.76896840804956],[-0.685244622717776,44.76877919903164],[-0.685287873833351,44.76814595525406],[-0.685007037390042,44.76621662372051],[-0.684556896990632,44.76409734612154],[-0.684437515247276,44.762661959632574],[-0.683166930361992,44.76300254730218],[-0.683014214005973,44.76298869880556],[-0.683017205958353,44.762088212990065],[-0.682775789758505,44.76160864452283],[-0.681318676705951,44.7598346873107],[-0.680330934426094,44.758678720903205],[-0.679826222744809,44.75821510778335],[-0.679499955402107,44.757540071191535],[-0.679494056561088,44.7571986805087],[-0.678119867274229,44.75678557704292],[-0.676777302797217,44.75507626485227],[-0.675916198403793,44.75432614501477],[-0.67569029600661,44.753656781555485],[-0.671675838283975,44.75300134259684],[-0.671564662619963,44.753274511113936],[-0.671440066509909,44.75332280482081],[-0.670500578619848,44.75299794474548],[-0.657023768752982,44.747008766378656],[-0.656917222225852,44.74680949989467],[-0.656374235975413,44.74651108677299],[-0.657245667127782,44.7457342533029],[-0.657824237613635,44.74486884965011],[-0.65927304272879,44.74320950714922],[-0.650348575450111,44.742603744144446],[-0.650185365381892,44.74248565198209],[-0.649484775056573,44.74116045771124],[-0.648250739885716,44.7405783566097],[-0.647311681107211,44.73990360922374],[-0.643957184160304,44.7381322407438],[-0.638254608378906,44.73670925028882],[-0.645763979545354,44.73114657981301],[-0.632386204314706,44.73016870531544],[-0.633375470332902,44.72796602649472],[-0.633498781384452,44.72791781743997],[-0.634792610852854,44.72851252260948],[-0.635353100596586,44.728362533230445],[-0.639240843312534,44.72787608097764],[-0.640043854276094,44.72563259296895],[-0.640484496034275,44.72468620500224],[-0.649571645839253,44.723617267056625],[-0.650150875649548,44.72256892972075],[-0.650388188304781,44.71940760465467],[-0.65123787864294,44.718865858716285],[-0.652241397432186,44.716215496097306],[-0.654801448122407,44.71244753988589],[-0.656064337466859,44.711673099909454],[-0.66643381113921,44.70403700087557],[-0.667696358209751,44.70027655656939],[-0.670641278437022,44.70084762363424],[-0.670819481208722,44.70080926566253],[-0.672383058323708,44.695451651365474],[-0.673388694379333,44.69200338787541],[-0.673240707074693,44.691807321275945],[-0.670123748322656,44.69132316144995],[-0.666005899055217,44.692793568672194],[-0.66585125427162,44.69294109204206],[-0.662071802250259,44.692333556162744],[-0.659762578921486,44.6884534840613],[-0.656722208719819,44.68373686308644],[-0.659924411426511,44.683558845634145],[-0.662705128330345,44.68362090775589],[-0.662922320421222,44.68342535346893],[-0.663367972223248,44.683401580852866],[-0.672823407546506,44.68305013686643],[-0.675293923353747,44.683023946010785],[-0.719805177846787,44.68129157912974],[-0.723575511412037,44.681188134535844],[-0.724622569048456,44.68129978564227],[-0.726018450315314,44.679180714552466],[-0.730085265871694,44.672439007239284],[-0.730251845567032,44.67258930995825],[-0.733404811399563,44.67425122409263],[-0.742576754771633,44.67893163183481],[-0.771499849302384,44.693222620468205]]]]}},{"type":"Feature","properties":{"fid":2088,"ID":"COMMUNE_0000000009755891","NOM":"Saint-Jean-d'Illac","NOM_M":"SAINT-JEAN-D'ILLAC","INSEE_COM":"33422","STATUT":"Commune simple","POPULATION":9702,"INSEE_CAN":"19","INSEE_ARR":"2","INSEE_DEP":"33","INSEE_REG":"75","SIREN_EPCI":"243301165"},"geometry":{"type":"MultiPolygon","coordinates":[[[[-0.884893696324203,44.849824770641],[-0.884798580435602,44.84987858196138],[-0.881158991414145,44.85751666299663],[-0.880770787883448,44.857309395846784],[-0.878804310435918,44.85586738994889],[-0.873584192280521,44.85173560989193],[-0.857058531503151,44.8485282902978],[-0.854888758538379,44.848079105985114],[-0.854796899263513,44.847977735434995],[-0.854714716911642,44.84783276095831],[-0.836412225942648,44.84087579595888],[-0.83633573699014,44.84075765509916],[-0.835932638854595,44.83168825911694],[-0.836058932949341,44.831497301711735],[-0.835930648982251,44.83095459502841],[-0.835842955031568,44.829096255657916],[-0.835750905381768,44.82876862969059],[-0.804173047166751,44.823346854169614],[-0.802898753461048,44.82317604602043],[-0.801547926957441,44.823614470145316],[-0.801058335642694,44.82366010083411],[-0.796445820743982,44.82484300094516],[-0.793194691296194,44.825632108573096],[-0.792895885976996,44.82576491702519],[-0.791636261417227,44.82599909142382],[-0.791071956337787,44.82623291347824],[-0.789953248719926,44.82647216469731],[-0.788728032170573,44.82684123502473],[-0.779644699235119,44.828619571665534],[-0.778073958777013,44.82903184615612],[-0.762452612497491,44.831847954814],[-0.760718627222883,44.83234122917543],[-0.753834612564399,44.8324996788133],[-0.747440698015213,44.83121431130202],[-0.742481815704709,44.830398429967744],[-0.73845549424303,44.82958514444727],[-0.738280865990958,44.82954957057388],[-0.734862206330074,44.826977895285324],[-0.733694076410422,44.82550570024801],[-0.729858259809187,44.81988791932957],[-0.728311327354123,44.81741713360377],[-0.727271949862098,44.81539885979843],[-0.726197121457424,44.81376123025706],[-0.72614768555145,44.81351232326566],[-0.726616035607965,44.8096740549481],[-0.727929836167209,44.80585151879685],[-0.728897476311691,44.80429302408788],[-0.728875519394576,44.80405761565117],[-0.728471636728376,44.80386660268475],[-0.729455398506833,44.80159821758329],[-0.731943420597888,44.798650051849584],[-0.733083967010393,44.79712535178305],[-0.733751443069701,44.79642596923921],[-0.736378876939114,44.791431493941694],[-0.736353854237896,44.79128361904468],[-0.73531602365083,44.79103739629911],[-0.735103181258521,44.79092018835551],[-0.739263519939983,44.78285361516529],[-0.734981091019954,44.78169565863276],[-0.734735110033832,44.78168862865108],[-0.734627451942732,44.78161113892195],[-0.738291787960263,44.779775040326236],[-0.73395761522738,44.775548905956704],[-0.735493448053745,44.774229871016225],[-0.754084747938603,44.759156701865855],[-0.756416326948101,44.75741649566795],[-0.758717887742566,44.75551321413597],[-0.759015380199787,44.75542199656585],[-0.764003855651099,44.753902355566524],[-0.766715875070453,44.752958379083246],[-0.767803466405029,44.75269063669148],[-0.777172597922048,44.749808941488425],[-0.788929825519001,44.74600467734828],[-0.789200409707766,44.746003529149824],[-0.795136370571635,44.74409757828939],[-0.797216678837871,44.74368283539281],[-0.819499464653496,44.74006173098605],[-0.819488756842367,44.7399413189236],[-0.820861578471107,44.73965328337589],[-0.837429396989782,44.737088192314516],[-0.847955572529783,44.7428475991946],[-0.873242978737798,44.75580836810003],[-0.881343213827226,44.7599866380573],[-0.881430984347714,44.76010344730075],[-0.892345285263806,44.78293875086815],[-0.905054237266117,44.80821981130749],[-0.904947917853033,44.80825691001344],[-0.904826999596853,44.808484723324234],[-0.90159232978612,44.81547559442919],[-0.889626632389276,44.8399325063445],[-0.884893696324203,44.849824770641]]]]}}]}