{"type":"FeatureCollection","name":"COM_17281","crs":{"type":"name","properties":{"name":"urn:ogc:def:crs:OGC:1.3:CRS84"}},"features":[{"type":"Feature","properties":{"fid":4264,"ID":"COMMUNE_0000000009754156","NOM":"Polignac","NOM_M":"POLIGNAC","INSEE_COM":"17281","STATUT":"Commune simple","POPULATION":161,"INSEE_CAN":"27","INSEE_ARR":"1","INSEE_DEP":"17","INSEE_REG":"75","SIREN_EPCI":"200041523"},"geometry":{"type":"MultiPolygon","coordinates":[[[[-0.286046227897438,45.27573946684354],[-0.28748150188249,45.27356408685377],[-0.287740909403149,45.272552503717456],[-0.287626989329473,45.27161678957996],[-0.287694893722444,45.27114525958699],[-0.288745816907954,45.270461861017786],[-0.289196414546999,45.27003043719392],[-0.28966397774996,45.269021734643985],[-0.290590126368002,45.269273846167],[-0.290982494292959,45.27049335306297],[-0.291374423485409,45.27116493307975],[-0.291689362856509,45.27150532967733],[-0.29234948280743,45.27176886782145],[-0.295000492973196,45.27202870014125],[-0.296768657499108,45.271604355014894],[-0.297472372444453,45.270813954262536],[-0.299551886420547,45.269591809901385],[-0.300166323127528,45.26940694231108],[-0.301509479618992,45.26926453304244],[-0.302698583254339,45.26854717514208],[-0.302984050760101,45.2686477863268],[-0.303134743935358,45.268584753182616],[-0.304495779875454,45.2690455972848],[-0.305322959511269,45.26937081036006],[-0.305850202546245,45.269674248516026],[-0.306763662672796,45.26999059074711],[-0.306716160498308,45.270502088402864],[-0.308420401551117,45.271023928965924],[-0.308773619389572,45.2712333710953],[-0.311747015919272,45.271955505393386],[-0.311501853586339,45.272340383139216],[-0.311441873138337,45.272619737767826],[-0.31800332069321,45.27653564588839],[-0.320476378516211,45.278793689856684],[-0.321419126101209,45.27904055623317],[-0.321973629839624,45.27934852162383],[-0.322877924430968,45.28006335736339],[-0.325983370493089,45.2820879979187],[-0.325877224311423,45.28232006959726],[-0.328012027468327,45.28384270776715],[-0.327821447625879,45.28458469076118],[-0.328057179546535,45.286094453014755],[-0.327812458770413,45.28590887361977],[-0.326792770511674,45.285722926496824],[-0.325263502093024,45.28566207968421],[-0.320918032350124,45.28622474488891],[-0.319218284422253,45.286902482042336],[-0.318645347206854,45.28688614576483],[-0.318705977341246,45.28734667776974],[-0.318631715181491,45.28817891670391],[-0.316891004784537,45.28857754921913],[-0.316869382938616,45.28866470889071],[-0.3154362283416,45.28906140275845],[-0.314896395098094,45.288464573956105],[-0.314629160983021,45.28787858687005],[-0.314299955427551,45.28807490149618],[-0.314225440691607,45.28828168966287],[-0.313680552688446,45.288779999329655],[-0.313495503517274,45.28906035900305],[-0.31225992902132,45.289108688169186],[-0.31118047526676,45.28965706780069],[-0.310945855686608,45.28991996515722],[-0.310959294644265,45.290317910153156],[-0.31088126239606,45.290401331590566],[-0.308745264092146,45.29081063783728],[-0.307928820720345,45.29086543889161],[-0.306438736332356,45.29082119626581],[-0.303080142903404,45.290358108259056],[-0.299171311901411,45.289571398627594],[-0.298473733378171,45.289369379721315],[-0.298137366187449,45.289381105628095],[-0.298043793017594,45.28877103498519],[-0.298392524782096,45.28873100657283],[-0.298470542964092,45.2881942799978],[-0.298832671202197,45.287970906719806],[-0.2988050993513,45.28763466316007],[-0.298879486331914,45.287575691176535],[-0.299321251295934,45.28755454371824],[-0.2995157275285,45.28734602910869],[-0.299494878972941,45.287188029265785],[-0.299156097798356,45.28700786951857],[-0.298742473951722,45.28642616976269],[-0.298125641880325,45.28646599844453],[-0.298211025380684,45.28613994084824],[-0.297612240445381,45.286117951282705],[-0.297127177042585,45.285946606763204],[-0.297155666233645,45.28578084305578],[-0.296864155077562,45.285557826557444],[-0.296860281369493,45.285233501266234],[-0.296667140776163,45.285162593259834],[-0.296608634455472,45.28488584135458],[-0.296310733181838,45.284856774511375],[-0.296237593466911,45.28472104437358],[-0.296008289744263,45.28462146133364],[-0.295906040550661,45.284403677004796],[-0.295481608826714,45.2844152884915],[-0.295309048640878,45.28413108367643],[-0.294901031698842,45.28418276403422],[-0.294669282651693,45.28402016509463],[-0.294582847249996,45.283659521012424],[-0.294286456188772,45.28328884236689],[-0.294255924808205,45.2823191289927],[-0.294354087246931,45.28216573257008],[-0.294119725605698,45.281807645321564],[-0.293898289874872,45.28164654373816],[-0.293558904411984,45.281822367946404],[-0.293197502654491,45.281647364437575],[-0.292916190649036,45.28166105889252],[-0.292545123816103,45.281430462555825],[-0.292013019342052,45.28126138445672],[-0.291797211004324,45.28095772084573],[-0.290875462148862,45.280286417332924],[-0.289390230993178,45.27980021751317],[-0.289159364536081,45.27956548503627],[-0.289388946081647,45.27930278391031],[-0.288304358299862,45.27892103708273],[-0.287878216386689,45.278621751858786],[-0.287852257115579,45.27794390024794],[-0.287388800281095,45.27761777343074],[-0.287409562163424,45.27747206719642],[-0.287112718822126,45.277200519295704],[-0.287004096007097,45.276873869023476],[-0.286539910100828,45.27653514360276],[-0.286046227897438,45.27573946684354]]]]}}]}