{"type":"FeatureCollection","name":"COM_86005","crs":{"type":"name","properties":{"name":"urn:ogc:def:crs:OGC:1.3:CRS84"}},"features":[{"type":"Feature","properties":{"fid":4274,"ID":"COMMUNE_0000000009747571","NOM":"Angliers","NOM_M":"ANGLIERS","INSEE_COM":"86005","STATUT":"Commune simple","POPULATION":607,"INSEE_CAN":"08","INSEE_ARR":"1","INSEE_DEP":"86","INSEE_REG":"75","SIREN_EPCI":"248600447"},"geometry":{"type":"MultiPolygon","coordinates":[[[[0.126477123089219,46.914264100268106],[0.124954236050906,46.91387472332761],[0.121603783076513,46.91200353532304],[0.120786719725656,46.91362016172038],[0.120672340769082,46.91403985371425],[0.120226754405594,46.91472876159752],[0.119986567465328,46.91570840870284],[0.119724858108678,46.91568474652778],[0.119404826292738,46.91576864163256],[0.117800229639491,46.91664117731402],[0.116503526701508,46.91664566355743],[0.113784564036972,46.91311876380883],[0.11352190953147,46.91311308276782],[0.112815917199646,46.91343234903809],[0.111295951817489,46.913925808455865],[0.110600933299882,46.91386693107579],[0.109606481200829,46.91249773763225],[0.107416429825721,46.913056316533016],[0.106406376523503,46.91259487716992],[0.10606544291103,46.91216015332964],[0.101388456253115,46.91209299878927],[0.100174798227004,46.91226696914547],[0.099562567284184,46.91287142153981],[0.098101987307302,46.91377524616867],[0.097714152975905,46.91426461255134],[0.097213190746411,46.91448534013426],[0.097237336227061,46.91454991763136],[0.097014267639755,46.91468845122713],[0.095573942573639,46.91494405613594],[0.095548899940168,46.915092085088574],[0.094761638852357,46.91535513623848],[0.093537013146048,46.915437763990106],[0.09131007898311,46.91626090005722],[0.091058164742533,46.916275260783166],[0.090879587485452,46.91553735794424],[0.090719882332125,46.9155486408308],[0.085982160881677,46.91684701547248],[0.086069259561698,46.91710960087182],[0.085722783488711,46.917341395961465],[0.085341966866812,46.91786874219233],[0.085182419003685,46.91863323732411],[0.085138653099353,46.919615995155915],[0.085004384745175,46.91971620969486],[0.084075327114909,46.91997289926165],[0.083682762508396,46.92018099764524],[0.081535089889076,46.920308603028396],[0.081438996933801,46.920456631572044],[0.080847627710428,46.92049840866686],[0.079698065585885,46.92074677277481],[0.079212661229923,46.92055517171373],[0.077849806794993,46.920248512598555],[0.07786158207812,46.92051730283528],[0.078667181441107,46.921402674381206],[0.079106424105063,46.92135344708592],[0.079763281562973,46.92241253087001],[0.07982068480952,46.92259147845505],[0.079247099820798,46.92279046875732],[0.079384660969218,46.92301920063441],[0.079571009426414,46.92326989158144],[0.080499472941385,46.92385383248592],[0.081110152475828,46.925184731716456],[0.083427863741241,46.927759852508736],[0.082189599790508,46.928211421162274],[0.082972962443194,46.92912232096107],[0.080037678143135,46.93018950149485],[0.081342252620975,46.93197044606522],[0.082054620253812,46.93278404851137],[0.080469232639262,46.933377272523224],[0.080923566431301,46.93412217599911],[0.08275738389296,46.936311131180176],[0.081497956088801,46.93683423832107],[0.08092305467082,46.93698185100753],[0.079940182730975,46.93671909121854],[0.079368688885375,46.93799660277972],[0.079186630012425,46.93795775126357],[0.078867656471017,46.937726224382395],[0.078736246996702,46.937723794034085],[0.074726494475344,46.94001596137779],[0.071813391060875,46.94141236710269],[0.070733648454981,46.94211111242612],[0.070461409371926,46.94218257701521],[0.070279836319128,46.942086061590025],[0.06904486663471,46.94263849126163],[0.066876383807133,46.94320499359021],[0.06547592748462,46.943945082528124],[0.063159131318041,46.94493930878851],[0.063454105351039,46.9459027624882],[0.063087696803103,46.94572133905188],[0.061742916811907,46.94548344058417],[0.05879890539881,46.945598451551156],[0.056821121391764,46.94594439151153],[0.054209036655449,46.94651014413646],[0.053544082581154,46.94654450187108],[0.051698280220775,46.947026174109354],[0.051291955549599,46.94704641233445],[0.050552317310071,46.94724372201097],[0.050892518229465,46.94751911854704],[0.051940632639088,46.9480342655067],[0.052754507496374,46.948333484026094],[0.054591440351863,46.9493913431341],[0.056681598186719,46.95017363115074],[0.058012092205889,46.95048239854936],[0.057820838490727,46.951191992550946],[0.060570080477536,46.95166397395958],[0.062756645463614,46.95217651065095],[0.062337072208813,46.95302084414254],[0.063023404105499,46.954942996215706],[0.063111533760642,46.955548894943504],[0.06471333881928,46.958642194587675],[0.064959304671563,46.95983143507601],[0.068329891075574,46.96013884098113],[0.07153768164198,46.960196948150376],[0.073741619353514,46.96010515485502],[0.076628760071446,46.96030093733766],[0.07725882464434,46.96028177556022],[0.077873408899057,46.96015950767588],[0.083115904008368,46.96057878221941],[0.084581998385904,46.96074740931399],[0.086295677909676,46.96105922187784],[0.086538491074386,46.95853274924271],[0.086758189913954,46.95799682214396],[0.087321864635671,46.95786601071489],[0.087728127060047,46.9581654844715],[0.088601746051292,46.958534422684465],[0.090454266971745,46.95954162038095],[0.092079880332753,46.95963128988175],[0.094697813340404,46.95998830758257],[0.095536665668946,46.95995268486013],[0.096867589178564,46.96004116804532],[0.098827479491936,46.96005717220559],[0.100258043274907,46.959809363360094],[0.100560584212743,46.95968903701008],[0.101933155402867,46.95890277849229],[0.102744247611607,46.95867270016691],[0.102722911897152,46.95843250927134],[0.103439774204304,46.958413584789646],[0.104835588572981,46.95819908385989],[0.105658142105879,46.95814766276542],[0.108564752789066,46.958741356554036],[0.113785958946136,46.95813071357714],[0.114938042977933,46.958068556593524],[0.117895045234189,46.95759564679638],[0.11848364821426,46.95739052935104],[0.120326794584743,46.95650860830833],[0.121052517793502,46.955878051163886],[0.12412762805311,46.95436914054991],[0.126006261442107,46.953979035380065],[0.127672197360127,46.95333223566459],[0.128802408566979,46.95276306517769],[0.130080958295604,46.95242281454235],[0.130461632732149,46.95219173910095],[0.130650549258552,46.95135946171049],[0.131018809819715,46.95089112632505],[0.130838939711347,46.950834394067435],[0.13146285927848,46.950159797438126],[0.131689033722761,46.949715853217114],[0.131699559995233,46.949443127984765],[0.132011924636791,46.94906079060564],[0.133448331262561,46.94849559220362],[0.134392541380049,46.94783345105705],[0.135832434414644,46.94712686221642],[0.136855443459318,46.94644143366537],[0.137197571056695,46.94609225668239],[0.137818752253086,46.94574009879668],[0.138332162251115,46.94565914945235],[0.138758031633841,46.945492236607286],[0.13884349331322,46.945294348260205],[0.139073623516578,46.945271230891834],[0.13915548404811,46.945116498349314],[0.140466984618841,46.94449676174654],[0.141369637130719,46.94392092708178],[0.142988653766104,46.941638438127775],[0.145541244433196,46.93694380195777],[0.145865135554697,46.93653919170321],[0.1463276112081,46.9364245133665],[0.146317316787564,46.935871978867645],[0.146490145568214,46.935662734786376],[0.146395983036415,46.93530362847644],[0.146969946220716,46.93454663172023],[0.147334343075664,46.93422140285417],[0.146526283979775,46.93380678051981],[0.147124996667879,46.933128778294765],[0.147917558090418,46.93249070854496],[0.147367839461733,46.93211582078292],[0.146305748728312,46.932851721596414],[0.145826331972137,46.93259028485276],[0.145482658714401,46.93222409535179],[0.145179781359294,46.93160845217425],[0.145049842789241,46.931528652100106],[0.142688572156181,46.93183590486314],[0.142341159328105,46.93181467573526],[0.141720147801968,46.93142087360177],[0.14130327255226,46.930748333926985],[0.140714451353512,46.93036793772654],[0.140362537107264,46.93023307102697],[0.140706358517895,46.930023574227626],[0.137871616464332,46.927101680705306],[0.136191496774765,46.92674279476335],[0.135852936310844,46.926555089032824],[0.135247587376323,46.92601658471956],[0.133932094035034,46.9252054425244],[0.132739438833975,46.92423607063686],[0.131756892194871,46.92359535924533],[0.125215046444283,46.9206186066615],[0.124661841097363,46.91917678006046],[0.124342991392844,46.91901565773639],[0.126477123089219,46.914264100268106]]]]}}]}