{"type":"FeatureCollection","name":"COM_19029","crs":{"type":"name","properties":{"name":"urn:ogc:def:crs:OGC:1.3:CRS84"}},"features":[{"type":"Feature","properties":{"fid":3927,"ID":"COMMUNE_0000000009755129","NOM":"Branceilles","NOM_M":"BRANCEILLES","INSEE_COM":"19029","STATUT":"Commune simple","POPULATION":276,"INSEE_CAN":"10","INSEE_ARR":"1","INSEE_DEP":"19","INSEE_REG":"75","SIREN_EPCI":"200066769"},"geometry":{"type":"MultiPolygon","coordinates":[[[[1.692262432262517,44.9926016184211],[1.692147347560591,44.992801976956166],[1.689593287603807,44.994460359534074],[1.688715762915033,44.99448514136419],[1.687880948503352,44.99539560911],[1.687166566221693,44.996473183710854],[1.6872035148075,44.99733359546305],[1.687113621494989,44.99775757019396],[1.686809592810921,44.99822044112109],[1.686486815059962,44.99850839326139],[1.685753455397702,44.99871495388001],[1.685468955703878,45.00023793977751],[1.684359886092044,45.002551725420986],[1.685389514512313,45.002541380202594],[1.686550173324403,45.00333041489345],[1.686769399873343,45.00367068947946],[1.686780263337327,45.004398421780046],[1.686902287979081,45.00466190713156],[1.689027432909205,45.00649336356274],[1.689742322923924,45.00680885255119],[1.690236565889237,45.00912355314638],[1.689631595374995,45.00931724414233],[1.688801131203262,45.00932817550555],[1.688789440384565,45.010152896866074],[1.687750730123653,45.01217038649649],[1.687173663280145,45.01279663480089],[1.687296808426661,45.01306733732847],[1.688114317085607,45.01361187368907],[1.68855312913846,45.01406459417119],[1.688602348392892,45.015324076471494],[1.688917814278203,45.01632825099836],[1.689626055989379,45.01639062055489],[1.690052460220231,45.01661536183553],[1.689850130124115,45.01690654457615],[1.690159021032521,45.01727038072985],[1.689827162767485,45.01902785938919],[1.689429681645026,45.01903128515795],[1.689272995487725,45.01981287844656],[1.688498331097132,45.01981996387329],[1.68847931689808,45.02041497288415],[1.688348811167521,45.020728611692775],[1.687834701382116,45.021265557176854],[1.687382107283354,45.02150695986122],[1.687465552283401,45.02195549439145],[1.687914626483208,45.02278565010116],[1.687905772942779,45.02294673607869],[1.689404579036334,45.02379285453557],[1.691036625986126,45.02524205611293],[1.691351090238081,45.025424052753934],[1.692174472716386,45.02556340057164],[1.694967276319068,45.02445163172302],[1.696403692399809,45.02454770433739],[1.700240515610627,45.02456644904839],[1.701883108600701,45.02502595914311],[1.702576870009099,45.02538974447679],[1.703015075415948,45.025932450144374],[1.703332503489913,45.025933446011784],[1.704223445298317,45.02562414049422],[1.706745499870133,45.02561384289123],[1.707549468078784,45.02522065461307],[1.707568526799667,45.02511011417976],[1.707923710868558,45.02485038990802],[1.707759629200349,45.024532409583955],[1.70961081906627,45.023436359469116],[1.710530338873494,45.02309581827937],[1.711890875892022,45.022460506700355],[1.713084579497887,45.022177146906365],[1.713399116744844,45.02219248889581],[1.713722652908751,45.021981908577835],[1.714392168324807,45.0220760900567],[1.714976474625282,45.02206572655622],[1.715802862363676,45.021742077530625],[1.716845116169377,45.02152807015512],[1.718907211040037,45.02163466459523],[1.719425785244518,45.021833337511154],[1.719577849372403,45.02179096214007],[1.720432467364659,45.022341987635784],[1.721373580434536,45.021830511507574],[1.721711276374039,45.022055011536935],[1.722413838802934,45.02231521569083],[1.722507901064754,45.02253331511276],[1.724736381481512,45.023085655573894],[1.725649588575856,45.02084216761025],[1.725780626082754,45.02027275245441],[1.726498253418954,45.02054030715265],[1.727728596460403,45.02143325959869],[1.729492401107987,45.02181630289246],[1.73048083482076,45.020949594925824],[1.731309099693534,45.02059433616955],[1.732202108542749,45.020014684829874],[1.732711711004659,45.01988181086955],[1.733726796525498,45.01979790923916],[1.734430618918045,45.019216988959265],[1.734702236496084,45.01854650631301],[1.734630639164648,45.01823141981954],[1.734407895576398,45.01791911750349],[1.73449889079529,45.01760047637799],[1.735525993618013,45.01664501701823],[1.736011743977889,45.015879710781036],[1.736916180480286,45.01433752599795],[1.737965689069019,45.01322831608447],[1.738627013344411,45.01171037767421],[1.739359614270884,45.010802876747526],[1.739455395733643,45.010551823751214],[1.739297083713589,45.00974589147779],[1.738615255721728,45.00901957409187],[1.738804150549774,45.00857957325305],[1.738721859179093,45.00817522053303],[1.738536413874564,45.0078984689797],[1.737997813925597,45.007464629801255],[1.737957526288073,45.00733720368588],[1.736956470567682,45.007541065573015],[1.736291900613353,45.00779646559807],[1.735044400335544,45.00862605564846],[1.734763161287969,45.00865707770266],[1.734068171110332,45.008909417509315],[1.733139983651599,45.008415292080706],[1.731876092688756,45.00800378170329],[1.730485792152227,45.007681764806236],[1.729573309628121,45.00784064578998],[1.728782540740904,45.00778208971024],[1.728308786882148,45.00757046475514],[1.728289704929226,45.00740455596809],[1.726497481365608,45.007119318475034],[1.726311465751484,45.006758793491734],[1.725487495379388,45.006709739276],[1.724096015173576,45.00638672789362],[1.723781308018525,45.006159797219965],[1.723149531231624,45.00597695468542],[1.722422340546062,45.0060262412366],[1.721735360923961,45.00520340620478],[1.72150851198412,45.004575857799075],[1.721665601250249,45.00408869418235],[1.721333988588655,45.004102894591284],[1.721096018993967,45.00385162399936],[1.721080160766207,45.00360110453298],[1.720848369095988,45.00341293895514],[1.720920536929084,45.00319855044369],[1.720555106423128,45.002359592446176],[1.720669354240055,45.00213668299776],[1.721277119003905,45.00225713007448],[1.722001856691447,45.00259143351559],[1.72239542466688,45.002420356197575],[1.722391991719677,45.001513520377905],[1.723709916241366,45.00043544474493],[1.723789890418455,45.00015630880596],[1.723711049057353,44.99988435647265],[1.724290109915928,44.99931378064126],[1.724428922727842,44.99890294657222],[1.725031838664166,44.997952633257775],[1.725735766598061,44.997135846096754],[1.725976825428379,44.996692863147715],[1.726067957858405,44.99625716839461],[1.724941540221516,44.99600923906332],[1.722854084212011,44.995218982519525],[1.721437061810611,44.99486052315831],[1.720499148945991,44.995140601243534],[1.717786513739746,44.99516520745519],[1.716687340009713,44.99544789787277],[1.716100547814349,44.994914340969075],[1.715419804790303,44.99454898892852],[1.715357967731779,44.994423106607535],[1.713886746815344,44.99405131777471],[1.712431624423006,44.99386339610543],[1.711907076862107,44.99388163849592],[1.711792824173541,44.993276085176355],[1.712523240476828,44.99214091348583],[1.712541810325667,44.99160893743996],[1.712236461689419,44.99098046236322],[1.71128918854754,44.990233792877724],[1.711147416308956,44.98922540074051],[1.710298130153853,44.98935063337559],[1.709546027130393,44.9888925673785],[1.708715709017143,44.988249888116776],[1.708182895425447,44.98829863312632],[1.707499526013025,44.98816282680424],[1.706983058674063,44.98821805940554],[1.704956721014107,44.98788112062588],[1.704766703217966,44.987757342208944],[1.704609716448248,44.98735749681297],[1.704252900117445,44.98692920985689],[1.703420040422913,44.98656471298989],[1.702856156965985,44.987681955256214],[1.702023585725485,44.9882908843593],[1.701226363884019,44.988742633812436],[1.700308818262268,44.989183967363125],[1.699057902348818,44.98922607926448],[1.698296619546452,44.98938556783768],[1.697637822490917,44.98983080716892],[1.69619322115384,44.990506369174405],[1.695861217124515,44.99092210898292],[1.695074508976574,44.99162697815447],[1.6944420757295,44.99164657420885],[1.693235455679248,44.9919088620984],[1.692531549306127,44.99248951747127],[1.692262432262517,44.9926016184211]]]]}}]}