{"type":"FeatureCollection","name":"COM_24256","crs":{"type":"name","properties":{"name":"urn:ogc:def:crs:OGC:1.3:CRS84"}},"features":[{"type":"Feature","properties":{"fid":4172,"ID":"COMMUNE_0000000009754548","NOM":"Marsac-sur-l'Isle","NOM_M":"MARSAC-SUR-L'ISLE","INSEE_COM":"24256","STATUT":"Commune simple","POPULATION":3165,"INSEE_CAN":"04","INSEE_ARR":"3","INSEE_DEP":"24","INSEE_REG":"75","SIREN_EPCI":"200040392"},"geometry":{"type":"MultiPolygon","coordinates":[[[[0.673531020299607,45.20013161321228],[0.673679300997956,45.200028407063954],[0.673657874573273,45.19968655348968],[0.675199448559966,45.198925048225185],[0.675219334413331,45.19884529021249],[0.675073780055858,45.198516166347055],[0.674875768528979,45.19638793408007],[0.675380456505737,45.19644528534275],[0.67572132765107,45.19523538915764],[0.675831531300253,45.193904486533555],[0.675497388824244,45.19021142250575],[0.675545359886923,45.18988542810422],[0.676626749201266,45.190348434190525],[0.67670328435183,45.18976450215753],[0.676540837903599,45.18898462533051],[0.676239954810215,45.18843967979063],[0.676243906384782,45.1878551381528],[0.676719198555514,45.18687234173154],[0.67615234159153,45.18387346762249],[0.675936068202013,45.181908810460115],[0.67543084990318,45.18085785896292],[0.674876378219893,45.18007251760686],[0.672121113323046,45.17803241182007],[0.671429190999913,45.17862061813852],[0.670545631108285,45.17913095493449],[0.670233062696565,45.17941809424526],[0.669126256293838,45.17853291305076],[0.668856059696407,45.17811019609111],[0.668857972084558,45.176752719065085],[0.668554669314199,45.176513074557135],[0.668074593821315,45.17632828836596],[0.666907091809026,45.175130136115406],[0.666915966016606,45.17418627523042],[0.666768512802532,45.17381386153907],[0.666599586366527,45.17358963192029],[0.666100418404858,45.173405338321466],[0.665027275997365,45.17226769085289],[0.664797253534809,45.17155574384401],[0.664800088152289,45.17081804170809],[0.664183106225482,45.17004124464407],[0.663427478454541,45.16932189517958],[0.663160398356577,45.168492063674336],[0.661726934737018,45.16711352717257],[0.661485980240858,45.16675536124666],[0.661450770250022,45.16662310542373],[0.661663000676184,45.16629875806293],[0.661840783937767,45.16399911888367],[0.659148412119212,45.1640426595198],[0.656434191931268,45.1639694720702],[0.655882618515074,45.16385339231148],[0.653594954408124,45.16290179805096],[0.65350773361254,45.1639169782001],[0.652975497052793,45.16391659426614],[0.651243148744581,45.16483950654808],[0.650271706200892,45.16583516967739],[0.649234494269178,45.16594214008649],[0.647893578734821,45.16639671898243],[0.646842743892516,45.16761228098026],[0.645616039302173,45.16783322914873],[0.642074013125187,45.17001948753088],[0.641375825716589,45.170358753631675],[0.641059710252987,45.1704259388454],[0.640373025572094,45.17001055848651],[0.639581257982476,45.17015325859227],[0.637542648461207,45.17023803623068],[0.636551515822793,45.170186422001336],[0.636160218856847,45.17049522181303],[0.635626450387453,45.17134149246058],[0.635265781703763,45.172731019021576],[0.634860525843624,45.17348902750297],[0.633937874091056,45.17455495682862],[0.633267848765895,45.17566947635909],[0.632936350234929,45.17651912540051],[0.632025522036246,45.17748440040479],[0.631535351539345,45.17769019647782],[0.629648743823116,45.17790777991426],[0.629343896139256,45.178848068285426],[0.629190914087011,45.18014110088941],[0.627165603478412,45.18008364985394],[0.626728630556989,45.18035541594258],[0.624511763600649,45.18129736082444],[0.623752261520124,45.181425325968505],[0.623372284721453,45.18137489719864],[0.623012444500676,45.18106095454458],[0.621795221174966,45.18081072070255],[0.620342903289835,45.180607709214755],[0.619819665146691,45.180691139125074],[0.619319192403663,45.180658845752674],[0.61829518857537,45.18038837202674],[0.619049974774776,45.18234215071874],[0.619194549817211,45.18310372965328],[0.619190651499455,45.18385223264832],[0.619021227264486,45.184778271181194],[0.61913953394291,45.18567801739357],[0.619904162298475,45.18683567003506],[0.620528994517302,45.18807591579462],[0.620917178933555,45.1890705941004],[0.621341167021678,45.19101910817702],[0.621565218929314,45.19165085708158],[0.62164502872265,45.19309658248951],[0.621482954402307,45.19358137775967],[0.621672436663929,45.19412771231714],[0.622210395623641,45.1950174773981],[0.622646198280356,45.19549428737214],[0.623368292965501,45.19595016544754],[0.624761472009956,45.19656444988196],[0.625980373105118,45.19696331665045],[0.627842524051607,45.19727674766499],[0.628342052861802,45.19715493850335],[0.628779351709714,45.196908392478555],[0.629427626592731,45.19631410211559],[0.630567040595634,45.194774458340035],[0.631324499109536,45.19406807075687],[0.631870425988671,45.193392323865716],[0.632367353527889,45.19200929033781],[0.63267616053443,45.191426701030856],[0.63248100117321,45.19056137597417],[0.633208026801588,45.189519226752914],[0.633894951690573,45.188971675597834],[0.638101500502937,45.187494229627994],[0.638688906366576,45.187189568022724],[0.641012205277158,45.18656217389178],[0.644810619164675,45.18629556461231],[0.64615482174542,45.18607709344679],[0.646684845230266,45.185863064404074],[0.648311617563752,45.18577033300941],[0.648990278862274,45.18604946848665],[0.650260532869396,45.1863464590489],[0.651413211207914,45.18674365419581],[0.656173857344651,45.1890128729964],[0.657009452425837,45.18928804658442],[0.658440987743127,45.189569409634736],[0.657491536717748,45.191521372577334],[0.656946381158996,45.1930971675266],[0.656373359982962,45.19366706636564],[0.656161375643578,45.194164370186975],[0.656351625500306,45.195246639981484],[0.656319080893349,45.19574861181334],[0.656014414327379,45.1961773098003],[0.655807525771539,45.197099004753674],[0.657545966035472,45.197388620645214],[0.660834045446865,45.19809623453823],[0.661733729874773,45.198183541714236],[0.662103319002534,45.198029134707454],[0.662378435448849,45.19803129184585],[0.663215666916363,45.198545165961846],[0.666315199703915,45.19968196049393],[0.667498167012866,45.19997331980087],[0.670108914048462,45.20021699868882],[0.670754371524799,45.200046699849615],[0.671380766983069,45.200180474023426],[0.672610807886779,45.20001604904652],[0.673531020299607,45.20013161321228]]]]}}]}