{"type":"FeatureCollection","name":"COM_17342","crs":{"type":"name","properties":{"name":"urn:ogc:def:crs:OGC:1.3:CRS84"}},"features":[{"type":"Feature","properties":{"fid":4131,"ID":"COMMUNE_0000000009753225","NOM":"Saint-Germain-du-Seudre","NOM_M":"SAINT-GERMAIN-DU-SEUDRE","INSEE_COM":"17342","STATUT":"Commune simple","POPULATION":406,"INSEE_CAN":"12","INSEE_ARR":"1","INSEE_DEP":"17","INSEE_REG":"75","SIREN_EPCI":"200041523"},"geometry":{"type":"MultiPolygon","coordinates":[[[[-0.709468248692044,45.50186081855516],[-0.711717400147751,45.50200459461463],[-0.711853195714989,45.50330632253283],[-0.712574273269998,45.5055379293032],[-0.717576624230137,45.50534527144569],[-0.717018901092634,45.509650220087316],[-0.717021313318892,45.51035598863406],[-0.716546085718466,45.51294631673263],[-0.716758497912286,45.51447087475656],[-0.71671497683022,45.51600300726636],[-0.716763602016218,45.51749422694648],[-0.71588565553101,45.51849597974449],[-0.715478544894944,45.51971201398746],[-0.714932544213513,45.52078840855315],[-0.713587627363674,45.52222928410734],[-0.706829261374243,45.525489701967835],[-0.704698201514701,45.526475036892585],[-0.704650468898992,45.52643244052767],[-0.704383293370245,45.52659901329271],[-0.703891669437587,45.5271687328695],[-0.704273473313736,45.527316594965875],[-0.702814365732692,45.52849426371215],[-0.702648297953925,45.528446554994424],[-0.699808273060149,45.529554332801105],[-0.698979597347008,45.52993681513416],[-0.69871400770985,45.5301853539012],[-0.697180006200268,45.53033864978073],[-0.696509040593108,45.53052841575845],[-0.69535217340502,45.53041325387586],[-0.695085998283458,45.53046077777029],[-0.692488379619631,45.53193809384294],[-0.691333084041363,45.53248270355762],[-0.689589213741715,45.53480358009367],[-0.681760888460455,45.5343952939091],[-0.681769591142602,45.53444909555793],[-0.68089644977249,45.53418385229504],[-0.680987674178889,45.53401229026075],[-0.676533382088169,45.53272133341215],[-0.674367102986949,45.53299327470417],[-0.670489656893754,45.53244943304921],[-0.67005760717539,45.53212281155463],[-0.671060628561431,45.531658226473624],[-0.670155822828851,45.53042849178178],[-0.66827460004821,45.53101461619106],[-0.668231005543328,45.53076273513037],[-0.668079993141431,45.53065138312511],[-0.666791945368738,45.53025806359664],[-0.667126218548543,45.53005694079831],[-0.667082024952575,45.529989874754285],[-0.667531006648741,45.52962274404519],[-0.666209947885405,45.52927286499309],[-0.665470273114856,45.52927808797781],[-0.66451489530259,45.52916324412704],[-0.663572867386784,45.52893978378612],[-0.664001213680563,45.5285318748637],[-0.661585889243655,45.527904853063326],[-0.661660910089632,45.526768395676214],[-0.661552312401217,45.52638612198314],[-0.660071572516843,45.524450344745844],[-0.659377143503025,45.52302167020747],[-0.659182768659392,45.52236905596775],[-0.659184134738017,45.522078748641],[-0.659306836424959,45.52187823532803],[-0.660045864829087,45.52128172771986],[-0.659842044626714,45.52101073072874],[-0.659639332233617,45.52087311004849],[-0.658229733442701,45.52067386823609],[-0.655525348604798,45.52001288161796],[-0.653758530090706,45.51898418006304],[-0.65403765524941,45.518744326459654],[-0.653841280315511,45.51776815618652],[-0.654072789113155,45.51711699563108],[-0.654163725699764,45.51460444315188],[-0.655159309880059,45.51467208341914],[-0.655268870022868,45.51353270813963],[-0.655170009981914,45.5134917575721],[-0.654881340045555,45.51360572491708],[-0.653592695098308,45.512358633006166],[-0.654325823144652,45.511985007781426],[-0.656966496627813,45.51147171284716],[-0.65734487687551,45.511260165500346],[-0.658461880648943,45.510914565910596],[-0.659745220803226,45.51036972180955],[-0.660726167915421,45.51019710415815],[-0.662249997248006,45.50974174050935],[-0.65853602263411,45.507897748805256],[-0.657122818831618,45.507619295588114],[-0.657752817556276,45.50665496073712],[-0.65935383265357,45.50636027813313],[-0.661578941208749,45.506489618377955],[-0.662408998279715,45.50620742450804],[-0.665832391822456,45.505593542206256],[-0.666907490296259,45.505256433884334],[-0.667261493072805,45.50489059966576],[-0.667135538484811,45.50484693960161],[-0.668262145384874,45.504319733342676],[-0.668747250682979,45.504540952951864],[-0.66950891920623,45.50324501687006],[-0.669690529865531,45.503413055766565],[-0.671325447833561,45.501773039573635],[-0.668768353632957,45.50142849168795],[-0.667520374379129,45.50145666886708],[-0.667480667363765,45.50134077958586],[-0.670151733192339,45.49829221230493],[-0.668692203747664,45.4951389335475],[-0.669846291639349,45.49411952189514],[-0.671599925712335,45.49232146489696],[-0.673579208061158,45.49325637020666],[-0.674105407459018,45.49233769733621],[-0.673909001903809,45.49165542795048],[-0.672876998155036,45.48948249197005],[-0.671476735370254,45.488967632099225],[-0.669711204659097,45.48779313304552],[-0.670085211392816,45.48747981703339],[-0.672834913641965,45.48592227853286],[-0.672986696523211,45.48585330654344],[-0.67635475760064,45.486668756283926],[-0.67928164212194,45.48712988847754],[-0.682573098714623,45.4887968316892],[-0.686951769179611,45.49067856185001],[-0.687846041992237,45.49173451254219],[-0.688642400403984,45.49285948253634],[-0.689235288982205,45.49346829810561],[-0.690604387834663,45.495418179253655],[-0.691252769950202,45.49610899551202],[-0.692203836608078,45.49691785439858],[-0.692637497536405,45.497463384384076],[-0.693138553561816,45.49782730562124],[-0.694041243672313,45.49827445774452],[-0.694962380649673,45.49922941546589],[-0.695701786999318,45.49932225238198],[-0.696570991788604,45.49963166465731],[-0.698706443742952,45.500975674843595],[-0.699938849442628,45.50190591204118],[-0.700873099513373,45.501863383037914],[-0.70141353799243,45.50174008616545],[-0.701481576520685,45.50185683410654],[-0.702322254746771,45.50189129924053],[-0.704172499648899,45.50178245687236],[-0.706683711975038,45.50233776220833],[-0.708143864369042,45.50206956128005],[-0.708519124181195,45.50206437100005],[-0.709518046015031,45.50181950796337],[-0.709468248692044,45.50186081855516]]]]}}]}