{"type":"FeatureCollection","name":"COM_79254","crs":{"type":"name","properties":{"name":"urn:ogc:def:crs:OGC:1.3:CRS84"}},"features":[{"type":"Feature","properties":{"fid":4109,"ID":"COMMUNE_0000000009749904","NOM":"Saint-Georges-de-Rex","NOM_M":"SAINT-GEORGES-DE-REX","INSEE_COM":"79254","STATUT":"Commune simple","POPULATION":433,"INSEE_CAN":"09","INSEE_ARR":"2","INSEE_DEP":"79","INSEE_REG":"75","SIREN_EPCI":"200041317"},"geometry":{"type":"MultiPolygon","coordinates":[[[[-0.623622325060692,46.277755255561225],[-0.627402187331466,46.27433380305187],[-0.627400772292956,46.27417519676217],[-0.628409484337963,46.27331191945105],[-0.628854881308409,46.272442259822846],[-0.629170726017194,46.272108573459334],[-0.62925936377941,46.2720534634633],[-0.630294166823578,46.272054707844596],[-0.630920592061663,46.27183730718735],[-0.631328951111997,46.27080205329701],[-0.631714093615669,46.27016146374192],[-0.632851035936741,46.27050737623109],[-0.634120855821338,46.269448208166224],[-0.635949316891617,46.270087502654484],[-0.637577741082564,46.26873378334018],[-0.638480140616689,46.26776112752334],[-0.638781168549439,46.26787049000785],[-0.639717977617387,46.266790353272405],[-0.639648122534026,46.26667810562764],[-0.640274551762325,46.265661076465626],[-0.641722236269233,46.26614569347557],[-0.642304087306321,46.2654554973303],[-0.642397929948606,46.26549846631577],[-0.64252643005683,46.265359136781896],[-0.643486282635303,46.26409974258026],[-0.64314114777262,46.26391338019165],[-0.644702683310293,46.2616972089321],[-0.641747705164734,46.2614501949822],[-0.641989782541378,46.260361622225936],[-0.642134932205009,46.26037500404483],[-0.642365391622771,46.25993223124122],[-0.643465698618156,46.25697723813261],[-0.64259772644305,46.25688153816526],[-0.640457264961005,46.25629381272563],[-0.636542813726956,46.25497942786244],[-0.637180795804912,46.25398097292998],[-0.639514164189721,46.24941988751343],[-0.640162709168837,46.24940273878931],[-0.641923145414293,46.248930820287576],[-0.643657925627803,46.24926468066674],[-0.644613484121659,46.24925299526027],[-0.645428297915374,46.24935218283013],[-0.646541376125342,46.24969600878007],[-0.648494515448514,46.25080975474958],[-0.649091667138151,46.24943663255709],[-0.649549057152594,46.24735134414012],[-0.649908459157709,46.24664209436963],[-0.650080029146463,46.24562967662983],[-0.650621795556059,46.243641733030586],[-0.654525658433751,46.243305413830356],[-0.654768111165012,46.24302538592384],[-0.655723104233972,46.24255929302413],[-0.657886709447327,46.2412430206267],[-0.657920398967073,46.24159169855347],[-0.658073659691738,46.241804919024645],[-0.659453839342608,46.241247590892165],[-0.661629225579257,46.23964330115208],[-0.664023864881833,46.23857998319323],[-0.664178485059141,46.238910340803905],[-0.664651223181257,46.23925749053958],[-0.664598864392066,46.23948454060534],[-0.664291775690965,46.23980723971298],[-0.664087267638891,46.240498030389304],[-0.66556006108138,46.24064618184324],[-0.667080658370822,46.24115876259578],[-0.668367456981309,46.241400316958405],[-0.669667262536792,46.24142869437521],[-0.670824885959619,46.24135166918415],[-0.673082227289325,46.24155462689215],[-0.674203550275166,46.2418852963606],[-0.675384965269574,46.24212386746617],[-0.677460435522639,46.2421135633956],[-0.677664449378672,46.242288158987954],[-0.6774408578287,46.24292460686571],[-0.677256460500908,46.24428005123247],[-0.676715084743642,46.24506018748566],[-0.676099320756765,46.245661532301604],[-0.6754943252881,46.24644281655507],[-0.675289601169721,46.24743832982912],[-0.673028776554672,46.250421261422986],[-0.67629719329063,46.25137487772248],[-0.676721537136968,46.25221754514376],[-0.678336331472199,46.25325519772095],[-0.679056218728858,46.25337073998604],[-0.68022840022123,46.25342927627246],[-0.682097349738751,46.25304697039147],[-0.687546962583005,46.25462196790744],[-0.68742645966233,46.25566886574067],[-0.68968129505789,46.25993088336155],[-0.689895124330537,46.261598865449464],[-0.689577409179717,46.26224560258207],[-0.68928948453097,46.26366212260167],[-0.687181092428249,46.264102778394054],[-0.684634619757044,46.264504396874486],[-0.683722037845512,46.26782337259765],[-0.681463449392874,46.26788926483054],[-0.68038623136436,46.27000107204359],[-0.680074121846062,46.27001837887939],[-0.679979617524026,46.270855282747924],[-0.679639082331367,46.271358491061505],[-0.681728702835853,46.271966988595146],[-0.683993643746641,46.272494952049044],[-0.683875830336802,46.272791740374714],[-0.686972716564667,46.27378130019613],[-0.687050691403982,46.27366518965994],[-0.689153581704909,46.274120779414716],[-0.688232579121839,46.27563534107624],[-0.687954370122723,46.27627177442609],[-0.687893067945414,46.276731702949654],[-0.6849992944273,46.27605830739715],[-0.682990892815497,46.27540396522884],[-0.682322372256278,46.276577663055505],[-0.682179548103362,46.27654171911354],[-0.68143907245313,46.277419356719626],[-0.681168174922198,46.277354200830466],[-0.680927062976956,46.27763514156625],[-0.678833870842054,46.27730528812115],[-0.678856939657851,46.27724234192472],[-0.678385364056194,46.27717014519003],[-0.678026848520841,46.27866372517459],[-0.678167713010205,46.278689821744464],[-0.677953655043411,46.27989567493824],[-0.677729611418534,46.28010213703989],[-0.676258325928355,46.28399797995753],[-0.677229438355544,46.28436324685199],[-0.676010575139359,46.28642548247798],[-0.675340248642942,46.28622176763369],[-0.67461219920308,46.28738471125401],[-0.67407827947443,46.28917330039658],[-0.672584806219989,46.28883387523951],[-0.670386344302449,46.28783206548453],[-0.667542901468098,46.28694475170651],[-0.665853117116561,46.286759404521135],[-0.665150387536191,46.286556674455596],[-0.664132528158784,46.28609455328187],[-0.663481568151867,46.28557734482291],[-0.663414473345195,46.287740271099715],[-0.663285230999252,46.288276284048514],[-0.662441723929211,46.28962224400163],[-0.66097431612761,46.29132270040723],[-0.660150739397348,46.29335670175484],[-0.659871095906508,46.29459976956489],[-0.659543159580371,46.295024075185424],[-0.657123716397067,46.294062467205386],[-0.657162279735798,46.29382234606804],[-0.656738739159379,46.29380890949089],[-0.65671912585574,46.29392402268457],[-0.655664514298569,46.29388578075846],[-0.655525518755278,46.294102083191426],[-0.653608704827519,46.293927444937076],[-0.652890668964653,46.293788229969316],[-0.652709028351258,46.292742979769756],[-0.652926203823324,46.291516361999975],[-0.652738344083258,46.29088417101349],[-0.652601223077414,46.29060281472437],[-0.651965629256348,46.28986690092749],[-0.651041440422339,46.28926824605433],[-0.651367867442049,46.28893776379959],[-0.650310253912259,46.288463275258444],[-0.650564435162753,46.288238777754415],[-0.649607052802022,46.2879215246144],[-0.649428319973739,46.28810754326888],[-0.648977974669768,46.2879254683177],[-0.648854868095478,46.28806823648624],[-0.647995152276013,46.28757746735251],[-0.647603659833057,46.288121862655814],[-0.647351236773752,46.28808037275309],[-0.64716438792746,46.28802776672869],[-0.646932011765783,46.28781886762983],[-0.646361346687609,46.28762621484313],[-0.644126529666409,46.287221830436636],[-0.642345312104371,46.287009316812075],[-0.638210396095038,46.28612835461646],[-0.637527611912714,46.285754449312996],[-0.636999297765104,46.28512230163019],[-0.635971969248081,46.28459173096924],[-0.629270569477682,46.28313888073912],[-0.628691470426924,46.28295452467454],[-0.627837413652904,46.28281949503365],[-0.628170202630157,46.28187771126317],[-0.627313733388539,46.281725628040284],[-0.625903868170255,46.28116840187527],[-0.6248260972293,46.28085478429026],[-0.621179705373991,46.28029119288507],[-0.621041919937561,46.28015405338527],[-0.623622325060692,46.277755255561225]]]]}}]}