{"type":"FeatureCollection","name":"COM_40112","crs":{"type":"name","properties":{"name":"urn:ogc:def:crs:OGC:1.3:CRS84"}},"features":[{"type":"Feature","properties":{"fid":4263,"ID":"COMMUNE_0000000009759836","NOM":"Gibret","NOM_M":"GIBRET","INSEE_COM":"40112","STATUT":"Commune simple","POPULATION":98,"INSEE_CAN":"04","INSEE_ARR":"1","INSEE_DEP":"40","INSEE_REG":"75","SIREN_EPCI":"200069631"},"geometry":{"type":"MultiPolygon","coordinates":[[[[-0.810945937399144,43.674897583287404],[-0.811259781195354,43.67416769529677],[-0.811473341934193,43.67396382041626],[-0.811395961420523,43.67369627613172],[-0.811128683257229,43.67333539460837],[-0.811144720618947,43.67264387468195],[-0.812717211203284,43.6718049847452],[-0.813104151550254,43.671278823958374],[-0.815329008684768,43.671440383111126],[-0.815905890481577,43.671306624952166],[-0.816510531660481,43.6710493721418],[-0.817139309673593,43.67098675472747],[-0.817453287935281,43.67109824533421],[-0.818531935724639,43.67184500799473],[-0.81969036884857,43.67235473367637],[-0.821306274503471,43.673656441218945],[-0.822143711694455,43.67402337932694],[-0.824364618420266,43.675331699686765],[-0.825896369805827,43.67592822692273],[-0.826241080457682,43.67557016139014],[-0.826818889923199,43.67526424721126],[-0.827500051535693,43.67509342447838],[-0.82840633307573,43.67567229957651],[-0.827331709661774,43.67679028114134],[-0.828353659984058,43.67737229278419],[-0.829084149282369,43.6776789863162],[-0.831094275949826,43.6777802318845],[-0.833051118194157,43.67914364048806],[-0.832507488370233,43.68042402932477],[-0.832461210017494,43.68097519379899],[-0.832555809969912,43.68129437187824],[-0.832446708058718,43.68151893214441],[-0.832576689118841,43.68201433542063],[-0.833317891433209,43.683444018611524],[-0.833108439314836,43.68369013546532],[-0.832122696009311,43.68404109193727],[-0.832178997713875,43.684882327342855],[-0.832495965080682,43.68494412571673],[-0.833082829195491,43.685328831813486],[-0.832714156620981,43.686089556666126],[-0.833374706216602,43.6860356396365],[-0.833876179707593,43.68588642970067],[-0.833997658982664,43.686755096870314],[-0.833389275884497,43.687235996211854],[-0.833971801022778,43.68792625006953],[-0.832695009027006,43.68812171111072],[-0.83137273378884,43.688453891293015],[-0.830260048685993,43.6890984834409],[-0.828256614627939,43.689196065846346],[-0.828040359316004,43.689508175900755],[-0.827959063206788,43.69001913249625],[-0.82653227685836,43.69075762279689],[-0.825241712302126,43.690803932905176],[-0.823689179695415,43.691240510331596],[-0.823521448331133,43.69125721898453],[-0.822824769707599,43.69108712543923],[-0.821651340619544,43.69108423069795],[-0.821269988811456,43.69111835325479],[-0.820523714607793,43.69137700224984],[-0.820127709008201,43.691228758294],[-0.819193072906755,43.69130663376639],[-0.818800888649329,43.69125284252794],[-0.818253576341036,43.69097657666774],[-0.817346970819511,43.69100930931536],[-0.816597094732793,43.69076717282789],[-0.816774963472603,43.69028797218826],[-0.816954360115798,43.6903159079725],[-0.81682503267277,43.6899402802519],[-0.816843678824861,43.68949369477186],[-0.816621159910515,43.688204252874264],[-0.816249162123339,43.687912816179335],[-0.816011652988313,43.68751576109726],[-0.815761715315262,43.68730472080408],[-0.814998991903907,43.68701798330485],[-0.814859383972525,43.68689766107253],[-0.814043034603665,43.685693914556836],[-0.813744825407474,43.685559335663505],[-0.813584736947705,43.685597382122516],[-0.812570699653183,43.68502215813497],[-0.812529785046176,43.684855131026104],[-0.811959815482506,43.68434901100592],[-0.811691784084093,43.68399626062817],[-0.811478303009109,43.68332539419304],[-0.81245281928306,43.68313988077049],[-0.81361823082988,43.68265217890647],[-0.813951175742003,43.68286121146185],[-0.814993120539626,43.682886814454335],[-0.815766475118059,43.68318488741717],[-0.816177285607742,43.68225248599456],[-0.817017018605117,43.68218697250117],[-0.817881857856475,43.682218765277426],[-0.818892981906162,43.68172651343012],[-0.819426820015795,43.682490614102576],[-0.820095500192113,43.68218695073218],[-0.819607596912547,43.68142304118582],[-0.818874583603765,43.68057585217504],[-0.818233014381295,43.680075884522964],[-0.818481626572855,43.67989508729175],[-0.818477345131246,43.67930967512501],[-0.816894265643506,43.678930150285595],[-0.816685487994803,43.67868433742452],[-0.815893850094269,43.678502226118454],[-0.815413184629653,43.67821820851624],[-0.815142480096173,43.677955648416265],[-0.813745519203692,43.67770467757307],[-0.813612218882332,43.67743639280453],[-0.812957638878301,43.6768143372947],[-0.812669885216082,43.67622085331048],[-0.811857343359079,43.675649375540274],[-0.811668022907493,43.675303777983274],[-0.810945937399144,43.674897583287404]]]]}}]}