{"type":"FeatureCollection","name":"COM_40252","crs":{"type":"name","properties":{"name":"urn:ogc:def:crs:OGC:1.3:CRS84"}},"features":[{"type":"Feature","properties":{"fid":4175,"ID":"COMMUNE_0000000009759824","NOM":"Sainte-Colombe","NOM_M":"SAINTE-COLOMBE","INSEE_COM":"40252","STATUT":"Commune simple","POPULATION":618,"INSEE_CAN":"02","INSEE_ARR":"2","INSEE_DEP":"40","INSEE_REG":"75","SIREN_EPCI":"200069649"},"geometry":{"type":"MultiPolygon","coordinates":[[[[-0.536535157049399,43.69595424821764],[-0.536691899351793,43.69547717113161],[-0.536432409479059,43.6944515774027],[-0.536502842880069,43.6941448422196],[-0.536907017017265,43.6938551759027],[-0.537051181974594,43.693455969993856],[-0.537612432877489,43.69325756952111],[-0.538891761500169,43.692506175214426],[-0.538960625111612,43.69237513066673],[-0.538714298807964,43.69200484223076],[-0.538599591729646,43.69147444550298],[-0.538794246053696,43.69080788098956],[-0.538725615775864,43.69046063367365],[-0.538577275526757,43.690289819735014],[-0.538629732748723,43.690114273240646],[-0.539434252604089,43.689775539888295],[-0.539825280153315,43.689394416223884],[-0.538417246864695,43.68822246492596],[-0.537484458445189,43.68720797712596],[-0.536885062599964,43.687310340958625],[-0.537207379648791,43.684671556692216],[-0.537114391543794,43.68392968724663],[-0.537504388253478,43.6826884202994],[-0.538296344839365,43.68144488117132],[-0.538318869727923,43.680905519152],[-0.538055150543235,43.6805943463922],[-0.538007460040474,43.680204086444775],[-0.537620209231008,43.67925922562275],[-0.537550977071387,43.677997774378525],[-0.537433584322996,43.67762419437472],[-0.536868439725058,43.676973349811085],[-0.535720530117778,43.67596856155375],[-0.535553134640773,43.67562903235984],[-0.53491530432534,43.675348034111614],[-0.532435752807294,43.67381725552264],[-0.530840737887196,43.67254232536797],[-0.531286551197397,43.6720243491683],[-0.530750012153918,43.67143289753222],[-0.530734901665684,43.67122802695222],[-0.531472117883125,43.67058619561833],[-0.532224569343695,43.669769126744],[-0.532395784765089,43.66930600403251],[-0.534655273617083,43.66749509440972],[-0.535545327083352,43.66659696690432],[-0.535816973569947,43.66613327415422],[-0.535843222466372,43.66541275553737],[-0.536028171203608,43.66509239269742],[-0.537021363818422,43.66474032850129],[-0.538286166471492,43.663784046599545],[-0.539848550647508,43.66274510115639],[-0.540425376923942,43.6620408761887],[-0.541375077873436,43.66128757089574],[-0.541330153230225,43.66116293562425],[-0.540992409676832,43.661037932445126],[-0.541007330933211,43.66095818415395],[-0.54209570700748,43.66038139640309],[-0.543826759887266,43.65994577212055],[-0.544607944419476,43.65865570569655],[-0.547700974969141,43.65797743544167],[-0.548944400878166,43.657622493606574],[-0.550034033846373,43.65899021373375],[-0.550720780423238,43.659081270222224],[-0.551136802360139,43.65940814717355],[-0.551666913953089,43.66045456608125],[-0.551666511570975,43.66092835370035],[-0.551839537333494,43.66125776464997],[-0.551956737986835,43.6620474625629],[-0.552264636197052,43.66253099129562],[-0.552970443698368,43.663208677850065],[-0.553360296322345,43.66399306632081],[-0.553474924608634,43.66412082339007],[-0.553961737633195,43.66406797838999],[-0.554492066214503,43.66429653285476],[-0.555332688943044,43.664926563487846],[-0.555454743879207,43.665173871144006],[-0.555956199544878,43.665536669684414],[-0.557143648030593,43.66611661078317],[-0.558318070275265,43.66622679111399],[-0.559625345132195,43.666537972543615],[-0.560511540220482,43.666542275591894],[-0.561309217689179,43.66638013606504],[-0.561808038537745,43.66618094613532],[-0.562008469178314,43.66591226878117],[-0.562241371953602,43.66498860406577],[-0.562979117943081,43.66609753098969],[-0.564523925845647,43.66555959411342],[-0.565809389695485,43.66492205588891],[-0.566189456902883,43.665107746125045],[-0.566893299499463,43.66585026644397],[-0.567547732721186,43.666117922047356],[-0.568262688894058,43.66669974135284],[-0.569171763124056,43.66699145479933],[-0.569402408958118,43.66720816194163],[-0.570153842279333,43.66749873887883],[-0.571082543957185,43.66834373933471],[-0.57141756077282,43.66917941643429],[-0.571486325624519,43.67093898075058],[-0.571275267366782,43.6718925801952],[-0.571154255120729,43.67206138887267],[-0.570762835887778,43.672192241687064],[-0.57126424170372,43.67249192714849],[-0.571558319501854,43.67284976369403],[-0.571772833083628,43.672886851785826],[-0.57211449449687,43.67275402740786],[-0.573084455359626,43.67290590074921],[-0.575607901536301,43.673511992622004],[-0.576558297859329,43.67364826608337],[-0.578168557032851,43.67334217252829],[-0.579837921843723,43.672889990928475],[-0.580299437396808,43.67298738427635],[-0.582333196785781,43.67475068104713],[-0.582651239783711,43.675668860115366],[-0.582593541671683,43.67641296885518],[-0.582968031056898,43.67694377255127],[-0.583992898763939,43.677594553494714],[-0.584116008946423,43.67775713178385],[-0.584898748752327,43.677473713648034],[-0.583851333641815,43.68060769039028],[-0.582757289073803,43.68226417893129],[-0.582571794984631,43.682850368220336],[-0.58058375196297,43.69720706587333],[-0.580469321325191,43.69720362720288],[-0.580306707368205,43.697005411453205],[-0.579969189713358,43.69627340497503],[-0.580090882192517,43.69579740723897],[-0.58050277602398,43.69561450671371],[-0.580583956186684,43.69530467903103],[-0.579925466217065,43.6945814392643],[-0.580158762654171,43.69412338590876],[-0.580089859328561,43.6939346959513],[-0.579496964606609,43.69388305352199],[-0.579268860186289,43.69378877695653],[-0.579217975751631,43.693630118906555],[-0.57894472597539,43.69342923807291],[-0.577958392847911,43.69302122931849],[-0.577787255919365,43.693083606675586],[-0.57704190906977,43.69454571437306],[-0.576409737048107,43.69400444095508],[-0.574874313408332,43.694464762792],[-0.574227654325173,43.694864330140554],[-0.573680108036455,43.69545970105898],[-0.573402216978715,43.69661638052977],[-0.572996549647302,43.69654143583679],[-0.571116903160659,43.69614199159509],[-0.571115548760664,43.69635911519526],[-0.570599803611437,43.69704710277109],[-0.568893604920869,43.69628342995506],[-0.567794796837524,43.69701845817203],[-0.567052158260214,43.698229995960276],[-0.565224257618107,43.69796386305829],[-0.564676997637479,43.69778814210013],[-0.563421594389463,43.69716543657059],[-0.563189180374803,43.69690192869273],[-0.560711056256536,43.696819156357435],[-0.558046006245474,43.69656499823668],[-0.556645163507301,43.697276462748874],[-0.55556826257295,43.69654785077501],[-0.554996556408759,43.69625758785029],[-0.554455828836596,43.69636623587794],[-0.554153845976467,43.69602121568455],[-0.554128756576442,43.69577703587479],[-0.55359281174965,43.69570267437869],[-0.552920506530466,43.69577147810272],[-0.552513435264715,43.69593339693041],[-0.550962317882213,43.695523778830804],[-0.551068708509785,43.69531764021597],[-0.55096098581694,43.6952220769812],[-0.550541674089819,43.695146594713684],[-0.548846339964892,43.69513347404466],[-0.548940096538492,43.6968463084448],[-0.548253523754258,43.69666514489606],[-0.547556899292259,43.696942777348646],[-0.546962806474557,43.69699187849381],[-0.546595898777689,43.69710112293525],[-0.545642991132495,43.697510499946716],[-0.545051457560351,43.697901784678166],[-0.543741213981554,43.69919740074224],[-0.543600861918115,43.699437064449775],[-0.542675490515181,43.69852684770191],[-0.541493130591237,43.6991814533877],[-0.541649523820293,43.69932137833982],[-0.541556255305242,43.69976036875237],[-0.541658992462384,43.6999560847559],[-0.542161511593598,43.70017210860251],[-0.54266529947646,43.70020794274884],[-0.542766928670639,43.70038567937929],[-0.54270305068375,43.70047693243435],[-0.542036982486271,43.700908458318914],[-0.541792742856307,43.701395600872104],[-0.540737531472492,43.70191905384132],[-0.540328091861375,43.702405265460214],[-0.539995368906063,43.70314838928665],[-0.539640766736282,43.70329684068909],[-0.539105663727062,43.70309627607996],[-0.538417930031229,43.703037585427154],[-0.538306957930345,43.70292950487807],[-0.53870136525927,43.70205917865656],[-0.538724322355426,43.70154681716118],[-0.538919328929172,43.70130718342245],[-0.539577582671006,43.701029956531954],[-0.539590923843143,43.70076380706872],[-0.539337872131813,43.700305464076145],[-0.538822182722465,43.69995654812145],[-0.538814840390988,43.69937581700794],[-0.538129119436482,43.69918825652994],[-0.537836747907125,43.69889692413507],[-0.537632211742609,43.69803797814608],[-0.537147549290572,43.69746736854227],[-0.537280917438748,43.69673254186308],[-0.537226596466109,43.6965766815391],[-0.536680889513337,43.696283678358405],[-0.536535157049399,43.69595424821764]]]]}}]}