{"type":"FeatureCollection","name":"COM_17151","crs":{"type":"name","properties":{"name":"urn:ogc:def:crs:OGC:1.3:CRS84"}},"features":[{"type":"Feature","properties":{"fid":3973,"ID":"COMMUNE_0000000009752189","NOM":"L'Éguille","NOM_M":"L'EGUILLE","INSEE_COM":"17151","STATUT":"Commune simple","POPULATION":909,"INSEE_CAN":"22","INSEE_ARR":"2","INSEE_DEP":"17","INSEE_REG":"75","SIREN_EPCI":"241700640"},"geometry":{"type":"MultiPolygon","coordinates":[[[[-0.969320847075162,45.68496078535952],[-0.969699717049349,45.68486267207022],[-0.970720099645234,45.68436505083982],[-0.971763237584215,45.6849188125496],[-0.972540652720619,45.685086130002375],[-0.973213787751761,45.68494786562953],[-0.973500285267907,45.68501439076625],[-0.97363398171494,45.68524589709462],[-0.973543151364951,45.68589737224672],[-0.973665541471206,45.68609681922112],[-0.973854480078111,45.686201950964154],[-0.974178998401094,45.68620672346421],[-0.974654026954229,45.68596093834443],[-0.975193565906756,45.68589680474157],[-0.975744946591338,45.68601528051755],[-0.976029515491502,45.686287438610634],[-0.976202751583364,45.68629935201443],[-0.976473823410905,45.68618699102352],[-0.976652220069008,45.68591290554777],[-0.976834827341195,45.68582260297704],[-0.977207370512845,45.68577968698106],[-0.977471534662065,45.685929039570205],[-0.977568846142002,45.68633403848791],[-0.978154226222616,45.68706801517526],[-0.978176860950404,45.68736475260854],[-0.978476407077033,45.68786268468454],[-0.978063685282418,45.688545377160125],[-0.978072323097186,45.68871908618862],[-0.97832674617746,45.68907254966642],[-0.978555019650743,45.68915194013119],[-0.978735489485808,45.68912121776793],[-0.978634312094929,45.6893420862658],[-0.978776126496498,45.689471416724466],[-0.979979578277276,45.68919354993918],[-0.980329316683842,45.6894769189153],[-0.98019314391784,45.68974771437878],[-0.979302127030395,45.69018404567848],[-0.979110064751948,45.690357635990054],[-0.979102325149946,45.69050036695374],[-0.979452129611563,45.69108848718877],[-0.980550655935733,45.69172947881859],[-0.981003140969253,45.692403225866656],[-0.981363818893426,45.692695222063385],[-0.981940873145562,45.692990383770955],[-0.98265211372914,45.69320145226272],[-0.983225275655393,45.69360313806519],[-0.983247513948079,45.69384038201333],[-0.982782075759821,45.6948270042594],[-0.983009382111305,45.695321171568935],[-0.984016653052872,45.696140279071024],[-0.984299228373105,45.69627634380257],[-0.986082726235751,45.69636829437852],[-0.987722910607308,45.69700627377875],[-0.9882442511955,45.69734846112817],[-0.98873038669177,45.69836180844268],[-0.989513374109456,45.69901299837082],[-0.990071852630375,45.69913837144418],[-0.991181903183465,45.69902599482221],[-0.9918152527845,45.699047721965734],[-0.992463343199099,45.69934482389567],[-0.993088430754895,45.699822164066006],[-0.993287179886036,45.70011536068361],[-0.993489043324773,45.70073664282243],[-0.993419400012616,45.70262263484987],[-0.993534909319201,45.70297468522253],[-0.993786263967014,45.70330117965125],[-0.994647563496521,45.704037020056546],[-0.996057801063951,45.70488952286149],[-0.996777726733027,45.705449136263326],[-0.997272466347002,45.70595542797077],[-0.998009486099649,45.70717803548791],[-0.998627178477566,45.70776471121103],[-0.999439258633966,45.70824529971562],[-1.002189887778581,45.70942430183957],[-1.003508830635955,45.71038094941998],[-1.004793921191358,45.711686822176816],[-1.006738551321322,45.71493480890847],[-1.00563684296226,45.71472243941101],[-1.00433462028449,45.71428276128323],[-1.002453661195543,45.71395560591507],[-0.998707791276252,45.71362883123426],[-0.995622389577338,45.71326858487956],[-0.993741951811381,45.71314323584527],[-0.991861729121434,45.71310981518381],[-0.990312348731233,45.713237755697065],[-0.988127287648622,45.71361720275916],[-0.98695736509054,45.713724445312394],[-0.985153077627214,45.71370896152459],[-0.984175406173332,45.713555111242556],[-0.979939752142184,45.71259045957361],[-0.977045324075243,45.71226984666365],[-0.976097200427319,45.71161357898783],[-0.975201235847471,45.71051907500445],[-0.974530582907478,45.709872836978604],[-0.973826239969173,45.70945589608485],[-0.973321433440943,45.70923658038596],[-0.972704598849851,45.709087935091944],[-0.970241343384052,45.70892595747235],[-0.969624092654062,45.708825096522745],[-0.968817176480941,45.70857403424288],[-0.967609993190453,45.70796379754039],[-0.966870135712852,45.707463314640485],[-0.966152696310858,45.70680876193372],[-0.965512379938835,45.7060450979517],[-0.964893161976016,45.70553945358966],[-0.9646163600897,45.70539412063373],[-0.963096771020076,45.70509147194082],[-0.962445249663459,45.70461941056673],[-0.962243872296839,45.70407200022486],[-0.962438378529566,45.70319509215097],[-0.962887998287993,45.702753704163925],[-0.964126833095209,45.70203117647489],[-0.964359507948922,45.701758809654336],[-0.9643724029675,45.70138237954361],[-0.963622134779362,45.69992742976036],[-0.96164068916197,45.69807941959834],[-0.960743715987667,45.696406917257036],[-0.961171331050247,45.69612589557253],[-0.961425953343313,45.696106117393974],[-0.962115732179333,45.69573111493344],[-0.962922676004234,45.69555484838286],[-0.963253591576648,45.695145585357224],[-0.963614095805749,45.695149123308035],[-0.964254515144418,45.69536009489008],[-0.964518871062238,45.695296689018],[-0.964903094086925,45.69487742891905],[-0.965327206470452,45.694583890990096],[-0.965723633730281,45.6938864984097],[-0.965697182596883,45.69367915556448],[-0.965369295766619,45.69335890827057],[-0.965427429919513,45.69318284769725],[-0.96573863235698,45.69316286954955],[-0.966044632178249,45.69296274946497],[-0.966308910076619,45.69289844005529],[-0.966722897045856,45.693181389390496],[-0.967226733567165,45.69317445525924],[-0.967508918481445,45.69296525237776],[-0.967853312660829,45.692529352107],[-0.968202569140003,45.69237638882],[-0.968125153463905,45.69199682945596],[-0.969433119330382,45.69188309712397],[-0.969528978464761,45.692017665559014],[-0.970189630754074,45.69188346906458],[-0.970637119487147,45.69188030966254],[-0.97090928886423,45.691836448125066],[-0.971236036347984,45.69160312272599],[-0.969420992969283,45.690585186752294],[-0.968948155470128,45.68996621373538],[-0.968285995318081,45.6895234181783],[-0.967708007377608,45.68856823574985],[-0.96689909323487,45.687531928563715],[-0.967617661139574,45.68668161975658],[-0.96872384969143,45.685676085170215],[-0.968648823006655,45.68561651840207],[-0.969320847075162,45.68496078535952]]]]}}]}