{"type":"FeatureCollection","name":"COM_23003","crs":{"type":"name","properties":{"name":"urn:ogc:def:crs:OGC:1.3:CRS84"}},"features":[{"type":"Feature","properties":{"fid":3994,"ID":"COMMUNE_0000000009751060","NOM":"Alleyrat","NOM_M":"ALLEYRAT","INSEE_COM":"23003","STATUT":"Commune simple","POPULATION":141,"INSEE_CAN":"02","INSEE_ARR":"1","INSEE_DEP":"23","INSEE_REG":"75","SIREN_EPCI":"200044014"},"geometry":{"type":"MultiPolygon","coordinates":[[[[2.137914739886857,45.99776879586843],[2.138661475053553,45.997776276644444],[2.139099638564161,45.99718974952968],[2.14102581016354,45.9977933268146],[2.142766570666027,45.99860619589116],[2.142701033751311,45.99883173687592],[2.142117515791435,45.99946040335864],[2.142116604461978,45.999684632262436],[2.145015231660016,46.00157967712085],[2.145594409257525,46.00189563472857],[2.147205756005696,46.00248322245134],[2.147783452541306,46.0035637199469],[2.148041903593948,46.00356386247951],[2.148429769079466,46.00338486822698],[2.152558487379461,46.00397596171918],[2.15359157913818,46.00402330764955],[2.155141941319423,46.00371068263628],[2.156529703542839,46.00355081917274],[2.157666205763924,46.003173841253414],[2.157929919901235,46.00316769656877],[2.158090162993382,46.00333638843506],[2.158209841813987,46.00311574397516],[2.158611248695821,46.003062891808646],[2.159438062530373,46.00273942981789],[2.160720476521385,46.00109643979612],[2.160957739993236,46.00062090926407],[2.161427115558432,46.00026146542834],[2.161770908255248,45.999832649375655],[2.162725176337448,45.999705524577415],[2.163099358901661,46.00025131650963],[2.163739581682191,46.00029746878247],[2.164881930709806,46.00020863611653],[2.164877221881409,45.99949717274484],[2.164792377251197,45.999212876387986],[2.164524587583974,45.998893010399875],[2.164431734084557,45.99811515729508],[2.164792096503925,45.99803946725549],[2.16484725204935,45.99755538190495],[2.165044476030112,45.99716059683228],[2.165559898112191,45.99725444853506],[2.165825898656547,45.99718076183774],[2.166204210899634,45.99754016155253],[2.166792708765535,45.99767236817316],[2.167128493394339,45.99836645371629],[2.166640268415514,45.99869426315766],[2.166511768989093,45.99915889832746],[2.166756666966111,45.99988203415799],[2.167179364160825,46.00038404252065],[2.168053014089791,46.000631806352985],[2.168526883718897,46.00065599740701],[2.168818982799049,46.00005297635047],[2.169488368757801,46.000221783783736],[2.1699700859166,45.999725513073436],[2.169619310084774,45.99899440419513],[2.17023716850454,45.998637813637366],[2.17056426002603,45.998540248588725],[2.171320925704987,45.9985755034987],[2.171472862785456,45.998525283829],[2.171537676586474,45.99816824268407],[2.171817898696483,45.997836190441],[2.173388932218394,45.99759100949477],[2.173679919182381,45.99765977229811],[2.173936471676823,45.99787056884651],[2.174032484142279,45.99784425261803],[2.17422199629872,45.997270188058486],[2.174498731024291,45.99708309109389],[2.174220385932993,45.99651642305205],[2.174382200726379,45.9953766162798],[2.174236064755219,45.99469654284495],[2.175922347657724,45.99468630825393],[2.176508277375411,45.99429883345355],[2.178114134624787,45.99378998243983],[2.178742915304298,45.99347304933724],[2.179179021867349,45.99307997200181],[2.179501920399653,45.99300036193397],[2.179565450858897,45.99263880458851],[2.179498878871972,45.99225108981078],[2.179740331603073,45.99217449132513],[2.179339941241981,45.99147277162863],[2.179118132154058,45.991358596890784],[2.178168552050381,45.991270663122556],[2.178414345422948,45.99098967613386],[2.178787302232431,45.99023862757364],[2.179058417166828,45.9896453350546],[2.179150873680511,45.98916331505644],[2.177742007448819,45.98868931827763],[2.177532430765595,45.98836270137845],[2.176730337082695,45.98757340366667],[2.17642849477619,45.98711103280128],[2.176939311606935,45.98681666648253],[2.17663358034031,45.98652807237366],[2.176518609900619,45.986182329228726],[2.177202869658146,45.985864907985444],[2.17656021844293,45.985128097710536],[2.176741366922831,45.984935798085345],[2.176714203645251,45.98476539832403],[2.176242288805223,45.9839289663394],[2.175349853150529,45.98374326452233],[2.175138376613883,45.982683588213405],[2.174457528778678,45.98165561234201],[2.174459743440095,45.981507939641425],[2.174672556279679,45.981357299061],[2.17525084201747,45.981384925646935],[2.175609680558564,45.98131639532289],[2.175757138741878,45.98087170045785],[2.175530398078644,45.98048641939858],[2.17504916928447,45.98036134211631],[2.174835406261554,45.98023100743917],[2.174485648033523,45.979694437401754],[2.174386928336616,45.97938663306212],[2.174541673018701,45.978628604323234],[2.174373771015696,45.97819692147156],[2.173885854047295,45.97783044510835],[2.173473075375648,45.977707661298],[2.173290444335167,45.97756944592154],[2.172966392097809,45.97712941657638],[2.172208506767123,45.9770230187619],[2.171450182607828,45.97677432698583],[2.166622387843214,45.975728494579],[2.163880186522369,45.97539579346679],[2.162600833434278,45.97509996788269],[2.163347012897361,45.97367902268241],[2.162911354398915,45.97294095992276],[2.161825731615578,45.97307341455314],[2.161642595336854,45.97246239105388],[2.160441892063609,45.972349933052215],[2.158826369173915,45.972337944217884],[2.158392696495519,45.971897057730146],[2.158233909630449,45.971554571413144],[2.157703124195477,45.97104632001995],[2.156581493113858,45.97049584400415],[2.156222290398519,45.96974841808502],[2.156474862700842,45.969616118789105],[2.156412059837266,45.96933197956659],[2.155957560899791,45.968736034680646],[2.155489067800938,45.96837952826691],[2.154919118580332,45.968323044490624],[2.154322004687121,45.96860586015814],[2.154185962902071,45.968886714422844],[2.154523207554865,45.969632182018735],[2.155013077300668,45.97229874773441],[2.155356031752276,45.97267413155504],[2.156154498610873,45.973244725416684],[2.155414280707991,45.97367597105921],[2.155021143709704,45.97379281069018],[2.154603387866353,45.973746466684496],[2.153964367272026,45.973390482153086],[2.153699517753372,45.97339570751936],[2.15348566380044,45.97352829023192],[2.153954187739028,45.9738848049155],[2.154078344619334,45.9743783301347],[2.153948311024283,45.97460339534752],[2.153366842912007,45.97487191468379],[2.152591340291676,45.975410943733095],[2.152356890233732,45.97587387008901],[2.151992292852094,45.97581350571081],[2.151425270940488,45.975897511776616],[2.151085824227835,45.976300212857474],[2.150922722444903,45.977160811340354],[2.150542153782961,45.97813504842278],[2.150557802952561,45.97837651176629],[2.150916054528354,45.979184285091776],[2.14722315507588,45.97918085360982],[2.146642217651991,45.978909916480426],[2.146126259348608,45.97886370200648],[2.145998488691822,45.9787735846415],[2.144192490437888,45.9784555676357],[2.143547963057904,45.97845429757625],[2.14412463565924,45.97957983611996],[2.143768882761411,45.97994637078074],[2.142498762483212,45.97914067909125],[2.140914326049336,45.97886211000789],[2.140662787635549,45.97875753946792],[2.139723631944666,45.978020066758546],[2.139666894427577,45.977518031636876],[2.137877882013858,45.97710998775574],[2.13708416425962,45.97706882148816],[2.136875754586447,45.97693305190744],[2.136825316622412,45.976772370235835],[2.13336142950876,45.97609752234275],[2.131428110773312,45.975509062589616],[2.130203380575101,45.97528173024942],[2.128013774017912,45.97424277033425],[2.1269177870666,45.97388131124355],[2.126655140401464,45.9750499979708],[2.126781335973364,45.97572548129259],[2.126540987255651,45.97662777764016],[2.125971788592382,45.977333918318905],[2.126790359256001,45.97914673127895],[2.127880399317624,45.98062392328109],[2.128583689358839,45.981157957936055],[2.128931828490865,45.98127950823173],[2.129726417634172,45.98175930439471],[2.130049940611962,45.9818041155467],[2.130317460248777,45.979016274991636],[2.13044831203029,45.97874621503638],[2.131094652971146,45.9783873547065],[2.133151937310032,45.980460869401895],[2.133601164236366,45.98113611464881],[2.134307320823875,45.981902476242176],[2.134414349342267,45.98216085058059],[2.132304850978924,45.98257336964089],[2.131400243880324,45.98284200324888],[2.130883030325419,45.98320095606345],[2.130042870791738,45.98355922764044],[2.130038606859875,45.984728105068996],[2.128190408096247,45.98494713635685],[2.128224472523227,45.98516172881331],[2.128082604961072,45.98547312675882],[2.128276683013043,45.98626980386736],[2.128618281211148,45.98639850891372],[2.129239904346318,45.98744522244465],[2.129860437885129,45.987990319260554],[2.130634579356644,45.988871595086835],[2.132544132093573,45.99058736727036],[2.133754068859303,45.99202309193931],[2.133881488787482,45.99238248375138],[2.132653608338393,45.992740512175594],[2.131308389121072,45.993328167678065],[2.13169479648202,45.99373187341258],[2.132502181142943,45.993986609852264],[2.133199936396071,45.99447554437205],[2.133983775381824,45.994831851707225],[2.134100110895673,45.99548563715554],[2.134695489578961,45.995831493334364],[2.135358748749185,45.99662723701579],[2.135276435259849,45.99693189396038],[2.135367376559818,45.99706496835702],[2.13528028193146,45.99718047409722],[2.13568491886695,45.997825651293034],[2.137231318626961,45.997678942109246],[2.137914739886857,45.99776879586843]]]]}}]}