{"type":"FeatureCollection","name":"COM_86105","crs":{"type":"name","properties":{"name":"urn:ogc:def:crs:OGC:1.3:CRS84"}},"features":[{"type":"Feature","properties":{"fid":4104,"ID":"COMMUNE_0000000009749221","NOM":"Gizay","NOM_M":"GIZAY","INSEE_COM":"86105","STATUT":"Commune simple","POPULATION":364,"INSEE_CAN":"18","INSEE_ARR":"3","INSEE_DEP":"86","INSEE_REG":"75","SIREN_EPCI":"200043628"},"geometry":{"type":"MultiPolygon","coordinates":[[[[0.404203537976752,46.41023169080261],[0.402068622771043,46.41294361836169],[0.402750344289393,46.414768241666906],[0.399507426513676,46.41541155028895],[0.401225516579679,46.42012030640394],[0.398839198989402,46.42076958939832],[0.397862697622341,46.42220596947833],[0.396880094937707,46.4245341436292],[0.397583343487102,46.42568807876324],[0.397881854930393,46.426832783254476],[0.397879724888471,46.42739672903663],[0.397633220399345,46.42863171696338],[0.39738863165157,46.43239481114987],[0.39683871357563,46.433187721567045],[0.395792656480887,46.43438284909839],[0.394325384190973,46.43561069992587],[0.39350131482589,46.43799472231826],[0.392697307836468,46.43908453300131],[0.391661891799918,46.44027085977723],[0.390062343231489,46.44156140809632],[0.39200225857762,46.44157510142625],[0.395294942140243,46.44254490297936],[0.395591848837744,46.44306881972073],[0.39490561286128,46.44330182727649],[0.394656542639925,46.443441197269216],[0.394744594276416,46.44353510301898],[0.395866146789756,46.444285048841195],[0.397894992021844,46.4447042922055],[0.398716198722999,46.445030225560956],[0.402621012985765,46.444838918176174],[0.402964393622686,46.44438814722834],[0.403627027969574,46.4438563423364],[0.404007341102422,46.44309468133598],[0.40568175913091,46.44301921778173],[0.405852708762836,46.44419342818318],[0.405761818045005,46.44448777388555],[0.40592775565339,46.44549339339344],[0.405856905761479,46.44596928413743],[0.405575482650058,46.44657012677489],[0.404637711547649,46.44787140305646],[0.404401456698828,46.447823688984435],[0.404278616776861,46.447994779061844],[0.404251408553875,46.44960775144678],[0.404393193755415,46.45213451754583],[0.404182392137218,46.45234595277972],[0.403682347490483,46.45255441620987],[0.403114291203672,46.4536712843852],[0.403149794787528,46.4545685307001],[0.403447955542617,46.455753743854174],[0.403736726735755,46.456013473615],[0.403380599392024,46.45673063701953],[0.403852086790684,46.45789005752299],[0.407180591607732,46.45766475147818],[0.407596968179302,46.457928268394575],[0.408021963402698,46.45803791830588],[0.408562047491415,46.45852406843411],[0.408896360956499,46.458621747116865],[0.409578961692625,46.458632725540255],[0.410201349738947,46.45829186877505],[0.410768511566561,46.459416487570515],[0.412592965554676,46.46086059375373],[0.412833277190662,46.460961536643744],[0.412470322479616,46.46198939521455],[0.412765624739541,46.46277269365936],[0.413131398764439,46.46693610611546],[0.413535907381578,46.46758943614121],[0.415226030013774,46.46964669009838],[0.416482438154764,46.470952637893305],[0.416698109522634,46.47096922703714],[0.420417838626636,46.469297354683306],[0.422199026834957,46.469986233035264],[0.42338301172975,46.47028952933248],[0.42425422977379,46.470892980158034],[0.425108373576327,46.47091944184329],[0.426096116314775,46.470822776561214],[0.427423451943874,46.47054815828065],[0.427835097887511,46.47039075463118],[0.434393291530349,46.46871293799528],[0.434765349171321,46.46848164569582],[0.437779404131817,46.4677159267024],[0.438652588989889,46.46755802484653],[0.439487090298989,46.46716861173262],[0.440889394857897,46.46670992959235],[0.441311464513725,46.46660676800279],[0.441945612242575,46.46656871623618],[0.441886380356866,46.46594124518177],[0.4420550580121,46.464818862766705],[0.440125057206017,46.463465678843804],[0.43994897310839,46.46316172340732],[0.439513794490702,46.45932302047746],[0.441895417010539,46.459132232801345],[0.442778252797332,46.459543905355304],[0.44383523593582,46.459717118543864],[0.444956892325292,46.46059719458873],[0.445476446869521,46.46083314604938],[0.445597244340324,46.46100972642511],[0.446431858522784,46.461171635193786],[0.446864040965019,46.46140832955508],[0.447176527907913,46.461361258176076],[0.447380520798686,46.46148744208108],[0.447567189262026,46.46176099036487],[0.448471977420455,46.46195598426941],[0.449834513678825,46.462454892816446],[0.450106967227198,46.46175825347785],[0.45013070609331,46.46108308947199],[0.450337717388019,46.460726439431426],[0.450536014075265,46.46063987211295],[0.450740117413699,46.4603732490265],[0.450494589113768,46.45996415448036],[0.450663216100045,46.45699756695324],[0.450991765451373,46.456913005387875],[0.45137728334661,46.45666934938618],[0.44658247802134,46.44887463977268],[0.445693940282231,46.4470844441163],[0.445011809722493,46.44656556482313],[0.443792958474127,46.444539124353405],[0.443134127816413,46.4430234242417],[0.443235747235751,46.44244009490225],[0.443867328116099,46.44086499404913],[0.445732347906121,46.437466078527706],[0.447353191837168,46.43677527758296],[0.448164783848893,46.43633484689668],[0.448727442740365,46.435811368409254],[0.449397204485161,46.434836211812204],[0.44988567695134,46.43436602738125],[0.450386168860488,46.43427990516464],[0.450678522065551,46.434772034251935],[0.452815321119765,46.43449809619905],[0.453268558376848,46.43587131098789],[0.454314908000222,46.435648693086016],[0.455536776545754,46.43551826844345],[0.456640440406328,46.43551943573575],[0.456957545000106,46.43525802330531],[0.457068889777441,46.43499382915782],[0.45748272239903,46.434530059516284],[0.459973981785914,46.43369449685587],[0.460961199605967,46.43328491334727],[0.460257567611811,46.43216472788944],[0.459625014317143,46.43226146795559],[0.458817318095046,46.431866004252726],[0.458522042532786,46.43079183359706],[0.459958402584351,46.43075352886875],[0.460871983262035,46.43049726789609],[0.459708217073961,46.4294100868808],[0.458721296834923,46.427827716408785],[0.454544333518555,46.42360569819573],[0.453728112173164,46.42406678778072],[0.45335090043663,46.42357907835313],[0.452880611041873,46.4237739968948],[0.45248229112438,46.42332004866199],[0.4513497209885,46.42372000503581],[0.450327830754747,46.42228002011948],[0.449546127043046,46.422420218991235],[0.448118036225675,46.42289912834636],[0.447914672939557,46.422929717963406],[0.447645492587466,46.42286333678903],[0.447163181427148,46.42306426982509],[0.443759977122869,46.42340433743725],[0.443624769782513,46.42353735029517],[0.442138066978001,46.423652698724275],[0.44212781510638,46.42448312951603],[0.44122531089139,46.424642187943086],[0.439442061042068,46.424857164394375],[0.437716204033834,46.42487609688493],[0.437476334927664,46.42479593468245],[0.437105736664053,46.42442003293149],[0.434371826516955,46.42470908097117],[0.434208224473026,46.42480811038804],[0.434614306573592,46.42523256898874],[0.432888242495259,46.426529853057595],[0.431570489065706,46.42607046399318],[0.430948597188923,46.42541500215289],[0.430122680360239,46.42485945213225],[0.427698647255716,46.42423906316294],[0.425102679313046,46.425358962070405],[0.424864741230164,46.42570766379155],[0.424763994472468,46.426075677109644],[0.424855055274858,46.4267966810673],[0.422741137478697,46.426837265757904],[0.42302341874347,46.42516338522072],[0.42387998055391,46.423218670134986],[0.424039980730245,46.421815913357186],[0.424018616211383,46.42041897352778],[0.423837276482821,46.4200103583947],[0.42375119305608,46.41890836674219],[0.424344368886612,46.41583423021201],[0.423887807891411,46.41488154108685],[0.423757203084699,46.414226311381555],[0.424516340376026,46.414038931857256],[0.425187002401319,46.413987395263476],[0.424999175660975,46.413247088639885],[0.424973602423121,46.412629366936926],[0.426482730159433,46.41112099815971],[0.427568885879473,46.409576048773374],[0.427737672493759,46.40900685528616],[0.427181013764821,46.40882402840037],[0.426768267812146,46.40848948214336],[0.426287362872693,46.408329981500174],[0.425883860632598,46.40807582408648],[0.422065040956181,46.40824188006302],[0.421713947811134,46.40861594771919],[0.418888786962038,46.40949987371317],[0.41741646314072,46.40975846841358],[0.415005577999847,46.410390401678676],[0.412583721555147,46.41152746717557],[0.412038947368577,46.411259245523624],[0.41119619548973,46.411177064359464],[0.408980960929734,46.41075740121876],[0.404601997237126,46.41039841994144],[0.404203537976752,46.41023169080261]]]]}}]}