{"type":"FeatureCollection","name":"COM_24451","crs":{"type":"name","properties":{"name":"urn:ogc:def:crs:OGC:1.3:CRS84"}},"features":[{"type":"Feature","properties":{"fid":4289,"ID":"COMMUNE_0000000009753165","NOM":"Saint-Martial-de-Valette","NOM_M":"SAINT-MARTIAL-DE-VALETTE","INSEE_COM":"24451","STATUT":"Commune simple","POPULATION":801,"INSEE_CAN":"13","INSEE_ARR":"2","INSEE_DEP":"24","INSEE_REG":"75","SIREN_EPCI":"200071819"},"geometry":{"type":"MultiPolygon","coordinates":[[[[0.65384118216569,45.495297756791096],[0.653854245956769,45.4958070180487],[0.651367689575826,45.49520729011166],[0.64918921575227,45.49559139816727],[0.647919464796618,45.495629659837],[0.647025184711813,45.4958757711976],[0.644489528842988,45.49628383148607],[0.643237066544185,45.49609538474396],[0.641765811885969,45.49565999371484],[0.640318370927071,45.4953881408091],[0.638712371104989,45.49526067593723],[0.637094962776411,45.49540140694891],[0.636466913770601,45.4953503471186],[0.634836000222491,45.49652946516663],[0.632951220726566,45.49753204240397],[0.632074353693618,45.498178391049485],[0.631426854286063,45.49924307375019],[0.630443526727102,45.500101571987884],[0.629186116581333,45.50167767515684],[0.629381323153373,45.50217637708858],[0.624239530520562,45.50171453202155],[0.623253839746373,45.50145763725572],[0.622998921934095,45.501098195650044],[0.622329571141477,45.5009633026636],[0.621703222845372,45.50093111566891],[0.620426579432549,45.500439208263245],[0.61979807156384,45.50006913612381],[0.616782365474229,45.49896733945381],[0.615567854175629,45.49840282224749],[0.614872941362517,45.49752231495254],[0.612716875413792,45.49323604662214],[0.611691424223835,45.49209173652994],[0.611496050102167,45.49139300189021],[0.609550061976959,45.493692054757304],[0.606056824552201,45.49405272663932],[0.603556587814577,45.494494855919854],[0.603099258792231,45.49393194940239],[0.602393030449286,45.495514128479876],[0.602061442744336,45.495954783193746],[0.601755176111347,45.496728403562436],[0.601759238155132,45.497168120810166],[0.601520075903495,45.49742606819848],[0.601053345195191,45.498533188307604],[0.600441688168334,45.49913992173339],[0.599565507498371,45.50053107031112],[0.60031500328182,45.50067772332766],[0.600220666991253,45.50131893713313],[0.599088539699787,45.5014586893576],[0.599085150249083,45.502040587654676],[0.598088834767062,45.502830970457104],[0.598314033851449,45.50369613297709],[0.600634628966487,45.50540518363617],[0.601417131635108,45.50615342249787],[0.602604054101781,45.50587427724079],[0.603460485900659,45.50562319939102],[0.603949351433392,45.50539850418741],[0.60417572063668,45.505378110749376],[0.605217173651512,45.506361573014004],[0.606064466580344,45.5078372707842],[0.606543220936115,45.509006012506006],[0.605287508694746,45.50939364089178],[0.60405469602055,45.50990336350552],[0.603079852239507,45.51010597437845],[0.602864529670913,45.51043380309192],[0.601907464453214,45.510758402975306],[0.60267166548976,45.51157650963107],[0.603013608481667,45.51128381627784],[0.604695694289642,45.512389063264806],[0.601439240511051,45.51578164037729],[0.60346313850473,45.51556179823608],[0.603789404922782,45.51610748992889],[0.604177220374268,45.51647431716439],[0.606117296649863,45.5173958586917],[0.607879085669905,45.51930363730952],[0.609050023185527,45.52014477505904],[0.610582686511256,45.52109809974112],[0.611484453808719,45.52226951174358],[0.612734613140878,45.523446520851955],[0.61368924629913,45.52398661898224],[0.614158976235529,45.52435875367794],[0.615120338843147,45.52539897083878],[0.615358880287139,45.52587249426456],[0.615833385311098,45.52634291884583],[0.61607133938528,45.52671102510371],[0.617835302001481,45.526134956138854],[0.619205293764141,45.52530096530788],[0.619255421517245,45.52508851960854],[0.618858797854865,45.52474408265924],[0.619569400468165,45.52413303647959],[0.62026218892075,45.524445009458105],[0.620691402826682,45.52474688960981],[0.622703277985801,45.52666782785071],[0.622867563482187,45.52693165916686],[0.622797496523297,45.52769952613473],[0.622437050958067,45.52815494755856],[0.622200156956646,45.52877784466799],[0.622290573699691,45.53058602079872],[0.622945445552862,45.53340071487948],[0.623448677489276,45.53344289465656],[0.624243960027885,45.5331606275712],[0.624489398957238,45.53296672471637],[0.624755884980714,45.532311115944005],[0.625114825009137,45.53198087689111],[0.625780772948707,45.53193459737962],[0.626016765095814,45.53184139005188],[0.626219632431503,45.53156370312779],[0.62670846364691,45.53152268351038],[0.627250767740818,45.53169990287188],[0.627505927062805,45.532267440398044],[0.628642259211214,45.53327159179528],[0.629197410288563,45.533898610067325],[0.629763240848876,45.53421594916077],[0.630040087946664,45.53457673635198],[0.630605149272,45.53488234335927],[0.631160357670061,45.53499855558985],[0.631670153492779,45.53545794219204],[0.633017635242564,45.53620344283469],[0.633252074895132,45.536266939789975],[0.633830650128043,45.536016073583845],[0.634800157502433,45.53642747241551],[0.635699828189505,45.535379777157345],[0.635976115905285,45.53554414637768],[0.636086390456568,45.53527260133893],[0.636670971367114,45.53557228169336],[0.637139205669342,45.53601545310516],[0.637714582596948,45.53635096912467],[0.638245174105831,45.53653419358001],[0.638498766798098,45.536479166785654],[0.638941902674495,45.534681329697804],[0.639624236633955,45.53379840082202],[0.639497867037345,45.53357503116806],[0.639650153243514,45.532767445647785],[0.640191203262071,45.53183019530548],[0.6404225527966,45.531604432400755],[0.641373602249426,45.531635218941474],[0.641551661821849,45.53178850286402],[0.642866602943372,45.53212420495972],[0.643260454848224,45.53115051960538],[0.643868616395485,45.53119661148093],[0.64476113138827,45.53016041091577],[0.64544060284926,45.53042870321758],[0.645960475355966,45.53053148954773],[0.646514309084615,45.53052868235556],[0.64804514222345,45.5301859879998],[0.650036154255086,45.52990245049885],[0.650625319845214,45.529882345054475],[0.651096905720581,45.52976338455037],[0.651974883086251,45.52982408402277],[0.650208303914083,45.528743030245906],[0.649541190447691,45.52824350211345],[0.651588933355866,45.52746564837777],[0.652415128579555,45.52638656499281],[0.652646477553867,45.52624996450253],[0.653297922498351,45.526089711362324],[0.654555903710742,45.52507278657454],[0.655727534589181,45.524854916806284],[0.655804751757052,45.52436195281942],[0.655958534601637,45.52433183073365],[0.655856691921797,45.523041465676236],[0.65783305687395,45.52358358470631],[0.658845355739737,45.52407314314178],[0.659183193650047,45.52369011082648],[0.659440665935528,45.523176578900554],[0.659625422509641,45.523080433434586],[0.659606712554899,45.52294671544545],[0.659774999188128,45.5229979684042],[0.661193146226305,45.521490637500804],[0.661370765882362,45.52043852354391],[0.661325372384942,45.52011687044591],[0.661141965238348,45.51978603677611],[0.662480188684026,45.51950400451979],[0.662573723602837,45.51993025844826],[0.663207153571164,45.51986056235278],[0.662529323579739,45.518337507800105],[0.661923331406951,45.517999679653485],[0.66114993818846,45.51786375845262],[0.661194595334935,45.51689535882532],[0.66069325751736,45.51696329057204],[0.660223668544294,45.51712917503395],[0.659030203345079,45.51665386749032],[0.659150297782064,45.51629782704002],[0.659397096615109,45.51606694534992],[0.659561352175525,45.51606136053042],[0.661125504474603,45.51528137318477],[0.662100684307537,45.515189074118425],[0.662972526211669,45.51499462003304],[0.66422438961391,45.513990982914414],[0.664841892803694,45.513628167477584],[0.665333408354291,45.51306183691492],[0.665897677910721,45.51207541354303],[0.666331969024878,45.51171148432608],[0.666539039424868,45.51126625815085],[0.666679766357595,45.51026562313131],[0.666285049489834,45.50910972167189],[0.668549933888153,45.507837016892125],[0.666369381316382,45.505793602714675],[0.666139529314142,45.50513570028756],[0.666076363302695,45.50441369828939],[0.665848161631753,45.50365583393644],[0.665438793473678,45.50297167566614],[0.662624882915288,45.50085645393598],[0.659387913619877,45.49753869428118],[0.658153978684953,45.49669677551602],[0.6573196162732,45.4963433427598],[0.656103155774885,45.49590805444977],[0.65512639191443,45.495711984885595],[0.65384118216569,45.495297756791096]]]]}}]}