{"type":"FeatureCollection","name":"COM_33328","crs":{"type":"name","properties":{"name":"urn:ogc:def:crs:OGC:1.3:CRS84"}},"features":[{"type":"Feature","properties":{"fid":4113,"ID":"COMMUNE_0000000009755402","NOM":"Pomerol","NOM_M":"POMEROL","INSEE_COM":"33328","STATUT":"Commune simple","POPULATION":608,"INSEE_CAN":"16","INSEE_ARR":"5","INSEE_DEP":"33","INSEE_REG":"75","SIREN_EPCI":"200070092"},"geometry":{"type":"MultiPolygon","coordinates":[[[[-0.207936346206726,44.9411315328484],[-0.206028568988825,44.94116136208865],[-0.205094654530336,44.94133698546285],[-0.204228473916756,44.941388097922385],[-0.203939850384621,44.941488332586914],[-0.202895734827013,44.94131208091222],[-0.202464165928008,44.94115331053303],[-0.202130655434437,44.9408232071078],[-0.201076187966366,44.93899912654413],[-0.200617335769556,44.93858432259917],[-0.200061511556473,44.938359738321175],[-0.199002591643744,44.9382784939258],[-0.198670909088848,44.93844663592804],[-0.198246732443351,44.9383723406644],[-0.197179078350505,44.93847154979745],[-0.196923965581337,44.93831398933676],[-0.196535991511484,44.93827378880397],[-0.195708065128787,44.938416548397186],[-0.195313132187631,44.938276522056896],[-0.194209462615007,44.937632433247366],[-0.193589839144954,44.937489849224214],[-0.193463516102413,44.937388051801044],[-0.193312279102178,44.93738338744469],[-0.192793450408051,44.93758482380204],[-0.192211071678648,44.937606062299395],[-0.191615202262519,44.937524059392715],[-0.191302445624456,44.93760152580971],[-0.191094002574894,44.93750568875347],[-0.190954205127779,44.937233968824415],[-0.190575200823309,44.937261973369395],[-0.190277673411546,44.937049748533965],[-0.189849781278979,44.93690974875124],[-0.189885594308702,44.936468987062945],[-0.189513057500214,44.93663286749689],[-0.189352686733803,44.936512219012094],[-0.189500374623469,44.93634307959415],[-0.189462235771207,44.936274790230804],[-0.189078759830739,44.93635788485488],[-0.188819929698881,44.935755273761245],[-0.188117841162267,44.93503202041473],[-0.188022624850633,44.93462926112808],[-0.187849405534761,44.93452790239865],[-0.187702596341854,44.93417708440184],[-0.187459653016572,44.934232713287],[-0.187453558056154,44.93448249050653],[-0.187335064717205,44.93458500988522],[-0.187084344816117,44.93450389508174],[-0.186700047194898,44.93455006053031],[-0.186492729546221,44.93462989598626],[-0.186415538682096,44.93485648146609],[-0.186119884582981,44.934587424014154],[-0.18591900822348,44.93478061112274],[-0.185760639791151,44.9347842510233],[-0.185542356514089,44.93462651109505],[-0.185366921559534,44.93464235393787],[-0.184911591951267,44.935090633758016],[-0.184437914728084,44.93512673799673],[-0.182755547874386,44.93487758361817],[-0.182142235284925,44.93455453899566],[-0.181474546037821,44.93383206380241],[-0.180698650419827,44.933437975872145],[-0.180378236167772,44.933357940492215],[-0.180154698206347,44.93306247461543],[-0.179499666143224,44.93296498151873],[-0.179300014917186,44.9328445425936],[-0.179017210670365,44.93280127288204],[-0.178640477991804,44.93313734419342],[-0.178436018113455,44.93315580872889],[-0.178046970795031,44.93296148998239],[-0.177464550332552,44.93289164386236],[-0.177208100717392,44.932597113836614],[-0.177139385631764,44.93212330529603],[-0.176658076936016,44.93186764330574],[-0.176262676989019,44.9317176536574],[-0.175978604712816,44.93194293622076],[-0.175796180511802,44.93194724979294],[-0.175697755074944,44.931665320183065],[-0.175238055116169,44.93192535654949],[-0.175035264776776,44.93161487111895],[-0.174528768714727,44.931765408339274],[-0.174295814198636,44.9313701805418],[-0.1747942504038,44.9310549761015],[-0.175287710657364,44.93087597534881],[-0.176854000153275,44.93093752710462],[-0.177693551381059,44.93075492617229],[-0.178800269580172,44.93018351522444],[-0.179923762746317,44.92943860389858],[-0.180328909882926,44.92929094251675],[-0.182699740958192,44.928889645560304],[-0.184428980916915,44.92891758598398],[-0.184918035548908,44.92884049050393],[-0.186606653466785,44.9280198341176],[-0.188029236034446,44.9270274687473],[-0.188451075938312,44.92681712250863],[-0.191688836257017,44.9257383539256],[-0.193375526781981,44.924820327417194],[-0.194168333181618,44.92448755850419],[-0.196209223624766,44.923665630691865],[-0.197307166046644,44.92339073940558],[-0.196689381634156,44.92298860991045],[-0.195447068265608,44.92235484193206],[-0.195051736662083,44.9219832494956],[-0.195446178534881,44.921871882245306],[-0.196098860398489,44.92150708547344],[-0.197075933436081,44.92055895277872],[-0.197335093577631,44.920610965425816],[-0.198391943939308,44.92006151021172],[-0.199992440805611,44.91899357392014],[-0.200890378956057,44.91763858871555],[-0.200915101482131,44.91758290957484],[-0.200688733700539,44.91748310384646],[-0.201161089409916,44.91693784636786],[-0.20242091988757,44.915014640310076],[-0.203230725459366,44.9151381665054],[-0.205388837109453,44.915776055678705],[-0.2058846085094,44.915841043297455],[-0.207616876374553,44.915728854345815],[-0.21071695174165,44.9150310419166],[-0.212492361793468,44.9147427158547],[-0.212072169977716,44.915465834749476],[-0.21157206627194,44.91714101978398],[-0.211008694360962,44.91857563614017],[-0.210717975706473,44.92063043433372],[-0.20992759260324,44.922398705243964],[-0.20953544616293,44.92352469545635],[-0.210823872514372,44.92356495628077],[-0.210335111008766,44.924554072070656],[-0.211692706177812,44.924959973450214],[-0.212402087901813,44.92529809992906],[-0.214004722431696,44.92579600907424],[-0.217105516259811,44.92711377688762],[-0.217512917845807,44.927095670392326],[-0.215226948350375,44.92846304729467],[-0.214482278590754,44.92903697258682],[-0.213714224563414,44.92984495453671],[-0.217638717495891,44.931320908612626],[-0.219304332142386,44.93158624151506],[-0.221337260029242,44.93230497025321],[-0.221947487664362,44.932371979270094],[-0.223972141978577,44.9323060366187],[-0.225668684578161,44.932997504074976],[-0.228431218394648,44.93371654880891],[-0.229509277418506,44.93417452069374],[-0.228413203518923,44.93532014806127],[-0.227316674605546,44.93626032371306],[-0.2267060242324,44.93764143946429],[-0.224299193425847,44.94194021831524],[-0.22387840006922,44.943050881323394],[-0.223459259605443,44.943263988352655],[-0.222269278929633,44.94326696235187],[-0.221871298415183,44.94311990674298],[-0.221383486838795,44.94275648436109],[-0.21949034264471,44.94544979728152],[-0.21854123906643,44.946400025732736],[-0.217601474037942,44.94594424527962],[-0.217558700714726,44.94575174538872],[-0.217395348505859,44.94562491310179],[-0.216914763122543,44.945519879879676],[-0.216448139909696,44.94510536050197],[-0.21559065901934,44.944800370909384],[-0.215521178443902,44.94445185067249],[-0.215628548355411,44.944111729632894],[-0.21549703723301,44.943898368306584],[-0.215027011982809,44.94384438503027],[-0.214783189917321,44.94399561610128],[-0.214259636137828,44.94407023415335],[-0.213928125542074,44.94419696642175],[-0.213304222304681,44.94420329475072],[-0.212947870546031,44.9441180813074],[-0.211953359291291,44.9436575309893],[-0.211583536809335,44.94331498663136],[-0.211211263320902,44.94326176671318],[-0.211133656714708,44.94312523920025],[-0.210191890066711,44.942521676628],[-0.209874368340081,44.94211724231545],[-0.210120540149501,44.94187404174266],[-0.209676364612608,44.94180577319139],[-0.209792110846441,44.94161139580269],[-0.210047469250628,44.94144001832207],[-0.210018713981635,44.94135884855569],[-0.209755070509971,44.94134123349991],[-0.209457569237601,44.941419211627334],[-0.208910374390745,44.94128002514182],[-0.208282218910164,44.941255811498806],[-0.207936346206726,44.9411315328484]]]]}}]}