{"type":"FeatureCollection","name":"COM_23029","crs":{"type":"name","properties":{"name":"urn:ogc:def:crs:OGC:1.3:CRS84"}},"features":[{"type":"Feature","properties":{"fid":4094,"ID":"COMMUNE_0000000009749858","NOM":"Le Bourg-d'Hem","NOM_M":"LE BOURG-D'HEM","INSEE_COM":"23029","STATUT":"Commune simple","POPULATION":233,"INSEE_CAN":"04","INSEE_ARR":"2","INSEE_DEP":"23","INSEE_REG":"75","SIREN_EPCI":"242320109"},"geometry":{"type":"MultiPolygon","coordinates":[[[[1.827127211951309,46.28418438755734],[1.826754703036202,46.28495864808934],[1.824813971589955,46.28647412046383],[1.824553218433082,46.28682085303444],[1.822379426589968,46.28781154513205],[1.821534382103567,46.28850615455883],[1.821243106066321,46.28888138241059],[1.821065646782176,46.29012414216689],[1.821054166484871,46.29276811498121],[1.82198967485436,46.29626392273937],[1.821413880643252,46.299411782006054],[1.821191570582059,46.29959860257497],[1.820547907616475,46.29962165911361],[1.819172225348893,46.2983429990852],[1.817561529355251,46.297360873616455],[1.816760059386439,46.29711209740432],[1.815947569260309,46.297012696623135],[1.815171334723502,46.29709918591728],[1.813872342563974,46.29762601333754],[1.812277688719925,46.298424419816556],[1.810457278552609,46.298787269532966],[1.810105599533925,46.29894660110882],[1.80921822726368,46.299660492313514],[1.806800597554567,46.3011904926319],[1.805377663452718,46.302446295200646],[1.804657780516997,46.30327988374555],[1.805377671783954,46.303993487797285],[1.80635173583514,46.30455304991171],[1.806021953977306,46.30513587010809],[1.805436585493723,46.30522339392622],[1.805430324776431,46.305807803061796],[1.808675107997542,46.305867895751646],[1.809094763146152,46.30646846501264],[1.81026502191441,46.30613667134982],[1.810424308204687,46.30628152628639],[1.810288480890352,46.30691051156759],[1.810412852079514,46.30740622669746],[1.811517344403932,46.307410548899725],[1.811915642175402,46.30642316861101],[1.812242445767921,46.30615460207722],[1.812502322687902,46.306155509930164],[1.812627689104774,46.30660620405973],[1.814441922804575,46.30701954949425],[1.814571211952014,46.30711005178379],[1.814370449373456,46.307739266330664],[1.815600648715383,46.30806005837933],[1.815730266853274,46.30801547640056],[1.815994677684025,46.30756703618192],[1.817030625835316,46.30779663695477],[1.817094959526526,46.307886461860626],[1.816633058374052,46.308693984178355],[1.815781953705119,46.30941010432127],[1.814738192152984,46.3098999710199],[1.814735914646824,46.31012509118348],[1.815252130300188,46.31053211662396],[1.81577320523564,46.31035471683915],[1.815902179436237,46.31040018544738],[1.816549421908315,46.31123904133198],[1.814443540213725,46.31114330184671],[1.814243878245275,46.31154107964459],[1.815304113537109,46.31179256185562],[1.816669227085788,46.31170858460217],[1.816536050939516,46.31197737391505],[1.816340789590343,46.31211223305254],[1.8163391866015,46.312246402064815],[1.815884361004381,46.31224437806269],[1.815092324854877,46.313590609219176],[1.81515438623471,46.313905555236836],[1.815282717996056,46.31404107525854],[1.816063090833776,46.31395462586982],[1.81631619134474,46.314630885266816],[1.816268234805648,46.31498521350808],[1.818067020909052,46.31486429660815],[1.818189563518954,46.31562925462605],[1.817797761433737,46.31589716389333],[1.817591198058358,46.317155824652374],[1.816811755611097,46.31719726586671],[1.817255625573387,46.31818890308258],[1.818089081646203,46.3193178644925],[1.817698871985285,46.31945070400994],[1.818201747776427,46.319998966204075],[1.817684448511093,46.32017821809069],[1.818519943347818,46.321274776186044],[1.820541410659934,46.32090306552514],[1.821774830900082,46.320908619750526],[1.82244083897228,46.321066799815696],[1.827594806868812,46.32184940236255],[1.828153511715224,46.321920890466075],[1.828219813502569,46.321799094426126],[1.828340499451112,46.32180844041534],[1.829215014150946,46.322125423518656],[1.830708480469277,46.32298008913809],[1.831454922274807,46.32314804690005],[1.832458754622608,46.3232546963383],[1.832853520002037,46.32315157193343],[1.833857584010011,46.32263771808255],[1.834466957713947,46.3216740370741],[1.833387016885203,46.31922514086794],[1.832961689382768,46.31893440418654],[1.833091920968817,46.318800652108294],[1.836411850100728,46.31787008809866],[1.837967927994563,46.31810210346986],[1.838398941383856,46.31733020592764],[1.839440217261137,46.31793429146597],[1.842702187103074,46.318752762744026],[1.84309209297763,46.318754020087944],[1.84342467354627,46.317900954208234],[1.843122571661387,46.31700542292195],[1.843902172539931,46.3166477035944],[1.845098160506224,46.316328421517554],[1.846456913659938,46.31605580330208],[1.847032192701873,46.31601749757498],[1.851914940575886,46.31652518636909],[1.853803120610226,46.316788248366365],[1.854458001039348,46.31704519152235],[1.855569412829387,46.317784017593],[1.85553964627337,46.314857773494246],[1.862805253523536,46.3140254451224],[1.862629331919217,46.31242248104791],[1.863434891735865,46.31243232031237],[1.86640046645732,46.312188991000724],[1.867758655510867,46.31218448391962],[1.867835154074439,46.31213030950504],[1.868628554560913,46.3088313104691],[1.869157285551479,46.307708149642664],[1.868770443644169,46.30743684113093],[1.867862927594173,46.30720808861663],[1.868191868099744,46.30676017282182],[1.870121628781419,46.305311403339694],[1.869257474546775,46.30480931930365],[1.868336926914716,46.30496138057741],[1.867967179539328,46.304241756422805],[1.86722794964137,46.3039210112742],[1.866958725284559,46.303556305989],[1.867094307632025,46.30347210044448],[1.867161935627001,46.30328095210012],[1.868239351835766,46.30239109336117],[1.868532330628561,46.3022355037395],[1.867433339830338,46.30178240477681],[1.867281575519636,46.3012675724306],[1.8668928851461,46.30071165906369],[1.867794090005169,46.30023521351607],[1.867472843341933,46.29987359437403],[1.867733996521887,46.299560091143306],[1.867736423203676,46.29938000174255],[1.867227019154512,46.29825373057971],[1.867554066574713,46.29789495405467],[1.867038880264795,46.29748817799841],[1.866527662080701,46.296451041357535],[1.865945482581354,46.296268735492475],[1.867061353235627,46.29483352693876],[1.867973568386565,46.29394563054155],[1.868409645247034,46.29403011413156],[1.868662260609924,46.29381378543015],[1.869095998691888,46.292188064521596],[1.868975974223632,46.291017935284536],[1.870082361079974,46.290662385188355],[1.871202637273565,46.288687740859885],[1.871191265825414,46.28734938389445],[1.869911148641923,46.28655949853782],[1.866669990053488,46.28361755254907],[1.866754760974997,46.28529525599098],[1.866685134502758,46.285834904612564],[1.866423289259149,46.28605924207788],[1.864738679667008,46.28573716903999],[1.862668943128653,46.28500867076986],[1.862409165815162,46.28500787733795],[1.860956109274246,46.287731086484065],[1.861272040978846,46.28859248868003],[1.861462760613496,46.29078998399492],[1.857012222476694,46.28785637946103],[1.857459855207166,46.287010732375464],[1.858987729036856,46.28581568313973],[1.85812511158544,46.285259490675614],[1.85715457489627,46.28489583126146],[1.856246673996547,46.284892120296995],[1.856493277624109,46.28633190763213],[1.856233494121672,46.28633110011449],[1.856234076724459,46.28624104888905],[1.856039248831407,46.286239992672044],[1.856035035458084,46.2866902357407],[1.855840563712147,46.28673421131666],[1.85493975967793,46.28583089112899],[1.854295476838121,46.28533360024103],[1.854689350484223,46.28488547522502],[1.854173458717315,46.28452275913348],[1.853521692200709,46.28488003052457],[1.852808259548317,46.28483232052574],[1.852611904570963,46.2849663287363],[1.852287547613233,46.28500989014243],[1.851641428593354,46.284601721950786],[1.851578010051498,46.28446689727189],[1.853532133347001,46.28357520766772],[1.853598596209179,46.28344079101326],[1.852372951944832,46.28267106568574],[1.852309552714486,46.28253534100552],[1.852667590960273,46.28237144240159],[1.85201094538563,46.28135168153506],[1.851538166317786,46.28172245307645],[1.851213119917394,46.28167594709682],[1.850568681327315,46.28131371833263],[1.849145832804383,46.28072298158453],[1.848819029086678,46.28094572210661],[1.847655718339903,46.280490874576074],[1.847591366704975,46.28040106666777],[1.848376656849733,46.279684950527574],[1.847989783643581,46.27936763808476],[1.847143812137609,46.27963465198508],[1.846689606522641,46.27967778312549],[1.8459140667732,46.279314199548956],[1.845985787606422,46.278684525195054],[1.844112222298881,46.277731627894504],[1.844051240444043,46.277236593948345],[1.844303744618269,46.27628815120263],[1.843865311931391,46.276262086740886],[1.843388263572932,46.27640403566074],[1.843568888929188,46.27664542283774],[1.843579621275372,46.276875178140706],[1.843344560369362,46.27718168749469],[1.842782532769451,46.27741102697117],[1.841394457062157,46.27776344569406],[1.840852017821033,46.27774171490002],[1.840475309412873,46.277621705507286],[1.839786930520035,46.27694826877474],[1.83924713349337,46.27667979976047],[1.838595155010152,46.27661821671538],[1.838169170772161,46.276739951536634],[1.837499366347872,46.27708974299551],[1.837241566542028,46.27736448784095],[1.837081721025319,46.278958673897264],[1.836640607587878,46.27960798544801],[1.835933447011026,46.280246470900444],[1.835856075156909,46.28113634832657],[1.835584308087384,46.281394736457216],[1.83499401847572,46.2816057376907],[1.834539446753775,46.281603788141574],[1.833685008380333,46.28128794436742],[1.83252161279189,46.28126881859072],[1.832036457679996,46.281361105880165],[1.830479057428914,46.28203136069433],[1.829106875984851,46.282967367731],[1.827666595458658,46.28374505686524],[1.827127211951309,46.28418438755734]]]]}}]}