{"type":"FeatureCollection","name":"COM_16026","crs":{"type":"name","properties":{"name":"urn:ogc:def:crs:OGC:1.3:CRS84"}},"features":[{"type":"Feature","properties":{"fid":4293,"ID":"COMMUNE_0000000009752402","NOM":"Balzac","NOM_M":"BALZAC","INSEE_COM":"16026","STATUT":"Commune simple","POPULATION":1401,"INSEE_CAN":"14","INSEE_ARR":"1","INSEE_DEP":"16","INSEE_REG":"75","SIREN_EPCI":"200071827"},"geometry":{"type":"MultiPolygon","coordinates":[[[[0.101591946427201,45.702472050824376],[0.101984209683342,45.70369861781817],[0.101629091436642,45.703947193626064],[0.101663580931176,45.704589658798355],[0.101854319455368,45.70509737570707],[0.10214203201666,45.705349874486814],[0.102908994323423,45.70548854580529],[0.103296952872214,45.705865266900254],[0.103675324846163,45.706081345744366],[0.104232192919322,45.706229023329804],[0.104918251035649,45.706635928163976],[0.107090110094133,45.70851192495345],[0.108608070037311,45.709613279500765],[0.110447985382607,45.710585003581656],[0.112589981426377,45.71136439684579],[0.113917350692758,45.71210395983075],[0.114697825210874,45.71213386239213],[0.115140897648009,45.71256601630731],[0.116472433788833,45.712659575165894],[0.117070037469726,45.71261990231775],[0.117595503413129,45.71275499367857],[0.11818880502605,45.71306933162725],[0.118411676059989,45.713235425401145],[0.118655426122031,45.71364264258824],[0.118776151801878,45.714806328526784],[0.119097070783215,45.71538672420924],[0.120089725544333,45.71643122892703],[0.120485602545729,45.716708969184545],[0.122248789940372,45.71750732276289],[0.123219283460091,45.71776818938851],[0.124205399590548,45.71792672260916],[0.124957728231024,45.71815317082044],[0.126125037484,45.718043281959105],[0.127776382867315,45.71852061129298],[0.129408838326397,45.718817218146036],[0.133124178682062,45.72032560418603],[0.134150037889249,45.720562552571074],[0.137158566951391,45.72265744513645],[0.138074975168488,45.7235187261325],[0.140177807228145,45.72484803795702],[0.141539539892168,45.72618013837494],[0.142257572791969,45.727148083988965],[0.142980165099179,45.72772957817912],[0.143375445791335,45.728495601594766],[0.143614340709678,45.7305452981037],[0.143575302368763,45.73140033138085],[0.143364173081232,45.73190048419917],[0.142513948421931,45.73301518915188],[0.142062484428882,45.7338579634244],[0.141950560727675,45.7343552232704],[0.143656515940851,45.73535631389113],[0.143413475566985,45.73565201522859],[0.143940974828329,45.7357780175495],[0.144604564085892,45.735760589597014],[0.144746014212771,45.73653459318379],[0.145830286527694,45.73676840094727],[0.146837338788627,45.73667855945445],[0.147540730543529,45.73673781180994],[0.14813954724063,45.73667907627967],[0.148367277951576,45.73677945086911],[0.149001239462608,45.736663030068556],[0.149206231762693,45.73648079145783],[0.149262861459208,45.735856878059906],[0.149058326922616,45.73485781960384],[0.152275884162356,45.73484454678081],[0.152412711136215,45.73261334261658],[0.154256127091072,45.73237155930812],[0.154197032287648,45.730545396045834],[0.15852904132836,45.73014739600921],[0.158594919006652,45.72964175435595],[0.162677389793998,45.72901474193952],[0.162683894517455,45.72836163101902],[0.162115663839388,45.72692453617836],[0.160639658175661,45.72497709104889],[0.160524938863949,45.724605663228154],[0.158865558856191,45.72309960089828],[0.157519146350228,45.72108779708464],[0.156902817819639,45.72036490794126],[0.156563039938075,45.72006799183389],[0.155645473926847,45.719924991438724],[0.155165615603766,45.71935060917688],[0.154578532693787,45.7188852498331],[0.152801421286802,45.718297913837176],[0.152030123787072,45.71788825727401],[0.151515169256189,45.717496789843715],[0.150812228283774,45.716634711866035],[0.150321009094459,45.71575816041893],[0.150503042615356,45.715296008531126],[0.150663369655377,45.71525500951585],[0.150788128219258,45.71448143987089],[0.150358026436817,45.713792054757235],[0.15041194313824,45.713444703292744],[0.149809887096064,45.71294740044309],[0.149868095448449,45.71264160711279],[0.149759100888652,45.71246043736458],[0.14976094972657,45.711950476889136],[0.149560260306725,45.71142728263405],[0.149768621937285,45.711202780531586],[0.14964287205021,45.71072293160546],[0.149812545579869,45.71060017297808],[0.149721752489371,45.71036539921845],[0.149850441954932,45.710189341462375],[0.149729923887911,45.710032209027545],[0.149204768937538,45.70799421073346],[0.149899559527999,45.70761441744258],[0.149766523736884,45.707375871713424],[0.149994185919017,45.70722574592075],[0.150042708329284,45.70708280186684],[0.149798484952227,45.706830630381575],[0.150128591867607,45.70673896273367],[0.150200503102784,45.706441625873495],[0.150005770842395,45.70620242071374],[0.149768497749015,45.70623966918309],[0.149591231638887,45.706185625034266],[0.149641731012332,45.70595442607335],[0.149375815893365,45.705624212417774],[0.149410447524707,45.70522681466927],[0.149138300959901,45.70489283836991],[0.148869614798559,45.70476619565887],[0.148340608325359,45.70479966121504],[0.148272949652311,45.70456547161676],[0.147771749535931,45.70435905183037],[0.147899113656462,45.70400905589822],[0.147702666654284,45.70375358359813],[0.147690996653064,45.70348116400138],[0.147234110347459,45.703138900440194],[0.146987473002663,45.70268482058459],[0.146868139236166,45.7026547659063],[0.146701686512716,45.702790216194344],[0.146465653693438,45.70240488526608],[0.145581255574986,45.70232300721048],[0.145332911771417,45.702051798117154],[0.144854909332953,45.70184505134982],[0.14465577268169,45.70166699744427],[0.144433259738516,45.701119811128336],[0.144556199838715,45.701030117032644],[0.144838417440647,45.70104357833753],[0.144859828178013,45.70077830415102],[0.144618516747378,45.70057034669771],[0.144573750396135,45.70029168101087],[0.14436915793028,45.700119795669195],[0.143930661912695,45.7001942802279],[0.143858000429092,45.69993292835274],[0.143672582391664,45.69976333000503],[0.143508789746854,45.69969790332789],[0.142991357672859,45.699707307115915],[0.142424633229526,45.69930186455681],[0.141176622265868,45.69774737856873],[0.141040918214745,45.69728798991775],[0.140749346350348,45.696858885264646],[0.140295442439676,45.69695819411418],[0.138861631077744,45.69718309345099],[0.135973097632809,45.6971916796178],[0.133540367222106,45.69736227271499],[0.1330412110797,45.69731712959838],[0.131704195440924,45.69701366684965],[0.131218283109947,45.69698597331637],[0.128173576882504,45.697055259289144],[0.127285765998354,45.69696684023197],[0.126346768290925,45.69702218230637],[0.125674451411579,45.696869864943814],[0.12487838213549,45.69655038761287],[0.123870699019894,45.6965913404494],[0.122267198952471,45.69683872937204],[0.121671576129412,45.696819004387976],[0.121053286855923,45.697061813352065],[0.118987942677748,45.69718922030565],[0.11847071745593,45.69719491195724],[0.114803496083364,45.69677303712501],[0.113156787026806,45.69683717113718],[0.110464298936166,45.69752324056489],[0.109150147714368,45.697645407649816],[0.108439667157834,45.69780558592946],[0.107776832585548,45.69803816936198],[0.106953728108808,45.698482894151745],[0.106240876251825,45.69868805261521],[0.105134091364972,45.69914710246262],[0.103802702177214,45.699818431077844],[0.102631938329086,45.70066328187161],[0.10162287779201,45.7020781682981],[0.101591946427201,45.702472050824376]]]]}}]}