{"type":"FeatureCollection","name":"COM_16035","crs":{"type":"name","properties":{"name":"urn:ogc:def:crs:OGC:1.3:CRS84"}},"features":[{"type":"Feature","properties":{"fid":4244,"ID":"COMMUNE_0000000009751345","NOM":"Beaulieu-sur-Sonnette","NOM_M":"BEAULIEU-SUR-SONNETTE","INSEE_COM":"16035","STATUT":"Commune simple","POPULATION":222,"INSEE_CAN":"06","INSEE_ARR":"3","INSEE_DEP":"16","INSEE_REG":"75","SIREN_EPCI":"200072049"},"geometry":{"type":"MultiPolygon","coordinates":[[[[0.400980111982699,45.91684150488541],[0.400575453945057,45.91693671819038],[0.398191894874897,45.916895420947405],[0.393949798200068,45.91594721756239],[0.393691874977832,45.9145231256432],[0.392936795434713,45.91419488124994],[0.390570315015283,45.91365917373635],[0.389359420688016,45.91306270403075],[0.389117340573706,45.91264176090955],[0.386456320298087,45.912276658281904],[0.386268613931457,45.91234259674772],[0.385879125312114,45.91282553207174],[0.385672049764866,45.912945982021704],[0.384156231695421,45.91273793836831],[0.38273073849361,45.912938310145165],[0.380782619631174,45.91275535314747],[0.379727618664874,45.91333457451702],[0.379319483507935,45.91396391787257],[0.379112580232955,45.914650181303735],[0.376169125156955,45.915037825864175],[0.3742046637188,45.91573824961361],[0.373852039712577,45.915607526661994],[0.372766428742632,45.91544536033963],[0.371749644795879,45.915464080445105],[0.371253891379878,45.915032695309385],[0.371588031767908,45.914441302540176],[0.371541905296101,45.9142447151932],[0.370805643113924,45.914742066090035],[0.36970254019282,45.91578499108586],[0.368644787028127,45.916120781053415],[0.368140919010718,45.916400076613165],[0.366612970662204,45.91676905322286],[0.365744053725485,45.91688036149868],[0.363644217965079,45.91665573536449],[0.363651842116328,45.917386619920485],[0.363775001456856,45.91767240329201],[0.362893615452937,45.917639240256676],[0.361636452474438,45.91717744027717],[0.36111982364451,45.91710231656],[0.360688406907515,45.91861673409898],[0.359625061955465,45.91858200227196],[0.358227578053158,45.91873136798971],[0.354303727276345,45.91949919400116],[0.35342406009463,45.919537176853325],[0.352654125238063,45.91944076973001],[0.350238319895743,45.91832281603593],[0.349981988309206,45.91852584187787],[0.349180862306603,45.918085398613435],[0.348261765147785,45.91787013644589],[0.347586189876253,45.91793268074135],[0.347617923119874,45.918346083450785],[0.347573833284365,45.918430644484225],[0.34745064058808,45.91844217111268],[0.347126040929548,45.91832013009104],[0.346977155134352,45.917873344873584],[0.346411855829281,45.917656455668904],[0.34533567024376,45.91826370191769],[0.344770712507242,45.91884329830703],[0.344141549464914,45.91898710128255],[0.343070248523519,45.91887634271475],[0.342993682526411,45.91917908283135],[0.343192380163974,45.9208677248616],[0.343598374914575,45.92122955351095],[0.343660210993358,45.921928381826525],[0.345792102436592,45.926259993149024],[0.34513752267689,45.925938290145425],[0.344794986856224,45.925946467651194],[0.342680013436441,45.924825506253455],[0.342267831949868,45.92485906975249],[0.342255508364516,45.925275043591725],[0.342074703108521,45.925623988149255],[0.341809491046995,45.92600969195951],[0.341436389465908,45.92627662995178],[0.339696730071458,45.92642133332225],[0.336601040274879,45.9268935885331],[0.333143704614168,45.926780589944414],[0.333531169455112,45.927444756522256],[0.334227151634287,45.92829729523999],[0.334464038771332,45.92841820662073],[0.334575629165799,45.92947411229438],[0.334774185871669,45.93020049667901],[0.334757613690152,45.930649708183836],[0.3345078355042,45.93132858727895],[0.334519052732195,45.9318171968844],[0.334825751906299,45.93260379350728],[0.334993116773835,45.93338800766342],[0.336105400444373,45.935086472159774],[0.336570508632547,45.93665706372109],[0.336757320976453,45.93674615622613],[0.337035278944142,45.936552676317234],[0.341398327419952,45.93458208576751],[0.342498143844357,45.93386730320837],[0.343295982888616,45.93371034770498],[0.344103464200624,45.93332656046512],[0.346430532405221,45.93289372967008],[0.34688186641197,45.93271870972516],[0.347652424312381,45.93232322007442],[0.348027400086598,45.93201756222928],[0.348593782309836,45.9318127968464],[0.349051718358829,45.93152710030283],[0.349401458206762,45.9311821037886],[0.349723721481997,45.93232040990353],[0.351040197706569,45.93147367188731],[0.351503276072937,45.93091958834447],[0.351781517127061,45.93079906170507],[0.353396642341848,45.930829654156035],[0.354440785456758,45.930543234568795],[0.354494113483974,45.93080396931675],[0.355220664636971,45.93070473020752],[0.355369980975621,45.93103708553519],[0.356209088739198,45.930933263509445],[0.356456145665956,45.931785074230504],[0.356712492548971,45.93187846137684],[0.359028660422743,45.9314000707247],[0.359562289564117,45.93163507412922],[0.360475063336196,45.9322573408049],[0.360585160045587,45.932034660692786],[0.361289535037417,45.93191324116192],[0.362080840290232,45.931432545341146],[0.362470880343788,45.9313497387974],[0.362702228798104,45.932073225991985],[0.363780323290917,45.93258759577618],[0.364172698497214,45.93291479024368],[0.364924894051445,45.93327829625058],[0.365867148797734,45.933393944448625],[0.366456003538117,45.933285119513044],[0.367421021198785,45.93281653986088],[0.36833180299486,45.93280709810864],[0.368754561063684,45.93295838822021],[0.369236052633545,45.933312864989155],[0.369416287925171,45.93367565144104],[0.369512691793886,45.93457708385614],[0.36968979493081,45.934978539585614],[0.370271845318428,45.93576962775777],[0.370924026888769,45.93620104453045],[0.373248558042177,45.938526440617146],[0.373913784505448,45.938522963081944],[0.37519666237549,45.938728427270085],[0.375932272998116,45.93900948168918],[0.37621253516747,45.939632259008086],[0.37650295392011,45.93996064726678],[0.377271043598842,45.9401838812517],[0.378748619359527,45.94031543118064],[0.380072752496835,45.94074073477269],[0.380399214669517,45.94118076859138],[0.380788940129232,45.94124114782159],[0.381627596618113,45.94188224151929],[0.38196387205609,45.942279250059876],[0.382132263940261,45.942812026298014],[0.382478052516333,45.94303626355647],[0.38273986319762,45.943098181340446],[0.386079370174674,45.94386553746544],[0.386652826366756,45.944055377442076],[0.388127473673241,45.94430566447419],[0.390870019651674,45.945163608439756],[0.391128128259725,45.94516775799549],[0.39139757341437,45.944605449149726],[0.391696067533874,45.944629449217025],[0.392109537434117,45.94451644604478],[0.393023391524365,45.94411854801739],[0.393743853242236,45.94324947892451],[0.394258638451225,45.94298743677324],[0.394308194868573,45.94284081680305],[0.395021765176317,45.942116639979965],[0.395306989589822,45.94157450801104],[0.395630299161339,45.939953874759745],[0.396181464074372,45.93864842340342],[0.396586510822873,45.93813877899171],[0.397490728890974,45.937832526501474],[0.397373049536367,45.93734418998985],[0.397619230681336,45.93680746195737],[0.397629170328278,45.93574993768843],[0.397243110579902,45.934000358723466],[0.3964842795035,45.93328103190741],[0.394952625478593,45.93249435115028],[0.393384676811015,45.931493279213136],[0.392060955704729,45.93002569947879],[0.392850801944165,45.93003309494335],[0.394012342524343,45.929825604673525],[0.393537829691338,45.92882989681752],[0.393364851372802,45.92809251013894],[0.392573286225317,45.92722193539641],[0.394834244566213,45.92615230799645],[0.395868377936475,45.92579770894822],[0.398977782745649,45.92597827348268],[0.399532245748193,45.92519996077964],[0.399653504569946,45.92487389042738],[0.399822906458881,45.923473155200504],[0.39939834473832,45.92264890692143],[0.399307901303949,45.921556639826875],[0.399430383367163,45.92065757387911],[0.399718954749454,45.920150649593396],[0.399646651164856,45.91875607021078],[0.399980527946006,45.91827361274269],[0.400563755490776,45.91789599393438],[0.400935304600909,45.917545042062244],[0.400980111982699,45.91684150488541]]]]}}]}