{"type":"FeatureCollection","name":"COM_64299","crs":{"type":"name","properties":{"name":"urn:ogc:def:crs:OGC:1.3:CRS84"}},"features":[{"type":"Feature","properties":{"fid":4189,"ID":"COMMUNE_0000000009761592","NOM":"Lacommande","NOM_M":"LACOMMANDE","INSEE_COM":"64299","STATUT":"Commune simple","POPULATION":175,"INSEE_CAN":"09","INSEE_ARR":"3","INSEE_DEP":"64","INSEE_REG":"75","SIREN_EPCI":"200039204"},"geometry":{"type":"MultiPolygon","coordinates":[[[[-0.504194422231404,43.287640443458365],[-0.503998556916464,43.287520735052105],[-0.503191861176887,43.2875315925311],[-0.502943482966536,43.28741988844564],[-0.503156012999144,43.287266223864144],[-0.503165563779518,43.28711914186711],[-0.50342107516801,43.28682091233239],[-0.503473503816271,43.286446428446716],[-0.50325969959747,43.28609228529625],[-0.503018785907705,43.28604247013706],[-0.502657256778077,43.2857318357352],[-0.503027885949131,43.28454924236594],[-0.50285764450818,43.28446561967286],[-0.502433142511747,43.2845181042369],[-0.50210580051661,43.2844656871566],[-0.502169346027401,43.28394947518968],[-0.502044333634047,43.28371761308173],[-0.501818577936157,43.28363308750952],[-0.501126935602189,43.28365010599134],[-0.500654148143008,43.283353877845926],[-0.5003789479362,43.2830233311432],[-0.500379060628404,43.28276129978227],[-0.500851217640629,43.282012139720244],[-0.500609968594924,43.28171290944818],[-0.500700160388974,43.2813309018478],[-0.500603862129727,43.281084601687574],[-0.500897864418836,43.280872474014586],[-0.501336001733925,43.28088258343751],[-0.50149316036933,43.2807307172562],[-0.500988784788026,43.2800357218561],[-0.50104205019938,43.279593681552996],[-0.501254422092564,43.27941751508263],[-0.501632646350629,43.27929359915894],[-0.502662821184317,43.27918996077531],[-0.503752844364987,43.278286583224705],[-0.503655326930272,43.27818259473401],[-0.503424860443258,43.27812163769117],[-0.503083693625594,43.278104790472305],[-0.502777830781114,43.278222763148285],[-0.502573955761234,43.27821406765252],[-0.502210632442966,43.27775131978737],[-0.502670435816519,43.27757072837351],[-0.502740324500935,43.27721999294467],[-0.502665091127716,43.277056752699565],[-0.502197422962057,43.27688462839834],[-0.502098244062674,43.276773489178325],[-0.502615073644963,43.2767000014112],[-0.502901200960982,43.27650072954806],[-0.502943415978018,43.276303065366],[-0.50250535183454,43.27615159290765],[-0.502467535505152,43.27601595317557],[-0.502805268476557,43.27573306836989],[-0.503502382227232,43.27542231675992],[-0.503604062298097,43.27531096594106],[-0.50354768346888,43.275214647511554],[-0.50330151575924,43.27511818270244],[-0.502553142957724,43.274929953852144],[-0.501724254692428,43.2741869622887],[-0.501185186528372,43.27411709800888],[-0.500993344498465,43.27392071988279],[-0.500687119562285,43.27328143482461],[-0.500279380265012,43.27324332649726],[-0.500278531473734,43.27302634990965],[-0.500435507824695,43.27287179020854],[-0.500502935365699,43.27260217639544],[-0.500504004547572,43.272335613988744],[-0.50035075753547,43.2721658975914],[-0.500122153407238,43.27207425966175],[-0.499978251776111,43.27149004177857],[-0.499505529188468,43.271294660927346],[-0.499104386381075,43.27089796384309],[-0.498857800250142,43.270469245161685],[-0.498921316410242,43.26987110310954],[-0.499151028606261,43.26977811921252],[-0.499382528890397,43.26979582964517],[-0.499474229549761,43.26970281510699],[-0.499434894584086,43.26935922549799],[-0.499546998174542,43.268932391096016],[-0.499397495828707,43.26843839864161],[-0.499766831899355,43.26804734896962],[-0.499802507516689,43.267518541961095],[-0.499983708144251,43.26737760486004],[-0.500436454711538,43.26730530203577],[-0.500493939640269,43.26717647823465],[-0.500387684464297,43.26698903197559],[-0.499990293900276,43.266937982743],[-0.499749225352031,43.266823337984],[-0.499643379650535,43.266662890684586],[-0.499689581433442,43.26630752551249],[-0.499563581034607,43.266058589214005],[-0.498744667654752,43.265700644296594],[-0.498788318345499,43.26544530984802],[-0.498594635072232,43.26501487904306],[-0.498975403597236,43.2646297651497],[-0.498984862170248,43.26421706393847],[-0.49918700239039,43.26415738840237],[-0.499324934122848,43.264237558396246],[-0.499732542826604,43.26543181895793],[-0.500783473331588,43.26496374666027],[-0.501246167743318,43.26495414727972],[-0.501724422932719,43.26481528024551],[-0.502313957191173,43.2649060123475],[-0.50346672906896,43.26487762021142],[-0.506755537639581,43.26388934201699],[-0.507082575361594,43.26448560956937],[-0.508203307789188,43.26433574873116],[-0.508583143077654,43.26434141581373],[-0.509128990974741,43.26450376396765],[-0.508506618985183,43.26504803870113],[-0.510301227121466,43.266819390226445],[-0.511020740467812,43.26938834678802],[-0.513999129560637,43.268257767698806],[-0.514697520621876,43.269041829377684],[-0.51655135695857,43.26975855293303],[-0.51740222841996,43.27092032082779],[-0.518485941697183,43.271999761634795],[-0.519523917559773,43.274226947167875],[-0.520532397923776,43.275384462586636],[-0.520157179803718,43.275819001558375],[-0.520104802790832,43.27881648909894],[-0.52058901175715,43.28105452532274],[-0.520083856010526,43.282914207626504],[-0.520138710664984,43.28300516613142],[-0.519192484361963,43.28381849005011],[-0.518939463263123,43.283933886960135],[-0.519101765675425,43.28398802883091],[-0.519882303033342,43.2848414347547],[-0.519203815716565,43.28493287727953],[-0.518928655958052,43.28508951564062],[-0.517314741813008,43.285606713845844],[-0.516939669077327,43.28566124780606],[-0.516537256662137,43.28603542951033],[-0.515801043005758,43.286130530323746],[-0.515451334401309,43.286378730370956],[-0.515125825396807,43.28649827798598],[-0.512897735659515,43.28670763005653],[-0.511880745339278,43.28698922279085],[-0.51165638222715,43.2872315338368],[-0.511791063258504,43.287459470837874],[-0.511166533059834,43.287688676863034],[-0.510735752022733,43.28769907670872],[-0.509678716214096,43.2874650929743],[-0.506843054633971,43.28715018852134],[-0.505952520543085,43.28722141703459],[-0.50462630376804,43.2874859629159],[-0.504540329732999,43.288058733558486],[-0.504194422231404,43.287640443458365]]]]}}]}