{"type":"FeatureCollection","name":"COM_16298","crs":{"type":"name","properties":{"name":"urn:ogc:def:crs:OGC:1.3:CRS84"}},"features":[{"type":"Feature","properties":{"fid":4241,"ID":"COMMUNE_0000000009752156","NOM":"Saint-Amant-de-Nouère","NOM_M":"SAINT-AMANT-DE-NOUERE","INSEE_COM":"16298","STATUT":"Commune simple","POPULATION":350,"INSEE_CAN":"18","INSEE_ARR":"2","INSEE_DEP":"16","INSEE_REG":"75","SIREN_EPCI":"241600303"},"geometry":{"type":"MultiPolygon","coordinates":[[[[-0.002412143599023,45.75687276555387],[-0.00233745967031,45.756754001562314],[-0.001321066735894,45.75624398278986],[-0.000815946976465,45.75590328007258],[-0.000597763193204,45.75598658480507],[-0.000436163099731,45.756187333646636],[7.703202973e-06,45.756168506081856],[0.000204637547103,45.756263859741615],[0.000898051938037,45.75575063499299],[0.001204273470281,45.75565875375264],[0.001437980813326,45.75581185500009],[0.00148824858617,45.755644679072056],[0.001955541275575,45.75562106016893],[0.002023172282501,45.755252490903764],[0.002575237121115,45.75513740531618],[0.002915411118738,45.75489413003087],[0.003185190627402,45.75445343595511],[0.00356312609242,45.75441572071739],[0.003593403869182,45.75416600932607],[0.003764446502609,45.75407413332538],[0.003747375362994,45.753914178420956],[0.003852730481884,45.75384668957527],[0.004884180480073,45.75386418283794],[0.005066217909472,45.753735650440504],[0.006401705010418,45.75367740027136],[0.006259559839432,45.752879725301995],[0.006591973471349,45.752612804165224],[0.006352999548284,45.752295567103374],[0.006136460007987,45.75215825124049],[0.006301357800854,45.75206080168803],[0.006706609152939,45.7520174938038],[0.007160495971426,45.751385231955766],[0.007071375618677,45.75108188688735],[0.006816747713984,45.75091112022733],[0.006827854371469,45.7503734372749],[0.007259851831528,45.74964597511808],[0.006098175772895,45.7491113958817],[0.006111384648719,45.74879634920246],[0.006569721321031,45.748580533095414],[0.007094962372086,45.74846020951546],[0.007216775163206,45.74827871069972],[0.007928939898622,45.74805791279485],[0.009012791586949,45.7478424670048],[0.009196666479371,45.74739407487097],[0.009623557184583,45.74725941591418],[0.009735439864585,45.746856873449374],[0.009982769236139,45.74652010180598],[0.009768947783083,45.74576198344422],[0.010134601744921,45.74535535843648],[0.010121409245331,45.745242366818694],[0.009645715241388,45.744733224123735],[0.009951729373032,45.744120460404645],[0.010494300179175,45.74403572622472],[0.010542718567564,45.743711701119075],[0.011303871496674,45.74282174003577],[0.010996593785202,45.74243511656951],[0.011381157531206,45.74227319688957],[0.0112596168266,45.74192664267745],[0.011419923032477,45.741532592263425],[0.011773944934339,45.74126893480598],[0.011947607293431,45.740318337898664],[0.012412194696445,45.73972328957514],[0.012869711466388,45.73885410805815],[0.013113136498215,45.738636177120036],[0.013166132774984,45.73836994528575],[0.013617034299384,45.73781327884326],[0.013640179360342,45.737551662738845],[0.013824573261692,45.737211414783104],[0.014066049228836,45.73698171575154],[0.014246182822896,45.736196195439035],[0.014467565911465,45.736052472051085],[0.014725170929293,45.735524023514074],[0.014937599863709,45.73461680412928],[0.015091199445306,45.734560496408335],[0.015338786008751,45.73459859283575],[0.015537234800285,45.734140666749475],[0.015579345948056,45.73350378130636],[0.015939997973202,45.73337816132572],[0.016163177143295,45.73305786103815],[0.01695598923973,45.732554390512135],[0.017087139978581,45.73238935049444],[0.016951199997484,45.73214244731317],[0.017113661778963,45.73211250442262],[0.017173027022765,45.73191853045101],[0.017400828705494,45.73184616113365],[0.017525898927844,45.73157913210773],[0.017830826386765,45.73138895276083],[0.018121066081846,45.73073159896003],[0.018434801332846,45.73071196465502],[0.01857022941013,45.730634445864204],[0.018554364465365,45.7303799077027],[0.018788397965064,45.72966699785802],[0.01908121741189,45.729390887990725],[0.019346429141722,45.728934722614945],[0.019752236955039,45.72863907136923],[0.019957803218635,45.72819123984502],[0.016076127973784,45.72720992404267],[0.014602928660524,45.72661400686919],[0.013140924706686,45.72640675397995],[0.011974856115487,45.72600908019446],[0.011709229158826,45.72568664035691],[0.011587635527159,45.72488951855268],[0.011403254244279,45.72439711621123],[0.010796489279341,45.723769153305874],[0.010124412160473,45.72313584930918],[0.00947087322954,45.72128019586441],[0.008009839905265,45.720344782347446],[0.007085000944716,45.71898744393439],[0.005902383570736,45.717996316449145],[0.004809228612962,45.716660617040475],[0.003609801633125,45.71643227761804],[0.002150074720674,45.71628350845466],[0.001557324091433,45.71637316796336],[-0.001609870292867,45.71777210642609],[-0.002591572476247,45.717443166814924],[-0.003259167334824,45.71732354523472],[-0.004304910908425,45.7169424194116],[-0.004941568720621,45.71682181026451],[-0.006165792593526,45.7167188639722],[-0.007420783057705,45.71682685085577],[-0.007974929628767,45.716797639631515],[-0.009062900540864,45.71646039818682],[-0.00968182037437,45.71620326219887],[-0.009959123602642,45.71600391127036],[-0.010942101614302,45.71629034216477],[-0.011966677433758,45.71637199471494],[-0.01408309953639,45.714441920696494],[-0.014373054088015,45.71390879705615],[-0.015473706034895,45.71375858969465],[-0.01698688391886,45.713106201784925],[-0.018311826482458,45.71270574940644],[-0.019534631139337,45.712154823937084],[-0.02004177353124,45.71201957554901],[-0.019813638140626,45.71271777020067],[-0.01976691659237,45.71388780746401],[-0.019608486632625,45.71421376257948],[-0.019342457352224,45.71435966871449],[-0.018478565137633,45.71460540012652],[-0.018003659801238,45.71488396029016],[-0.017588271800159,45.71519246429026],[-0.016878286507846,45.71592518396061],[-0.015651483317359,45.716711383233324],[-0.014862426503294,45.717646259172916],[-0.014220067310061,45.71874752053512],[-0.012271352156222,45.72073619001121],[-0.014264393362293,45.72168406055477],[-0.014271636845798,45.721864095381804],[-0.01380599637105,45.722998473607184],[-0.014471559882365,45.72352496070341],[-0.014900612574595,45.72455069790577],[-0.01479511141425,45.725093305469656],[-0.014486468812204,45.72563864391605],[-0.016214781450356,45.72668278065052],[-0.018625091306373,45.729823614180184],[-0.019287131732641,45.73033034566553],[-0.019210871517969,45.731030776648055],[-0.019853307565856,45.731555152356314],[-0.020857951290887,45.73225545265912],[-0.021196879143511,45.73240587029427],[-0.0215363363141,45.73242470534183],[-0.022428908907626,45.73218089159363],[-0.02300663562198,45.732109525191575],[-0.023426139276349,45.732180276201376],[-0.024339962375945,45.73260723214681],[-0.025396610315088,45.73364493038908],[-0.026425874908605,45.734346325449856],[-0.027853777485306,45.735934548112546],[-0.029971076965666,45.73704463728235],[-0.030651396897642,45.73755261827184],[-0.031223581370654,45.738153618864274],[-0.031931050847176,45.73805348648885],[-0.032127507805031,45.738139217932975],[-0.032598151968166,45.73862489280153],[-0.033147868498638,45.739495933559674],[-0.034390867111907,45.73996081486242],[-0.035893922545669,45.74082509916659],[-0.033851223828897,45.74187587217531],[-0.031555380342544,45.74349843675072],[-0.030333180894797,45.7446577391165],[-0.029339884509324,45.745039490636984],[-0.028909387098702,45.74549802960002],[-0.028776952972552,45.745970186314985],[-0.027096756396575,45.745443988626405],[-0.025875758174909,45.74545243911954],[-0.024445210578262,45.747487775525386],[-0.023402025079478,45.7486295777842],[-0.022292607975426,45.7493378904359],[-0.021004514770442,45.749815780122056],[-0.020834907545438,45.74998613613828],[-0.020635063139784,45.750639415868],[-0.018159974061861,45.75092648620261],[-0.01760164230598,45.75093242076949],[-0.017011960847905,45.750812129981334],[-0.015846923292052,45.752012988592895],[-0.015678424405371,45.7520625531584],[-0.015170718819632,45.752029273078094],[-0.014818089744435,45.75214864308394],[-0.014173062868347,45.752972414521345],[-0.013105832047413,45.75386784277476],[-0.013037373778459,45.75407603433891],[-0.013245451669959,45.754468779134186],[-0.013209049853343,45.75462745226239],[-0.01232107811171,45.75531712589172],[-0.011874501392501,45.755862533572405],[-0.010928274591301,45.75538947423069],[-0.008478935117458,45.755964904206586],[-0.006637602921499,45.756571828334906],[-0.00495286850961,45.75546688613188],[-0.003558838307392,45.75644031597943],[-0.002412143599023,45.75687276555387]]]]}}]}