{"type":"FeatureCollection","name":"COM_40006","crs":{"type":"name","properties":{"name":"urn:ogc:def:crs:OGC:1.3:CRS84"}},"features":[{"type":"Feature","properties":{"fid":4176,"ID":"COMMUNE_0000000009758448","NOM":"Arengosse","NOM_M":"ARENGOSSE","INSEE_COM":"40006","STATUT":"Commune simple","POPULATION":713,"INSEE_CAN":"13","INSEE_ARR":"2","INSEE_DEP":"40","INSEE_REG":"75","SIREN_EPCI":"244000691"},"geometry":{"type":"MultiPolygon","coordinates":[[[[-0.827051738677504,44.05702928188376],[-0.824916730208596,44.0769052125374],[-0.824428966430355,44.08275680140198],[-0.788113114229884,44.08629482673511],[-0.785883660212425,44.086531444587095],[-0.785789436453051,44.086599580299435],[-0.769458541385317,44.07231191429206],[-0.768077316270083,44.07130885134302],[-0.767050827198438,44.07013227478653],[-0.762379748780789,44.0697235007014],[-0.757230346840045,44.06916696270865],[-0.746087990196077,44.06787751478194],[-0.744814990306221,44.067675100840844],[-0.74353251058916,44.068410976920724],[-0.740720656366065,44.06711773094363],[-0.739129791041127,44.06622331042244],[-0.737581780249754,44.06447773119919],[-0.737122771425705,44.063006705102104],[-0.73577626093007,44.06069288476084],[-0.735209909169368,44.05990760018355],[-0.736478332232139,44.057931585052465],[-0.740087027822808,44.05274630660205],[-0.742782455445581,44.04755070416467],[-0.743630669914045,44.04656298769879],[-0.744512870870595,44.045275860934964],[-0.748982881802601,44.03949854365907],[-0.749860194364175,44.03023477189685],[-0.749770458176496,44.02949810978753],[-0.749914549804755,44.02882280904825],[-0.749881020046554,44.02704354135837],[-0.750753418233464,44.02303652112072],[-0.751099426334444,44.01966475523395],[-0.751469670973061,44.01730580486737],[-0.750961837119322,44.017140321412974],[-0.751191778176168,44.01648009726777],[-0.751660578345988,44.0159963852184],[-0.751762292734134,44.01558833896763],[-0.75152226632227,44.01166094348131],[-0.752770577620132,44.010010692959696],[-0.754234691169284,44.008775591912],[-0.755388208423115,44.00688258810427],[-0.756022357662354,44.00425146853239],[-0.755992677152992,44.0027982553337],[-0.756086746620821,44.00235082444702],[-0.757518800748356,44.00029325305435],[-0.757851842818671,43.999438457770964],[-0.75853418819434,43.99697325886294],[-0.759772013508206,43.99534220606809],[-0.760840918008575,43.99415934670407],[-0.761768635006934,43.992747974352746],[-0.76187479927779,43.99231453878765],[-0.761789122636049,43.99088488382916],[-0.761954515257937,43.99042237958516],[-0.762536463594259,43.989577923477476],[-0.764154164255826,43.988732933592594],[-0.76435044676482,43.98894601892668],[-0.764624211400272,43.98904741286644],[-0.765763674894616,43.988954094738325],[-0.76687111911642,43.98922587638914],[-0.768517064036837,43.989167329630114],[-0.768848963109984,43.98907209018318],[-0.769631598416976,43.98924422090461],[-0.770237692446285,43.989275571796455],[-0.772874643356659,43.98919988560682],[-0.774513054394091,43.989347840781925],[-0.77546073401603,43.989185359652666],[-0.775923355608541,43.98925497308637],[-0.776634416407705,43.987236456554456],[-0.777818772794622,43.98650354091029],[-0.778712256204861,43.98458412254833],[-0.779679436181042,43.985093085018235],[-0.780538981431016,43.98476962085149],[-0.783911988957231,43.98377348414403],[-0.783563373140643,43.98310889187822],[-0.779493518371933,43.97781392297597],[-0.776970784443567,43.974917914564344],[-0.778103879482176,43.973472264442584],[-0.778440755480456,43.973340780602854],[-0.779106324315299,43.973236670246045],[-0.779690786661053,43.973245284747996],[-0.780513780374637,43.97355829295377],[-0.781626864956514,43.97369276612005],[-0.782344845896855,43.97388956144172],[-0.783365828726713,43.9742903010534],[-0.785330083690926,43.97416550160986],[-0.791104767887947,43.97477349030451],[-0.802456729790355,43.975661157054816],[-0.802704208970619,43.976172434256085],[-0.806635894414599,43.97680950565583],[-0.808957637757709,43.97805580517878],[-0.810256825566872,43.978619602649424],[-0.81290943883799,43.97941908884089],[-0.815427007439972,43.97991507625656],[-0.816590391704992,43.98021954205879],[-0.817687226842981,43.98014518394455],[-0.819516987555615,43.98030109096686],[-0.818722638532573,43.98501874402915],[-0.817959220014843,43.98794675831384],[-0.817728440238338,43.988655828138036],[-0.816889518490332,43.98978800227286],[-0.817447867802685,43.98988833804694],[-0.81769678883889,43.99006435559909],[-0.818661053725925,43.99042982683948],[-0.81893275469011,43.99061045211191],[-0.819721625937889,43.99133795445232],[-0.819864066215715,43.99167537133887],[-0.820256948765697,43.992099544463656],[-0.8203189199561,43.992428060335065],[-0.820769019883642,43.992681737221055],[-0.820874045103663,43.99285196656944],[-0.815972525220948,43.994599134952814],[-0.815576149432813,43.99503556129929],[-0.81598037739698,43.99905721249305],[-0.816451799904738,44.00022472343699],[-0.817179226812439,44.00107693898609],[-0.818913879066136,44.00188946051835],[-0.821029632945441,44.00276252128043],[-0.821050132719693,44.00295643085298],[-0.821041087030151,44.00319372246627],[-0.820773380537604,44.003464383784134],[-0.820589586323558,44.00394385768488],[-0.820376046110441,44.00412882734519],[-0.819611123451483,44.004319548817534],[-0.819017408750864,44.00482956139421],[-0.819106474746025,44.00558062621536],[-0.819626077602196,44.00584540064276],[-0.819694703868818,44.00601239972124],[-0.819591513376319,44.006074573475495],[-0.819566113348965,44.006440385420596],[-0.81918470108786,44.00656093624119],[-0.819090069577978,44.00675075927329],[-0.819129168202243,44.00703592660729],[-0.820020049247039,44.00803379675131],[-0.820224410307262,44.00892139756347],[-0.82019837060036,44.0092962431997],[-0.818254794862646,44.013899128459556],[-0.817522095339863,44.01518708758086],[-0.816248079171775,44.016894004070146],[-0.814872843806205,44.018544966929014],[-0.814979727890806,44.01911520771541],[-0.814951521382146,44.01984964839126],[-0.81463728830593,44.020564333613144],[-0.814657035263411,44.02138089962126],[-0.815175058238799,44.02329738876845],[-0.815310039973928,44.02447306075102],[-0.815664876951841,44.025910477941004],[-0.816523912014643,44.02818089835136],[-0.817093419032857,44.0290566728655],[-0.820413455627157,44.03217194220583],[-0.821604142781447,44.0334062460258],[-0.822559939997607,44.03711226063513],[-0.8244318628871,44.04640081606093],[-0.827051738677504,44.05702928188376]]]]}}]}