{"type":"FeatureCollection","name":"COM_19250","crs":{"type":"name","properties":{"name":"urn:ogc:def:crs:OGC:1.3:CRS84"}},"features":[{"type":"Feature","properties":{"fid":3960,"ID":"COMMUNE_0000000009753149","NOM":"Salon-la-Tour","NOM_M":"SALON-LA-TOUR","INSEE_COM":"19250","STATUT":"Commune simple","POPULATION":679,"INSEE_CAN":"18","INSEE_ARR":"2","INSEE_DEP":"19","INSEE_REG":"75","SIREN_EPCI":"241927243"},"geometry":{"type":"MultiPolygon","coordinates":[[[[1.474404584185554,45.486855666914614],[1.473962302301866,45.486968538337095],[1.473833058655772,45.487105478702105],[1.474016936070087,45.487216955340074],[1.474067353008332,45.487525657446106],[1.474456716997638,45.487801140046265],[1.474571148415383,45.488389908325686],[1.474501209095474,45.48883837404742],[1.474633691606342,45.48918962032055],[1.474568798324586,45.48982728780665],[1.47496690505498,45.49001822770525],[1.475013050376673,45.49029624981482],[1.475184857498833,45.49038144205342],[1.475410145010707,45.49033766914454],[1.475607671594914,45.49046553982237],[1.47564169264493,45.490672246933016],[1.47549484551444,45.490797242050924],[1.475599964053451,45.491166128171415],[1.475742847964991,45.49127884638377],[1.475789092099062,45.49160009991591],[1.474757514445286,45.49228047707759],[1.474500928310285,45.492344538060074],[1.474337037608139,45.492670141596726],[1.474491536307844,45.49282624970098],[1.474692510604113,45.493388274467826],[1.474307737561006,45.49382976032841],[1.47432619678302,45.494043461544734],[1.474047257423325,45.49440802973487],[1.474439068855338,45.4945961837247],[1.474374475977201,45.49475651948709],[1.474497831761345,45.49516077941791],[1.475014141542886,45.49515248347575],[1.47515844376302,45.49521388547836],[1.47513257748463,45.49536303943638],[1.475276504158873,45.49548477867853],[1.47517921158262,45.49571672153019],[1.475726060856357,45.496322169000074],[1.475952866072506,45.49683050408354],[1.475870758077873,45.497115791133616],[1.47620993938218,45.49726269560105],[1.475794268989458,45.49780283740445],[1.476002094005109,45.49788311333312],[1.476074239717049,45.498007479587976],[1.475991473722076,45.4984566733357],[1.476100958989846,45.498667106717996],[1.475965559369339,45.498840892507566],[1.476178302410636,45.49902210589507],[1.475874650172935,45.49921342176038],[1.476055904016768,45.4996553919318],[1.475947312549759,45.499832243545505],[1.47599011414825,45.49995260897273],[1.475660287330157,45.500350715061096],[1.475646861154944,45.500653146077546],[1.475803723815089,45.500817389998296],[1.47594905487143,45.50084187875852],[1.475738707457289,45.50099303176535],[1.475779517447437,45.501092655644115],[1.476236581143701,45.50123845817476],[1.476531830883274,45.50149374196116],[1.476489778087826,45.501766063674076],[1.47685739036355,45.50204484432885],[1.476638576369389,45.502411135940484],[1.476351530800136,45.50255674634536],[1.476318867492404,45.50272021864354],[1.476071913657897,45.50275829623615],[1.476255572869162,45.503159770182954],[1.475812576611238,45.50348068787346],[1.475859118261849,45.50411806874341],[1.475719107372043,45.50422604558004],[1.475726176042889,45.50443508892548],[1.475543640967244,45.50455239525244],[1.475866326144088,45.50464864074792],[1.475922636906515,45.504883570286154],[1.47629618162139,45.50485351529164],[1.476179192817982,45.50519597031016],[1.47671282852324,45.50549321574205],[1.477007469863622,45.505958337822626],[1.476877552170988,45.5066320520036],[1.47652403295468,45.506725425279946],[1.476550652454679,45.5069689580024],[1.476428390900507,45.50731674568749],[1.476521546470811,45.50751614944458],[1.476288442049103,45.507982217615016],[1.47630474359155,45.50822831233599],[1.476472045982413,45.50838639237968],[1.47630450511052,45.50865701165668],[1.476486477844151,45.50888734158712],[1.476446059705451,45.50951994007983],[1.477138393831706,45.510103937015394],[1.477197456896457,45.51023893270066],[1.477123026017707,45.51043065934378],[1.477363299992438,45.51059062821091],[1.477038146573968,45.511003213158],[1.47712498599096,45.511152995766786],[1.478874192679316,45.512062929280916],[1.479414347544094,45.512078350481154],[1.479979486650831,45.51244445437997],[1.480695050933984,45.51255681021944],[1.48070896259179,45.5126569689345],[1.479370801636382,45.51287302189193],[1.47871789260831,45.51351263655118],[1.478824165975428,45.513748241432864],[1.480023079752302,45.513893266079535],[1.481103273860522,45.51435099387528],[1.481613161112137,45.51449028246268],[1.483021859529983,45.51436611931063],[1.484343965310841,45.515770948120775],[1.484631080995653,45.51651604503434],[1.48578532448743,45.51736199874462],[1.487148293562131,45.51788382178105],[1.488327531323021,45.51814377247379],[1.488207937849257,45.51877170595286],[1.489987305409353,45.51877673053079],[1.490311386269246,45.518919784962],[1.491069151780691,45.51950997648211],[1.49196115393581,45.52006413861342],[1.492321526927861,45.519956397663215],[1.492802456970131,45.52022133442432],[1.493779893088711,45.52107473782552],[1.494254753649401,45.5213278785548],[1.496301512402511,45.521822728142986],[1.496644800649251,45.52182552234541],[1.498796494791669,45.522231667251],[1.499722154935462,45.522303477365604],[1.499882891157411,45.522234474363714],[1.503456527522587,45.52217497238718],[1.50556086872816,45.52234349002971],[1.505860970742592,45.52242763879232],[1.506842264839584,45.52338454941181],[1.509407956489077,45.523980621355165],[1.511693815509675,45.52579237923961],[1.51285297417558,45.52628596660719],[1.514326120074021,45.52625142316904],[1.515205182689345,45.526391836691275],[1.515249086133883,45.525756572845005],[1.516437819628863,45.52394670528401],[1.51669265793872,45.52275313564413],[1.521730076213952,45.52324734645233],[1.522111986189023,45.52333973311059],[1.521706170179532,45.52486636015031],[1.521187416377329,45.52611050357951],[1.521488814539561,45.526291894919495],[1.522059706256009,45.527179321327054],[1.522686562977489,45.52784232379547],[1.523571877849502,45.528568161445335],[1.524588646679673,45.52902553028409],[1.52979660931591,45.5305546298014],[1.531228854324136,45.53003569176209],[1.532309954784432,45.529275283848676],[1.534617294304935,45.53035823835151],[1.53562973816359,45.53112976757356],[1.535887167598726,45.531086290543726],[1.536640130195028,45.53052240351704],[1.538502925811381,45.53038994578043],[1.540193099920948,45.53043804087602],[1.542552254307894,45.52975087675298],[1.543724280845773,45.52830256391428],[1.544660052234959,45.52809223773378],[1.546900528076137,45.53051239658606],[1.547002047052873,45.530892871994475],[1.547571649380724,45.53116141871356],[1.548158629950743,45.53096186325672],[1.548369245669373,45.53104203865239],[1.548260435625072,45.53142970153778],[1.548679858539512,45.531904345459274],[1.548813987533604,45.53241042695635],[1.549002395017175,45.532556059664905],[1.5491140724017,45.53298980097401],[1.549410364145967,45.53332235454497],[1.549374989480537,45.53364612194791],[1.549475868514854,45.533806834755055],[1.550070383262334,45.533466869128375],[1.550349430871106,45.53377307951742],[1.551349967393366,45.533587849127436],[1.552617735389302,45.53376900392578],[1.553078547214698,45.533493945960984],[1.554017580553329,45.53355376957403],[1.555113508140941,45.53319861557933],[1.556782227939229,45.53348394788211],[1.558124012930402,45.53362816512774],[1.558764512417891,45.53358775050774],[1.559344240917597,45.53332139777422],[1.559464748638002,45.533862414873596],[1.559440935653016,45.53473030789573],[1.560919535563496,45.535134723658246],[1.563530600933989,45.53604984709355],[1.565008519289127,45.53633441713163],[1.565450215988998,45.53615272914176],[1.566483214227711,45.53595066676518],[1.567109228387915,45.535529057508484],[1.567633240244156,45.535583472578544],[1.57099495549329,45.5341276543211],[1.571262098434076,45.53420400218397],[1.571909536456036,45.53399338408095],[1.575733823310828,45.532580231696684],[1.575809946346087,45.53295945599406],[1.576307345163219,45.53280184838671],[1.577683242854087,45.53266617208333],[1.581745157195993,45.53207358591327],[1.582286870751971,45.53218669635465],[1.583047114551235,45.53247367772351],[1.58465117006114,45.53278659857585],[1.584816903791365,45.531815121405764],[1.584670156314515,45.53138908287009],[1.584503611597903,45.52927774383743],[1.584267160326085,45.527998592641985],[1.584764003503383,45.52529760577823],[1.584754103794445,45.52478142894698],[1.584553958055535,45.52423943891411],[1.584175086116013,45.52422475709499],[1.581177823877281,45.5234403265433],[1.575940559812833,45.52222756346908],[1.575922362407981,45.521838266651535],[1.576512151282619,45.52037233574204],[1.576126560003579,45.519272299380894],[1.575517840892799,45.5186305470346],[1.575411174559977,45.51829416506446],[1.575572732522175,45.51808907263227],[1.575565391746841,45.51782599978106],[1.574876789680899,45.516604134756534],[1.574981694658576,45.5159110913559],[1.575866169553275,45.51479113808619],[1.575736986989736,45.51373487952006],[1.575784395070863,45.51203692096655],[1.575490204687102,45.5113712375671],[1.575085201000965,45.51108060431635],[1.575101898132004,45.510979046703206],[1.574859029671943,45.51090931921445],[1.574800851872155,45.510680725289674],[1.57492892606579,45.51068145006829],[1.57498760280563,45.51059123258712],[1.5749493537526,45.51048447464887],[1.575142583788548,45.510192425597054],[1.57506768560481,45.510066289759],[1.575305172385559,45.50989638503811],[1.575618945508726,45.50934918938678],[1.575660424846584,45.508730993342546],[1.575474629096263,45.50843413553519],[1.575690356095413,45.50811355147974],[1.575483682393893,45.50783173930731],[1.575535042183976,45.5077270189677],[1.575864224123802,45.507577189347636],[1.57603791682802,45.506997595319824],[1.575965484330899,45.50662562369312],[1.576146050849743,45.5064270765647],[1.575728532828077,45.506026411783914],[1.57566534048209,45.50574371797457],[1.57554613817166,45.50569717511876],[1.575670247325958,45.50560238379734],[1.575664188127303,45.50533932761278],[1.575245773128001,45.50457480146101],[1.575276536620724,45.50427438671305],[1.574916785980888,45.50357004417493],[1.575112917150018,45.50311412081694],[1.575058628467763,45.50273427337885],[1.575179278104386,45.50247462646453],[1.575055095376482,45.50227311422311],[1.575253954642524,45.502109924875064],[1.575374326046566,45.501511643505005],[1.575525718308055,45.50135145389273],[1.575346116121439,45.50081421056726],[1.57547917726853,45.50037009517271],[1.575595490696982,45.50022927394763],[1.575814740189112,45.500219446739806],[1.575957871384488,45.499981699086646],[1.576624803950142,45.499493918389604],[1.577056909791441,45.499023872027756],[1.577265960239816,45.498312335264984],[1.577601678331299,45.49800497708104],[1.577727829946342,45.49767965284428],[1.577781745701576,45.49722462581323],[1.578037838517381,45.49677576218553],[1.578278383502361,45.49578363183489],[1.578466264797984,45.49559778301575],[1.578817915668006,45.495517577640356],[1.579159781832641,45.495319267140204],[1.579595516904466,45.494955530107056],[1.579717353082147,45.49474812957454],[1.579593944642666,45.49456644580766],[1.579866339189325,45.49407995906608],[1.580764419870221,45.4938130273849],[1.581010092125911,45.49351983175055],[1.580626218012643,45.493107902385326],[1.579640057499902,45.49296394001967],[1.578916020390074,45.492735027481594],[1.578578449475404,45.492465973732365],[1.577564038957669,45.49197580015599],[1.576405584611442,45.490961435472464],[1.576070255266381,45.490505975640275],[1.574892224783333,45.49015689906107],[1.574387175565374,45.4899289354111],[1.573400363478495,45.48991279611021],[1.572531011549706,45.48941181091473],[1.572148518194842,45.4888999011587],[1.572141110187643,45.488341426961675],[1.571979958889367,45.4877368669714],[1.571864013322185,45.48736614062056],[1.571680134717302,45.48714765390444],[1.571783521195143,45.48706070937551],[1.572463006649681,45.48697658989104],[1.572365981042854,45.48661691208862],[1.572482043867374,45.48633559587313],[1.572376381674196,45.4861127013568],[1.572487101081161,45.485740355351375],[1.572675733759572,45.48522580270743],[1.573128425669196,45.48474883022581],[1.573153584274044,45.48446725844548],[1.573547421936375,45.48403816931143],[1.573570042642997,45.483905166217326],[1.573081054686046,45.48315414462446],[1.5733055717611,45.48288681514635],[1.573246828374844,45.48268162952663],[1.573320466060781,45.48245651199137],[1.572862258115112,45.48140507628629],[1.573137507482355,45.48120593824368],[1.573169965192327,45.480440830945504],[1.572663603762321,45.47981927463764],[1.57250953097979,45.4794381575733],[1.5725260358424,45.47884576505971],[1.572268773036772,45.478644358058595],[1.572513851760135,45.4784232232715],[1.572399664624968,45.478034507877524],[1.572576723876042,45.477471176026995],[1.572548889307264,45.477109676834814],[1.572003307423339,45.476620908975924],[1.571534648789542,45.47533157338448],[1.57125407642556,45.47519110877137],[1.571405685139856,45.474821086361],[1.571331629133815,45.47446530275208],[1.570996724978709,45.47464566400263],[1.570679849001235,45.47502078597986],[1.569783252269366,45.475239919551285],[1.569861129715809,45.47574525457926],[1.568527393402793,45.4762857289657],[1.567065135521706,45.47758916696717],[1.56700100815341,45.4780899893802],[1.566429156566453,45.47847175094303],[1.565453866779727,45.478909595326975],[1.565355397736239,45.47915330339884],[1.564524750278298,45.47939305270334],[1.5643826007294,45.47949390440018],[1.563580150015248,45.47948453757408],[1.563396790029895,45.47954523360661],[1.562983139812664,45.47950121161086],[1.561522085075408,45.479958919540216],[1.560497234430455,45.480429409278614],[1.560024004542941,45.48046116446604],[1.559696798152816,45.479305080117236],[1.559958554163627,45.47809711296921],[1.559841114792607,45.47759036151375],[1.558259597047697,45.477461981914026],[1.558225727348258,45.477385895193386],[1.557312610853834,45.47710397641943],[1.556782482619793,45.47671529973442],[1.556318317785423,45.4766949198271],[1.555552179791138,45.47612758102485],[1.55559086998614,45.47513199915469],[1.55519665656858,45.47512962643173],[1.554687157136654,45.47498256986755],[1.554442444825626,45.47415445480537],[1.553805872286423,45.473775199770714],[1.5530348794673,45.47315104185992],[1.552610242095805,45.47328516105766],[1.552417438429234,45.47326646306368],[1.554024831258359,45.47155980743243],[1.553316791065541,45.47097699011986],[1.553074016253482,45.47007594724691],[1.553090401848236,45.46890626036997],[1.553351765587011,45.468503453202906],[1.553726378806634,45.4683227557079],[1.552392346589532,45.467647204219084],[1.552738383276279,45.46738418550708],[1.553225510171599,45.46735534350405],[1.553873320150811,45.4672015838161],[1.554255348664699,45.46737492155779],[1.554463546864349,45.466801211044114],[1.553787149732203,45.46672584965177],[1.553192685420364,45.46620753793021],[1.552169167927529,45.46589713302069],[1.551402048259178,45.46586561711891],[1.549714740583029,45.465537611701535],[1.549152930574341,45.46514308429815],[1.548361066469186,45.465128339174754],[1.548358836899383,45.465115701721096],[1.548272863858075,45.465173129367145],[1.54674787213846,45.46544248552623],[1.545400278999512,45.46514403144249],[1.544863574025586,45.46628445668938],[1.543661968520285,45.466177904964304],[1.541290740283542,45.46567337880432],[1.541935105310061,45.46716326800984],[1.541185538430894,45.46885118787855],[1.540884926093478,45.4689904773871],[1.540045579272286,45.46917319258304],[1.540545064226238,45.46994161223211],[1.540659877782809,45.47058974857271],[1.539273450706753,45.47127779363737],[1.538564943938248,45.47193502575727],[1.537975780211651,45.47223986573586],[1.536449408180608,45.473378164131155],[1.536089614324503,45.47415881053776],[1.535631271567009,45.47387003629091],[1.535023606299952,45.47380716743034],[1.534827888555095,45.473850543821676],[1.53465951639485,45.474313064737615],[1.534323005642146,45.474792302615406],[1.533648387185361,45.47440432904811],[1.533000882396982,45.47434723303751],[1.532488104792805,45.474472019059625],[1.531476647521182,45.47365543507236],[1.530210462171186,45.4727913752636],[1.530470158843358,45.47241021180879],[1.530035835043031,45.47232797064583],[1.529785457199817,45.4721634796643],[1.527731970704463,45.4717393834915],[1.527540093352464,45.47178279752622],[1.526955167736282,45.47240825685141],[1.526763287467138,45.4724516695621],[1.526700391019639,45.472361682394734],[1.524034640110055,45.471037863555104],[1.522002053092861,45.47016812892013],[1.521299396863549,45.470117443159495],[1.521113082155072,45.469711509484654],[1.520354397205087,45.469121507714384],[1.518895495321722,45.46839076957736],[1.518570924077251,45.46865847264828],[1.518105975198857,45.469869973952214],[1.517717570392619,45.47022689396174],[1.516882285546092,45.470445515736095],[1.516753258261543,45.47057980427042],[1.516794256751423,45.472064571824376],[1.515475700167265,45.47479853914598],[1.515004867870819,45.476369301096106],[1.514715640203792,45.47861613186582],[1.514445899832482,45.47955911733514],[1.514252705312365,45.47960249175889],[1.513300914493331,45.47914587997552],[1.512468946549396,45.47913935904983],[1.512210681684308,45.47931786175196],[1.51200837935816,45.48003567927796],[1.511551171949347,45.48066275570851],[1.510464962297953,45.4814471993405],[1.509242300011487,45.48154264353667],[1.508669340602791,45.481901586295876],[1.507836355157808,45.48159781161237],[1.507560951892504,45.48160315605006],[1.506886248214914,45.48193641999163],[1.507183291867021,45.48274553073203],[1.506334179780091,45.482993614179136],[1.505991352632515,45.482316283616726],[1.505320005759248,45.48271442818852],[1.504847026673192,45.483115211578685],[1.504589829374509,45.48306225063823],[1.504261613742128,45.48322179118235],[1.50376371233988,45.48312148965032],[1.503166687645831,45.483183778065474],[1.502744982454425,45.483391601887234],[1.502517580049261,45.48337325746807],[1.502381166166632,45.4835416558527],[1.502149049568904,45.48355567036373],[1.501929685580701,45.483713954941045],[1.501802038873274,45.483699642373644],[1.501763103427561,45.48390896876953],[1.501350943909385,45.48385753429072],[1.500558848437885,45.48412614974783],[1.500527084315817,45.48444905065849],[1.500260575154319,45.48459859661285],[1.49980505699355,45.48458800601759],[1.499473609325911,45.484487208285515],[1.49912772939911,45.484588857826985],[1.499119944215098,45.48511381975335],[1.498945658603425,45.485593325048235],[1.498650330213638,45.48562449965016],[1.498658675403689,45.48578942620573],[1.498118001891495,45.48608660530644],[1.497692835322167,45.48646818573078],[1.497362724229903,45.48650699713211],[1.497233672412633,45.48659172975401],[1.49568328426504,45.48667993810268],[1.495544123637694,45.48680686290063],[1.495550363297674,45.48695464966525],[1.494938962811476,45.48712027468246],[1.494528993251168,45.48660952390362],[1.493768146199988,45.48647863224592],[1.493666537559224,45.4863538824928],[1.493379580155821,45.4863122046941],[1.493190146330381,45.48640422790074],[1.49296288827747,45.486899224933204],[1.492738053269964,45.48697456077944],[1.492322732888774,45.48694466598869],[1.492036733821493,45.48677330698875],[1.491601017460088,45.48664586748358],[1.490593500744816,45.48654586301982],[1.489964758435355,45.48668961274936],[1.488915226670539,45.4865809222826],[1.488215936292165,45.48672911629778],[1.488084443896203,45.48647967182781],[1.488152857308239,45.48636531263099],[1.48756635733572,45.485898089823905],[1.487123611705356,45.48570028882444],[1.486456820538767,45.48559583258958],[1.485128771518083,45.48598229990301],[1.483167849153254,45.48609991861703],[1.482584899953745,45.486300985812356],[1.482254609989018,45.486627052012196],[1.481663677031601,45.48665148275589],[1.481233004395883,45.48680867060275],[1.480339806792042,45.48688304205003],[1.479610635905189,45.48760718301191],[1.479184330214802,45.48779144132512],[1.478543852009825,45.4879412731228],[1.478282743581459,45.48789090072183],[1.477827763704506,45.48795317980854],[1.477501261737129,45.48781275610873],[1.477093106925865,45.48747488565562],[1.476503294435858,45.4875047083914],[1.476119932762567,45.48743015569497],[1.474404584185554,45.486855666914614]]]]}}]}