{"type":"FeatureCollection","name":"COM_40168","crs":{"type":"name","properties":{"name":"urn:ogc:def:crs:OGC:1.3:CRS84"}},"features":[{"type":"Feature","properties":{"fid":4092,"ID":"COMMUNE_0000000009759374","NOM":"Magescq","NOM_M":"MAGESCQ","INSEE_COM":"40168","STATUT":"Commune simple","POPULATION":2602,"INSEE_CAN":"09","INSEE_ARR":"1","INSEE_DEP":"40","INSEE_REG":"75","SIREN_EPCI":"244000865"},"geometry":{"type":"MultiPolygon","coordinates":[[[[-1.168302460618728,43.73605124587956],[-1.169507457105392,43.73599336009857],[-1.192111837259904,43.73354419608129],[-1.204062795831024,43.73235403595026],[-1.207438650793691,43.73190633575568],[-1.220706040591435,43.720707756183806],[-1.22693309858247,43.72196542105337],[-1.228014645555066,43.72207387503693],[-1.235752229112127,43.72360664571943],[-1.241227895173042,43.7247927505028],[-1.233597995318259,43.73608745273542],[-1.232900026571937,43.73721940841608],[-1.232896876689884,43.73752952345357],[-1.234836946207747,43.74128929369127],[-1.237447485741063,43.74349189104269],[-1.245008442468089,43.7504226329461],[-1.245869981274615,43.751293783976244],[-1.253111024861597,43.75774001588463],[-1.255769829141922,43.76038734763493],[-1.256385835142565,43.760778698556294],[-1.257090143193561,43.761704591149304],[-1.258892760303542,43.763152546403944],[-1.260139299321368,43.76431223829184],[-1.260990482613118,43.76527201507706],[-1.26075544475618,43.76642300372187],[-1.258455687265514,43.77391165019185],[-1.258471128736659,43.774002065142874],[-1.25922114562154,43.77455398468908],[-1.259420056749002,43.77498687900651],[-1.259633575279169,43.77509838181749],[-1.260737903266545,43.77526424152394],[-1.261181605378725,43.77549379909274],[-1.261721828900862,43.77591693534684],[-1.261551651548456,43.77628677277676],[-1.261364056157566,43.77638964090866],[-1.261169862737213,43.77638732876841],[-1.260949395406136,43.77633287491942],[-1.260739163436947,43.77606534146212],[-1.260483138854174,43.775984341719294],[-1.260278455684713,43.77599145034992],[-1.26012969929638,43.77616489085489],[-1.259376172607615,43.775950154272856],[-1.258864380136555,43.77560790214947],[-1.258094247611812,43.77533703261398],[-1.257964655270922,43.77521683737827],[-1.257488143810661,43.77509759293988],[-1.256757826646047,43.775461388835346],[-1.256010979352456,43.775569891391214],[-1.254857861289726,43.776435935966326],[-1.254240883005854,43.77668534090811],[-1.251732439672793,43.77809183838448],[-1.252522757297853,43.779519977779415],[-1.252479576111412,43.78039400430575],[-1.252555551955794,43.78094706376939],[-1.252916815078778,43.78165659963154],[-1.253048909054732,43.79210695299959],[-1.252884223118861,43.79505936063811],[-1.25279667405,43.795955855546914],[-1.252207565458879,43.797853327824356],[-1.251929822600378,43.79843462323121],[-1.251160963823783,43.79947216473493],[-1.251954176787392,43.8001161910936],[-1.252198748742468,43.80042656501777],[-1.25307853421774,43.80104647727759],[-1.253849202444092,43.80143723671064],[-1.253613945836183,43.80182041875351],[-1.253867290980386,43.80191416142019],[-1.255944283594934,43.80333801487265],[-1.256039119555333,43.803525362185766],[-1.255920065086508,43.803630947773655],[-1.252504277210619,43.80473224034701],[-1.251518589674776,43.80513119494002],[-1.251387613913725,43.805260671515555],[-1.25200691736737,43.80552307690328],[-1.251990261401565,43.80563367250671],[-1.251467068252964,43.80641199699589],[-1.250832864517325,43.809060119834015],[-1.250403409269889,43.809760883265575],[-1.249255130545347,43.81031755903965],[-1.246860970204926,43.81035324719781],[-1.246783895427945,43.81027063879991],[-1.246269827290388,43.81035286075048],[-1.24554605906352,43.810527063929854],[-1.244421512778727,43.81093496647391],[-1.242652704326485,43.81126431368568],[-1.240401740664623,43.81185482033615],[-1.239461655676329,43.81171387538442],[-1.238724184415193,43.81131811371899],[-1.238550942414638,43.81129781886201],[-1.236700116862631,43.81171316807286],[-1.236144132847782,43.81200244180969],[-1.234764371232853,43.81241025230501],[-1.231081832547263,43.813097656193406],[-1.228805950819447,43.81516952771561],[-1.228693730917214,43.815166674177746],[-1.2279048942563,43.81458088158706],[-1.226840431991971,43.81603884483841],[-1.226523960432726,43.816639594921284],[-1.225758585763823,43.81743078368481],[-1.225054994431118,43.8184349533575],[-1.22130959283356,43.81746988090561],[-1.219940074095599,43.82015888666451],[-1.219726744904823,43.82011848531774],[-1.219498086999372,43.82020754599248],[-1.21821310625125,43.819981541704266],[-1.215386555667766,43.819324035390196],[-1.215429446850709,43.821777184832015],[-1.215555352112274,43.82226886317514],[-1.214788211490057,43.82534993483526],[-1.214763388724996,43.826126811438684],[-1.215108432572895,43.827698642597575],[-1.215064627718247,43.82784722970694],[-1.214159694281266,43.82771280835636],[-1.210264208533329,43.826760348287955],[-1.209930186994896,43.82761585565106],[-1.208064303229218,43.82754914632475],[-1.20762110807595,43.827835712601676],[-1.207307894476205,43.82843357167164],[-1.206897939179058,43.82864765834786],[-1.206129224715283,43.82995700454919],[-1.204808692338078,43.828979724387494],[-1.201010427858198,43.82726619868435],[-1.196150151307595,43.82549522655592],[-1.195049876968597,43.82515729894275],[-1.194223776340791,43.82062018645254],[-1.193462803166908,43.817171886542866],[-1.190184780640703,43.81590120998715],[-1.181546063652156,43.81235815657107],[-1.173513594178188,43.80727010915713],[-1.169288745832713,43.80480957112093],[-1.167023684017556,43.80335259287781],[-1.165114210767023,43.80231722564997],[-1.162900900876186,43.800987055198306],[-1.163034715459674,43.80070619343287],[-1.164669239058725,43.79877295080217],[-1.165477446008536,43.797657077522096],[-1.165487237493376,43.79736473539824],[-1.163638395761623,43.79538264897794],[-1.161607954738053,43.79408242464524],[-1.159932680418358,43.7928920558018],[-1.158737755101514,43.79225013180832],[-1.156896362738774,43.79103182275554],[-1.152170126254351,43.78763557014712],[-1.150072804037772,43.78569791354627],[-1.14534448938012,43.781077775697],[-1.1397117200203,43.777077588075386],[-1.139184082030321,43.776901207061634],[-1.128804155113693,43.76976483801917],[-1.123514785571841,43.771890050496026],[-1.121764751442099,43.77236721928274],[-1.119047392530315,43.772846719681716],[-1.115556638577893,43.77286159137223],[-1.106550277332347,43.771812202531706],[-1.106902433971089,43.76821530799887],[-1.108080166493733,43.76451517958989],[-1.108290215681759,43.764289190719694],[-1.113460165721289,43.76292614546921],[-1.116181100183258,43.76231237453115],[-1.118362176235642,43.76202352759992],[-1.120632049039512,43.76184571288019],[-1.121005890427177,43.76187481239784],[-1.123488733855597,43.76302969547972],[-1.128939818118632,43.760469411526365],[-1.129175930214454,43.76026131356675],[-1.132643816515583,43.758632986827386],[-1.167098954919827,43.74279974496901],[-1.167659311404607,43.742507051860656],[-1.167883393429153,43.74203440033418],[-1.168302460618728,43.73605124587956]]]]}}]}