{"type":"FeatureCollection","name":"COM_17244","crs":{"type":"name","properties":{"name":"urn:ogc:def:crs:OGC:1.3:CRS84"}},"features":[{"type":"Feature","properties":{"fid":4246,"ID":"COMMUNE_0000000009752695","NOM":"Montpellier-de-Médillan","NOM_M":"MONTPELLIER-DE-MEDILLAN","INSEE_COM":"17244","STATUT":"Commune simple","POPULATION":686,"INSEE_CAN":"21","INSEE_ARR":"4","INSEE_DEP":"17","INSEE_REG":"75","SIREN_EPCI":"241700632"},"geometry":{"type":"MultiPolygon","coordinates":[[[[-0.741164606608744,45.61208322712223],[-0.741860784108577,45.61223494781785],[-0.742610012914691,45.61210723911454],[-0.743476262925104,45.61209552725682],[-0.744944607267575,45.61243967674724],[-0.745169972599896,45.61111869540488],[-0.747484626328161,45.61121374941761],[-0.74988578942612,45.61112557167278],[-0.750893189132503,45.611567053677234],[-0.75188859388948,45.611888127058975],[-0.75267507001189,45.610452839280434],[-0.753477396221666,45.60955520908384],[-0.754133237609954,45.609699185614744],[-0.754626713639248,45.60936177269539],[-0.755709071822783,45.60937429977126],[-0.755932432893363,45.60914506911062],[-0.75611741689745,45.60844473527871],[-0.757437329180346,45.608816217719365],[-0.757654153576653,45.60894509682924],[-0.758380236891109,45.608969505953624],[-0.759678446716166,45.60922900109823],[-0.760678069184046,45.609517401869645],[-0.761666604741723,45.609926064728626],[-0.762545650158912,45.61010309196137],[-0.763458230570362,45.61050887292963],[-0.764091257496337,45.610429983798795],[-0.76581486788294,45.61371413469539],[-0.766227813307925,45.614157364787395],[-0.768610960877931,45.616520587091415],[-0.773268717648658,45.61825032518021],[-0.775208963962036,45.61931118123897],[-0.775736176916055,45.62033562372902],[-0.775905246058597,45.620497627168135],[-0.775895823229157,45.62079273728174],[-0.775967432637058,45.62082549145665],[-0.775744624020606,45.621872414126024],[-0.776426561565573,45.62222634480936],[-0.775617884172927,45.62291520902365],[-0.776017296503561,45.623157826164274],[-0.775565218872254,45.624064599331724],[-0.774935094827282,45.62411279966874],[-0.773189376200325,45.62464558337256],[-0.772599162249898,45.62490248262116],[-0.773448109030578,45.62559520536105],[-0.775093857349829,45.62655416724341],[-0.777911352643532,45.6285844110805],[-0.779633217443667,45.630618062936804],[-0.782408525840746,45.63236384520821],[-0.782686503016736,45.63265199582074],[-0.783287226996529,45.63363878160099],[-0.78338981295186,45.633804815510956],[-0.780733205494363,45.63479566437915],[-0.778942211600667,45.635648284285615],[-0.77909166739565,45.635785701675125],[-0.777994252063523,45.63657713514341],[-0.777383270156769,45.63743516077565],[-0.77694214581437,45.637298520560755],[-0.775139024483231,45.6384652084581],[-0.775041609964962,45.63952414710909],[-0.77516457495108,45.639876116948834],[-0.776198111939982,45.64178237848558],[-0.776388134073242,45.64230698960869],[-0.776851072415226,45.64289455848017],[-0.777068660654534,45.64346512193253],[-0.777010224952279,45.64381416624974],[-0.7763014800309,45.64495493453272],[-0.775522509821064,45.64563197290448],[-0.775355837985687,45.64556274120997],[-0.773860824067359,45.64638910586306],[-0.773451354919528,45.64696267963287],[-0.772801486526117,45.64744154198834],[-0.772121926263509,45.64837124928467],[-0.771425532519023,45.648997707361666],[-0.771552831229632,45.649111537528086],[-0.770994933676824,45.64950707049297],[-0.769685171872125,45.650111703995265],[-0.769556050866395,45.65031075633436],[-0.766695696696065,45.65017397095674],[-0.766408433728561,45.65063704644445],[-0.765229615153539,45.65180699391433],[-0.764430186140362,45.65333926065112],[-0.763324326151793,45.654052385206505],[-0.7608892351311,45.65378222248483],[-0.759169593782098,45.65340877331922],[-0.757162437843741,45.653230609858454],[-0.756986052524189,45.653680940511606],[-0.756832631156259,45.653825796331866],[-0.756048601057411,45.65424412631529],[-0.755841682022306,45.65405540801901],[-0.754647162760164,45.65422148721367],[-0.753327022171955,45.654127604670784],[-0.750441093978317,45.654563705815],[-0.750438896745383,45.654057136836244],[-0.74951270427996,45.65264380676087],[-0.748736296366102,45.652890545937865],[-0.747919182369103,45.65291596574951],[-0.747586795896411,45.65303792189309],[-0.746501432555433,45.65310742450626],[-0.746123200271984,45.653406694573135],[-0.745625228478526,45.65355128629687],[-0.744607655502219,45.65357794609869],[-0.744459658625201,45.65363245391719],[-0.744455923335597,45.65393818514744],[-0.744198143483411,45.6541180480385],[-0.742451046455817,45.654477273956765],[-0.73661339428663,45.65618670385484],[-0.736662570860664,45.65550624778678],[-0.7378200021826,45.655265868868035],[-0.738704030749456,45.652520301133826],[-0.736370810231147,45.65145201578644],[-0.735357498285995,45.651445997960614],[-0.735256997146779,45.65138532887354],[-0.735322231231124,45.651209175452145],[-0.734284875808804,45.65058011558466],[-0.732230203167621,45.649732383570665],[-0.730963661798957,45.64934438352775],[-0.731742425132779,45.64802672203146],[-0.730021321637067,45.64741579775911],[-0.729456580281267,45.647141537783796],[-0.727582176178876,45.64541781792575],[-0.72482434482904,45.6433987923403],[-0.724149901564648,45.64267739873598],[-0.724630965409435,45.64224408431627],[-0.724726827955051,45.64204528817531],[-0.724313377678175,45.64132517008388],[-0.724453139109015,45.640308176670985],[-0.724146851675779,45.638793008028216],[-0.726968003567543,45.637557386100745],[-0.727981593232754,45.637018063270396],[-0.72915727413445,45.636824936101476],[-0.729490522459143,45.63669759516692],[-0.729807087847177,45.63622734023565],[-0.729288333183053,45.63579470001645],[-0.731222190345128,45.63424851926239],[-0.73158987186064,45.63407946224678],[-0.731600233490459,45.63398536383964],[-0.734099543235799,45.63156575639487],[-0.734842331854263,45.630995691517164],[-0.735509058765273,45.62804190755644],[-0.735548276690187,45.627975697698325],[-0.735742891581506,45.628136909893726],[-0.735831682286688,45.62806274276003],[-0.73700295719412,45.6263037862853],[-0.737193276293009,45.62584942153663],[-0.737224012526084,45.625257924690786],[-0.738143249725905,45.62389677289898],[-0.738436171126915,45.62269797029419],[-0.73919396748521,45.621838896011255],[-0.739953668391315,45.62125560858258],[-0.740145710230188,45.62101753805562],[-0.739360060374399,45.619751832624466],[-0.739769359995761,45.618070463884784],[-0.740081762966605,45.61740829550784],[-0.739660729754308,45.617260933129124],[-0.739422641012576,45.617425710888796],[-0.739275981202041,45.617403543676545],[-0.73946962869629,45.6166948430619],[-0.739446387669403,45.61646483469039],[-0.738973262018576,45.6156980764457],[-0.739655097776438,45.61481898499717],[-0.739770392077597,45.61422467442193],[-0.740774266435105,45.61351155481948],[-0.740872552817877,45.61300795759786],[-0.740777501884663,45.612893926514985],[-0.741164606608744,45.61208322712223]]]]}}]}