{"type":"FeatureCollection","name":"COM_64389","crs":{"type":"name","properties":{"name":"urn:ogc:def:crs:OGC:1.3:CRS84"}},"features":[{"type":"Feature","properties":{"fid":4134,"ID":"COMMUNE_0000000009760795","NOM":"Monassut-Audiracq","NOM_M":"MONASSUT-AUDIRACQ","INSEE_COM":"64389","STATUT":"Commune simple","POPULATION":372,"INSEE_CAN":"25","INSEE_ARR":"3","INSEE_DEP":"64","INSEE_REG":"75","SIREN_EPCI":"200067296"},"geometry":{"type":"MultiPolygon","coordinates":[[[[-0.212830060630052,43.40037659551858],[-0.213303947234545,43.400769499469405],[-0.2133013851806,43.40147547412849],[-0.213585346539016,43.40193884332314],[-0.214184229018457,43.40224789917147],[-0.2143220810401,43.402858766551695],[-0.216631970657371,43.4048808375279],[-0.217924495719867,43.4054249690669],[-0.218710645690107,43.406100294723544],[-0.219299432510434,43.40644834219917],[-0.219609535813302,43.40684789485483],[-0.219919471668911,43.407045764942914],[-0.220290252332541,43.40713917987383],[-0.222785119364693,43.409281689049514],[-0.223012707310783,43.40981694846712],[-0.222801979825091,43.41022209574399],[-0.222736933659929,43.41208154089999],[-0.222870409291381,43.41230356580531],[-0.223623176339213,43.412600791960706],[-0.224018230335486,43.41266375995584],[-0.224152204492137,43.41364390050531],[-0.224917498933913,43.415045530525184],[-0.22492217284864,43.415327215145474],[-0.22545160027615,43.41567160132936],[-0.226087998039116,43.41702034200646],[-0.227008667601788,43.417975237777846],[-0.227715597863886,43.41890678650173],[-0.227609472844199,43.41961316246988],[-0.227760363032057,43.420607208038064],[-0.227324188576405,43.42230035880814],[-0.227378076414981,43.42372318858423],[-0.225596783328037,43.42390052484636],[-0.223307110953202,43.4240002256028],[-0.222132520057358,43.42393794297798],[-0.219869362686776,43.42429069441481],[-0.218105021979449,43.42439627074014],[-0.215592357231339,43.42486079314214],[-0.21234189445715,43.42571901118879],[-0.210287153655899,43.426133805855514],[-0.207211269978596,43.42669136067132],[-0.205981988019151,43.42704470315091],[-0.204304270856832,43.42810820774994],[-0.202668040453535,43.428808499748456],[-0.202124097778479,43.4292459707461],[-0.200860889729591,43.42941297450247],[-0.200411520314766,43.42901927868065],[-0.199807153495705,43.42930365569397],[-0.199459498372846,43.42980554303517],[-0.199098137877482,43.42999449716146],[-0.197268631365989,43.430487021624046],[-0.19689718511453,43.4304502673262],[-0.196699647848029,43.43018598106772],[-0.195797568426711,43.43058266834099],[-0.194726205157647,43.430845681774635],[-0.188589670465868,43.43207189932966],[-0.188024226769327,43.430964861021735],[-0.184983214701189,43.431156089050894],[-0.184787788571951,43.43066122118832],[-0.18449729578741,43.43027899619536],[-0.184531054085581,43.42896974169963],[-0.184461766641202,43.42852158632537],[-0.184166708556108,43.42805666022954],[-0.184049873753073,43.42804388883217],[-0.185765208510604,43.42609182244908],[-0.186297014022098,43.424697685862675],[-0.18650020006453,43.42437387092353],[-0.186536807570229,43.42351832941294],[-0.186288123911159,43.42217327270155],[-0.185968061602973,43.421881063020365],[-0.185816648414455,43.42155597850519],[-0.185922756279133,43.41950178797083],[-0.186201626327612,43.41884980956578],[-0.18654563132044,43.418348077725696],[-0.185356914810025,43.41773748599602],[-0.185454009419725,43.416881070135005],[-0.184571968123448,43.416722441332205],[-0.184604856556063,43.41577697767633],[-0.184524507994011,43.41537417139522],[-0.184952506698299,43.41527424430524],[-0.185005492439965,43.41509351043289],[-0.185675232906653,43.41489823117886],[-0.187019461203132,43.41483885920214],[-0.187366246328777,43.41284962030987],[-0.187521156033665,43.41263617184322],[-0.18767972449434,43.41253336174518],[-0.187841753374838,43.41253759433418],[-0.188103737009055,43.412317390406784],[-0.188148358784312,43.411473323938964],[-0.188357019074288,43.41089273864029],[-0.188252576219433,43.410478940777494],[-0.188862294181476,43.40995947239025],[-0.188960131891849,43.408872538551734],[-0.188751919727746,43.40863647137107],[-0.189057783445113,43.40842847815416],[-0.188927360733886,43.4080361556718],[-0.188568183076897,43.40770549452499],[-0.188247842265753,43.407228728395054],[-0.188277624134898,43.406584984764784],[-0.188422949434425,43.40628808303292],[-0.188301563655155,43.406080971250155],[-0.188366485784091,43.40593770047376],[-0.188639047850153,43.4058198262697],[-0.18887215433435,43.40534656621224],[-0.188976835219502,43.40460607740513],[-0.189398448669822,43.4038355420522],[-0.189706822613044,43.403495118336316],[-0.189610644871778,43.40338630648377],[-0.189083488436064,43.40316594224054],[-0.188839891832473,43.40275894856091],[-0.188279022523295,43.402375706608076],[-0.188136228447569,43.40196034030311],[-0.188577221737713,43.401740264813576],[-0.188847684117118,43.401696282043375],[-0.188754810576954,43.40131275959775],[-0.188256281427801,43.400917777669356],[-0.187829873941375,43.40037571024007],[-0.187353891909409,43.40025377270067],[-0.187081463410572,43.39954870363373],[-0.186951725257088,43.39945798529865],[-0.186991451920847,43.39932806296698],[-0.186818953777053,43.399223297357935],[-0.187507335181078,43.398832975222085],[-0.187190129615259,43.39830029574545],[-0.187083743400525,43.397694780722674],[-0.186810308427782,43.39701585302305],[-0.187289770126226,43.39677754294624],[-0.187684840271636,43.396687575629265],[-0.188082958155233,43.39676408481205],[-0.188846560234578,43.396662356296915],[-0.192210047197017,43.395350405971236],[-0.192484135150714,43.39508301534597],[-0.192754726195213,43.394352038187236],[-0.193192907851878,43.393860115099564],[-0.193822734704863,43.39275028538514],[-0.194149271538969,43.39249394770247],[-0.195384838701822,43.391843422428856],[-0.199070250470535,43.39288791173879],[-0.200670260971331,43.39310801219196],[-0.203601121412924,43.3938136176777],[-0.204737202189117,43.394637135624166],[-0.205544465631263,43.395564021811765],[-0.20646004210511,43.3961518547527],[-0.207640599700029,43.39670841779795],[-0.208213940735911,43.39744683881108],[-0.208790065382112,43.398412070074876],[-0.209045984008408,43.398949210555095],[-0.209077703515677,43.39945158115106],[-0.209207528790805,43.39965391828835],[-0.210415046953203,43.400249272723144],[-0.212043825184778,43.400692554965005],[-0.212385580766567,43.40070942359343],[-0.212830060630052,43.40037659551858]]]]}}]}