{"type":"FeatureCollection","name":"COM_17408","crs":{"type":"name","properties":{"name":"urn:ogc:def:crs:OGC:1.3:CRS84"}},"features":[{"type":"Feature","properties":{"fid":4007,"ID":"COMMUNE_0000000009751675","NOM":"Saint-Sulpice-d'Arnoult","NOM_M":"SAINT-SULPICE-D'ARNOULT","INSEE_COM":"17408","STATUT":"Commune simple","POPULATION":919,"INSEE_CAN":"19","INSEE_ARR":"4","INSEE_DEP":"17","INSEE_REG":"75","SIREN_EPCI":"241700517"},"geometry":{"type":"MultiPolygon","coordinates":[[[[-0.857482428985586,45.8118174962092],[-0.857319280021004,45.81165989059285],[-0.857213701225346,45.81112706827078],[-0.855949703078797,45.8112297774003],[-0.855152386546115,45.81103704198798],[-0.854965559316757,45.81113087736434],[-0.854615159628091,45.811725259854505],[-0.853485570293561,45.81079917206373],[-0.852217383253795,45.812134419511935],[-0.851636796683715,45.81181435145514],[-0.851402123014785,45.81194317181722],[-0.851037616422218,45.81154179655293],[-0.849942881326186,45.81218590841164],[-0.85048315530429,45.81264890602107],[-0.851563045992094,45.813066435351224],[-0.851482053027054,45.8131990251705],[-0.850981002497491,45.81333513384953],[-0.850508500714777,45.813584764380785],[-0.84848494035974,45.81318679435696],[-0.848255554654556,45.81337312728386],[-0.848323064070676,45.81349073238518],[-0.845367462550357,45.81616455159305],[-0.844354164341402,45.81688787057557],[-0.843683599420169,45.81755262438923],[-0.843342708822794,45.818063699211486],[-0.842931500030053,45.81889812235992],[-0.842684152290583,45.81969721231432],[-0.841511492797483,45.82091096705809],[-0.840995432994594,45.821795831802305],[-0.839043615342744,45.82424776682727],[-0.83871003484424,45.825161571864996],[-0.83654651447903,45.82514769148487],[-0.834134833171801,45.8252368641284],[-0.832326127636527,45.82502152177595],[-0.831498931595869,45.82588534758262],[-0.83053627712929,45.82723158657987],[-0.830546098515739,45.827707272556694],[-0.830100324198556,45.82808482522103],[-0.831788404880341,45.82901292202292],[-0.832141782673234,45.82908747306418],[-0.831837022819354,45.82948999578026],[-0.832037647585837,45.83028015673993],[-0.832461145850359,45.83117814876788],[-0.831968714745898,45.83199815182431],[-0.832187795179088,45.8322927338908],[-0.832204117068054,45.83249052134161],[-0.831220923329848,45.834266599372256],[-0.830851385171043,45.83602094055983],[-0.829912954084926,45.8361771994211],[-0.830073460603293,45.83707691131183],[-0.829700998249588,45.83823271596888],[-0.829839646311375,45.83863190716924],[-0.830327538329886,45.83917521686166],[-0.831576510641425,45.840146175482474],[-0.832171569656326,45.840746244833994],[-0.82993444494198,45.84254142554419],[-0.829000094225234,45.84351974937924],[-0.827703931642859,45.84439673684266],[-0.82604193954903,45.84377601077472],[-0.825002779189932,45.84476957064156],[-0.823559777127602,45.84496269937287],[-0.821990027642736,45.845002329496396],[-0.821334809398506,45.845264320922304],[-0.820591480010608,45.84576279077651],[-0.819077225986771,45.847274529123034],[-0.818246643440082,45.84794812859679],[-0.815878711335126,45.84928042977471],[-0.81392881201076,45.84817160336463],[-0.813255290736988,45.84768498165906],[-0.812423322739383,45.84729476263052],[-0.810107097759263,45.84590434233468],[-0.808647557552348,45.84356180362481],[-0.807983778693353,45.843027945284426],[-0.806818220015131,45.84249387587195],[-0.80683124600503,45.842122002531234],[-0.806377921173854,45.840525336998056],[-0.805808682798673,45.83893077552087],[-0.80527195129725,45.83782555325469],[-0.804087710686089,45.83634547584726],[-0.803578295887686,45.83537365604524],[-0.80380664761536,45.83498190629204],[-0.804207635290189,45.834550079394205],[-0.804633442665333,45.83427247875118],[-0.804950252651749,45.83379840928238],[-0.805790631291701,45.83136116709121],[-0.805704645915378,45.83063832817899],[-0.805280643645106,45.829782639989446],[-0.804342087812444,45.828459268984425],[-0.803965806712978,45.82711694165676],[-0.803557183202794,45.8267827203798],[-0.802699201277814,45.82640233500269],[-0.801851081088979,45.82539774849224],[-0.801770484759255,45.82497674171864],[-0.802092841570315,45.82291849396776],[-0.801929993823141,45.822220782431664],[-0.801572312295832,45.82133400117677],[-0.801636369309156,45.82039244317237],[-0.801374710460961,45.81914000972948],[-0.801118872154845,45.81864557118346],[-0.799783231539207,45.817393246137215],[-0.797949082687251,45.81603417737739],[-0.796834219301359,45.81547758627745],[-0.79644351249659,45.81517699910758],[-0.795965055019269,45.814556614280214],[-0.795827344344256,45.814185308098715],[-0.795718004826603,45.81259597910958],[-0.796028627796812,45.8122763035544],[-0.797096756250482,45.81157413000664],[-0.797518989135598,45.81087204989531],[-0.798115424378275,45.81028490920519],[-0.798853119623525,45.8099896133568],[-0.799265247406083,45.81005867733304],[-0.801457670431025,45.810127271441154],[-0.802979683262486,45.81086842985535],[-0.803982947938088,45.81109695626471],[-0.804573679674578,45.81100761986726],[-0.805817627840302,45.81098730361283],[-0.806434541858341,45.810866421884384],[-0.80733731972753,45.81083415827526],[-0.80931121934922,45.81061246708485],[-0.811304313871226,45.810556877449244],[-0.8122656543097,45.81023410274264],[-0.813389965979698,45.80973271529027],[-0.813418114681315,45.809225998988474],[-0.814196982891009,45.807196444138924],[-0.81458276855949,45.80720143166996],[-0.815130001761422,45.80674477790988],[-0.815589142181038,45.80650566779788],[-0.817208916255637,45.806161478537284],[-0.818528192818838,45.80613215880128],[-0.81950945021021,45.80576356705701],[-0.822197842504,45.804358963427774],[-0.823594394901863,45.80328748092303],[-0.825659924841929,45.802309594123855],[-0.828446929016239,45.80026859866492],[-0.8291413363643,45.79968787125109],[-0.830306264056512,45.79845827451924],[-0.830087378134507,45.79764439437657],[-0.829396931790984,45.796869964500104],[-0.829125405862309,45.796244491148734],[-0.829112688947887,45.796024043129805],[-0.829559521854742,45.79566538287596],[-0.830404471238589,45.79229644773558],[-0.830774308224803,45.79185024121087],[-0.830839539189611,45.79154600617213],[-0.830983053391778,45.79158981530734],[-0.831150940654276,45.79131635202039],[-0.832441794523796,45.790103184194635],[-0.832934009011885,45.789805173277195],[-0.833125136413166,45.78724999066237],[-0.833460361020335,45.786473178854216],[-0.833686843689434,45.7863572938363],[-0.833830805249874,45.785980960467825],[-0.833820364559866,45.7855152129731],[-0.83404628683549,45.78513158512936],[-0.833995795013702,45.78470145824816],[-0.833880519690564,45.784525968411025],[-0.834139702892533,45.78367510699015],[-0.834624849704328,45.78292384595545],[-0.835201484165958,45.782506651681615],[-0.835478214992363,45.781964422078424],[-0.83805647258089,45.78200021256644],[-0.837101264007326,45.783792552342014],[-0.837644523300836,45.783710957438316],[-0.838196980855924,45.78372461156725],[-0.838641649422185,45.78387446066983],[-0.839104182000346,45.78426261201643],[-0.83956606205406,45.78503033866824],[-0.839705237320649,45.78508600430621],[-0.839589268279712,45.785197237845566],[-0.839514044642947,45.78652418362469],[-0.839298048691413,45.7868092160969],[-0.838038115669611,45.78724067141609],[-0.836143599234611,45.78823913890331],[-0.836505372948143,45.788753340120834],[-0.838070277815974,45.78825923504229],[-0.840096452809916,45.78807937143621],[-0.840696631860485,45.78820408442716],[-0.841227392912952,45.7885349104162],[-0.842057657623691,45.788817666058954],[-0.842568241981157,45.788839939499724],[-0.844235047376196,45.78858840055928],[-0.846574191719168,45.790643536272526],[-0.847971444781043,45.7906842262424],[-0.84932853563811,45.79127622189335],[-0.848790268089809,45.79204018218395],[-0.849602096144684,45.792667009419446],[-0.85044896803221,45.793186250853324],[-0.852563515098107,45.79417788762207],[-0.853065786196061,45.79347103481105],[-0.85439853802454,45.794358616614936],[-0.8545611327763,45.7945829589842],[-0.854758659830329,45.795344341105036],[-0.854526805502936,45.79560470250723],[-0.855236274153356,45.79686788942585],[-0.855389096626594,45.79789315431824],[-0.855755975725788,45.79842155285603],[-0.85712035071274,45.79787814435343],[-0.858260131597188,45.80144182260763],[-0.858392516997932,45.80250565075897],[-0.859032524297018,45.803731527025754],[-0.85896682650024,45.803971788041],[-0.859049702419977,45.8040140313761],[-0.859419541314534,45.803883273967784],[-0.859809857822325,45.80389786854192],[-0.860494274835552,45.80398894821492],[-0.860506906528892,45.80409580249496],[-0.860362336565753,45.804369416878785],[-0.859752366785287,45.804697722588415],[-0.859422472998529,45.804773020352634],[-0.859232613272397,45.806094901723476],[-0.858640974645705,45.806814755004346],[-0.85876931192731,45.80793101296272],[-0.858646593054934,45.80894135879446],[-0.858307897559376,45.80961018425516],[-0.857482428985586,45.8118174962092]]]]}}]}