{"type":"FeatureCollection","features":[{"type":"Feature","properties":{"fid":1320,"ID":"COMMUNE_0000000009760326","NOM":"Saint-Martin-de-Seignanx","NOM_M":"SAINT-MARTIN-DE-SEIGNANX","INSEE_COM":"40273","STATUT":"Commune simple","POPULATION":6123,"INSEE_CAN":"15","INSEE_ARR":"1","INSEE_DEP":"40","INSEE_REG":"75","SIREN_EPCI":"244000659"},"geometry":{"type":"MultiPolygon","coordinates":[[[[-1.433097377401418,43.53854268907442],[-1.433157443518259,43.53912777996672],[-1.431921499483639,43.53956489569561],[-1.431770186055927,43.54023612532593],[-1.432032008853526,43.54065887492811],[-1.431994149638888,43.54122724310825],[-1.431525769525833,43.54202767972674],[-1.431717235610403,43.542245141322795],[-1.431620514058916,43.543302534841494],[-1.431477082284398,43.5435787406551],[-1.432125853398848,43.54365405536592],[-1.432804451105866,43.54456441272926],[-1.432817312290935,43.54506762919083],[-1.432673000804475,43.54566918780124],[-1.431747271662182,43.54661177767787],[-1.431673616621,43.54681304055889],[-1.431185553208182,43.54711864900533],[-1.430964675544166,43.54775577523024],[-1.430670097568522,43.54806428913507],[-1.430474851184231,43.5481029050259],[-1.430350829248881,43.54839003154326],[-1.429185815030544,43.54873770197086],[-1.428173089242565,43.548795279463505],[-1.427733211525272,43.548906959251816],[-1.426708260140633,43.54975352638798],[-1.426017658328827,43.55069457617894],[-1.426816515577964,43.55096385573053],[-1.430991135648436,43.55169182187595],[-1.430488663219242,43.552870330403934],[-1.43033775515944,43.552857570851295],[-1.430114448781028,43.55333529183889],[-1.430628183388365,43.55345758926483],[-1.430516918441645,43.55374960238382],[-1.431222703188098,43.55391992319809],[-1.430921247054772,43.554893770412804],[-1.431071853467093,43.55519130645025],[-1.430855342924392,43.55583726787644],[-1.430470246900066,43.556193635668016],[-1.430041046393799,43.55682935902997],[-1.430111251895671,43.5571608199578],[-1.430439064199204,43.55763495509513],[-1.430203214915332,43.55839975698723],[-1.429888744711012,43.55870818000946],[-1.429822087592254,43.5590163941891],[-1.429105054774332,43.559599886648236],[-1.428794708853961,43.55959273334144],[-1.428476016050968,43.55995899832547],[-1.427489061180876,43.56162136881752],[-1.427477568924356,43.562018346620036],[-1.427317380062771,43.56219069767932],[-1.427347186572563,43.562303927969445],[-1.428094087840345,43.56382433197204],[-1.427734655874657,43.564610395035935],[-1.427013050460647,43.565167925304934],[-1.426070757969581,43.564905390117],[-1.425290608392218,43.564575855166495],[-1.424952156530525,43.56455812132159],[-1.424742260036025,43.56472889131704],[-1.426177676500177,43.565873376618036],[-1.42628162029546,43.56599980332823],[-1.426314277769742,43.566519340251304],[-1.426753334036198,43.56676456282633],[-1.426707830227885,43.56694575030633],[-1.426846627874748,43.56713834136329],[-1.426888613816752,43.56755386475522],[-1.42669545316117,43.56789337369688],[-1.426339297305269,43.56817645180899],[-1.426405555978672,43.56847293326814],[-1.426306639716512,43.568732898626926],[-1.426958985168377,43.569075755648896],[-1.427094460419525,43.56922522678831],[-1.426952581026336,43.56949055083489],[-1.426663398396536,43.56975828073748],[-1.426358871420911,43.56989146179043],[-1.426031210221252,43.56993366742055],[-1.426318350378259,43.57004090542619],[-1.426403851173813,43.570185207247995],[-1.426308085749237,43.57026120743576],[-1.425931046547166,43.570273886705586],[-1.425813623674732,43.5702137936003],[-1.425706317101374,43.56991538138855],[-1.425614612450691,43.569915517822075],[-1.425027741879535,43.57048556014876],[-1.424322957704484,43.57071616476446],[-1.42391344873092,43.57101492750007],[-1.423677687099146,43.57162201001261],[-1.423675101659249,43.57174917898832],[-1.423908608101596,43.571723436576164],[-1.423850830951794,43.57213131466119],[-1.423357720167727,43.572937232681944],[-1.423077741444306,43.57316402480942],[-1.422893051766442,43.573115682274064],[-1.42272533392552,43.573480280171566],[-1.42341696124293,43.57360888558643],[-1.423467932842462,43.57375549895951],[-1.423081261141479,43.57463998297717],[-1.42247431430231,43.575368532094686],[-1.421657674253382,43.57566044984189],[-1.420189416209555,43.575539143930776],[-1.419794440228272,43.57557686254276],[-1.418312720534626,43.57521637165482],[-1.416604165169485,43.5752417794717],[-1.400366672754034,43.57658101204529],[-1.395285482630234,43.58061864235599],[-1.385362629029727,43.56635593221957],[-1.379871311445393,43.56341752362938],[-1.376584643991926,43.56149741594664],[-1.37523292665992,43.560590447829085],[-1.373302866364355,43.55911835293529],[-1.373036690058031,43.558487487258006],[-1.37274627822815,43.556303169331436],[-1.372752042603542,43.55589112613665],[-1.372892845685366,43.555560146042666],[-1.372759645400382,43.55473919179235],[-1.372951421515969,43.55405291896455],[-1.372024725894604,43.553013444878346],[-1.372274324467589,43.55248434066038],[-1.371467721557521,43.55123186566915],[-1.371002336276382,43.54954661815614],[-1.369803167693134,43.54774225783365],[-1.368900218884308,43.54706135389506],[-1.368668989366598,43.54677420396808],[-1.368206436300062,43.54605212507703],[-1.367743349283482,43.54504621764575],[-1.366964417135032,43.54421973386906],[-1.366591199144029,43.544133838786216],[-1.365792034377427,43.54409933361009],[-1.365341257239174,43.54388950092886],[-1.365510605597659,43.54359162663116],[-1.365250225547331,43.5431488526405],[-1.363078371688441,43.54281904753043],[-1.36292441488834,43.542814428631324],[-1.36274284014852,43.54291905300238],[-1.362357268807915,43.54249122202716],[-1.362202811204262,43.541567498101195],[-1.362110719136823,43.54162707102885],[-1.361563586485511,43.541403979468804],[-1.361392575349484,43.541142329586044],[-1.360574632014046,43.54081118000894],[-1.359280317471203,43.540601000811634],[-1.35905743250879,43.54039009265944],[-1.358530437987955,43.54030134221315],[-1.355512839841898,43.540968656120356],[-1.35514570199129,43.54159885147432],[-1.35437045258972,43.5415687100458],[-1.354368486342304,43.541379558661625],[-1.353108076590283,43.541028274856636],[-1.351523110122769,43.54028450945426],[-1.345244649842939,43.53538295348152],[-1.34472965350856,43.53278503463563],[-1.345267214965481,43.531771397183874],[-1.344658776105373,43.53155428970484],[-1.344598494493754,43.531428751334],[-1.344246502527606,43.52960915078287],[-1.344457632817079,43.52919159898192],[-1.344532177310669,43.528589391849316],[-1.344352810970839,43.528379418641606],[-1.343633244272046,43.52813342052168],[-1.34337664617434,43.52813018462848],[-1.343378954178301,43.52745698449364],[-1.343764207207424,43.52636205442218],[-1.343734665842201,43.525922609758595],[-1.343948507583363,43.525230121597424],[-1.344580348373421,43.524693889454966],[-1.344915875460156,43.52416952991486],[-1.34488689025346,43.52391748821283],[-1.345240253803185,43.523481619660735],[-1.345441266688495,43.52253824178774],[-1.344705810494172,43.522048699225294],[-1.34451389987709,43.52175452947589],[-1.344142665402067,43.52143060176918],[-1.344242054674061,43.520584111384494],[-1.344413791274164,43.520366376706576],[-1.344464682807018,43.519631761561385],[-1.339829540907602,43.51862711337948],[-1.340295838694185,43.51324886919296],[-1.337113923887389,43.51398626275443],[-1.335322045468021,43.514522899485755],[-1.332946518619947,43.51502066485965],[-1.332706162548721,43.51501855898679],[-1.333234917660867,43.51369087579611],[-1.333084794339659,43.51322742225865],[-1.333494662234254,43.512900168337495],[-1.332661017680787,43.51258298131516],[-1.332555721362837,43.5124673487912],[-1.332918817399529,43.51214376887682],[-1.33338198232786,43.512030640238414],[-1.333655886509414,43.51175567687591],[-1.334223951865287,43.51017862539529],[-1.334304995115439,43.510104200362804],[-1.334550607003041,43.51011059699166],[-1.33517683892481,43.50979630841263],[-1.336203807242642,43.50850995414408],[-1.337695152368865,43.50807813588614],[-1.338067060046085,43.507724449668565],[-1.337965539547116,43.50751135657993],[-1.337106127519145,43.506983488422286],[-1.337011543147232,43.50650160020841],[-1.336661020517281,43.506089424087776],[-1.336375966677019,43.50595395701063],[-1.336008363617171,43.50556138500715],[-1.335900705042548,43.50515210483234],[-1.335421373622487,43.50431256980688],[-1.335081859798017,43.5028817516357],[-1.340533764338295,43.50214901458386],[-1.345175148368178,43.50111060152189],[-1.349838288710882,43.499854854418686],[-1.350865781733113,43.499692861408086],[-1.351885004732837,43.4996014739164],[-1.355568560438069,43.49995807720743],[-1.356680446648646,43.49976650528363],[-1.359398739472936,43.498593015717724],[-1.359823967227479,43.49830828909627],[-1.361625316479861,43.49741672140373],[-1.361137847035592,43.49605049255834],[-1.364596420314782,43.495598562209835],[-1.36769155577603,43.4951044024433],[-1.370187092647559,43.49491277046342],[-1.37599657084878,43.495589293499165],[-1.383079639866808,43.49681412377808],[-1.385295452005106,43.497011015443356],[-1.388586449495769,43.496861554957036],[-1.390291085383409,43.49665373276438],[-1.392556245628626,43.496686280733414],[-1.395529815544515,43.49659453045478],[-1.398941095355476,43.49675525801481],[-1.401056865888638,43.49693786923547],[-1.406971665139602,43.4969777080614],[-1.409882862036385,43.49678267166614],[-1.410735960186091,43.496947092240305],[-1.414368880024837,43.49712354577467],[-1.414585406707322,43.49852315457055],[-1.414519733185895,43.49865108410163],[-1.412877334312276,43.49891172143087],[-1.412166849029586,43.499637208885645],[-1.411616884993256,43.49977764581598],[-1.411525932000733,43.500092230453255],[-1.411318069770846,43.500238561967834],[-1.411270369796069,43.50040720851917],[-1.410397268954693,43.50080499283508],[-1.410270112383105,43.50098678496214],[-1.41053637254112,43.50135891830094],[-1.410651431706248,43.501809294156075],[-1.411080882507839,43.50206575027396],[-1.411088197673653,43.502434906648595],[-1.411379836652346,43.50266993838869],[-1.411391248584333,43.503543548995665],[-1.411814016725265,43.504373380760875],[-1.411778023886826,43.50464608005832],[-1.411917376034189,43.505106280630876],[-1.411834055467606,43.50534306024748],[-1.411969071379016,43.5056340288313],[-1.411990846901749,43.50611073091699],[-1.411750636607622,43.50659359321289],[-1.41185296367432,43.50731301978869],[-1.412000757035339,43.507641315462266],[-1.411661534757229,43.50826968319231],[-1.411770104605483,43.509392555100895],[-1.411666295349307,43.51007171442321],[-1.411445532522366,43.510405101318305],[-1.411733212208712,43.51045917251118],[-1.411910611982696,43.510608744785266],[-1.412208111289061,43.5117410487033],[-1.412707580100253,43.51276240324287],[-1.413327406418185,43.513641886466786],[-1.412705900678068,43.51438357931824],[-1.412755315712483,43.51484924705035],[-1.413225590579785,43.515329318695315],[-1.412955485708631,43.51561695927302],[-1.412768046030795,43.5155786336131],[-1.412226102006161,43.516002594476724],[-1.411294434976557,43.51644691984727],[-1.41117170571767,43.517041245230764],[-1.411388335116542,43.5177010581296],[-1.411464299434806,43.51833505694813],[-1.413232486910169,43.51807654776491],[-1.413049183381043,43.51834984102686],[-1.412317492934179,43.51897977341525],[-1.412776385558324,43.51966576830859],[-1.413762328137228,43.520200541159994],[-1.413299396796162,43.520702390889106],[-1.412872490076957,43.520996415246856],[-1.412803860362576,43.521295677924506],[-1.413705162433907,43.52251694924687],[-1.413999308951839,43.522493257603585],[-1.414064865408266,43.52284653164015],[-1.413849640633273,43.52296252892098],[-1.413887206200923,43.52317726881906],[-1.412995423289723,43.52336856966718],[-1.413383643498623,43.52480988091979],[-1.413979943063851,43.526428352717424],[-1.414346055595404,43.52688923951329],[-1.415594122441607,43.527963918832526],[-1.416912997767709,43.52865452432581],[-1.418464982812074,43.52923558965679],[-1.41960764809884,43.53004959291606],[-1.42159187742309,43.53058145550665],[-1.42547772702184,43.53147182642268],[-1.426792701296032,43.53191647057608],[-1.427057223049252,43.53308165370044],[-1.427566791720231,43.53459728647999],[-1.427786209148102,43.53490462587714],[-1.427889992519209,43.534981490033566],[-1.428320955434187,43.534835927144584],[-1.42910211184996,43.53536002283895],[-1.429776150666702,43.53582811368322],[-1.429777550450013,43.53635972988775],[-1.43006381898425,43.536602155773636],[-1.433097377401418,43.53854268907442]]]]}},{"type":"Feature","properties":{"fid":1853,"ID":"COMMUNE_0000000009760091","NOM":"Saint-André-de-Seignanx","NOM_M":"SAINT-ANDRE-DE-SEIGNANX","INSEE_COM":"40248","STATUT":"Commune simple","POPULATION":1913,"INSEE_CAN":"15","INSEE_ARR":"1","INSEE_DEP":"40","INSEE_REG":"75","SIREN_EPCI":"244000659"},"geometry":{"type":"MultiPolygon","coordinates":[[[[-1.338370696435139,43.580900508672734],[-1.336793913219919,43.58003088957576],[-1.338408967907134,43.57699897243616],[-1.337049582940446,43.575757524431175],[-1.336153898845636,43.57459935702697],[-1.330952932918708,43.573067959995456],[-1.329632982955024,43.57072010973258],[-1.328267810621751,43.57015282330508],[-1.328295758162998,43.56984984033033],[-1.328689621335203,43.56889428063694],[-1.33031635739739,43.56885549377308],[-1.329401147175429,43.56658160568366],[-1.32953995658096,43.56528479438148],[-1.330143501468542,43.56275746075833],[-1.331196483407987,43.560423037644284],[-1.332137287422611,43.55780203189036],[-1.332394314128457,43.555331783348734],[-1.331816364250956,43.55322378713685],[-1.331862967122066,43.553135421193865],[-1.332427233248971,43.55314261911187],[-1.332094608439936,43.552691843837295],[-1.332124051037165,43.55229418829254],[-1.331982993170022,43.55195200185639],[-1.331991016704934,43.55156601515459],[-1.33209115843255,43.55130069939817],[-1.332533584571458,43.55085951473559],[-1.332677498480307,43.55051765943463],[-1.332841787834135,43.54946132775543],[-1.333707055608367,43.5492879881606],[-1.335486763620337,43.54769041220395],[-1.336460242543624,43.54763797493114],[-1.336651340581457,43.54754382895336],[-1.336773147887248,43.54709021552762],[-1.336637219937491,43.54709474998269],[-1.336642897740452,43.54720265365758],[-1.33647670643538,43.54729850698852],[-1.336061262342864,43.54719437228054],[-1.336159899791721,43.546975068208994],[-1.336105077681682,43.546462738521726],[-1.335765170481997,43.546374505619156],[-1.336068589334633,43.54584875411364],[-1.335881984915136,43.54582197368202],[-1.33662603082223,43.54304570800191],[-1.33721843787788,43.54195152476429],[-1.337459275139308,43.5417454549758],[-1.333307540207,43.53725644843394],[-1.339545704755749,43.5371322193958],[-1.339855846033533,43.53695851248665],[-1.340263745797746,43.537062030133],[-1.340839374095665,43.53669747597096],[-1.341322124885236,43.53679168544225],[-1.344831126027232,43.53559776387372],[-1.345244649842939,43.53538295348152],[-1.351523110122769,43.54028450945426],[-1.353108076590283,43.541028274856636],[-1.354368486342304,43.541379558661625],[-1.35437045258972,43.5415687100458],[-1.35514570199129,43.54159885147432],[-1.355512839841898,43.540968656120356],[-1.358530437987955,43.54030134221315],[-1.35905743250879,43.54039009265944],[-1.359280317471203,43.540601000811634],[-1.360574632014046,43.54081118000894],[-1.361392575349484,43.541142329586044],[-1.361563586485511,43.541403979468804],[-1.362110719136823,43.54162707102885],[-1.362202811204262,43.541567498101195],[-1.362357268807915,43.54249122202716],[-1.36274284014852,43.54291905300238],[-1.36292441488834,43.542814428631324],[-1.363078371688441,43.54281904753043],[-1.365250225547331,43.5431488526405],[-1.365510605597659,43.54359162663116],[-1.365341257239174,43.54388950092886],[-1.365792034377427,43.54409933361009],[-1.366591199144029,43.544133838786216],[-1.366964417135032,43.54421973386906],[-1.367743349283482,43.54504621764575],[-1.368206436300062,43.54605212507703],[-1.368668989366598,43.54677420396808],[-1.368900218884308,43.54706135389506],[-1.369803167693134,43.54774225783365],[-1.371002336276382,43.54954661815614],[-1.371467721557521,43.55123186566915],[-1.372274324467589,43.55248434066038],[-1.372024725894604,43.553013444878346],[-1.372951421515969,43.55405291896455],[-1.372759645400382,43.55473919179235],[-1.372892845685366,43.555560146042666],[-1.372752042603542,43.55589112613665],[-1.37274627822815,43.556303169331436],[-1.373036690058031,43.558487487258006],[-1.373302866364355,43.55911835293529],[-1.37523292665992,43.560590447829085],[-1.376584643991926,43.56149741594664],[-1.379871311445393,43.56341752362938],[-1.385362629029727,43.56635593221957],[-1.395285482630234,43.58061864235599],[-1.395482536461457,43.5809900432925],[-1.394659434981189,43.581297331613015],[-1.393753179497708,43.582962405230845],[-1.3914845565269,43.588578279700755],[-1.387406666695984,43.58826651366808],[-1.38841002573188,43.584886294167596],[-1.386541037589926,43.58558905778643],[-1.383737306386231,43.58561134078659],[-1.382899582870146,43.585388353374945],[-1.361635634715869,43.588863782477425],[-1.343537272201701,43.58376572266791],[-1.338370696435139,43.580900508672734]]]]}},{"type":"Feature","properties":{"fid":2368,"ID":"COMMUNE_0000000009760325","NOM":"Biaudos","NOM_M":"BIAUDOS","INSEE_COM":"40044","STATUT":"Commune simple","POPULATION":1022,"INSEE_CAN":"15","INSEE_ARR":"1","INSEE_DEP":"40","INSEE_REG":"75","SIREN_EPCI":"244000659"},"geometry":{"type":"MultiPolygon","coordinates":[[[[-1.330952932918708,43.573067959995456],[-1.328738562763868,43.57249852697251],[-1.327151424380981,43.572439289234445],[-1.323535689465383,43.57213649183753],[-1.319751906328399,43.57049042800861],[-1.317965812032677,43.56959826128719],[-1.316642231954825,43.56903819031855],[-1.315857795316693,43.56857740385571],[-1.314958293270334,43.56774002839978],[-1.313791082089967,43.56700069791102],[-1.313442287408326,43.5665811436882],[-1.312388966452794,43.56597153380443],[-1.311748786165658,43.5656978194442],[-1.309857542893427,43.565348560597755],[-1.30773990565968,43.56520199266531],[-1.306741565981376,43.565488527409286],[-1.306682943781076,43.56528540793653],[-1.306517648979925,43.565196455159516],[-1.304844328567795,43.56482764682499],[-1.304697979900656,43.564892024411236],[-1.30330318373232,43.56458512815495],[-1.303479137504286,43.56430422006542],[-1.303821434676287,43.56424198228532],[-1.303004054532053,43.56350488593992],[-1.302141812956432,43.56291283516023],[-1.301842057649677,43.56215430152488],[-1.301414624582853,43.56180811719958],[-1.301178261366912,43.56146516851722],[-1.30085889752949,43.56128770400259],[-1.300179418880762,43.56116596426493],[-1.299168090050091,43.5606338678669],[-1.297595569726995,43.56011949262155],[-1.29566147364397,43.559558142373604],[-1.295314217710451,43.55955387205649],[-1.2951841714691,43.55950495724158],[-1.295088375408757,43.559317723316276],[-1.29434533680785,43.55909123795117],[-1.294341308955112,43.55898777431059],[-1.293100847622071,43.558240330629516],[-1.292175451092144,43.55799401665991],[-1.291839066523865,43.55780368539973],[-1.291632607697306,43.557909169464764],[-1.291566941533066,43.55785950557303],[-1.291721963146366,43.55764612650802],[-1.291372121650576,43.55737523034242],[-1.291097061620515,43.55729240112877],[-1.290907402009634,43.55740713095372],[-1.289978889783596,43.5572348100208],[-1.289759512741563,43.55705155901991],[-1.289258709811821,43.55694881868806],[-1.289188701060472,43.557039891521775],[-1.288432851041437,43.55679044704548],[-1.287389508856266,43.556225275171066],[-1.287386553973783,43.55593705140917],[-1.287609514820547,43.55568765407932],[-1.286188145128647,43.55352811733945],[-1.279839997660053,43.55115401333642],[-1.281061139789732,43.550102943434155],[-1.281429919201473,43.55004783866594],[-1.281702961349776,43.54980548816512],[-1.281412815788766,43.5492375630126],[-1.281920210158755,43.54846695196329],[-1.282544821498545,43.54787282211998],[-1.282853408268073,43.546629794075095],[-1.282924621437485,43.546554897321556],[-1.283085534100194,43.546586386789535],[-1.283851320624819,43.544349456107085],[-1.283763952603264,43.54412494048741],[-1.284877801130689,43.54338171775549],[-1.284932949737502,43.54302542426432],[-1.285505904996952,43.54298476259497],[-1.286020975433168,43.542849071716184],[-1.286544478255004,43.54234541450115],[-1.287526178543351,43.541939875692044],[-1.287922803189842,43.54147907203578],[-1.2886448597361,43.54108018461199],[-1.289911595002894,43.54100845452883],[-1.290658903766157,43.541196043007176],[-1.291472622853965,43.54043308630402],[-1.293538732353318,43.53894384838431],[-1.29721485627073,43.53725561685768],[-1.300380049706997,43.535412713712105],[-1.300871464357492,43.53461560869361],[-1.301351343366496,43.53128518394918],[-1.301688016505703,43.52986167276118],[-1.301955471183662,43.529315833279064],[-1.302865561295213,43.52812456346281],[-1.303276892935236,43.5272846723555],[-1.306010034013382,43.52406660618318],[-1.307817808120862,43.52165564526199],[-1.311432357238199,43.51933229263744],[-1.313241361836413,43.51798082710203],[-1.314389413245997,43.516616893508356],[-1.314900788697258,43.516155921863565],[-1.315053553279785,43.51523977429453],[-1.315280849611514,43.515150531548514],[-1.315833045551631,43.515249287762195],[-1.315921409966856,43.51515656480383],[-1.316432167091508,43.515033506054586],[-1.316909734868273,43.5144855670565],[-1.317342340955503,43.51421243671382],[-1.317406607574409,43.5138981114423],[-1.317583498542473,43.51368202033313],[-1.318077746979122,43.513405530301334],[-1.318440421334156,43.51335503895586],[-1.318612433867884,43.513699597531975],[-1.32230611622722,43.51809641246221],[-1.325936277844484,43.52266146911584],[-1.325571792854626,43.525465718854356],[-1.325217442920098,43.52700806957437],[-1.324995454476909,43.52772696842675],[-1.324286552540553,43.52910054340977],[-1.323609352758794,43.530698117170864],[-1.323192298946173,43.53223125012919],[-1.324135940400383,43.533758782615024],[-1.324773421840078,43.53403341468095],[-1.325383649129781,43.5341271135788],[-1.32594378460164,43.53437779248841],[-1.328011131367355,43.53562888349524],[-1.328517599432627,43.535857363502345],[-1.329893559910811,43.53626648120066],[-1.330806719462585,43.536713891755326],[-1.333307540207,43.53725644843394],[-1.337459275139308,43.5417454549758],[-1.33721843787788,43.54195152476429],[-1.33662603082223,43.54304570800191],[-1.335881984915136,43.54582197368202],[-1.336068589334633,43.54584875411364],[-1.335765170481997,43.546374505619156],[-1.336105077681682,43.546462738521726],[-1.336159899791721,43.546975068208994],[-1.336061262342864,43.54719437228054],[-1.33647670643538,43.54729850698852],[-1.336642897740452,43.54720265365758],[-1.336637219937491,43.54709474998269],[-1.336773147887248,43.54709021552762],[-1.336651340581457,43.54754382895336],[-1.336460242543624,43.54763797493114],[-1.335486763620337,43.54769041220395],[-1.333707055608367,43.5492879881606],[-1.332841787834135,43.54946132775543],[-1.332677498480307,43.55051765943463],[-1.332533584571458,43.55085951473559],[-1.33209115843255,43.55130069939817],[-1.331991016704934,43.55156601515459],[-1.331982993170022,43.55195200185639],[-1.332124051037165,43.55229418829254],[-1.332094608439936,43.552691843837295],[-1.332427233248971,43.55314261911187],[-1.331862967122066,43.553135421193865],[-1.331816364250956,43.55322378713685],[-1.332394314128457,43.555331783348734],[-1.332137287422611,43.55780203189036],[-1.331196483407987,43.560423037644284],[-1.330143501468542,43.56275746075833],[-1.32953995658096,43.56528479438148],[-1.329401147175429,43.56658160568366],[-1.33031635739739,43.56885549377308],[-1.328689621335203,43.56889428063694],[-1.328295758162998,43.56984984033033],[-1.328267810621751,43.57015282330508],[-1.329632982955024,43.57072010973258],[-1.330952932918708,43.573067959995456]]]]}},{"type":"Feature","properties":{"fid":2938,"ID":"COMMUNE_0000000009760094","NOM":"Ondres","NOM_M":"ONDRES","INSEE_COM":"40209","STATUT":"Commune simple","POPULATION":6194,"INSEE_CAN":"15","INSEE_ARR":"1","INSEE_DEP":"40","INSEE_REG":"75","SIREN_EPCI":"244000659"},"geometry":{"type":"MultiPolygon","coordinates":[[[[-1.42247431430231,43.575368532094686],[-1.423081261141479,43.57463998297717],[-1.423467932842462,43.57375549895951],[-1.42341696124293,43.57360888558643],[-1.42272533392552,43.573480280171566],[-1.422893051766442,43.573115682274064],[-1.423077741444306,43.57316402480942],[-1.423357720167727,43.572937232681944],[-1.423850830951794,43.57213131466119],[-1.423908608101596,43.571723436576164],[-1.423675101659249,43.57174917898832],[-1.423677687099146,43.57162201001261],[-1.42391344873092,43.57101492750007],[-1.424322957704484,43.57071616476446],[-1.425027741879535,43.57048556014876],[-1.425614612450691,43.569915517822075],[-1.425706317101374,43.56991538138855],[-1.425813623674732,43.5702137936003],[-1.425931046547166,43.570273886705586],[-1.426308085749237,43.57026120743576],[-1.426403851173813,43.570185207247995],[-1.426318350378259,43.57004090542619],[-1.426031210221252,43.56993366742055],[-1.426358871420911,43.56989146179043],[-1.426663398396536,43.56975828073748],[-1.426952581026336,43.56949055083489],[-1.427094460419525,43.56922522678831],[-1.426958985168377,43.569075755648896],[-1.426306639716512,43.568732898626926],[-1.426405555978672,43.56847293326814],[-1.426339297305269,43.56817645180899],[-1.42669545316117,43.56789337369688],[-1.426888613816752,43.56755386475522],[-1.426846627874748,43.56713834136329],[-1.426707830227885,43.56694575030633],[-1.426753334036198,43.56676456282633],[-1.426314277769742,43.566519340251304],[-1.42628162029546,43.56599980332823],[-1.426177676500177,43.565873376618036],[-1.424742260036025,43.56472889131704],[-1.424952156530525,43.56455812132159],[-1.425290608392218,43.564575855166495],[-1.426070757969581,43.564905390117],[-1.427013050460647,43.565167925304934],[-1.427734655874657,43.564610395035935],[-1.428094087840345,43.56382433197204],[-1.427347186572563,43.562303927969445],[-1.427317380062771,43.56219069767932],[-1.427477568924356,43.562018346620036],[-1.427489061180876,43.56162136881752],[-1.428476016050968,43.55995899832547],[-1.428794708853961,43.55959273334144],[-1.429105054774332,43.559599886648236],[-1.429822087592254,43.5590163941891],[-1.429888744711012,43.55870818000946],[-1.430203214915332,43.55839975698723],[-1.430439064199204,43.55763495509513],[-1.430111251895671,43.5571608199578],[-1.430041046393799,43.55682935902997],[-1.430470246900066,43.556193635668016],[-1.430855342924392,43.55583726787644],[-1.431071853467093,43.55519130645025],[-1.430921247054772,43.554893770412804],[-1.431222703188098,43.55391992319809],[-1.430516918441645,43.55374960238382],[-1.430628183388365,43.55345758926483],[-1.430114448781028,43.55333529183889],[-1.43033775515944,43.552857570851295],[-1.430488663219242,43.552870330403934],[-1.430991135648436,43.55169182187595],[-1.426816515577964,43.55096385573053],[-1.426017658328827,43.55069457617894],[-1.426708260140633,43.54975352638798],[-1.427733211525272,43.548906959251816],[-1.428173089242565,43.548795279463505],[-1.429185815030544,43.54873770197086],[-1.430350829248881,43.54839003154326],[-1.430474851184231,43.5481029050259],[-1.430670097568522,43.54806428913507],[-1.430964675544166,43.54775577523024],[-1.431185553208182,43.54711864900533],[-1.431673616621,43.54681304055889],[-1.431747271662182,43.54661177767787],[-1.432673000804475,43.54566918780124],[-1.432817312290935,43.54506762919083],[-1.432804451105866,43.54456441272926],[-1.432125853398848,43.54365405536592],[-1.431477082284398,43.5435787406551],[-1.431620514058916,43.543302534841494],[-1.431717235610403,43.542245141322795],[-1.431525769525833,43.54202767972674],[-1.431994149638888,43.54122724310825],[-1.432032008853526,43.54065887492811],[-1.431770186055927,43.54023612532593],[-1.431921499483639,43.53956489569561],[-1.433157443518259,43.53912777996672],[-1.433097377401418,43.53854268907442],[-1.433919850041568,43.53844597901042],[-1.435647253644999,43.53840596613097],[-1.435944389049369,43.53841994358579],[-1.436490863734523,43.538614761666025],[-1.436920195643969,43.538912595827455],[-1.437874076489833,43.53934576058482],[-1.440030132405123,43.54004239664375],[-1.442263265337186,43.541573906586116],[-1.442555355641109,43.54166647371431],[-1.442860746650516,43.54207479999344],[-1.443129847239446,43.542158395008926],[-1.443444605660618,43.54214369495763],[-1.444325330272341,43.54259061984],[-1.444985065518507,43.54271136742095],[-1.445484781652186,43.54262149294281],[-1.446823869421882,43.54333977895775],[-1.447482746161085,43.543417291641845],[-1.447816200607185,43.543547799863134],[-1.448499885034554,43.54407306582109],[-1.44856956410309,43.54493982552908],[-1.449336457888803,43.54537155816488],[-1.450052277702052,43.54629471216572],[-1.450283945481463,43.54672587292067],[-1.450927090513144,43.54738255822532],[-1.451048236806594,43.547474911389244],[-1.451315333994562,43.54751621555084],[-1.451511445739543,43.54769650853188],[-1.451676419808526,43.54811418414722],[-1.452293730457327,43.548772824941864],[-1.452427029380073,43.54937293453414],[-1.452916264746772,43.549706103884205],[-1.453275268250417,43.55014915437979],[-1.453163259093884,43.550573696901026],[-1.45571671212745,43.55505486347982],[-1.466061611461245,43.559267734430165],[-1.469363843782929,43.56060063986438],[-1.470825052011758,43.5612703796236],[-1.477252159445759,43.56381518198323],[-1.481536315411343,43.56565333294695],[-1.483445317291003,43.566562157382805],[-1.493688391154674,43.57048031164523],[-1.493433445100377,43.57100726203442],[-1.4926629837398,43.57196290632806],[-1.492261338756315,43.572674367380614],[-1.49082295809878,43.574598510564805],[-1.490462217217819,43.57496220861788],[-1.489433682971451,43.57643859165345],[-1.48878591904353,43.577664898063674],[-1.48685786693238,43.58011481906509],[-1.485601388006123,43.582261173385284],[-1.483742479704499,43.58448918335577],[-1.482636821361534,43.58642649752037],[-1.459023700825755,43.58141996647081],[-1.453253465897475,43.580100594586284],[-1.449418067135121,43.579334230487284],[-1.449056797928286,43.57919944869423],[-1.443304835654865,43.577981553726325],[-1.440761042534905,43.57764322104274],[-1.433078377114868,43.57859181529153],[-1.434580602622994,43.57767611772701],[-1.431935842149584,43.57736153349184],[-1.430077989365636,43.57689940950821],[-1.430417341918701,43.57651066727649],[-1.429884716782289,43.5762909025812],[-1.424226962912636,43.5754646932408],[-1.42247431430231,43.575368532094686]]]]}},{"type":"Feature","properties":{"fid":3612,"ID":"COMMUNE_0000000009760089","NOM":"Biarrotte","NOM_M":"BIARROTTE","INSEE_COM":"40042","STATUT":"Commune simple","POPULATION":350,"INSEE_CAN":"15","INSEE_ARR":"1","INSEE_DEP":"40","INSEE_REG":"75","SIREN_EPCI":"244000659"},"geometry":{"type":"MultiPolygon","coordinates":[[[[-1.266835993959779,43.548542440175524],[-1.269306439310837,43.54791360142603],[-1.269964185502568,43.54759666855999],[-1.271029483342608,43.54664736518996],[-1.27217607586663,43.54625800345894],[-1.272522610105261,43.545771301406],[-1.273082858443651,43.545359975189434],[-1.27331956699929,43.545361460783035],[-1.274053855416776,43.54514150201653],[-1.274966373643051,43.54463698930932],[-1.275774028813303,43.544470892408405],[-1.276196472461722,43.54450469460911],[-1.277008846916935,43.54441859572152],[-1.278633304749985,43.54470772927278],[-1.279468227154988,43.544558549746014],[-1.280559333828497,43.544140649902175],[-1.281791984970017,43.54402621123153],[-1.282503602003274,43.54415039010299],[-1.283763952603264,43.54412494048741],[-1.283851320624819,43.544349456107085],[-1.283085534100194,43.546586386789535],[-1.282924621437485,43.546554897321556],[-1.282853408268073,43.546629794075095],[-1.282544821498545,43.54787282211998],[-1.281920210158755,43.54846695196329],[-1.281412815788766,43.5492375630126],[-1.281702961349776,43.54980548816512],[-1.281429919201473,43.55004783866594],[-1.281061139789732,43.550102943434155],[-1.279839997660053,43.55115401333642],[-1.286188145128647,43.55352811733945],[-1.287609514820547,43.55568765407932],[-1.287386553973783,43.55593705140917],[-1.287389508856266,43.556225275171066],[-1.288432851041437,43.55679044704548],[-1.289188701060472,43.557039891521775],[-1.289258709811821,43.55694881868806],[-1.289759512741563,43.55705155901991],[-1.289978889783596,43.5572348100208],[-1.290907402009634,43.55740713095372],[-1.291097061620515,43.55729240112877],[-1.291372121650576,43.55737523034242],[-1.291721963146366,43.55764612650802],[-1.291566941533066,43.55785950557303],[-1.291632607697306,43.557909169464764],[-1.291839066523865,43.55780368539973],[-1.292175451092144,43.55799401665991],[-1.293100847622071,43.558240330629516],[-1.294341308955112,43.55898777431059],[-1.29434533680785,43.55909123795117],[-1.295088375408757,43.559317723316276],[-1.2951841714691,43.55950495724158],[-1.295314217710451,43.55955387205649],[-1.29392064358134,43.56035332992193],[-1.293487754091333,43.56051283388943],[-1.293041012037701,43.5606197211163],[-1.292733512437339,43.560202980835065],[-1.291453038993043,43.56049423159401],[-1.290728747503199,43.56051837785385],[-1.290460789861327,43.56066323580386],[-1.290334913853165,43.56096827040155],[-1.289654198127235,43.56145924161005],[-1.288824753761448,43.56173442561194],[-1.286668919734608,43.56205211335765],[-1.284959780726545,43.562577380474934],[-1.284360608729955,43.563065996557796],[-1.28405073931369,43.56318095577165],[-1.282808265245258,43.563501236432835],[-1.281930106946452,43.563456608462204],[-1.281417628130163,43.56352999842921],[-1.280821939421853,43.56373371968574],[-1.280601666584409,43.563903702299015],[-1.280250247941014,43.56391035983308],[-1.280067747442629,43.56398874448023],[-1.280054249590026,43.56432267099866],[-1.280586371267022,43.56471166027503],[-1.280810097571379,43.56515246399037],[-1.280976865945552,43.565278339873565],[-1.280505859640565,43.56599074631414],[-1.28031822460088,43.566946972555],[-1.279646934610547,43.567184305321234],[-1.278813449565777,43.56783891707242],[-1.277587252825008,43.56834591363198],[-1.275470300678401,43.568258158257684],[-1.275158680073125,43.56766852751445],[-1.274545269170729,43.567186300324636],[-1.272971446521162,43.5672690232993],[-1.272417810632816,43.56708989072595],[-1.27187702490156,43.5670832533093],[-1.271456486025146,43.567293539960474],[-1.271312487523883,43.56753979282107],[-1.27093583804262,43.56759066360746],[-1.270381596115592,43.567336756549196],[-1.269536230630164,43.56710061179031],[-1.269104711044797,43.56709686886729],[-1.268322601165448,43.56729433860763],[-1.267732690344781,43.567276998400416],[-1.266494344087616,43.56678867454169],[-1.265672154533913,43.566913814425654],[-1.264451936045391,43.56690231569163],[-1.263575340940853,43.56707913612152],[-1.263371735460521,43.56719075903491],[-1.26317000100469,43.567194181263524],[-1.262878506563535,43.56702362206355],[-1.262522792992197,43.56700606166671],[-1.262027858093015,43.56703271495484],[-1.261500435678171,43.56693899965837],[-1.261074822565522,43.56641418329382],[-1.261341733421114,43.56443579750155],[-1.260583151013799,43.563932169269385],[-1.259423748328174,43.56378757556811],[-1.258619194898182,43.563448830069596],[-1.258430445100484,43.56329314929283],[-1.258104410991653,43.56260673196639],[-1.257943941088802,43.56251481615511],[-1.25754638157847,43.56193302394336],[-1.2574761035176,43.561553737229204],[-1.257140750600449,43.56134253709705],[-1.257362553706111,43.56087519856125],[-1.255889922687268,43.56069961251918],[-1.255914240954921,43.559691287452154],[-1.256594837911306,43.55934561217236],[-1.256574129932349,43.55786420277146],[-1.255859335487996,43.557915676869555],[-1.25578078707475,43.557808831047545],[-1.255446277720025,43.55772554270489],[-1.255433778543618,43.55713945252823],[-1.254682521678602,43.55704998455258],[-1.254870976308539,43.55614965734466],[-1.254864248061092,43.55584176418781],[-1.254663090519581,43.55541805476491],[-1.254823050729497,43.55520273808605],[-1.254793042463562,43.55474798723866],[-1.25545086892003,43.554062617122476],[-1.255838120795352,43.554055532709185],[-1.256108569884454,43.553926884121914],[-1.256761369095602,43.55267314439269],[-1.25757752239958,43.552335656657085],[-1.258318323232297,43.55225161109853],[-1.258331304574442,43.55164199591731],[-1.258711871155865,43.551545058716535],[-1.2590140585185,43.55171069857596],[-1.258986392323451,43.55197218667635],[-1.261156310812907,43.55189777083592],[-1.26192497902663,43.55177205836633],[-1.261979625078633,43.55192398990722],[-1.262327367337477,43.55190221544852],[-1.262642594674384,43.55177629532844],[-1.262686125302687,43.551928663435476],[-1.263198492954778,43.55173822765537],[-1.26312114712689,43.55128083311749],[-1.263520099661447,43.55104799904531],[-1.264263948008779,43.551438643895345],[-1.264574320042677,43.550397445254696],[-1.265128032881337,43.55031349970578],[-1.26551370722894,43.54968562050559],[-1.265495039828877,43.549451181515735],[-1.266835993959779,43.548542440175524]]]]}},{"type":"Feature","properties":{"fid":3627,"ID":"COMMUNE_0000000009760329","NOM":"Tarnos","NOM_M":"TARNOS","INSEE_COM":"40312","STATUT":"Commune simple","POPULATION":12900,"INSEE_CAN":"15","INSEE_ARR":"1","INSEE_DEP":"40","INSEE_REG":"75","SIREN_EPCI":"244000659"},"geometry":{"type":"MultiPolygon","coordinates":[[[[-1.414368880024837,43.49712354577467],[-1.417774318523002,43.497013589888624],[-1.417928238752419,43.498145414905785],[-1.417675367916358,43.49875225915858],[-1.417748855798934,43.49896733162787],[-1.417317996893405,43.49922369093767],[-1.417618895050831,43.499450218288665],[-1.417636527223867,43.499582863744024],[-1.417297098116308,43.499804857651085],[-1.417910483834438,43.5003601663205],[-1.418555487775484,43.500264481660984],[-1.418777823529369,43.500483396516415],[-1.418663634416778,43.50139637347991],[-1.418379428319816,43.50233610757757],[-1.420958744399393,43.502843666491266],[-1.422360236611848,43.504661702674255],[-1.423414448903448,43.504349242423615],[-1.423573567300152,43.50442204559293],[-1.425158964063779,43.506921902060945],[-1.424965551465201,43.507400184020575],[-1.425526906556577,43.50812969745035],[-1.425540726573015,43.508453536592484],[-1.425957177487601,43.508684338108324],[-1.426241841723192,43.509630604736834],[-1.426853177279732,43.50994806186634],[-1.427407878346359,43.51034983174634],[-1.427574240097999,43.51088551189301],[-1.428565995519926,43.51167222383655],[-1.428804417914505,43.512178826067604],[-1.429101006920574,43.51236405258941],[-1.430303663680268,43.513797252086626],[-1.431156293573419,43.51449681607425],[-1.432750634190769,43.5139936733985],[-1.434970381715369,43.51368479267027],[-1.436005616637204,43.513654141392365],[-1.437614067506358,43.51291785538156],[-1.437743468197572,43.513134235491535],[-1.43819271212718,43.51308339940176],[-1.438657882031232,43.51319050848349],[-1.43983244711574,43.51329649311899],[-1.439959794645103,43.51316601880253],[-1.440663527249271,43.51333183247729],[-1.440863866750167,43.513568732397395],[-1.441033146140647,43.51407634393607],[-1.441243105729213,43.51426148458792],[-1.441593451043494,43.51432462558633],[-1.442474496806402,43.51418939180435],[-1.442724487467868,43.51402775405424],[-1.443616856808939,43.5146787385293],[-1.444459489046529,43.51510286741672],[-1.445037201592479,43.51525579919262],[-1.445715218589978,43.51513697579361],[-1.445982815070091,43.51545851938589],[-1.44625781258115,43.51558781633009],[-1.446509979615287,43.51559819776326],[-1.446762713001656,43.51580770714334],[-1.447221045974607,43.515778088557724],[-1.447394396107509,43.51558624206139],[-1.448028923099438,43.516056731965726],[-1.449353924319101,43.51613751914015],[-1.449980253974904,43.51615055523999],[-1.45056879680783,43.51593174358989],[-1.452400756941387,43.51598716997884],[-1.453138664176248,43.516337137700525],[-1.453757420351314,43.51626845916941],[-1.454292804471795,43.516050909964385],[-1.454789591200346,43.516389148334156],[-1.456512707750931,43.518120606323926],[-1.456658627470694,43.518054229826696],[-1.457093716805623,43.5181237507824],[-1.458802668884668,43.51860316455286],[-1.459291243393404,43.51886692734863],[-1.459980977069285,43.51888270546456],[-1.460491079151252,43.518530993095695],[-1.4618257904005,43.51828952079886],[-1.465679969662623,43.5163068646521],[-1.465777713922845,43.51632176159961],[-1.464412586064048,43.51898953738584],[-1.464220507035722,43.51952912864738],[-1.464209878605937,43.52030005233354],[-1.464603882027063,43.52149677790273],[-1.464647667259738,43.522234822473564],[-1.463962059405118,43.52708154030403],[-1.463584076883559,43.5282091328459],[-1.462320456158674,43.52981384836863],[-1.461661897614301,43.530662809513956],[-1.46123320181857,43.531425709325596],[-1.460987027900628,43.53233789896282],[-1.460969316964284,43.53312984554741],[-1.461940263493351,43.53314395997099],[-1.461915125085906,43.53272505398299],[-1.463298394809999,43.532880790212346],[-1.464485497775218,43.53309415112692],[-1.46448612591094,43.53324552044578],[-1.464920081850396,43.53334660324494],[-1.464809472794633,43.53351697220267],[-1.464932172972649,43.53359752958034],[-1.465286481073457,43.53345497259971],[-1.465394248230752,43.53345503986743],[-1.465443264281612,43.533575579156135],[-1.465751725829932,43.5335124088952],[-1.466139955189388,43.53358292861168],[-1.466368004312675,43.53374385404635],[-1.467247955196527,43.53400498436522],[-1.467462947359404,43.53382310215253],[-1.467752820173435,43.533807552664044],[-1.467920253794155,43.53388986812907],[-1.468164417029235,43.53422585315565],[-1.468545249070601,43.534344431236505],[-1.468788226670737,43.53429927108479],[-1.46896665000007,43.53393415410522],[-1.469364682387498,43.53386007203813],[-1.469579959901703,43.53355471393025],[-1.470413924885546,43.53370236555457],[-1.471099342893886,43.53413730103635],[-1.471382979424722,43.53377144518032],[-1.471740954949439,43.53383508245484],[-1.472353365738899,43.53420723646632],[-1.472493268347141,43.53444478057555],[-1.472746694168822,43.53450191358752],[-1.473279529961953,43.53482237458026],[-1.473618108923506,43.534891312189714],[-1.473834754130567,43.53481027925214],[-1.473947706241221,43.53487681068597],[-1.473893877971404,43.53523499369178],[-1.473653930090718,43.53528724964605],[-1.473613969343827,43.535394335284536],[-1.473739568076667,43.535432408932806],[-1.473835607859072,43.535647430185286],[-1.473613364221819,43.53600625422742],[-1.47370211031599,43.5362071579346],[-1.4736285933708,43.53656705458521],[-1.473693953912408,43.536944651493016],[-1.473926303409716,43.53741448690394],[-1.474219554509064,43.53744203758093],[-1.474778097332442,43.53734509140557],[-1.474968705450522,43.53740661483935],[-1.475368295602792,43.53773346833019],[-1.475635087315094,43.53827938021846],[-1.475829281988961,43.538434476238216],[-1.475759689167564,43.53866985151871],[-1.476375649708123,43.53927704701547],[-1.476968965308807,43.53949857115014],[-1.477321919731283,43.53952905587891],[-1.477610923696149,43.53947026058685],[-1.477976938292443,43.53955697786156],[-1.478209017998241,43.53967355741644],[-1.478212183870513,43.53976174179928],[-1.479120537446564,43.539162789806106],[-1.480983707263796,43.53868748655603],[-1.482250615452027,43.537858306883614],[-1.483024959292321,43.53747933994103],[-1.485256508977816,43.53666250181273],[-1.486300629898199,43.53605877054733],[-1.488235025445382,43.53370864300149],[-1.488598242427095,43.53322138890489],[-1.490381650859421,43.533518823855985],[-1.491335420080771,43.53217350820286],[-1.490276304517447,43.53141262797673],[-1.492720884468143,43.53018848133094],[-1.494049750454387,43.52849415885098],[-1.496250337133365,43.5290589692695],[-1.500838960407498,43.52908664381556],[-1.50092886735516,43.5284800198664],[-1.501759702684229,43.52711898062718],[-1.510784629378236,43.52777658214388],[-1.513108491617951,43.52801690521277],[-1.519052056902028,43.52853171048558],[-1.521165240130516,43.5288166939218],[-1.520934578790215,43.529504914116806],[-1.523595828116517,43.53033114505035],[-1.523547596185543,43.53041066068358],[-1.521952197184716,43.52985989934269],[-1.521709005777367,43.530216102781715],[-1.521743621405714,43.53040391038157],[-1.524139287850456,43.531160099781985],[-1.526250509354095,43.53154420378382],[-1.527347010805572,43.53162638903341],[-1.530005560514629,43.53156850388602],[-1.530563471809816,43.531418120114935],[-1.531127757832965,43.53150538479929],[-1.533099742593175,43.5313490470216],[-1.533275947060531,43.53136871518218],[-1.533303647454887,43.531468491877696],[-1.533194734754273,43.53157938837016],[-1.531263882991728,43.531676331273324],[-1.531109443724592,43.531744068157714],[-1.530550473906293,43.53172417138954],[-1.530270772571791,43.53178993208821],[-1.529757003109606,43.531714971394656],[-1.529744698826959,43.53173170716538],[-1.529720248978212,43.531720111903184],[-1.529474394136824,43.53174390216311],[-1.529450452807485,43.53177013612943],[-1.529365649764815,43.531762864748686],[-1.529307978387027,43.53176978022698],[-1.529202358490801,43.531749860377595],[-1.529096136648845,43.53181648106046],[-1.528894844538368,43.531777126485586],[-1.528871995749228,43.53180151226668],[-1.528846169679107,43.531788171898974],[-1.528183032706482,43.53186093227939],[-1.5266605281351,43.53171723785934],[-1.526528973838129,43.53177680283499],[-1.526187769158543,43.53169101537208],[-1.526132394733275,43.53171135126617],[-1.526077849708576,43.53167938284943],[-1.525990800861716,43.53170644824904],[-1.525179318718007,43.53162587074254],[-1.5245831250518,43.53144798475105],[-1.524259653047685,43.53142994253152],[-1.524051638495378,43.53130524578206],[-1.523805641467146,43.531327226704725],[-1.523712210469929,43.53124190667246],[-1.522506719430455,43.53087674974535],[-1.522199883511896,43.53092830098702],[-1.521894880029209,43.53111315217914],[-1.520976532227307,43.53236446533978],[-1.520175272187285,43.533199942108595],[-1.519155316071106,43.53456181640848],[-1.518312971842265,43.53594601825309],[-1.517319482878202,43.53728333992734],[-1.517131239329839,43.537693117443126],[-1.513947507229201,43.54184956171932],[-1.513409427596487,43.54272629761503],[-1.512574908651622,43.54377217648014],[-1.512214142001285,43.54449373013662],[-1.511670204446634,43.54510755023006],[-1.511182083104506,43.5458641385745],[-1.510160758038607,43.546961927542505],[-1.509606872611752,43.547875348741734],[-1.50866410081201,43.54912215869258],[-1.507942213998321,43.550357975817185],[-1.507196054413482,43.55114329496782],[-1.506858429073687,43.55170345426177],[-1.506308721194939,43.552245389095745],[-1.505185335199855,43.5537186631874],[-1.50423980930133,43.55537469178551],[-1.503803961719028,43.55582086274858],[-1.50328055482473,43.5567618224184],[-1.501875632851016,43.5585657745583],[-1.501151698814492,43.55963670864987],[-1.500960225376628,43.56010246532161],[-1.500319444237393,43.56084370754011],[-1.49898774757285,43.56284104360254],[-1.498409615732934,43.56343368025831],[-1.497544101213279,43.564881755781],[-1.496923610761357,43.565693330178014],[-1.496242772823787,43.56692105461207],[-1.495272712004392,43.56817517940295],[-1.495231731308312,43.56834810635191],[-1.495093704079288,43.56842141621156],[-1.49482053714547,43.56892118770015],[-1.494382176391158,43.56940076645624],[-1.493688391154674,43.57048031164523],[-1.483445317291003,43.566562157382805],[-1.481536315411343,43.56565333294695],[-1.477252159445759,43.56381518198323],[-1.470825052011758,43.5612703796236],[-1.469363843782929,43.56060063986438],[-1.466061611461245,43.559267734430165],[-1.45571671212745,43.55505486347982],[-1.453163259093884,43.550573696901026],[-1.453275268250417,43.55014915437979],[-1.452916264746772,43.549706103884205],[-1.452427029380073,43.54937293453414],[-1.452293730457327,43.548772824941864],[-1.451676419808526,43.54811418414722],[-1.451511445739543,43.54769650853188],[-1.451315333994562,43.54751621555084],[-1.451048236806594,43.547474911389244],[-1.450927090513144,43.54738255822532],[-1.450283945481463,43.54672587292067],[-1.450052277702052,43.54629471216572],[-1.449336457888803,43.54537155816488],[-1.44856956410309,43.54493982552908],[-1.448499885034554,43.54407306582109],[-1.447816200607185,43.543547799863134],[-1.447482746161085,43.543417291641845],[-1.446823869421882,43.54333977895775],[-1.445484781652186,43.54262149294281],[-1.444985065518507,43.54271136742095],[-1.444325330272341,43.54259061984],[-1.443444605660618,43.54214369495763],[-1.443129847239446,43.542158395008926],[-1.442860746650516,43.54207479999344],[-1.442555355641109,43.54166647371431],[-1.442263265337186,43.541573906586116],[-1.440030132405123,43.54004239664375],[-1.437874076489833,43.53934576058482],[-1.436920195643969,43.538912595827455],[-1.436490863734523,43.538614761666025],[-1.435944389049369,43.53841994358579],[-1.435647253644999,43.53840596613097],[-1.433919850041568,43.53844597901042],[-1.433097377401418,43.53854268907442],[-1.43006381898425,43.536602155773636],[-1.429777550450013,43.53635972988775],[-1.429776150666702,43.53582811368322],[-1.42910211184996,43.53536002283895],[-1.428320955434187,43.534835927144584],[-1.427889992519209,43.534981490033566],[-1.427786209148102,43.53490462587714],[-1.427566791720231,43.53459728647999],[-1.427057223049252,43.53308165370044],[-1.426792701296032,43.53191647057608],[-1.42547772702184,43.53147182642268],[-1.42159187742309,43.53058145550665],[-1.41960764809884,43.53004959291606],[-1.418464982812074,43.52923558965679],[-1.416912997767709,43.52865452432581],[-1.415594122441607,43.527963918832526],[-1.414346055595404,43.52688923951329],[-1.413979943063851,43.526428352717424],[-1.413383643498623,43.52480988091979],[-1.412995423289723,43.52336856966718],[-1.413887206200923,43.52317726881906],[-1.413849640633273,43.52296252892098],[-1.414064865408266,43.52284653164015],[-1.413999308951839,43.522493257603585],[-1.413705162433907,43.52251694924687],[-1.412803860362576,43.521295677924506],[-1.412872490076957,43.520996415246856],[-1.413299396796162,43.520702390889106],[-1.413762328137228,43.520200541159994],[-1.412776385558324,43.51966576830859],[-1.412317492934179,43.51897977341525],[-1.413049183381043,43.51834984102686],[-1.413232486910169,43.51807654776491],[-1.411464299434806,43.51833505694813],[-1.411388335116542,43.5177010581296],[-1.41117170571767,43.517041245230764],[-1.411294434976557,43.51644691984727],[-1.412226102006161,43.516002594476724],[-1.412768046030795,43.5155786336131],[-1.412955485708631,43.51561695927302],[-1.413225590579785,43.515329318695315],[-1.412755315712483,43.51484924705035],[-1.412705900678068,43.51438357931824],[-1.413327406418185,43.513641886466786],[-1.412707580100253,43.51276240324287],[-1.412208111289061,43.5117410487033],[-1.411910611982696,43.510608744785266],[-1.411733212208712,43.51045917251118],[-1.411445532522366,43.510405101318305],[-1.411666295349307,43.51007171442321],[-1.411770104605483,43.509392555100895],[-1.411661534757229,43.50826968319231],[-1.412000757035339,43.507641315462266],[-1.41185296367432,43.50731301978869],[-1.411750636607622,43.50659359321289],[-1.411990846901749,43.50611073091699],[-1.411969071379016,43.5056340288313],[-1.411834055467606,43.50534306024748],[-1.411917376034189,43.505106280630876],[-1.411778023886826,43.50464608005832],[-1.411814016725265,43.504373380760875],[-1.411391248584333,43.503543548995665],[-1.411379836652346,43.50266993838869],[-1.411088197673653,43.502434906648595],[-1.411080882507839,43.50206575027396],[-1.410651431706248,43.501809294156075],[-1.41053637254112,43.50135891830094],[-1.410270112383105,43.50098678496214],[-1.410397268954693,43.50080499283508],[-1.411270369796069,43.50040720851917],[-1.411318069770846,43.500238561967834],[-1.411525932000733,43.500092230453255],[-1.411616884993256,43.49977764581598],[-1.412166849029586,43.499637208885645],[-1.412877334312276,43.49891172143087],[-1.414519733185895,43.49865108410163],[-1.414585406707322,43.49852315457055],[-1.414368880024837,43.49712354577467]]]]}},{"type":"Feature","properties":{"fid":3977,"ID":"COMMUNE_0000000009760324","NOM":"Saint-Barthélemy","NOM_M":"SAINT-BARTHELEMY","INSEE_COM":"40251","STATUT":"Commune simple","POPULATION":421,"INSEE_CAN":"15","INSEE_ARR":"1","INSEE_DEP":"40","INSEE_REG":"75","SIREN_EPCI":"244000659"},"geometry":{"type":"MultiPolygon","coordinates":[[[[-1.322545738875756,43.5050981096374],[-1.325106624014946,43.505142808907394],[-1.326793533794343,43.50503943024671],[-1.33204533291236,43.50407904275915],[-1.332947989621237,43.503885270736745],[-1.3337629620444,43.50351388454698],[-1.334660569164619,43.50285985810737],[-1.335081859798017,43.5028817516357],[-1.335421373622487,43.50431256980688],[-1.335900705042548,43.50515210483234],[-1.336008363617171,43.50556138500715],[-1.336375966677019,43.50595395701063],[-1.336661020517281,43.506089424087776],[-1.337011543147232,43.50650160020841],[-1.337106127519145,43.506983488422286],[-1.337965539547116,43.50751135657993],[-1.338067060046085,43.507724449668565],[-1.337695152368865,43.50807813588614],[-1.336203807242642,43.50850995414408],[-1.33517683892481,43.50979630841263],[-1.334550607003041,43.51011059699166],[-1.334304995115439,43.510104200362804],[-1.334223951865287,43.51017862539529],[-1.333655886509414,43.51175567687591],[-1.33338198232786,43.512030640238414],[-1.332918817399529,43.51214376887682],[-1.332555721362837,43.5124673487912],[-1.332661017680787,43.51258298131516],[-1.333494662234254,43.512900168337495],[-1.333084794339659,43.51322742225865],[-1.333234917660867,43.51369087579611],[-1.332706162548721,43.51501855898679],[-1.332946518619947,43.51502066485965],[-1.335322045468021,43.514522899485755],[-1.337113923887389,43.51398626275443],[-1.340295838694185,43.51324886919296],[-1.339829540907602,43.51862711337948],[-1.344464682807018,43.519631761561385],[-1.344413791274164,43.520366376706576],[-1.344242054674061,43.520584111384494],[-1.344142665402067,43.52143060176918],[-1.34451389987709,43.52175452947589],[-1.344705810494172,43.522048699225294],[-1.345441266688495,43.52253824178774],[-1.345240253803185,43.523481619660735],[-1.34488689025346,43.52391748821283],[-1.344915875460156,43.52416952991486],[-1.344580348373421,43.524693889454966],[-1.343948507583363,43.525230121597424],[-1.343734665842201,43.525922609758595],[-1.343764207207424,43.52636205442218],[-1.343378954178301,43.52745698449364],[-1.34337664617434,43.52813018462848],[-1.343633244272046,43.52813342052168],[-1.344352810970839,43.528379418641606],[-1.344532177310669,43.528589391849316],[-1.344457632817079,43.52919159898192],[-1.344246502527606,43.52960915078287],[-1.344598494493754,43.531428751334],[-1.344658776105373,43.53155428970484],[-1.345267214965481,43.531771397183874],[-1.34472965350856,43.53278503463563],[-1.345244649842939,43.53538295348152],[-1.344831126027232,43.53559776387372],[-1.341322124885236,43.53679168544225],[-1.340839374095665,43.53669747597096],[-1.340263745797746,43.537062030133],[-1.339855846033533,43.53695851248665],[-1.339545704755749,43.5371322193958],[-1.333307540207,43.53725644843394],[-1.330806719462585,43.536713891755326],[-1.329893559910811,43.53626648120066],[-1.328517599432627,43.535857363502345],[-1.328011131367355,43.53562888349524],[-1.32594378460164,43.53437779248841],[-1.325383649129781,43.5341271135788],[-1.324773421840078,43.53403341468095],[-1.324135940400383,43.533758782615024],[-1.323192298946173,43.53223125012919],[-1.323609352758794,43.530698117170864],[-1.324286552540553,43.52910054340977],[-1.324995454476909,43.52772696842675],[-1.325217442920098,43.52700806957437],[-1.325571792854626,43.525465718854356],[-1.325936277844484,43.52266146911584],[-1.32230611622722,43.51809641246221],[-1.318612433867884,43.513699597531975],[-1.318440421334156,43.51335503895586],[-1.318077746979122,43.513405530301334],[-1.317583498542473,43.51368202033313],[-1.317406607574409,43.5138981114423],[-1.317342340955503,43.51421243671382],[-1.316909734868273,43.5144855670565],[-1.316432167091508,43.515033506054586],[-1.315921409966856,43.51515656480383],[-1.315833045551631,43.515249287762195],[-1.315280849611514,43.515150531548514],[-1.316087018937688,43.50950396488272],[-1.314893373663246,43.50908925327346],[-1.313545986397758,43.50921497128743],[-1.312196277306845,43.508765895034614],[-1.311163430667579,43.50854658130379],[-1.309425671780759,43.50787503094344],[-1.308389472977482,43.50729720887211],[-1.308346073301593,43.507081782037694],[-1.308534333479968,43.5070995272671],[-1.308873530543261,43.506885108746545],[-1.309864431722397,43.505754540749976],[-1.310258305914561,43.505559568286884],[-1.310682770125901,43.50557422244044],[-1.311636074261587,43.505921948217946],[-1.312381370082796,43.50603826443389],[-1.314814933375795,43.50616756657272],[-1.315760420611551,43.5064272659346],[-1.316923462219666,43.50651790484088],[-1.320253999708866,43.505915740837885],[-1.322048385390443,43.50580905374819],[-1.322395572160001,43.505635720676345],[-1.322545738875756,43.5050981096374]]]]}},{"type":"Feature","properties":{"fid":4255,"ID":"COMMUNE_0000000009760323","NOM":"Saint-Laurent-de-Gosse","NOM_M":"SAINT-LAURENT-DE-GOSSE","INSEE_COM":"40268","STATUT":"Commune simple","POPULATION":735,"INSEE_CAN":"15","INSEE_ARR":"1","INSEE_DEP":"40","INSEE_REG":"75","SIREN_EPCI":"244000659"},"geometry":{"type":"MultiPolygon","coordinates":[[[[-1.283763952603264,43.54412494048741],[-1.282503602003274,43.54415039010299],[-1.281791984970017,43.54402621123153],[-1.280559333828497,43.544140649902175],[-1.279468227154988,43.544558549746014],[-1.278633304749985,43.54470772927278],[-1.277008846916935,43.54441859572152],[-1.276196472461722,43.54450469460911],[-1.275774028813303,43.544470892408405],[-1.274966373643051,43.54463698930932],[-1.274053855416776,43.54514150201653],[-1.27331956699929,43.545361460783035],[-1.273082858443651,43.545359975189434],[-1.272522610105261,43.545771301406],[-1.27217607586663,43.54625800345894],[-1.271029483342608,43.54664736518996],[-1.269964185502568,43.54759666855999],[-1.269306439310837,43.54791360142603],[-1.266835993959779,43.548542440175524],[-1.267861733045733,43.546027806815005],[-1.266424816969459,43.54457869900969],[-1.264870166000593,43.54249446702379],[-1.264530792189696,43.542378063330354],[-1.265562835260051,43.5413481298038],[-1.267087252224274,43.5405105569334],[-1.267390636767648,43.54002647253669],[-1.267660344980197,43.539122926266856],[-1.267619884158153,43.539011888472245],[-1.267256118221653,43.53875048552111],[-1.26717362983842,43.53852396622164],[-1.266419055810168,43.53750394592371],[-1.26630662890273,43.537157865049316],[-1.265966214097984,43.536993753303975],[-1.265354771566916,43.53628255939488],[-1.264987464608918,43.53618978377414],[-1.264828089119871,43.535861767432586],[-1.26441445826736,43.53547887602517],[-1.264167844595809,43.53541018440351],[-1.264442622200084,43.534624486625304],[-1.264269871592526,43.53456640597734],[-1.264212098711561,43.53440559046719],[-1.264500826662715,43.53434107413743],[-1.264668802028126,43.53418489555317],[-1.264107667809904,43.53418353732914],[-1.262326793131728,43.53365076540339],[-1.261654648207357,43.533138367075416],[-1.260582190722339,43.533205742747484],[-1.260539544810849,43.53309839347379],[-1.25941102821846,43.53262734097366],[-1.258894663660879,43.532261081927516],[-1.258581214771039,43.53192559546609],[-1.256373621277105,43.531598707004385],[-1.254605929118323,43.53097429399143],[-1.254508870012249,43.53063390994401],[-1.254099390122184,43.53040579863772],[-1.253925166563035,43.530127008746796],[-1.25445924886144,43.52941316294617],[-1.253452376272309,43.52904450318798],[-1.252464867667073,43.52836872664093],[-1.247566451931075,43.52149764794868],[-1.248414887385788,43.52126707857484],[-1.24938670330295,43.52079650024718],[-1.250150805046947,43.52027999553839],[-1.250396998049369,43.519390949056046],[-1.250930419117238,43.51855190831601],[-1.250361130404484,43.516732552713215],[-1.260169120150067,43.51309214096253],[-1.266236639139412,43.510375682210494],[-1.275831300386909,43.505060873419],[-1.283103620455574,43.50178950420907],[-1.28782260387787,43.49899441372005],[-1.29109532704649,43.49815125162194],[-1.29328317778822,43.49812856512244],[-1.294975481922828,43.49884450031668],[-1.297973234001815,43.50119177603386],[-1.29897038085743,43.501697350722175],[-1.30646349250135,43.502580204342124],[-1.309525488529495,43.50269004991681],[-1.312980998582206,43.50345723053274],[-1.315144720385324,43.50365402562784],[-1.317933171397637,43.50338437406746],[-1.319932941498764,43.503359640697546],[-1.319805968999513,43.50461716317495],[-1.322545738875756,43.5050981096374],[-1.322395572160001,43.505635720676345],[-1.322048385390443,43.50580905374819],[-1.320253999708866,43.505915740837885],[-1.316923462219666,43.50651790484088],[-1.315760420611551,43.5064272659346],[-1.314814933375795,43.50616756657272],[-1.312381370082796,43.50603826443389],[-1.311636074261587,43.505921948217946],[-1.310682770125901,43.50557422244044],[-1.310258305914561,43.505559568286884],[-1.309864431722397,43.505754540749976],[-1.308873530543261,43.506885108746545],[-1.308534333479968,43.5070995272671],[-1.308346073301593,43.507081782037694],[-1.308389472977482,43.50729720887211],[-1.309425671780759,43.50787503094344],[-1.311163430667579,43.50854658130379],[-1.312196277306845,43.508765895034614],[-1.313545986397758,43.50921497128743],[-1.314893373663246,43.50908925327346],[-1.316087018937688,43.50950396488272],[-1.315280849611514,43.515150531548514],[-1.315053553279785,43.51523977429453],[-1.314900788697258,43.516155921863565],[-1.314389413245997,43.516616893508356],[-1.313241361836413,43.51798082710203],[-1.311432357238199,43.51933229263744],[-1.307817808120862,43.52165564526199],[-1.306010034013382,43.52406660618318],[-1.303276892935236,43.5272846723555],[-1.302865561295213,43.52812456346281],[-1.301955471183662,43.529315833279064],[-1.301688016505703,43.52986167276118],[-1.301351343366496,43.53128518394918],[-1.300871464357492,43.53461560869361],[-1.300380049706997,43.535412713712105],[-1.29721485627073,43.53725561685768],[-1.293538732353318,43.53894384838431],[-1.291472622853965,43.54043308630402],[-1.290658903766157,43.541196043007176],[-1.289911595002894,43.54100845452883],[-1.2886448597361,43.54108018461199],[-1.287922803189842,43.54147907203578],[-1.287526178543351,43.541939875692044],[-1.286544478255004,43.54234541450115],[-1.286020975433168,43.542849071716184],[-1.285505904996952,43.54298476259497],[-1.284932949737502,43.54302542426432],[-1.284877801130689,43.54338171775549],[-1.283763952603264,43.54412494048741]]]]}}]}