{"type":"FeatureCollection","name":"COM_87014","crs":{"type":"name","properties":{"name":"urn:ogc:def:crs:OGC:1.3:CRS84"}},"features":[{"type":"Feature","properties":{"fid":4185,"ID":"COMMUNE_0000000009750581","NOM":"Bessines-sur-Gartempe","NOM_M":"BESSINES-SUR-GARTEMPE","INSEE_COM":"87014","STATUT":"Commune simple","POPULATION":2739,"INSEE_CAN":"02","INSEE_ARR":"1","INSEE_DEP":"87","INSEE_REG":"75","SIREN_EPCI":"200066512"},"geometry":{"type":"MultiPolygon","coordinates":[[[[1.418074627115827,46.11317848437662],[1.418834805768948,46.11277386647897],[1.41893591644332,46.11250057065606],[1.418662095456857,46.11148620573978],[1.418623210391039,46.11085789754782],[1.418737340466401,46.109952513417824],[1.419159709738104,46.10931531840737],[1.417174054199219,46.109153448041816],[1.41700387266719,46.10867822326555],[1.41543056912008,46.108991320920104],[1.414741655770434,46.10854307555541],[1.414746583151707,46.10823781713091],[1.41494201543966,46.10819641345679],[1.414949285371312,46.107765093903595],[1.415336695276366,46.10775699297295],[1.414838538784649,46.10473819552406],[1.413107785008081,46.1038268502637],[1.412118109020425,46.10308076343269],[1.411476234137983,46.102889846100815],[1.41154403268254,46.10256024860619],[1.411999693025829,46.10238468921598],[1.412857939772076,46.102391289970335],[1.413718530757961,46.1020925895836],[1.413574989669895,46.10177264650232],[1.413174575260532,46.10178416170388],[1.412744505820728,46.101388157444426],[1.411978470653067,46.10173050496299],[1.411773747293638,46.101422312776165],[1.410719185245147,46.101667844850425],[1.410475373140233,46.10141314315349],[1.410326354498694,46.101014760515525],[1.409728068624426,46.10097395489495],[1.409656293856481,46.100456864222664],[1.411164399309832,46.10024201057788],[1.411851417174794,46.09976616437191],[1.411936208021504,46.09853523239836],[1.411586428839184,46.098184479583686],[1.411914917214241,46.097838715463595],[1.411988456107097,46.09748938330095],[1.413124670441574,46.09705854340145],[1.414435925446268,46.09693186281139],[1.41477946595734,46.09669167952142],[1.415341299251859,46.09691748829531],[1.415949228644438,46.096353148878386],[1.415471745906963,46.09589614778257],[1.415334071731884,46.09546280414705],[1.415313336438954,46.09474558066177],[1.414890626626477,46.09485856567358],[1.414380912579015,46.094442540310474],[1.414436262434815,46.09409475398288],[1.413720196596061,46.093383123991835],[1.412656000781185,46.09320612229448],[1.412213694742353,46.09354939506384],[1.411349489071024,46.09303742721963],[1.410298871561424,46.094180978454645],[1.409420775874968,46.09379129266667],[1.409084146438427,46.093524478246074],[1.409043496462556,46.0933635886867],[1.409478006650674,46.0928878199316],[1.409335850943331,46.092611122351414],[1.408458259493043,46.09287532391581],[1.407836826541011,46.09238564745214],[1.407153529020114,46.09260122651422],[1.407454645443162,46.092931496265265],[1.407666537969669,46.09290114484235],[1.407904716320829,46.09312515148168],[1.407394513365918,46.09371063490198],[1.408083264615677,46.09402202413641],[1.407870018817447,46.094500892323914],[1.407224175078335,46.09449543214268],[1.406963992532877,46.09458364868156],[1.406694091527809,46.09491761185473],[1.407014270093228,46.09543909283546],[1.405584630560969,46.09554150741222],[1.40534959996918,46.09507525912098],[1.404733892465286,46.09510173188838],[1.404206644175532,46.09480160016702],[1.40393064042978,46.094810328101545],[1.403424266895384,46.09521751494687],[1.402928844977275,46.09480253873635],[1.403484259429545,46.09448971408238],[1.402817818294543,46.093767903457525],[1.401985443519147,46.0942560591701],[1.401230796857616,46.09483086808556],[1.400513836534867,46.094244333647886],[1.399848831174592,46.09440788814886],[1.399602286028265,46.094605261870406],[1.39888021868086,46.09428344313038],[1.398776407135602,46.09473591840438],[1.39842790967154,46.09430047811765],[1.398166637473476,46.09442558696279],[1.397276897518911,46.093860910758785],[1.397207888605909,46.09436251274985],[1.396127154377709,46.09506328034965],[1.395607475709709,46.09472718798219],[1.394684745693495,46.093918842340145],[1.39299587461572,46.09518290538265],[1.391818728492397,46.09497348536466],[1.392259775825786,46.09383767731307],[1.392588333493396,46.0934928693667],[1.392933531777904,46.09324286716607],[1.393833167693426,46.092891730978046],[1.393306788557228,46.09159090873731],[1.392988547649129,46.091273867755845],[1.39106854311411,46.09013252394394],[1.390432084029974,46.08958759515235],[1.389302080263259,46.0875981772838],[1.389053748240912,46.08595812143421],[1.38914135505392,46.085133444218044],[1.38731791326344,46.082035329957215],[1.38731753864121,46.08121030376957],[1.387113845214023,46.0801247933994],[1.386517896692583,46.07926337744386],[1.385604862705871,46.078755015607435],[1.384859192158542,46.07880564832433],[1.38404468601504,46.078600403634105],[1.383258920688724,46.07856218818426],[1.3782543407081,46.07952023553481],[1.375914405315579,46.07969301853026],[1.37554476162371,46.079631884169466],[1.375236956256583,46.07944914163888],[1.374691772136909,46.07967821162274],[1.37434405454578,46.0795759561209],[1.37378247619554,46.07987774205361],[1.37334197471848,46.0798930433767],[1.373150099476628,46.08029740001133],[1.37270033708098,46.080188272081024],[1.372128660582767,46.07943250521294],[1.372132915150666,46.07915785842064],[1.372708929823302,46.07924267997545],[1.37174518998455,46.07782919315719],[1.370556783194224,46.077752685263334],[1.368901255232544,46.07688855818966],[1.368770784796583,46.076662412327906],[1.368834247091782,46.076094093606905],[1.369066241355553,46.07569032074093],[1.36833823603057,46.075234014241865],[1.367616832101671,46.07459946271099],[1.367602322426801,46.0739552657893],[1.367715275394767,46.07363804946417],[1.366535279146519,46.0724546796678],[1.366853915885178,46.07231425760072],[1.366514725616015,46.07118712265238],[1.366665634485102,46.07002831524482],[1.366757532873035,46.06980987182153],[1.367182232343218,46.06936564463109],[1.36781078446699,46.06942062571955],[1.367831806956799,46.06967131804255],[1.368730928446271,46.069678848011044],[1.368398441569759,46.06828161048386],[1.368837547186485,46.06822307682442],[1.368851752876231,46.06770088518434],[1.368396307679379,46.0676997387394],[1.367687163308896,46.06722208123311],[1.369060507296542,46.065680953846766],[1.368877066940591,46.0655837442515],[1.369293493688155,46.0648061382541],[1.369052170678936,46.06478465470344],[1.368697606105603,46.06369603420643],[1.36618235902625,46.063824654254525],[1.365182213108781,46.06308429144216],[1.364622812847839,46.063142877306966],[1.364691580911992,46.06396259041151],[1.364324388583599,46.06399692558601],[1.364222636239292,46.064589909450405],[1.363640067356322,46.064078924272515],[1.363242570125751,46.064174965936225],[1.362280008116322,46.06482307397826],[1.361776912178715,46.06429431216497],[1.36148827059552,46.06442794738607],[1.360896702574933,46.064436512755854],[1.359501548198058,46.06423080067518],[1.358942990472109,46.06426054904648],[1.356325021783796,46.06500983872415],[1.356587664095288,46.0643615481955],[1.355989330554521,46.06420696581257],[1.356184178593128,46.06340277552707],[1.355879837927115,46.06284984644368],[1.356066093086209,46.06237608350766],[1.355180834053868,46.06216870014175],[1.355158174646143,46.06201795694137],[1.355653986437382,46.06187923547769],[1.35562984402134,46.061734775687135],[1.35521332762028,46.06155850622691],[1.355775736483579,46.061226201938695],[1.355347449536633,46.06109749863248],[1.355137590909568,46.060846766480076],[1.35536485225231,46.06034297606843],[1.355837558067186,46.06015438121479],[1.356323761088172,46.0600767644177],[1.35639339711092,46.05960851631387],[1.356718990964195,46.05949344337623],[1.357204245075989,46.059447333154964],[1.357547006249527,46.058887567866094],[1.357265316840873,46.058572751321],[1.356345782252,46.05795596828711],[1.354839375879393,46.058404283299744],[1.354783313038223,46.058029685184664],[1.355119301621554,46.0568321428567],[1.355134308130833,46.05637391121273],[1.354151244278115,46.0563254218355],[1.352697734959097,46.05531176027632],[1.351897477992291,46.054862398633865],[1.351053843225948,46.054651983212736],[1.350356749057258,46.05464544728265],[1.350422210529738,46.054360881627986],[1.350664645642419,46.054300459212875],[1.350387929494976,46.05420996813735],[1.349051573211297,46.054123869226366],[1.348606098149323,46.05301944414329],[1.347996802717953,46.05293311006774],[1.347939649966713,46.05263955378891],[1.347345041184258,46.05236608694936],[1.347219166982581,46.052852425377125],[1.346716055974443,46.05284869395345],[1.345546281470271,46.05303158563739],[1.345417454164599,46.05275589659179],[1.343657079774911,46.05377769810715],[1.342975508345785,46.05355697932459],[1.341553905785856,46.05634004357485],[1.340914918530856,46.05689362795368],[1.341136740534258,46.05777414463558],[1.34177191310026,46.06052062900612],[1.341167803724709,46.06231767676909],[1.340277643638268,46.063602547246255],[1.339465453258684,46.06401848654456],[1.339061917521098,46.064441306087225],[1.338781380910768,46.064946987961385],[1.338384413687282,46.067377539327595],[1.338434579416569,46.070939601786854],[1.338367089270114,46.07124574837703],[1.337809428140881,46.07209863757677],[1.337883744190561,46.073577758529275],[1.33559737521871,46.07352351915297],[1.333514401384754,46.07359021235631],[1.333466499182354,46.07342017874383],[1.32998397911876,46.0730807413638],[1.327854803734497,46.072539583753716],[1.326927509110523,46.070693001491776],[1.326286355907124,46.06769594504839],[1.325170457641724,46.066268087168055],[1.323869287681729,46.06612276912485],[1.321045806012491,46.06599814514957],[1.320761315686765,46.065526473252824],[1.320686764267788,46.06500206610781],[1.320452722890674,46.064700470782846],[1.319614151924289,46.06415393796874],[1.319082568033396,46.06418929417583],[1.317987383800215,46.0645450446336],[1.316850123072527,46.06559819907552],[1.315784202604977,46.06630653504228],[1.315119118317562,46.067065851193426],[1.315291227967526,46.067614229171824],[1.313286500844989,46.06787806194556],[1.312046079044651,46.06815593829423],[1.311910608820054,46.06810078112509],[1.309226580250491,46.06878226181374],[1.307078603307255,46.06970316104886],[1.30710584385552,46.07133923402944],[1.30687413012799,46.07264358822065],[1.307827676549457,46.07508789748444],[1.306821598265245,46.07544036996231],[1.306940997840643,46.075765502318],[1.306551851771435,46.075962350731224],[1.30620616560011,46.07571490224236],[1.3058641471964,46.07576834038593],[1.305713524542792,46.07561657509888],[1.305341191826818,46.0758136705224],[1.305465620253955,46.075933520622584],[1.30501116505233,46.07619153641767],[1.304712204419068,46.076191572619635],[1.304493893740988,46.0765557946643],[1.304573084468243,46.076925363594135],[1.304316514546578,46.07756462707935],[1.303395110801584,46.07739412951186],[1.30371326887829,46.07819780628734],[1.303338757840013,46.07850654946767],[1.303615558501726,46.079560001888716],[1.304145951772824,46.079526499412694],[1.304557250005931,46.07966144656928],[1.304584638712985,46.0799482777247],[1.303903720807937,46.0810423554219],[1.303368986783934,46.08109020323667],[1.303397670317768,46.08288572298748],[1.307454265755558,46.081286327672785],[1.30771241811602,46.08135142600257],[1.309061828013603,46.08082302185338],[1.309451473303479,46.08073695759089],[1.309777999068438,46.08051484721005],[1.310101480527326,46.08051786464729],[1.310100005112489,46.08060791229658],[1.310291256964227,46.080744063934695],[1.310679425299484,46.080748043106425],[1.311004382119705,46.080661010313385],[1.311396969800103,46.08039484404695],[1.312430742561317,46.08044895587833],[1.312488275692275,46.08080918923374],[1.313263259320529,46.08086124516065],[1.313697417408118,46.081854861227065],[1.313390293760085,46.08195117383224],[1.313780735448431,46.08259827250151],[1.313568207633434,46.08277525270757],[1.313961226806162,46.08333862427159],[1.313668580584937,46.08338471394573],[1.314001027765623,46.08385531407303],[1.314972198682508,46.08380038806011],[1.315279026206478,46.083713974315366],[1.315435461579509,46.084057660430275],[1.316146941861566,46.08398715928155],[1.316289470727775,46.08448915998527],[1.316343926204643,46.08558431196995],[1.316553575560745,46.08567028664224],[1.317052027922085,46.085709205418674],[1.318009053264691,46.085609909148864],[1.318772944804761,46.0862805386544],[1.319208060999755,46.08631670797663],[1.319679737483184,46.086173278320146],[1.320509285430931,46.08672957923572],[1.322124876100073,46.08693722293157],[1.322627690928921,46.086918537147454],[1.325207367494257,46.0887066887532],[1.324771290064275,46.08963517009265],[1.324741671653692,46.090351683905965],[1.325619543742141,46.09094018331494],[1.326118809291806,46.09112408485901],[1.326811883318638,46.09119285142622],[1.326369660834763,46.09151598315778],[1.327142502874038,46.09249382128341],[1.327189045944478,46.09347355918322],[1.326105443167328,46.09355935857861],[1.325636097797209,46.0926904721987],[1.325070511626524,46.09268572827593],[1.325226230017623,46.092970843901874],[1.324821461377208,46.09304142818089],[1.325111856967545,46.09383472095429],[1.321354358160662,46.094276382743196],[1.321446956494939,46.09455066241838],[1.321116624542547,46.09489614540231],[1.32092537915696,46.09475731124103],[1.320886827254648,46.094282075570874],[1.321357476891728,46.09332709847082],[1.32120791041619,46.092671883423655],[1.320849090683722,46.09284851444327],[1.320757186268978,46.09255172711094],[1.320954228995624,46.09241593606344],[1.320537365369441,46.09131542488002],[1.31942892866892,46.09179079281356],[1.319729539905648,46.09220506000779],[1.318724277339002,46.09231176397734],[1.31864534426068,46.09133784524275],[1.318379394416963,46.09131408906428],[1.317692411274564,46.09130030350136],[1.317609965461201,46.09225922095329],[1.316965431348592,46.09212716887934],[1.316598837794824,46.09188124573086],[1.316812687653923,46.09166194652733],[1.316218633269434,46.091445973573634],[1.315531108902241,46.091956371106015],[1.314614180128066,46.091631115794954],[1.314895634965237,46.09131825124886],[1.315299768597351,46.09126840891079],[1.315224024037236,46.09103670652219],[1.314904003192789,46.09104546503513],[1.314524857453085,46.09040754629865],[1.314167970007567,46.090225708454255],[1.313792085568925,46.09007240939234],[1.313085787612713,46.09009793925858],[1.312724735961294,46.090220469856334],[1.312246097458714,46.090546608967486],[1.311813327163314,46.09064375121494],[1.311378789457243,46.090250887153594],[1.310385146724749,46.08968577082037],[1.3094745507568,46.08928310737016],[1.309109774217364,46.09011531957106],[1.30864459903714,46.09033986574872],[1.308915038012691,46.09084828630274],[1.308705845515223,46.091041520282566],[1.305772220508215,46.09117339316245],[1.305546837273667,46.09163929093288],[1.305302854587834,46.09174283034641],[1.304022676061553,46.09089956612543],[1.303272336486323,46.0913864347041],[1.302469940667472,46.0908763481359],[1.301978657832901,46.09119054669994],[1.3017742513791,46.091730608576725],[1.300934193275151,46.09218729708395],[1.300359427824701,46.09314874158702],[1.29798216671221,46.092283567008174],[1.297196053666249,46.09321210307121],[1.297051512581385,46.093990840017916],[1.297972119824784,46.094863918105645],[1.299842377990361,46.09596738710864],[1.298718764293096,46.0964639461293],[1.299022998650167,46.09742594889979],[1.298671310601433,46.097410769430766],[1.298906209844203,46.097894362875195],[1.299488575485403,46.09756803092116],[1.299577793227392,46.09798999377478],[1.300809766034577,46.09892986001828],[1.30144537206998,46.09855657819108],[1.301728344760539,46.09798887005293],[1.302830176065611,46.09786214207141],[1.302936883321011,46.09826364739727],[1.304086973486101,46.09808358699442],[1.304139596399736,46.09872747100393],[1.305230792006393,46.09835827323971],[1.305726829694226,46.09856293225248],[1.306380505088507,46.09823222583679],[1.307915864146464,46.09907836430126],[1.308288964939371,46.099071316715545],[1.310007177742857,46.09965714846532],[1.310049958858324,46.099108361257365],[1.311341721004843,46.09920504899191],[1.311379603271276,46.09889937628541],[1.311992160580258,46.09897874313697],[1.312156376161842,46.100502459303314],[1.31322861683132,46.10028602116122],[1.314198024358489,46.10139476847222],[1.31456136824947,46.1016217356414],[1.316075714847701,46.101766708411255],[1.316387321681329,46.10089405544315],[1.316977510821107,46.10069024528956],[1.317178150587239,46.100438324132384],[1.318168708355617,46.10073222233576],[1.317857149284158,46.101815642752605],[1.318205023221726,46.10314031391989],[1.318591917104764,46.1031910808304],[1.318343658002168,46.10356028978573],[1.317830401485287,46.10332300716592],[1.317282473003347,46.10425971249848],[1.318469638181003,46.10452049389916],[1.321502068469567,46.104651845515],[1.32161615961606,46.10473189291588],[1.321456283147025,46.10509070634613],[1.321548570029525,46.10537578921973],[1.322742488688912,46.106010412361975],[1.322313650224667,46.10648414354441],[1.322585221030953,46.10675025862419],[1.323302786053901,46.10648975239793],[1.32351400575858,46.10690899198234],[1.323544001250784,46.107453452896856],[1.322664658608092,46.10771066960047],[1.323014684216602,46.108800274572246],[1.322514456831747,46.10961791706858],[1.323059879681747,46.109906991904495],[1.323087735292537,46.11013978191209],[1.323890126441436,46.110919922640136],[1.324098754324986,46.11138235564725],[1.323304967464251,46.112440655448964],[1.324305498176987,46.113858706399526],[1.325194097959398,46.114150133214444],[1.325667613250965,46.114463353044634],[1.3259392733416,46.11557791132169],[1.326896955797269,46.11560103642507],[1.327119797473131,46.115513350655746],[1.325999970171278,46.11184544231336],[1.325804765764187,46.1116642266791],[1.32573840877163,46.111292163246546],[1.325391530638454,46.11073402212432],[1.324682441737824,46.11046055724985],[1.324929052570227,46.110272349377524],[1.325795248633092,46.1107021481852],[1.326172876270331,46.11033663240699],[1.32744816949157,46.11051575318132],[1.327382654394403,46.11139115995073],[1.327987197118204,46.111101036800214],[1.328676668426414,46.111339064900214],[1.328869218772795,46.11105457947612],[1.329313571522033,46.1110917436876],[1.329207203195553,46.1115657426158],[1.329893730781854,46.11160286593168],[1.330620764889219,46.11290605011347],[1.331288048608493,46.11357696729305],[1.332008214063207,46.11327501193763],[1.333963449571354,46.11456558949255],[1.334226506387909,46.11562775923755],[1.335365448328407,46.11612273112445],[1.334787580353134,46.11672852604115],[1.335138430819678,46.11681833649987],[1.335631835652037,46.11656347079498],[1.335762395444954,46.11657168962366],[1.33646269875004,46.11713947957073],[1.337361995289733,46.118407311932025],[1.337949447626037,46.11893921320493],[1.338179907497605,46.11966944181773],[1.33876539313177,46.11945373903142],[1.340050880917823,46.12084608936247],[1.339963334710458,46.12121409112795],[1.34075371094614,46.122233513390725],[1.341072711275509,46.122478658203846],[1.341921944968825,46.12197947319163],[1.342292006262596,46.12212088054499],[1.343208799751711,46.12170013156585],[1.343515087525835,46.12189464546735],[1.344670041856515,46.121865555054825],[1.344210957435618,46.122442505521015],[1.343838988252348,46.12249292286832],[1.343310047206647,46.12310938177255],[1.343771864277529,46.12347279103983],[1.343542099443527,46.1236180524529],[1.343995179108162,46.12452895040598],[1.344444027651844,46.124807503045844],[1.343811942529451,46.1257079779769],[1.344015451507284,46.126046902082415],[1.344819140904352,46.126328826150385],[1.344671908272066,46.12648610123255],[1.344642587815678,46.12689998927152],[1.345010136105724,46.127426843995316],[1.34469942729852,46.127592544579684],[1.344348635092903,46.127326231369466],[1.343463184413263,46.12799333520722],[1.343636855020361,46.128248060757564],[1.343978366408798,46.12813505199781],[1.344659356505191,46.12892137260131],[1.345128781238231,46.12886246474362],[1.345215263808321,46.12947438989514],[1.344649343015816,46.12951117576375],[1.344884157716555,46.13031620877339],[1.345487836837875,46.13053126300544],[1.345304422892874,46.130814107804284],[1.34554445735376,46.13101665670504],[1.344954922873956,46.13144940191334],[1.345758560524618,46.13173582069499],[1.344516907551177,46.13274270652123],[1.34502487488354,46.132910432538054],[1.346516077405675,46.131833318937794],[1.346980008334586,46.132043627928574],[1.3465511349624,46.132604815832885],[1.345340494063482,46.13335636758326],[1.345977738142406,46.13392047286703],[1.346905975530341,46.133512468133276],[1.34726218288528,46.13325645418608],[1.34753816902137,46.13347033002271],[1.34649521253145,46.13428918329583],[1.347011210445918,46.134836205367115],[1.34804851739866,46.13536739138475],[1.348788526422292,46.134756681045346],[1.349988578068078,46.13483086635806],[1.349963895361741,46.13422975140163],[1.350761994852007,46.134099036612334],[1.350489823604843,46.13483544592012],[1.350748603406957,46.13488964265964],[1.349431745978518,46.13697631058666],[1.348870652843343,46.136850164863716],[1.34857664631418,46.137105287146206],[1.347888294212124,46.138150877892066],[1.347983115149133,46.13930513323533],[1.347416076961968,46.13928967836202],[1.346899465237938,46.14018104335015],[1.348889104579684,46.141577223594474],[1.348923315242933,46.14255045962912],[1.348677450693489,46.14297020682011],[1.347978584689767,46.14298526326811],[1.347841660622837,46.14327239128067],[1.346877978454291,46.142916109469134],[1.345866893181635,46.14275727957969],[1.345391409359119,46.142540494342384],[1.344741160753544,46.14317771165487],[1.345371936340826,46.144604580131706],[1.345699716966017,46.14503627904585],[1.342010299683868,46.14573095489245],[1.342310751737236,46.14650902879159],[1.343014491849204,46.14650578654714],[1.343116504401126,46.14707560692507],[1.343580795477787,46.14740662495661],[1.343572280011475,46.14786044600103],[1.343313862317193,46.14787829382516],[1.343636119538136,46.14969517132509],[1.343252619684247,46.1502930376585],[1.343226997735804,46.150841181062276],[1.342941618268355,46.15140805281007],[1.341960076978144,46.15112442606742],[1.341439291002256,46.151289755251454],[1.341378609307061,46.15102496848478],[1.341005475049318,46.15106455409553],[1.340887108458747,46.151378965978154],[1.339677836874847,46.15108388693771],[1.339382655061469,46.152101850569565],[1.339175405372894,46.1521411530244],[1.338988238795849,46.15207356714222],[1.338893740264487,46.15194158594426],[1.339146544334427,46.151810179398154],[1.339093022466769,46.15173734202103],[1.338886782378577,46.15174333331797],[1.33863021623107,46.151998978925754],[1.338307782147729,46.15169073178944],[1.337948685776927,46.15160892017757],[1.337916968824652,46.15111578083062],[1.337421590932365,46.150869849912134],[1.337358529310058,46.1505987210651],[1.337576110589991,46.15047490867767],[1.337447079934539,46.150328009829394],[1.33677260016225,46.15064688697637],[1.3361584871749,46.150641496573414],[1.335031225837537,46.15127527605231],[1.334808587627049,46.151693534159484],[1.335776295112398,46.15217607213677],[1.336188723741511,46.15263605935297],[1.336369507502721,46.15368350316189],[1.336596448883558,46.15393541571311],[1.33677622825732,46.15399028771818],[1.337062529719865,46.1543790719354],[1.337092438787536,46.15501719549907],[1.337303105762208,46.15537875196612],[1.337356879454306,46.15634147157676],[1.337165459339388,46.157354643792694],[1.337272056506336,46.15772908787665],[1.337456278589637,46.158108270516806],[1.337743574794763,46.15842231016882],[1.338389139635494,46.159745853650854],[1.339398749183883,46.160605457194265],[1.339750937680165,46.16108886789487],[1.339206609808084,46.16138624493536],[1.340065664834849,46.16216798355718],[1.340278491628466,46.16250254465511],[1.340030995262559,46.16318525101356],[1.339742549203636,46.16346475238871],[1.338592206698576,46.16301290696762],[1.338594042078723,46.162567094601236],[1.337893055077731,46.16200202022536],[1.33705610744847,46.162544596203794],[1.33674178756439,46.16299304037419],[1.336750877438541,46.16333453330741],[1.337024239439774,46.1639807233315],[1.337109461300879,46.16446203596236],[1.337367165435754,46.16472700588621],[1.338642568117485,46.16554456863573],[1.339577292684651,46.16575548135178],[1.341032728477248,46.16593706169036],[1.342131044054789,46.16631156390895],[1.343943843989781,46.1657777729847],[1.346316411717841,46.16525030022987],[1.347084298520783,46.1648039260617],[1.347832567073062,46.164621161720376],[1.350927923651283,46.164237402261826],[1.349043410898785,46.16285090615555],[1.348784912416015,46.1627399685897],[1.34828789532665,46.16293089488052],[1.347914527025748,46.16233011521371],[1.348355155124505,46.162117655222595],[1.34711016950274,46.1610628643389],[1.348443795975045,46.160163560906796],[1.349340088495035,46.16134837432337],[1.348885245568007,46.16155973074946],[1.349276813286043,46.16190047427245],[1.349948740378492,46.16158238579074],[1.350116289833334,46.16178657179897],[1.351478247773378,46.16136680763493],[1.351955587005582,46.16213210673964],[1.352415400017249,46.16171185197749],[1.351814423009698,46.16113570599832],[1.35178102616168,46.16082358548544],[1.353219140164626,46.16054271003756],[1.353385555139422,46.16022357850267],[1.352744421115756,46.159646855302896],[1.353789917533285,46.15914501713663],[1.354254840105802,46.159114824646934],[1.35425742173476,46.15967688743767],[1.354011710325867,46.160090343677005],[1.354302490222742,46.16011887427306],[1.354458265160332,46.159635663089105],[1.354947081398604,46.159024874161375],[1.35556513024151,46.16011283763102],[1.356736563389096,46.16003611541911],[1.356848004487138,46.15891187577449],[1.357395591961065,46.15876127405863],[1.357536607800103,46.15911637967382],[1.357965476335526,46.159251376097416],[1.357747781024425,46.15842680863395],[1.359290324625221,46.15907146538143],[1.358816852404757,46.159560902057095],[1.359838777894832,46.16027909049245],[1.360659050317553,46.1605025886262],[1.360983512032128,46.16018482618958],[1.362027454490687,46.160514218265085],[1.362357556157884,46.15983355938187],[1.36278540617494,46.15969921945246],[1.363165731165398,46.159810979482366],[1.363206736653509,46.160217776707995],[1.363398919973201,46.16059702919269],[1.36327268030407,46.160787956137725],[1.363329189904175,46.160892348308],[1.363565381533279,46.16096960608664],[1.36362130747287,46.161310868374116],[1.363395087404221,46.16168139204635],[1.362975590597824,46.16162220871005],[1.362773979089872,46.16177602199727],[1.363213835810057,46.16206517262135],[1.362764876791394,46.16251534873872],[1.362424921459949,46.162657260444895],[1.362253841664354,46.162873659798315],[1.362651648468514,46.16335585247722],[1.364746434855702,46.164788376558924],[1.365468719049192,46.164257460992886],[1.366193030940296,46.16448494156322],[1.366636571968354,46.16412924549538],[1.36705646707542,46.164175811201034],[1.366955224313745,46.16535604622212],[1.368215921361028,46.16541919158825],[1.36847777203686,46.1671189281915],[1.367828917612363,46.16722940031952],[1.367705348566537,46.167766230825734],[1.366775846235245,46.16815908102722],[1.367547489654488,46.16936807068602],[1.368111958119266,46.1693932910408],[1.368663566714243,46.168717596708234],[1.368856668359938,46.16871946800647],[1.370032083724571,46.169779318433264],[1.37065616067109,46.16950005147938],[1.370915378888074,46.16950196652963],[1.37208974205488,46.170468109334095],[1.372591650000923,46.1705923861487],[1.373555443291316,46.170136031215804],[1.373402616591989,46.169650180483856],[1.373384793834324,46.16898342469137],[1.374354950239932,46.16883608651646],[1.374902346843172,46.16786217894261],[1.373799837105468,46.167970699783815],[1.373869692845036,46.16723224398041],[1.376330800173195,46.16720889285027],[1.37640102786702,46.16689465968657],[1.378703940695903,46.16652133622173],[1.378646168923072,46.165756739045165],[1.3788354902535,46.16540367342743],[1.379318649309884,46.16550333528986],[1.380359446625428,46.16616576076398],[1.381869720742185,46.16523976760189],[1.380573554582917,46.164445820792096],[1.380143615320268,46.16394882437348],[1.379820625486556,46.163078670254734],[1.378359649477424,46.16185542636466],[1.378412216984311,46.160866333793976],[1.378705895197895,46.16075343695512],[1.379207087331928,46.1607677930364],[1.379198590799027,46.16127475227349],[1.379533794691189,46.16124800983698],[1.379688112559907,46.16137720589315],[1.379933326091187,46.16141312687208],[1.381344401260071,46.16107747129372],[1.381371329129445,46.160999496166035],[1.38117691155796,46.16095529526197],[1.381187394979749,46.160863575747804],[1.381641320353057,46.16081059765532],[1.381830715872879,46.16062955745805],[1.381781360817718,46.16054509173949],[1.381486810347242,46.16051207460925],[1.381431116550402,46.16037888196866],[1.381759522774633,46.160318711239405],[1.381721451671498,46.15884106160713],[1.381517048694604,46.15878410949146],[1.38122069175367,46.159076209613964],[1.380800159386865,46.159052203648514],[1.381917867308321,46.1580701790348],[1.382696052088809,46.15708511255392],[1.382980975394391,46.1564767091098],[1.383193760113794,46.15541333814943],[1.383179453432206,46.15440347767408],[1.385450074312194,46.15308205591832],[1.387193894588995,46.15226379476985],[1.388861550715418,46.151168821113714],[1.389054239470383,46.149725971908104],[1.389203046534013,46.149601087043],[1.389476804947631,46.14870699659389],[1.38930285686827,46.148452341500864],[1.389672885218172,46.147633470928085],[1.389702320893247,46.14689533545731],[1.390087322534677,46.146139723140934],[1.389856222122797,46.14553659851206],[1.389971919322989,46.145347295581],[1.390181278358182,46.14545474111054],[1.390455872646691,46.145414499432825],[1.389873455977562,46.144198440957595],[1.390024361918912,46.1429855704934],[1.389058112173293,46.14275210569719],[1.389236819960129,46.142402476464746],[1.390263036999411,46.14253501353622],[1.391041099838566,46.142425347653386],[1.391330406693332,46.14250149943518],[1.392062446749524,46.142370459258785],[1.391569662196271,46.14176543447558],[1.391653288860329,46.1406804058786],[1.391365783472917,46.14049890142789],[1.390783179078528,46.140483442920264],[1.390728630242472,46.13991344390656],[1.391538677274643,46.13800378072597],[1.39235134184567,46.13777210516055],[1.391432254833352,46.136639553339904],[1.388677012689702,46.13790287124122],[1.388121153413992,46.138257054864255],[1.387718160854258,46.13865573777847],[1.387108910401696,46.138577735275426],[1.386198331582539,46.1389656007483],[1.385376901902108,46.139185399504434],[1.386449666226199,46.13760014520766],[1.388048050350754,46.135893546680855],[1.389090280225147,46.13428441817733],[1.389591171054769,46.13368266599905],[1.389518565211058,46.13315474155597],[1.389833394027084,46.13275660420654],[1.389431662823436,46.13258428254853],[1.388796419044303,46.131893460405564],[1.388089225347729,46.1316240299111],[1.388085401368186,46.13096017790197],[1.388574987514681,46.13074285823363],[1.388467590885673,46.13034143434614],[1.388193969787853,46.13030692796282],[1.388043431842791,46.12916903941566],[1.388673509447975,46.12866639836291],[1.3896008185316,46.12867324846552],[1.392788314528389,46.1284689217647],[1.393347937005337,46.127893204297095],[1.394023259592851,46.128100005152426],[1.394400636066179,46.12777569510653],[1.394802530136993,46.12696716784753],[1.395109830611798,46.127001233842456],[1.395616121382219,46.12647609031236],[1.396995167105797,46.1264045991577],[1.396894960588303,46.1256664334774],[1.397364991631459,46.125628034944896],[1.397162560849704,46.12515232397938],[1.397710250684151,46.125293353643656],[1.39770899360846,46.12471510355877],[1.39891276310411,46.12443396138733],[1.398802059255018,46.12392171857951],[1.398331064262533,46.12394930116562],[1.398156984799922,46.12378922757998],[1.397511657708056,46.12370986904492],[1.397585005403285,46.123193917602634],[1.397476697452752,46.1228663451593],[1.397348058360287,46.1227915749027],[1.397842302201136,46.12232209388599],[1.397300324322508,46.12185329983062],[1.397788182800269,46.12164672569169],[1.398698529570848,46.12143169815012],[1.399013284657845,46.12191979847649],[1.399959908345842,46.12157107206847],[1.399325132737682,46.12073080329251],[1.399636556315705,46.12053344261682],[1.399176311752232,46.119971238797994],[1.401423452867013,46.119082413201525],[1.401274056631981,46.11891998978681],[1.402372145294319,46.11870487513711],[1.403140097560636,46.11839594042424],[1.403627424716467,46.11798308044482],[1.403810982486221,46.11754973589024],[1.403831067487396,46.11699250205656],[1.403987153412425,46.11688031105967],[1.405870776133124,46.116193443642],[1.407183763408951,46.11548773272621],[1.408374817231681,46.11536843608531],[1.409515174772702,46.11547898860546],[1.412873785480468,46.11537377936551],[1.415315861654852,46.11525478022869],[1.415968803134894,46.11506754665665],[1.41636628327629,46.11507129071513],[1.416600611960756,46.11489442535521],[1.416895878780467,46.11377180563418],[1.417172087797093,46.11326497749488],[1.4176160905582,46.11309193413472],[1.418074627115827,46.11317848437662]]]]}}]}