{"type":"FeatureCollection","name":"COM_17302","crs":{"type":"name","properties":{"name":"urn:ogc:def:crs:OGC:1.3:CRS84"}},"features":[{"type":"Feature","properties":{"fid":4234,"ID":"COMMUNE_0000000009751677","NOM":"Romegoux","NOM_M":"ROMEGOUX","INSEE_COM":"17302","STATUT":"Commune simple","POPULATION":623,"INSEE_CAN":"19","INSEE_ARR":"4","INSEE_DEP":"17","INSEE_REG":"75","SIREN_EPCI":"241700517"},"geometry":{"type":"MultiPolygon","coordinates":[[[[-0.807199361999664,45.88194411998117],[-0.805820737102907,45.88155152196577],[-0.803055650346212,45.88093242426918],[-0.800947500698418,45.880329925806684],[-0.799738691302634,45.88015241904579],[-0.797253675115127,45.8800178043786],[-0.795733112252592,45.87984893100937],[-0.794259924604558,45.879805562463886],[-0.790735790945853,45.87998878218974],[-0.787132757059819,45.88037647881446],[-0.784919852312303,45.880951890505045],[-0.78408841762862,45.88126913359231],[-0.783277470747601,45.879534710430384],[-0.783643920802945,45.87870565399803],[-0.784210556417321,45.87795373223566],[-0.783435934358042,45.87552572225676],[-0.784377446089174,45.87414369570513],[-0.784551744873243,45.87333639814735],[-0.784045975638472,45.873301054100615],[-0.783724182450174,45.87318201390972],[-0.783485724260687,45.872810458586336],[-0.783322029524553,45.87208029565538],[-0.782990314293706,45.87157212651123],[-0.782627531475884,45.87162664797793],[-0.782173099842109,45.87090982616116],[-0.781648762102733,45.870565870587086],[-0.781579685477792,45.87006693495036],[-0.781335886745541,45.86961712212142],[-0.780935658494338,45.869257288913495],[-0.779703125213699,45.86773169139429],[-0.779205701154526,45.8674219848114],[-0.778534107547352,45.86666103052554],[-0.778396173747017,45.86638076349366],[-0.778727639733431,45.8659639881415],[-0.77898516131928,45.86539101758905],[-0.778947700192738,45.86491987232269],[-0.778471152044777,45.8649331121155],[-0.777622730715263,45.86402030306523],[-0.777348859633823,45.86365803580356],[-0.77669852406642,45.862302258389484],[-0.777385147531603,45.861118132305855],[-0.777852285051629,45.85897220605338],[-0.777966760258528,45.85887281483469],[-0.778266207120941,45.85883665221719],[-0.778350456397074,45.858729256628486],[-0.778185502522829,45.85843096214146],[-0.778383038699786,45.85816922169515],[-0.778426542431737,45.85763676854637],[-0.779022719573245,45.8555297905478],[-0.779683872393844,45.85489823159224],[-0.780488080517105,45.85514897932614],[-0.7807162865515,45.854412906602164],[-0.780327713282026,45.854240202112734],[-0.780126335593048,45.85405041144785],[-0.780210323438877,45.85348775288872],[-0.780741504864659,45.852598193927115],[-0.78194020308103,45.85111470837506],[-0.782509458023537,45.850762075119036],[-0.783314189599846,45.85066389289146],[-0.784242661632533,45.8506769530797],[-0.784804624971118,45.850613040696054],[-0.785475687774073,45.850428269196506],[-0.785896583067213,45.85018877518348],[-0.786456447935578,45.84953081773481],[-0.786833566304893,45.84859770970203],[-0.786880699139229,45.847912770449746],[-0.786866367399516,45.84644556322435],[-0.786736143744407,45.84612718399216],[-0.786818983731624,45.84528598428082],[-0.786679588899323,45.844082612179044],[-0.786795979673583,45.84329798489358],[-0.786909573566715,45.84301740543413],[-0.787277960599232,45.84257772321106],[-0.787239487072459,45.841698220762986],[-0.788368043457191,45.84011964169582],[-0.788567561481214,45.83966308299441],[-0.789635341844639,45.83907821088187],[-0.790941638323325,45.83785424704651],[-0.791333798838339,45.83682324862559],[-0.791682136151696,45.836486997450216],[-0.792030626422566,45.836303098620974],[-0.792875811762968,45.83629002868713],[-0.793500287050169,45.8360121074196],[-0.793706702782944,45.83578790112999],[-0.793976233683944,45.8358437525011],[-0.793821702189572,45.83650345841113],[-0.79349832222392,45.836939849435126],[-0.793628058125625,45.83770088981128],[-0.79485934891505,45.83908121976101],[-0.795970150027481,45.840883901396],[-0.796436960412922,45.841350523904815],[-0.798558297972633,45.84091223965502],[-0.799080866719609,45.840933420688394],[-0.799810924306399,45.84054012159512],[-0.800447889291078,45.840387055357134],[-0.80283495421011,45.840567211801606],[-0.803301411723522,45.84069123560495],[-0.804724416684255,45.84045215827056],[-0.80458619290823,45.840841773463346],[-0.806377921173854,45.840525336998056],[-0.80683124600503,45.842122002531234],[-0.806818220015131,45.84249387587195],[-0.807983778693353,45.843027945284426],[-0.808647557552348,45.84356180362481],[-0.810107097759263,45.84590434233468],[-0.812423322739383,45.84729476263052],[-0.813255290736988,45.84768498165906],[-0.81392881201076,45.84817160336463],[-0.815878711335126,45.84928042977471],[-0.818246643440082,45.84794812859679],[-0.819077225986771,45.847274529123034],[-0.823942931235156,45.85119474952268],[-0.82315120524189,45.85222408229107],[-0.822356976951624,45.852975816498294],[-0.823255766763407,45.853397062428726],[-0.823349723968934,45.85354263647824],[-0.823329361327334,45.85399319864518],[-0.823461986343034,45.854231224378815],[-0.824413895707609,45.854859822766066],[-0.825353530931365,45.85590624716313],[-0.826992596555501,45.85721385264399],[-0.828031125426545,45.857676307339865],[-0.82947135160385,45.85797727677687],[-0.831179417393839,45.858734342893705],[-0.831201502304318,45.85879219455256],[-0.830101711165026,45.859510174126676],[-0.830438961044257,45.859851242107396],[-0.831539290458928,45.86053335305827],[-0.832666840702911,45.86142098620529],[-0.832442089350189,45.861640478857225],[-0.832334886535115,45.8621958677072],[-0.832190197591725,45.86241624896712],[-0.831324801551383,45.86314702014438],[-0.831139817102562,45.86445874443914],[-0.830682165870923,45.865115272543356],[-0.830448991705018,45.86528816542524],[-0.830459204707227,45.86545370471842],[-0.829976939108924,45.86568192531937],[-0.82929565639903,45.865627493594886],[-0.828541707944497,45.865845986642746],[-0.827279410125685,45.86677229056182],[-0.827018733682284,45.86712551635584],[-0.826755852512707,45.86811621243379],[-0.82633560542962,45.86879218852774],[-0.825437399011552,45.86901554608047],[-0.825060853779468,45.869298763921144],[-0.824770185124042,45.86916435951946],[-0.824669905672376,45.869188490967645],[-0.824523840896392,45.86942693836516],[-0.824503796686744,45.869733242343095],[-0.824232843929326,45.870031814117844],[-0.824004261466812,45.87058769525485],[-0.823769574532317,45.87081381549355],[-0.823909921606188,45.87101371574037],[-0.823024048527441,45.87169462172654],[-0.822394564289176,45.87199720910624],[-0.821691633041354,45.872524960162856],[-0.821601515684487,45.87275159307732],[-0.820828324899509,45.872452291634936],[-0.819267230205261,45.87210660428101],[-0.818419656485026,45.87233540359569],[-0.817618699304921,45.8727528468979],[-0.817491600489489,45.87242717686333],[-0.815132131732176,45.874195488437756],[-0.8102135909353,45.87763320103687],[-0.809413186923385,45.87923699115455],[-0.807199361999664,45.88194411998117]]]]}}]}