{"type":"FeatureCollection","name":"COM_79278","crs":{"type":"name","properties":{"name":"urn:ogc:def:crs:OGC:1.3:CRS84"}},"features":[{"type":"Feature","properties":{"fid":4069,"ID":"COMMUNE_0000000009748616","NOM":"Saint-Martin-du-Fouilloux","NOM_M":"SAINT-MARTIN-DU-FOUILLOUX","INSEE_COM":"79278","STATUT":"Commune simple","POPULATION":252,"INSEE_CAN":"06","INSEE_ARR":"3","INSEE_DEP":"79","INSEE_REG":"75","SIREN_EPCI":"200041333"},"geometry":{"type":"MultiPolygon","coordinates":[[[[-0.171528760419396,46.59807701800825],[-0.170128326835019,46.59831946431546],[-0.168051946559282,46.59901045119189],[-0.167317119834829,46.59871717817924],[-0.162399126316909,46.59948753457376],[-0.162185969883492,46.59973403035478],[-0.161729819978145,46.600028689086244],[-0.161945156433819,46.60071933583662],[-0.16245645542936,46.60150814462961],[-0.160837469725296,46.60228909213926],[-0.160400767057045,46.602581405488024],[-0.160023911106528,46.60309374935043],[-0.159000051231022,46.60511805567111],[-0.157379551561285,46.60596567646296],[-0.155443678678121,46.607824043739576],[-0.154543777086932,46.607774041412966],[-0.154043540685263,46.608234791049455],[-0.153594279180157,46.60842469055217],[-0.153535470853666,46.60856058141155],[-0.152927912809083,46.60890713152217],[-0.15157919940843,46.606798620039534],[-0.150728140294354,46.60630477975209],[-0.149864427284206,46.60606630676414],[-0.149684147392671,46.60584327491341],[-0.149197576578282,46.604756354583074],[-0.149103348965844,46.60385148897383],[-0.148613376014196,46.60336031956938],[-0.147796757363971,46.60348279911821],[-0.144406016262638,46.603090243072195],[-0.142575992008583,46.60302964147875],[-0.141380292639478,46.60421771969522],[-0.141139543591958,46.604327955827785],[-0.140700836639909,46.60445173144989],[-0.139993116390166,46.6043774213941],[-0.138204425421988,46.6044219504932],[-0.137723122446404,46.605530029615075],[-0.136973218314508,46.606266083097694],[-0.136335822286585,46.60659533771905],[-0.133893350984488,46.60745791529742],[-0.132431592389564,46.60834498180444],[-0.131713988733,46.60889447901635],[-0.131802868891776,46.60900739433345],[-0.130133495108087,46.61012809492636],[-0.128322085506245,46.610099191900446],[-0.128197555240983,46.61016206872372],[-0.128713430105821,46.61071929800746],[-0.127749684524446,46.61126467880119],[-0.126752431540411,46.611455016420976],[-0.125971476461171,46.61174577561754],[-0.125990157266931,46.61195703293669],[-0.124976166747257,46.61251637626164],[-0.124349604490943,46.61264971763525],[-0.123739346817526,46.61258886655901],[-0.121816200074638,46.614350757857665],[-0.119318620019114,46.61567589001657],[-0.118978921194995,46.616069024009896],[-0.118871154443422,46.616698246136174],[-0.118727103851775,46.61685446011332],[-0.117791177453733,46.616770903971094],[-0.117527524856964,46.616848368950365],[-0.116420116891877,46.617492176796034],[-0.115190559205954,46.61801313706564],[-0.113369804535398,46.61851050500498],[-0.112349198890903,46.61886715462832],[-0.110829564599272,46.619165258759246],[-0.110827179449287,46.61871205567236],[-0.111779942425277,46.61810674894397],[-0.113562362322685,46.615637873425136],[-0.110898911573406,46.61596526764013],[-0.109200947345636,46.61595640531825],[-0.107099618508341,46.61573137691543],[-0.105383816841638,46.61531833605929],[-0.10445167409718,46.61493359327517],[-0.103911354492662,46.61454002732813],[-0.10265419880131,46.61272137509635],[-0.101907799240643,46.61210720056578],[-0.100831025252884,46.61156955158384],[-0.100262337235251,46.611847175303765],[-0.09835834199431,46.61225915147789],[-0.097353023101249,46.612837832588276],[-0.096500711752272,46.61284285737162],[-0.095105272480118,46.61261024065928],[-0.094090730693072,46.61263675311168],[-0.09199708174467,46.613095196624116],[-0.090812485296375,46.61346599333978],[-0.084772084083519,46.614475897875266],[-0.083966312867659,46.61449489419059],[-0.082802085034456,46.6143036612109],[-0.082194760405375,46.61440921735559],[-0.081883045692125,46.614354527413354],[-0.082404077395515,46.61364934911738],[-0.082443830996721,46.61345093452336],[-0.082850743899527,46.613085842975856],[-0.082921759923498,46.612631570335644],[-0.08334826505855,46.611828005997744],[-0.083969552209666,46.61113904331433],[-0.085183704700604,46.61052872430797],[-0.085934316881211,46.60979211084997],[-0.085904589924881,46.60767798401317],[-0.086209525323264,46.607175952684706],[-0.085983243579352,46.60650621072838],[-0.085938892819816,46.60551707482242],[-0.085510842287575,46.6043787799947],[-0.085669725515533,46.60406811778867],[-0.085736626595581,46.6032192617022],[-0.08597171602531,46.602846170152944],[-0.086614921082067,46.60222328048279],[-0.086364800568943,46.601547873789414],[-0.086490255124347,46.60099390708264],[-0.087102418936604,46.60049260074467],[-0.08769654202055,46.599305122226134],[-0.088856712794115,46.598278990448115],[-0.089688715652979,46.597114818633656],[-0.089066698728071,46.596060166804705],[-0.088245725884626,46.59580657054717],[-0.086358425337847,46.59574392074864],[-0.086271280198007,46.59542907487524],[-0.086770674104401,46.59492269787054],[-0.087535056570418,46.5945019881404],[-0.086737123259213,46.592718555098344],[-0.088659967048049,46.59191245469854],[-0.089783045990406,46.59157126154927],[-0.090320834048154,46.59107464410099],[-0.090432202550476,46.59080310253789],[-0.090686423579828,46.59076830463751],[-0.092140574003719,46.58960623432831],[-0.093571024713564,46.58915487189955],[-0.094942313684834,46.58888171136721],[-0.094746783087718,46.58859232888119],[-0.094014980568997,46.587951584022036],[-0.09341798991068,46.587612673928554],[-0.092826346530303,46.58748267780124],[-0.090871855288071,46.58735974756254],[-0.090385422191185,46.58717192958944],[-0.091818183266527,46.58662410461791],[-0.092451857226073,46.58620598637329],[-0.093696312866392,46.58482968073768],[-0.093731076783748,46.58415379666868],[-0.094222726515266,46.583468266236665],[-0.095658948345603,46.582041695076654],[-0.09623236232017,46.58171439483029],[-0.096488326582164,46.581619159927385],[-0.097691122652538,46.58222371338821],[-0.098017454963068,46.582216683664214],[-0.099346020680669,46.581288598011675],[-0.099539243945072,46.58123921036446],[-0.10039914547324,46.58149076629525],[-0.100987511678438,46.581564039696225],[-0.101031168280644,46.58138983972563],[-0.101243764000391,46.58138227749689],[-0.103137269098601,46.58149316212431],[-0.104207969796083,46.58172816127298],[-0.103986331081608,46.579973358551214],[-0.104178527202793,46.57843982441614],[-0.104292903735289,46.57836012595269],[-0.10560704282627,46.57873989819027],[-0.105912445466149,46.57781695992869],[-0.106727617137761,46.57707933478824],[-0.107649044253971,46.575799939167524],[-0.106992627128955,46.57572404312046],[-0.106857004959997,46.57559165347672],[-0.106823794582192,46.574872548148164],[-0.107208917972962,46.57472872471733],[-0.107394497382488,46.57450020451966],[-0.107473904545354,46.57337343132224],[-0.108660071088009,46.57217785030434],[-0.110649668636218,46.571414592562974],[-0.113104893340745,46.56942660124554],[-0.113785489486309,46.568601564537104],[-0.113841780240495,46.56842070609393],[-0.1139722895483,46.56841805584745],[-0.114096381988123,46.5682804091574],[-0.115179952404337,46.5677165402744],[-0.115712197488181,46.56793003809213],[-0.116039712640731,46.56796797941211],[-0.11686487082898,46.56745528624662],[-0.11651944602067,46.56701322292835],[-0.117464764777575,46.56627196679416],[-0.118083879655478,46.56553869034386],[-0.118421659313616,46.56580163028174],[-0.120548031594533,46.56665561783541],[-0.121004772373331,46.56664586469524],[-0.122290456379279,46.566213386488776],[-0.122294312817021,46.56630339561291],[-0.124246888663802,46.567610828431405],[-0.125179691274795,46.56804133582238],[-0.12565442299908,46.56843568705486],[-0.12593728552159,46.56892449121233],[-0.126835780830671,46.57003088072347],[-0.127702082216372,46.57041722769749],[-0.128469178184681,46.57053233228991],[-0.128707280841287,46.570355506239835],[-0.130787356447738,46.56953534625399],[-0.13143764569993,46.56934633528813],[-0.132072613070336,46.5703670795913],[-0.134110921129524,46.570728505164446],[-0.134429852445153,46.56886971238108],[-0.134877180699939,46.568560079614386],[-0.135610409856654,46.568246215728315],[-0.13655312352164,46.56755443026413],[-0.138538269618772,46.56905718767412],[-0.139473752895957,46.5695316651223],[-0.140759952322311,46.56956215525301],[-0.141641375279699,46.56975603896397],[-0.14211290149613,46.569956665854065],[-0.142300177910877,46.57019032877995],[-0.142369917575905,46.57069666342888],[-0.142248519854069,46.571151473923045],[-0.140559331026592,46.573331768636024],[-0.140522803461148,46.574193369742424],[-0.140616388372434,46.57450169847624],[-0.140224915407022,46.57505493312413],[-0.14037519238302,46.575485164009685],[-0.140733698959402,46.575764595369364],[-0.140973210871373,46.57624644572933],[-0.14109275317151,46.57813648133658],[-0.140984459972329,46.57884144909758],[-0.141666179721467,46.58001045413789],[-0.142199841225348,46.580448181948256],[-0.142916110514976,46.58078897602475],[-0.143768939020343,46.58086918717504],[-0.144495343525354,46.5807744374432],[-0.146054473831456,46.58079647568956],[-0.147345755098979,46.58106826832991],[-0.147778622436891,46.58125371700091],[-0.148720612686257,46.58133864877448],[-0.149011402608029,46.58159829130211],[-0.149686113095778,46.581671644234994],[-0.151121474078062,46.581609608140624],[-0.15182899455634,46.58136934471703],[-0.153854942141998,46.580019479412876],[-0.156507355593175,46.57807105321417],[-0.158824203860609,46.5759506891037],[-0.160154120973296,46.57646097806257],[-0.160413868824796,46.576455607876824],[-0.162636536008148,46.57510194471319],[-0.162829679852654,46.575052450235255],[-0.163340628160763,46.57525460691408],[-0.163570807176202,46.57505539597669],[-0.163847855301506,46.57732587148255],[-0.164108859361876,46.577319557132746],[-0.164668725441816,46.57672192755134],[-0.16503155830272,46.57608468589069],[-0.165694759518873,46.57627541257769],[-0.166943900723066,46.57478998237151],[-0.167754104391002,46.573667239375496],[-0.167781586947256,46.57330871695669],[-0.167616293640597,46.57269148979503],[-0.170067723454723,46.57349863967848],[-0.171995511855134,46.57426618398482],[-0.17225912244212,46.57430483662061],[-0.172898598319528,46.574021265346545],[-0.174212895665898,46.57421731975936],[-0.174481770157514,46.57439099619753],[-0.174908760415367,46.575146944732424],[-0.176159568907752,46.57678480283174],[-0.174870119316655,46.57712787786142],[-0.173976180270267,46.57755279005976],[-0.173036642148472,46.578428640170856],[-0.172679185247201,46.57915677763212],[-0.172587992542795,46.58001360906094],[-0.172749987699683,46.58068499161545],[-0.173304917517835,46.58139324233851],[-0.173818208342392,46.582597384419785],[-0.173851003402685,46.58331650516552],[-0.173680585973058,46.584338644452586],[-0.171520324342092,46.586563112928275],[-0.171461636820717,46.58669991328662],[-0.171920723393366,46.58742254157399],[-0.17008041971025,46.5887702919272],[-0.169645862224549,46.589298690471594],[-0.167260836198259,46.591642835456135],[-0.166365386166864,46.592293911516116],[-0.16759194155469,46.59335579030157],[-0.169181155877737,46.59525651110507],[-0.169604246999483,46.595921569615705],[-0.169929346809416,46.5959143711329],[-0.170183932528163,46.59577395025812],[-0.170445076747002,46.595768521197584],[-0.170989629981363,46.59625178171438],[-0.171134591014596,46.59656317282712],[-0.170625468223284,46.59684491789647],[-0.170629406760378,46.596934924839374],[-0.171528760419396,46.59807701800825]]]]}}]}