{"type":"FeatureCollection","name":"COM_64137","crs":{"type":"name","properties":{"name":"urn:ogc:def:crs:OGC:1.3:CRS84"}},"features":[{"type":"Feature","properties":{"fid":4063,"ID":"COMMUNE_0000000009761807","NOM":"Bordères","NOM_M":"BORDERES","INSEE_COM":"64137","STATUT":"Commune simple","POPULATION":676,"INSEE_CAN":"27","INSEE_ARR":"3","INSEE_DEP":"64","INSEE_REG":"75","SIREN_EPCI":"246401756"},"geometry":{"type":"MultiPolygon","coordinates":[[[[-0.239893437691508,43.19150399842168],[-0.240527519555287,43.192827218811395],[-0.240946771903101,43.19490409994184],[-0.24061982986747,43.19583127752368],[-0.240869373134727,43.196418845827985],[-0.24211487889407,43.19747522325814],[-0.243443303036064,43.19707158588613],[-0.244034555080001,43.19769568651821],[-0.243231526233218,43.198230277032124],[-0.244163627514519,43.19986141692067],[-0.245055987596494,43.19960231070533],[-0.24491906180861,43.20042836271037],[-0.245001241792184,43.200598739745054],[-0.243624144855776,43.20090393050115],[-0.24260887074092,43.19978572864223],[-0.240535343523286,43.20083741628357],[-0.240384715346191,43.20069700015791],[-0.237607879953957,43.20154108939679],[-0.235927691978813,43.202411632379786],[-0.232931107025242,43.203311703213785],[-0.229757284888607,43.204542885962276],[-0.229877289564126,43.20473014654848],[-0.228655471865064,43.205042196293505],[-0.225976221557717,43.20589926189789],[-0.226160035857349,43.20614943655022],[-0.224964483107441,43.20664610959386],[-0.225117774051154,43.20681257492704],[-0.223234220750413,43.207176750302125],[-0.223111046889675,43.20695446738035],[-0.222685434834577,43.20704640367764],[-0.222664342508968,43.20686698374685],[-0.222410455447847,43.206485659460114],[-0.222084191181127,43.20663764344786],[-0.22208994784761,43.20755662648401],[-0.217963064063399,43.208102914255996],[-0.217777632749546,43.20685169869461],[-0.217527966267461,43.206854643601794],[-0.217480065176755,43.207386317986774],[-0.214318217325173,43.20806842676647],[-0.212136154690054,43.208311663142624],[-0.210490125749975,43.20885489161687],[-0.208692921507914,43.20911451194549],[-0.207728016812414,43.209446586437835],[-0.207589440897344,43.20958844379306],[-0.205583593539695,43.21041326577065],[-0.2033544684761,43.2116957008974],[-0.200203809037258,43.21243106908402],[-0.194968062329591,43.21667963552137],[-0.194325335183534,43.21605318953513],[-0.194113813495973,43.215967626285966],[-0.191931332134974,43.21558658905044],[-0.189902501529143,43.214800359401025],[-0.189556066048743,43.21463415344201],[-0.187865568955445,43.21328694033331],[-0.186265718222791,43.21228721982616],[-0.183970266006875,43.21041227363065],[-0.183347267839483,43.209738376651465],[-0.182489493577581,43.20761842738523],[-0.182249760479529,43.20697553159916],[-0.200596922905428,43.20276163289659],[-0.201918384293598,43.202292106219325],[-0.202279156718019,43.20174125556303],[-0.204977774861165,43.2015854953776],[-0.20638332587587,43.201368181731745],[-0.207064609755874,43.20116068051261],[-0.206797042383735,43.20055287179977],[-0.207897679118448,43.20038511209571],[-0.208346139342683,43.200594134212345],[-0.208455613814292,43.19997331468494],[-0.208974953281179,43.19992995963648],[-0.209720451575423,43.199682720862036],[-0.209694011785096,43.199251393103175],[-0.211772913639997,43.1992390300122],[-0.212026512031282,43.19937371701559],[-0.212252126610228,43.19938140274959],[-0.213648586344233,43.1990463317476],[-0.214425170703778,43.198761223777254],[-0.217022659399984,43.198913352969036],[-0.21750992245626,43.19997280926228],[-0.219069679978847,43.199653502322036],[-0.218965692968118,43.199421641983605],[-0.220814698420938,43.19899375061659],[-0.220725221192558,43.198823575465575],[-0.225879438230579,43.19762617942949],[-0.226101647458195,43.1980354471114],[-0.227707679809084,43.1976651153877],[-0.227908231835572,43.197994905896806],[-0.228944408860262,43.197688419104544],[-0.228996665526626,43.19739067391624],[-0.230235121394822,43.19726897130697],[-0.230139132972308,43.196982866671036],[-0.231874979092016,43.19664639456812],[-0.231966439565343,43.19680749916791],[-0.232332372337106,43.19672811563767],[-0.232292945103212,43.196639272396546],[-0.233026357614119,43.19646425097273],[-0.232919813179493,43.196231579574984],[-0.233457357069196,43.19609663473138],[-0.233610976407592,43.19629098430695],[-0.233792419896913,43.19623513104942],[-0.233665059256148,43.19609220887295],[-0.236095046719888,43.19540806619521],[-0.236432266229577,43.1952557095213],[-0.23777945137279,43.19492359918211],[-0.238008155992235,43.19465746241098],[-0.238722656924367,43.194343430509036],[-0.238644973050822,43.19319974757357],[-0.238740436288776,43.193124861367004],[-0.238062231301772,43.19208923422171],[-0.239893437691508,43.19150399842168]]]]}}]}