{"type":"FeatureCollection","name":"COM_40137","crs":{"type":"name","properties":{"name":"urn:ogc:def:crs:OGC:1.3:CRS84"}},"features":[{"type":"Feature","properties":{"fid":4075,"ID":"COMMUNE_0000000009758659","NOM":"Lacquy","NOM_M":"LACQUY","INSEE_COM":"40137","STATUT":"Commune simple","POPULATION":288,"INSEE_CAN":"01","INSEE_ARR":"2","INSEE_DEP":"40","INSEE_REG":"75","SIREN_EPCI":"244000774"},"geometry":{"type":"MultiPolygon","coordinates":[[[[-0.296204174305092,43.982663891887434],[-0.2894193706,43.98007594035632],[-0.283530656738738,43.97800472809488],[-0.278818358209003,43.97644918599847],[-0.278469717576497,43.97606961890204],[-0.277708807172092,43.97550515187757],[-0.273986375167323,43.97465113043566],[-0.274255233121838,43.97440257443454],[-0.274642268438248,43.973301968427194],[-0.27270597101741,43.97359687254617],[-0.272630511761314,43.973499149094735],[-0.270664906097252,43.97321841451016],[-0.270150353136067,43.973076182761105],[-0.269324945037836,43.97260276626018],[-0.267429694306546,43.97172087316006],[-0.265453443735845,43.97038198969413],[-0.260853224169431,43.96797476581481],[-0.258468356094016,43.96659481759934],[-0.259363994040022,43.96611863497459],[-0.25779930451724,43.96490426336127],[-0.25864367102669,43.96422965110944],[-0.256472313044011,43.96376745726968],[-0.253102114003992,43.96268518676834],[-0.253597405810096,43.961006780120215],[-0.254243742435033,43.95979045352745],[-0.254456776540147,43.958804108590584],[-0.25432482483444,43.958545925547035],[-0.25390588549366,43.9583935696951],[-0.253308102188426,43.958428486355324],[-0.253086410091148,43.95836753277358],[-0.25161902900468,43.95775998665918],[-0.251306619641711,43.95755130735616],[-0.251143360684487,43.957049954549056],[-0.250289250872332,43.956569157944365],[-0.248401304116634,43.95584437829839],[-0.246690829619904,43.954907125940544],[-0.244823771234646,43.954262732863775],[-0.244401822524851,43.954253647663705],[-0.243985141336952,43.95413992009087],[-0.243189586263683,43.95365643236774],[-0.242727251885411,43.95324411384916],[-0.242300824464875,43.952301101457444],[-0.242478432301214,43.95160947727919],[-0.242996289250306,43.950915858782736],[-0.243254241000812,43.950387581559774],[-0.243634420917682,43.950188942459555],[-0.244381273916015,43.95001454034027],[-0.244482398869411,43.94933779462955],[-0.245248465775271,43.94904121770774],[-0.24565826675286,43.94776442455369],[-0.249298792143593,43.94857673229694],[-0.249626007455513,43.949046184869395],[-0.251420609001545,43.95065192289949],[-0.251810346632116,43.95046828243584],[-0.254491762775072,43.9501560386815],[-0.257152503378436,43.94956962194264],[-0.259358674175855,43.94781494446857],[-0.259933273871106,43.94713666081946],[-0.260917650988431,43.94499146150626],[-0.260996756154588,43.94417303852063],[-0.26243685208154,43.942412341435976],[-0.263381950020646,43.94147887379021],[-0.2634239572238,43.94134160850267],[-0.264085978988626,43.941125466352716],[-0.264905345651503,43.93993453088651],[-0.266469179404175,43.93872763042518],[-0.26779509746828,43.937154923690706],[-0.268179109623927,43.93691734955241],[-0.269515747916616,43.936533262820916],[-0.26973381538422,43.936532138454524],[-0.270969274520793,43.93668789796624],[-0.274393547522383,43.93690864533721],[-0.275658661329308,43.93716794837183],[-0.275999541681558,43.93748198736077],[-0.276763033190282,43.93755816287689],[-0.278427101608741,43.93532484273767],[-0.278904357016797,43.93553930059211],[-0.2797569771202,43.935778513407556],[-0.280787643060892,43.93642580843484],[-0.282640863442033,43.936788961340895],[-0.282824268101083,43.93655376067527],[-0.28269705524336,43.93635762127812],[-0.282895083503905,43.93607334120155],[-0.283412184605653,43.93561553410774],[-0.28370195124603,43.93495468897897],[-0.284456081364951,43.93432761681556],[-0.289057924830571,43.93480341684864],[-0.289267368138031,43.93422063634336],[-0.289758645007029,43.93413738171766],[-0.29032012205535,43.93416910569467],[-0.290666631674154,43.934925193340476],[-0.292626744523145,43.9356065201642],[-0.295033910522131,43.935740186185974],[-0.295401845270247,43.93602452730537],[-0.296298927230375,43.936298301432345],[-0.296036217473265,43.93664851271045],[-0.296046721442006,43.9368733812718],[-0.295611746340235,43.93823311856863],[-0.29565027261414,43.93905073149593],[-0.295990331036638,43.93967189055195],[-0.29631339085687,43.93993416509724],[-0.296759538233696,43.94014768614355],[-0.298327530041538,43.940424611743644],[-0.298822588642501,43.94066457075319],[-0.298163971168627,43.94563586693654],[-0.310792295700054,43.94573210935233],[-0.311421789537949,43.94579499511],[-0.313383991255431,43.94639394066287],[-0.31973226057813,43.94789280528951],[-0.321726770672246,43.94848702166027],[-0.322960600027967,43.94871431707162],[-0.326699921732742,43.949658893255034],[-0.32720351415338,43.95093885414692],[-0.326815571657647,43.951811801165796],[-0.326263628143472,43.952524000051405],[-0.32556099622321,43.95313269176091],[-0.32347242848807,43.95608320631504],[-0.32144012669488,43.95645037468704],[-0.320969416099135,43.95828062767418],[-0.320616651263413,43.958882252921754],[-0.320135740959718,43.959253572361824],[-0.319998438194757,43.95970092175056],[-0.319136945530543,43.95966134233783],[-0.318954488940683,43.95997584798094],[-0.318089759150486,43.95990212947149],[-0.317731013848874,43.96055166694216],[-0.317898676860735,43.96079698805483],[-0.318836661289203,43.96097207132622],[-0.318843379320637,43.96160150282989],[-0.31906289730783,43.96170923156787],[-0.319623859934003,43.961791272786385],[-0.319451557640843,43.96407905248213],[-0.317681033528618,43.96470661840791],[-0.313731776143572,43.965720927149576],[-0.31137034277191,43.966719407601836],[-0.309998670011147,43.967216756364756],[-0.303300726916211,43.96896966653717],[-0.303192280496173,43.969465662246876],[-0.302552361000119,43.970410989429375],[-0.302179034946985,43.970769966615194],[-0.301297615477807,43.97137939318395],[-0.300113381413204,43.97184302664459],[-0.299583752027018,43.972367951357484],[-0.299240401970362,43.97283590589941],[-0.298930611600444,43.97440087662593],[-0.299040807123655,43.97576581041611],[-0.298969536505483,43.97694796358883],[-0.297685714896844,43.97808564412621],[-0.295964750672248,43.979926479216445],[-0.295805434973357,43.98051497959526],[-0.295869754176203,43.981907425159584],[-0.296204174305092,43.982663891887434]]]]}}]}