{"type":"FeatureCollection","name":"COM_40305","crs":{"type":"name","properties":{"name":"urn:ogc:def:crs:OGC:1.3:CRS84"}},"features":[{"type":"Feature","properties":{"fid":4200,"ID":"COMMUNE_0000000009759814","NOM":"Sorbets","NOM_M":"SORBETS","INSEE_COM":"40305","STATUT":"Commune simple","POPULATION":193,"INSEE_CAN":"02","INSEE_ARR":"2","INSEE_DEP":"40","INSEE_REG":"75","SIREN_EPCI":"200069649"},"geometry":{"type":"MultiPolygon","coordinates":[[[[-0.305767066338991,43.65016024617206],[-0.305822764735553,43.649771301046016],[-0.306588512141762,43.64763073511984],[-0.306652152625438,43.64710015692434],[-0.306309399004197,43.64539407674336],[-0.305896554108272,43.64197812914398],[-0.30570027876679,43.64126273675769],[-0.305125289091428,43.63993656514718],[-0.304644503124777,43.63931898287312],[-0.303466404409993,43.63832814857002],[-0.302911230273239,43.63773173385065],[-0.301902339161572,43.63599637118194],[-0.301524317288885,43.63365286142931],[-0.301401252511305,43.63203287124167],[-0.301441432429545,43.631611083939916],[-0.301758718124874,43.63147986528201],[-0.30187553946552,43.63002099398876],[-0.301842827369568,43.6297329053571],[-0.301529735165111,43.629226394061526],[-0.301425826417791,43.62789580979491],[-0.301181347796623,43.62791314503201],[-0.300583273970764,43.62723697892928],[-0.299456456672864,43.62685154262818],[-0.29875322780384,43.62622178865773],[-0.302087713919157,43.62625737381167],[-0.304886244147569,43.62600657133913],[-0.307446824842928,43.62590793240916],[-0.307474133324643,43.6258440611301],[-0.307812115467723,43.625750017751365],[-0.309307780839384,43.62560900671996],[-0.31117428214472,43.625685417818296],[-0.312209843527765,43.62560611951563],[-0.313303968934672,43.625853734049926],[-0.314534333260646,43.6264204871575],[-0.315273643024598,43.62653481568629],[-0.315761435878098,43.626480303594946],[-0.316452503367,43.626532155818225],[-0.316951942595848,43.62646467477143],[-0.318167331700278,43.626107855539985],[-0.31869710821193,43.62617902886502],[-0.319431887523589,43.626107949076065],[-0.319964648814198,43.62644469496818],[-0.320343445459332,43.62716258524534],[-0.320685108556533,43.627217884594074],[-0.321290112725822,43.62698235126244],[-0.32171592511367,43.62737729411736],[-0.324544343531318,43.62657301596236],[-0.32493540905561,43.62671054392962],[-0.325926450511172,43.62652620911278],[-0.327051593926273,43.626623241957354],[-0.327774455080635,43.62632552450845],[-0.327944552450683,43.626073555149006],[-0.328435944328619,43.625953133134765],[-0.330099923627919,43.625807578219984],[-0.330756574036847,43.62554429079135],[-0.33240984156695,43.62517208195227],[-0.333483218919463,43.62529585186404],[-0.334905322504963,43.624956814317244],[-0.336154350216622,43.62411514447416],[-0.336431611795822,43.62429935402939],[-0.336922787940648,43.624388735208136],[-0.337450342235273,43.62348455425988],[-0.337582122936006,43.6234057571941],[-0.33824692391529,43.62345377430414],[-0.339274258882408,43.622851229830545],[-0.339673946273797,43.623391901100284],[-0.339814833272025,43.62455472663263],[-0.340068942113376,43.62489453975273],[-0.339900964908032,43.625032990760936],[-0.340015653758275,43.62538429512596],[-0.339931440387977,43.62566246326795],[-0.340047367690131,43.62743935710514],[-0.340245550454297,43.62773405980089],[-0.340770813893655,43.62806733648144],[-0.341492493255006,43.62894122661647],[-0.342048583626366,43.62946267338872],[-0.342223256516537,43.63018317456582],[-0.34211503589061,43.631580616071595],[-0.342222225619503,43.63248331240629],[-0.343009228406707,43.633795577254446],[-0.342971661334868,43.6341506656599],[-0.343059242822102,43.63437672127588],[-0.343460307045368,43.63462014857224],[-0.344241323049058,43.63555254199189],[-0.346874397287349,43.636645842760565],[-0.347946400267209,43.63684787256351],[-0.349564926620567,43.6375959187739],[-0.350012405628386,43.637932455886435],[-0.350151880043822,43.63813349195544],[-0.352230750774233,43.639436485788664],[-0.352527902804382,43.63976774481757],[-0.352726860797134,43.640519010931925],[-0.353308203408181,43.64115040560085],[-0.354837835396286,43.64162644089661],[-0.355876834206184,43.64299929927844],[-0.356329460998715,43.64295650091311],[-0.357346610876723,43.64391304310788],[-0.357786285357396,43.64381840392181],[-0.358081464086191,43.64405154545553],[-0.358340296311534,43.6440453479365],[-0.358601633185491,43.64431465766721],[-0.358846482150874,43.644429572317904],[-0.359481176993347,43.644530634017535],[-0.36003765034248,43.644735879232954],[-0.360979598807903,43.64485264878654],[-0.361117225871886,43.64493665163665],[-0.361405917186812,43.64560858146293],[-0.361524055715539,43.645698590375815],[-0.361865313774529,43.64572315747843],[-0.362041407503117,43.645913141678356],[-0.362350532701238,43.64593960202087],[-0.362412419002942,43.64612771560819],[-0.363424107435679,43.64614324012873],[-0.363194103298594,43.64638721869674],[-0.362536446702713,43.64638145210021],[-0.361790888164408,43.64669541498643],[-0.361132233103261,43.64679954488782],[-0.360437721499159,43.6467786943818],[-0.360119298738793,43.64686869435781],[-0.359386947856046,43.64852954161231],[-0.35910534133566,43.64878231106188],[-0.358510218878878,43.64893399405418],[-0.357418557335469,43.64945945652924],[-0.356625478545701,43.65021254609299],[-0.356208933390723,43.65032177549235],[-0.355654017160473,43.6503344076509],[-0.35507069635656,43.650497414706535],[-0.35461235983498,43.65074031728347],[-0.35316406009572,43.65095882872168],[-0.351916430197313,43.6513638615984],[-0.35135079172011,43.65106609299869],[-0.350633426313099,43.65099454852473],[-0.35010637718588,43.6505929151283],[-0.348195264222913,43.649725987498904],[-0.347553703509212,43.64965659101455],[-0.346260087243225,43.649337989443424],[-0.344648822863988,43.64908048357503],[-0.343164705788285,43.65030053219129],[-0.342740661812336,43.649983955378524],[-0.341270031408901,43.65062807794311],[-0.338983427303449,43.65195649109157],[-0.337480256015629,43.653023041150796],[-0.33474075518685,43.654735414368844],[-0.334465060879815,43.6546231922825],[-0.334010338391634,43.654567795532785],[-0.333450313096337,43.653917628546345],[-0.333149545453815,43.6539286538537],[-0.33298423802685,43.65411474365279],[-0.333058070860619,43.65425387357926],[-0.332997642112004,43.654366500388704],[-0.332244493543687,43.65468228816655],[-0.331948011238417,43.65470308523357],[-0.331714966798977,43.65483361117564],[-0.331269459022392,43.65529936726861],[-0.330854050731935,43.65538684808594],[-0.32905161849294,43.65553393012807],[-0.32811246085424,43.65536005667612],[-0.327295763685824,43.65507345430642],[-0.326518787782694,43.65538542776328],[-0.326012418469723,43.655166769098656],[-0.325757209107519,43.65519349092803],[-0.324540572529064,43.655538715037196],[-0.324433952105502,43.655817558553956],[-0.323020744855654,43.6562813516862],[-0.322386215672724,43.65665468309168],[-0.320938503609366,43.65729421844342],[-0.315905491127441,43.65899869687371],[-0.313423938427016,43.660274860648556],[-0.312354350726816,43.66067760253759],[-0.312291684007262,43.66036610571987],[-0.311768894727984,43.65984167921494],[-0.311147839831482,43.65961293642372],[-0.310976583292809,43.65946145005354],[-0.310614102031947,43.659413952205654],[-0.310388441626511,43.65920108055086],[-0.30994673687634,43.658404900450954],[-0.309540371530269,43.657984090020456],[-0.309496971405711,43.65740453087466],[-0.309312863920819,43.6573524985901],[-0.308865760508834,43.65738592308003],[-0.305767066338991,43.65016024617206]]]]}}]}