{"type":"FeatureCollection","features":[{"type":"Feature","properties":{"fid":64,"ID":"COMMUNE_0000000009754163","NOM":"Saint-Aubin-de-Blaye","NOM_M":"SAINT-AUBIN-DE-BLAYE","INSEE_COM":"33374","STATUT":"Commune simple","POPULATION":843,"INSEE_CAN":"13","INSEE_ARR":"1","INSEE_DEP":"33","INSEE_REG":"75","SIREN_EPCI":"243300811"},"geometry":{"type":"MultiPolygon","coordinates":[[[[-0.563595099438863,45.236811808139535],[-0.576062133291146,45.24121571619585],[-0.578576069545967,45.24223755421793],[-0.579668716364555,45.24290109091456],[-0.580575361247648,45.24317128047954],[-0.580864658907751,45.24338464088532],[-0.58130586008915,45.24383739748178],[-0.58291543317921,45.245038663666136],[-0.584422949503018,45.2469137937579],[-0.585742585000871,45.247850315300724],[-0.586859331738658,45.24842918878619],[-0.5886659880377,45.24886240413427],[-0.591056596112648,45.25017908302284],[-0.592024320165862,45.250582426480655],[-0.592900511815994,45.250693960531144],[-0.594921228811458,45.250744325491844],[-0.596254576695946,45.251098009811955],[-0.597179942774803,45.25159551456961],[-0.598182934960378,45.25230683966651],[-0.601273777685248,45.25501410126561],[-0.601640357967681,45.25665809634846],[-0.60199671756237,45.25747226084305],[-0.599481794561717,45.25904147074356],[-0.598032308978205,45.260549274040216],[-0.597087728820932,45.26123948825625],[-0.597001257412944,45.261363055157865],[-0.597368282802908,45.261532413524435],[-0.596492890276258,45.26204913490515],[-0.595648662408194,45.26277216021423],[-0.594166381000826,45.26385371626785],[-0.593204338268568,45.26413613822397],[-0.591883665983677,45.26439943412711],[-0.591207186198249,45.26507286394112],[-0.590974467561869,45.26550218133851],[-0.590759909598888,45.26651049157903],[-0.590237149442137,45.26770807542267],[-0.590035427530768,45.26877726436664],[-0.589682670068536,45.269543038218536],[-0.590657164335436,45.27018504969545],[-0.590618038516254,45.27042967528182],[-0.590384007409295,45.27068056303988],[-0.589927331261292,45.27092327958887],[-0.589694373961488,45.270774826923876],[-0.589584130992659,45.27090636182867],[-0.588596877496353,45.2713941592376],[-0.587722286863358,45.27166921426458],[-0.586286236666143,45.27188836969702],[-0.586023229052797,45.27198694583483],[-0.58540862208439,45.271898502604955],[-0.585340288995267,45.27208637552798],[-0.585397143963127,45.27243427999955],[-0.585161745214559,45.2728231081942],[-0.585267884920125,45.27292516251371],[-0.58479599026659,45.273348617552934],[-0.58419473453849,45.27352744339101],[-0.58381774608522,45.27377929550212],[-0.583661711065668,45.274370184167296],[-0.583367278869029,45.274833911320854],[-0.583047430123603,45.27514071418024],[-0.582554368272809,45.275493629878156],[-0.58160045072733,45.27590638119516],[-0.580275879257929,45.27595513114242],[-0.579228617349462,45.27656464403832],[-0.577005676307431,45.278210485759566],[-0.576006551584889,45.2789545307995],[-0.575873365134445,45.27888848605626],[-0.574404583470682,45.27967548302409],[-0.572940529124234,45.280616440468755],[-0.565070339234924,45.28140855727404],[-0.56485035907013,45.280863945323034],[-0.565084812940742,45.28037784887755],[-0.564980907554629,45.27995121762115],[-0.564558256348249,45.27965102677769],[-0.564110622579781,45.279558942220895],[-0.56337832366516,45.27896847063656],[-0.56294765991187,45.278482851278135],[-0.562540265396822,45.278440855110524],[-0.562139979387517,45.277252112230286],[-0.561957531925324,45.27705422167367],[-0.562058761324646,45.276920299536684],[-0.561944759922542,45.276734649146526],[-0.562201662970116,45.27618024260575],[-0.561797918264709,45.27565590537701],[-0.561809203562139,45.275153493450105],[-0.561275476689521,45.274732445797774],[-0.5605427988186,45.27391483114478],[-0.560437663529466,45.273248477919566],[-0.560007157322442,45.27318377507321],[-0.56014937669784,45.27233287765931],[-0.560918042384107,45.27115736464266],[-0.560911592155063,45.270956569272464],[-0.560595331090053,45.27068181991982],[-0.560379643494087,45.270302914502],[-0.55930169185929,45.26927456304224],[-0.558882759820043,45.2691707303287],[-0.558348135763169,45.26873437739798],[-0.557780442553544,45.2684396852353],[-0.557621229612283,45.268185166103265],[-0.557015005545993,45.268066558341914],[-0.556705085232992,45.2679105751956],[-0.556413854693341,45.2675674177295],[-0.556526426211583,45.26733128760917],[-0.55600358141803,45.26659890837771],[-0.555929175316419,45.26629301584693],[-0.555532006342888,45.266149721137985],[-0.55564097163134,45.26573704299704],[-0.555451482697503,45.26560787053425],[-0.555434301377911,45.265478623458954],[-0.555578949155923,45.265345128507654],[-0.555566299905917,45.26518689418654],[-0.554932727860505,45.26455898523983],[-0.554977709833626,45.264363764966994],[-0.554883598077979,45.26410897440317],[-0.555149581576194,45.26379675876648],[-0.555467789434872,45.263682979302125],[-0.555800229666049,45.263272203371145],[-0.555340042613847,45.26342114727001],[-0.554905074396599,45.26340524210945],[-0.553626062250075,45.263923638591294],[-0.553231569447343,45.26418225086548],[-0.553235745036751,45.263206863816116],[-0.552657866015842,45.263231548182475],[-0.551065159058068,45.26301357618123],[-0.550859501146752,45.262490122414995],[-0.550715063085884,45.26166547734056],[-0.550548439826567,45.25917044925902],[-0.550924371190567,45.25595693636787],[-0.551052269607133,45.255560787725486],[-0.551426580106256,45.25500628215661],[-0.551333410461616,45.254685662231765],[-0.550977254993644,45.25446353560817],[-0.552026520121716,45.25362708484199],[-0.553619941522935,45.252099111580485],[-0.554700938232623,45.251701479231166],[-0.555304974925521,45.251268541087725],[-0.559325688822182,45.24307347870719],[-0.563595099438863,45.236811808139535]]]]}},{"type":"Feature","properties":{"fid":68,"ID":"COMMUNE_0000000009753929","NOM":"Saint-Ciers-sur-Gironde","NOM_M":"SAINT-CIERS-SUR-GIRONDE","INSEE_COM":"33389","STATUT":"Commune simple","POPULATION":3128,"INSEE_CAN":"13","INSEE_ARR":"1","INSEE_DEP":"33","INSEE_REG":"75","SIREN_EPCI":"243300811"},"geometry":{"type":"MultiPolygon","coordinates":[[[[-0.718835687447997,45.32752753632432],[-0.715935878849172,45.327869097633396],[-0.713667497627683,45.327906569448565],[-0.709493879066961,45.32748616249378],[-0.708375480127029,45.32754037300705],[-0.707131268877931,45.32685686020736],[-0.706053818900133,45.32643193008975],[-0.69342894973676,45.32551719431134],[-0.691999090203091,45.325325520479],[-0.690449648969374,45.32496830597762],[-0.689251235670038,45.325241308592204],[-0.685479435106868,45.32501589575676],[-0.664135100403329,45.323452775687976],[-0.655735362902468,45.32301190575478],[-0.649438055976859,45.32240087501331],[-0.647182651520166,45.32232030095148],[-0.644033547060389,45.32201640904551],[-0.644343971141827,45.32168359336999],[-0.644406889346894,45.321493150390076],[-0.644537429054728,45.31497807690496],[-0.64191813366438,45.314915574622916],[-0.641508158204579,45.31481985533542],[-0.640250287743381,45.315355673555395],[-0.639069233228712,45.316011567546326],[-0.638514028973464,45.3163523320489],[-0.637284656541408,45.31732526687211],[-0.636312138856695,45.31783012392987],[-0.636128841828958,45.31803619333194],[-0.633335637548626,45.318560539508404],[-0.633406146487638,45.318466306631834],[-0.633337426939208,45.31737424537344],[-0.633190519542876,45.31647401730964],[-0.632423037550651,45.3144626972366],[-0.632128301095537,45.31395937675875],[-0.63155090320256,45.31339222200196],[-0.63012605891527,45.312269375333294],[-0.627204382427652,45.31095530265469],[-0.626075437774708,45.31098019646799],[-0.625091507570906,45.31046585408996],[-0.624557243697909,45.31002977304817],[-0.624475182856152,45.309671877130164],[-0.624610704977215,45.3086335912929],[-0.623583726614335,45.307515801445916],[-0.623397865925351,45.307191916012265],[-0.623352145068796,45.30656783421547],[-0.623455782744923,45.30592268772493],[-0.620820441004382,45.306077460468785],[-0.61991554857903,45.30593188911561],[-0.616924293376325,45.3048550819633],[-0.614129398178065,45.3041450246149],[-0.613262972168611,45.30376469977238],[-0.612504065388376,45.30332861481357],[-0.611996869920087,45.30293306880077],[-0.611485254693478,45.30274498115975],[-0.608137587401894,45.30248980196585],[-0.607604308518527,45.30257821820608],[-0.60678974627881,45.302839756534354],[-0.605315806800156,45.30264301837742],[-0.602235612609927,45.30322452994112],[-0.601290708549716,45.30324865741479],[-0.600420041992292,45.3031171526527],[-0.599761089561512,45.303257350409694],[-0.59980331515059,45.30148028232129],[-0.599935452705544,45.30117316608451],[-0.600333625293874,45.30085207529425],[-0.599927653186536,45.30077591092138],[-0.600027231257069,45.300478856601806],[-0.600830976453651,45.29937853572155],[-0.600431740882984,45.29932739506094],[-0.600412336682794,45.29910628173075],[-0.597502721630492,45.298747450154806],[-0.59758030148086,45.29818880667427],[-0.594908507445316,45.29783307356307],[-0.594027240526774,45.29650664522134],[-0.59133828237228,45.29610090536169],[-0.591213726040532,45.29603099406807],[-0.591208481916588,45.29565258738187],[-0.589985485225232,45.29605601831056],[-0.590279925266973,45.29481889898723],[-0.589917340643961,45.29472147677961],[-0.589278885665202,45.29432644541922],[-0.588816957086496,45.29419345040651],[-0.58871934217721,45.29404605548666],[-0.589052375230875,45.29271395931035],[-0.589265250876163,45.29130099134029],[-0.585519890818974,45.291678970206796],[-0.585823387115317,45.290323496728675],[-0.585896270203505,45.28939275233384],[-0.586304934274897,45.287687779463354],[-0.586053867302704,45.285711929383545],[-0.585466794249601,45.285637019888426],[-0.585332439140878,45.284898605041406],[-0.585497914557529,45.28485093314023],[-0.584859611955639,45.28421791694336],[-0.584555130834101,45.284347563028916],[-0.582707324484748,45.28245805770103],[-0.582844822569193,45.28239235772589],[-0.582858737855401,45.28133821880528],[-0.581300612430838,45.28166847712215],[-0.58167103235814,45.27984396938671],[-0.581782471867522,45.27969077219138],[-0.581445191447212,45.2796078386764],[-0.580666080503071,45.279622886283896],[-0.580190621428987,45.279535362102614],[-0.579965592478022,45.279351481568625],[-0.579317335719755,45.27917754965863],[-0.577584117949737,45.279166341018026],[-0.577827318349982,45.27901704271399],[-0.577005676307431,45.278210485759566],[-0.579228617349462,45.27656464403832],[-0.580275879257929,45.27595513114242],[-0.58160045072733,45.27590638119516],[-0.582554368272809,45.275493629878156],[-0.583047430123603,45.27514071418024],[-0.583367278869029,45.274833911320854],[-0.583661711065668,45.274370184167296],[-0.58381774608522,45.27377929550212],[-0.58419473453849,45.27352744339101],[-0.58479599026659,45.273348617552934],[-0.585267884920125,45.27292516251371],[-0.585161745214559,45.2728231081942],[-0.585397143963127,45.27243427999955],[-0.585340288995267,45.27208637552798],[-0.58540862208439,45.271898502604955],[-0.586023229052797,45.27198694583483],[-0.586286236666143,45.27188836969702],[-0.587722286863358,45.27166921426458],[-0.588596877496353,45.2713941592376],[-0.589584130992659,45.27090636182867],[-0.589694373961488,45.270774826923876],[-0.589927331261292,45.27092327958887],[-0.590384007409295,45.27068056303988],[-0.590618038516254,45.27042967528182],[-0.590657164335436,45.27018504969545],[-0.589682670068536,45.269543038218536],[-0.590035427530768,45.26877726436664],[-0.590237149442137,45.26770807542267],[-0.590759909598888,45.26651049157903],[-0.590974467561869,45.26550218133851],[-0.591207186198249,45.26507286394112],[-0.591883665983677,45.26439943412711],[-0.593204338268568,45.26413613822397],[-0.594166381000826,45.26385371626785],[-0.595648662408194,45.26277216021423],[-0.596492890276258,45.26204913490515],[-0.597368282802908,45.261532413524435],[-0.599550723716232,45.26247976974237],[-0.601116045927821,45.26359389975079],[-0.601646531316916,45.26372462615704],[-0.602607689704692,45.26376484881042],[-0.604713832627844,45.2642007889131],[-0.606113219681951,45.264385484780256],[-0.608730271415593,45.26561429429981],[-0.61029185207719,45.26668606156039],[-0.610735105678745,45.26688806937658],[-0.611423415053371,45.26752292814512],[-0.61170104030283,45.26763113403048],[-0.613237484912009,45.26784105985143],[-0.613816238324703,45.26826221601398],[-0.614728640333479,45.26823811358426],[-0.615697473901339,45.26806074637959],[-0.617626023224395,45.267585496717516],[-0.617926167025394,45.26735223752432],[-0.618257130542758,45.2673577461683],[-0.618673417096814,45.26722257984061],[-0.619404139339432,45.267152943416136],[-0.61990400129311,45.2671646942369],[-0.620528383197354,45.267422991909804],[-0.621060080398802,45.267413875808714],[-0.621228503748826,45.267491344840266],[-0.621663226637909,45.267404244245775],[-0.622655371949958,45.26742887071629],[-0.623476283856936,45.26733284774457],[-0.624316824505766,45.26749938544266],[-0.625138284698726,45.2675295259159],[-0.626027953848836,45.267725104202164],[-0.626156988838332,45.267687565835125],[-0.627465611824952,45.26784790355891],[-0.631396415812232,45.26785543859419],[-0.632579006168903,45.270761829981176],[-0.626659644108874,45.28452984582395],[-0.630436336594139,45.29132359853825],[-0.69835744332686,45.28487664987302],[-0.704038411534991,45.284567743279915],[-0.705498679520204,45.28895526985077],[-0.706099128038107,45.29066700880618],[-0.708320730062026,45.29733423242884],[-0.710905180837092,45.30518289484074],[-0.717390322610772,45.324121257166084],[-0.718445686785569,45.3264146006957],[-0.718835687447997,45.32752753632432]]]]}},{"type":"Feature","properties":{"fid":126,"ID":"COMMUNE_0000000009754372","NOM":"Étauliers","NOM_M":"ETAULIERS","INSEE_COM":"33159","STATUT":"Commune simple","POPULATION":1598,"INSEE_CAN":"13","INSEE_ARR":"1","INSEE_DEP":"33","INSEE_REG":"75","SIREN_EPCI":"243300811"},"geometry":{"type":"MultiPolygon","coordinates":[[[[-0.578576069545967,45.24223755421793],[-0.576062133291146,45.24121571619585],[-0.563595099438863,45.236811808139535],[-0.558622455749933,45.234895473619616],[-0.559661981839316,45.234173719948835],[-0.559932074566261,45.23386856921386],[-0.56033249534824,45.232547957191755],[-0.560882882597103,45.23171829980718],[-0.560848890269578,45.23152559515226],[-0.560117028585284,45.23129114516159],[-0.559061925779673,45.230289135598724],[-0.558152089897587,45.22974397513974],[-0.557546516772778,45.22950909087591],[-0.555585804607045,45.229026226955845],[-0.554094119950814,45.22907731781964],[-0.553970322484041,45.22893614240952],[-0.55388148157048,45.22868298983852],[-0.553910510890955,45.228317925480084],[-0.554115874711487,45.22729738441507],[-0.554372275906728,45.22465641622853],[-0.552755351706557,45.22267986725667],[-0.553790691724388,45.22085416130289],[-0.554192168802389,45.220489860855274],[-0.556337814639112,45.219057815388304],[-0.558259956080865,45.218042056560556],[-0.557330245726481,45.21806176816432],[-0.55690487491852,45.2178508875138],[-0.556759032298809,45.21764371946287],[-0.556699830265595,45.21725532646011],[-0.556427215741189,45.217099967425526],[-0.556030709455323,45.216701587666044],[-0.555721388162064,45.216610489776436],[-0.555569770369154,45.2161925916932],[-0.555208126287347,45.216260892661396],[-0.55503751857263,45.21618520511429],[-0.554943131624028,45.2158448015805],[-0.55503778578175,45.21540914631701],[-0.554940455219489,45.21526262381451],[-0.553585446704035,45.21401054352266],[-0.552855340755735,45.21359933769228],[-0.555139645148559,45.21266584223591],[-0.563093413193608,45.20981911404213],[-0.586279446976498,45.20270679614286],[-0.587124218121764,45.20200453901543],[-0.588233760351366,45.202663815848034],[-0.58841691676827,45.202577707387],[-0.590121889876784,45.20325658025725],[-0.590306743220841,45.203493999362486],[-0.5907007284705,45.203731901575075],[-0.591861859327325,45.204181273015806],[-0.592152890256805,45.20422598854262],[-0.592282949869695,45.204107331033235],[-0.592478373177404,45.20409292928824],[-0.596100331730377,45.205689772846746],[-0.598202838109073,45.20665767551131],[-0.597891821537627,45.207410418444596],[-0.598390683823518,45.20771161565319],[-0.600395412989579,45.208328399369826],[-0.60092707804206,45.208801588802864],[-0.601573972262318,45.209064647205246],[-0.601878002087374,45.20871772935507],[-0.605046795912854,45.21023878760823],[-0.605075941605117,45.2105713498766],[-0.60828807466468,45.211931382193235],[-0.608362885103939,45.21332427403324],[-0.609744538785525,45.21368792488419],[-0.609286754129504,45.21526478978448],[-0.609128630558662,45.21548172227154],[-0.608595060018237,45.217129537488866],[-0.609254929918774,45.21739393949668],[-0.608235464296799,45.22056003408813],[-0.617460238151298,45.223428044465166],[-0.615520776973055,45.22502949957431],[-0.6126093505326,45.22761691682387],[-0.61088450913,45.22830186047523],[-0.608203027056506,45.229027606366145],[-0.607768240433731,45.22912908683851],[-0.597747785104582,45.22812917982483],[-0.594994496514968,45.233461061813955],[-0.594586139814568,45.23387441027455],[-0.592746540262965,45.23403185465364],[-0.591102910432852,45.23402342665349],[-0.58955839709152,45.23270121537356],[-0.584410706615855,45.23235729191848],[-0.584165965140259,45.2330745128771],[-0.583691975210163,45.23338086156265],[-0.583705435715582,45.23378874307232],[-0.583963384780607,45.23413019079421],[-0.581850330494507,45.2342610770751],[-0.581678340853042,45.23501922316953],[-0.581339252732473,45.23547987275815],[-0.580371520661408,45.23761375789307],[-0.580169234182805,45.23788073358348],[-0.580233905899831,45.23811301231617],[-0.580149048069544,45.23828158148502],[-0.579859889357032,45.23858649397234],[-0.579848030476741,45.239017720902446],[-0.580185446103594,45.23978206951079],[-0.580075867908101,45.24000280814561],[-0.580275082831567,45.24034344358314],[-0.578938431786754,45.241343519102756],[-0.578752503722571,45.24160726355899],[-0.578576069545967,45.24223755421793]]]]}},{"type":"Feature","properties":{"fid":281,"ID":"COMMUNE_0000000009754161","NOM":"Reignac","NOM_M":"REIGNAC","INSEE_COM":"33351","STATUT":"Commune simple","POPULATION":1626,"INSEE_CAN":"13","INSEE_ARR":"1","INSEE_DEP":"33","INSEE_REG":"75","SIREN_EPCI":"243300811"},"geometry":{"type":"MultiPolygon","coordinates":[[[[-0.539763165474125,45.20598709811794],[-0.541216878781788,45.20572917775024],[-0.541520788968767,45.20575649037277],[-0.542382961037893,45.206122111608735],[-0.542650730287741,45.206363281512544],[-0.542715489578287,45.206680296293264],[-0.542407567426112,45.20689106458039],[-0.542346585356978,45.20713545696354],[-0.542632236682636,45.207296742788216],[-0.543364721476955,45.207346501665555],[-0.543902994874154,45.207610628610865],[-0.544248594836586,45.207972806314594],[-0.544353883152533,45.20870675048676],[-0.544754022108465,45.20916453893375],[-0.545233801874582,45.20925025179242],[-0.545870029728179,45.20951035798897],[-0.546032178731833,45.21011540790962],[-0.547336486149881,45.21095547047316],[-0.548716595118831,45.21164348852953],[-0.549636171327174,45.21200723384878],[-0.54981016760633,45.21217655977707],[-0.550005683590117,45.21278415022187],[-0.550371585601822,45.21290320748507],[-0.551210450329522,45.212799912983286],[-0.551619294445805,45.21307262964214],[-0.552412584676276,45.213334914987485],[-0.552855340755735,45.21359933769228],[-0.553585446704035,45.21401054352266],[-0.554940455219489,45.21526262381451],[-0.55503778578175,45.21540914631701],[-0.554943131624028,45.2158448015805],[-0.55503751857263,45.21618520511429],[-0.555208126287347,45.216260892661396],[-0.555569770369154,45.2161925916932],[-0.555721388162064,45.216610489776436],[-0.556030709455323,45.216701587666044],[-0.556427215741189,45.217099967425526],[-0.556699830265595,45.21725532646011],[-0.556759032298809,45.21764371946287],[-0.55690487491852,45.2178508875138],[-0.557330245726481,45.21806176816432],[-0.558259956080865,45.218042056560556],[-0.556337814639112,45.219057815388304],[-0.554192168802389,45.220489860855274],[-0.553790691724388,45.22085416130289],[-0.552755351706557,45.22267986725667],[-0.554372275906728,45.22465641622853],[-0.554115874711487,45.22729738441507],[-0.553910510890955,45.228317925480084],[-0.55388148157048,45.22868298983852],[-0.553970322484041,45.22893614240952],[-0.554094119950814,45.22907731781964],[-0.555585804607045,45.229026226955845],[-0.557546516772778,45.22950909087591],[-0.558152089897587,45.22974397513974],[-0.559061925779673,45.230289135598724],[-0.560117028585284,45.23129114516159],[-0.560848890269578,45.23152559515226],[-0.560882882597103,45.23171829980718],[-0.56033249534824,45.232547957191755],[-0.559932074566261,45.23386856921386],[-0.559661981839316,45.234173719948835],[-0.558622455749933,45.234895473619616],[-0.563595099438863,45.236811808139535],[-0.559325688822182,45.24307347870719],[-0.555304974925521,45.251268541087725],[-0.554700938232623,45.251701479231166],[-0.553619941522935,45.252099111580485],[-0.552026520121716,45.25362708484199],[-0.550977254993644,45.25446353560817],[-0.550738306060058,45.25435846259553],[-0.549324539146908,45.25520287554358],[-0.548088266263295,45.25580908701128],[-0.546723990900799,45.25622916497383],[-0.546195692809832,45.25647036819718],[-0.544673329659749,45.257374949928035],[-0.544065636285316,45.25785300935052],[-0.543897589941196,45.25814045863122],[-0.541735618921981,45.25946457602866],[-0.541626387390191,45.25959332438311],[-0.541718052817231,45.25971029662563],[-0.540146923609025,45.26065331279583],[-0.539376217908276,45.261499748014074],[-0.539107925076112,45.261374848507124],[-0.538759764971776,45.260816231224055],[-0.538155912416745,45.26057216442829],[-0.537019485504152,45.260543248796154],[-0.536751391587494,45.26040121230952],[-0.536739064538199,45.260267303592556],[-0.536428244960848,45.26025641103313],[-0.536120612560628,45.26011472322243],[-0.535715330986296,45.26008338352914],[-0.535109098725706,45.26024407530259],[-0.535021597543753,45.26095709503818],[-0.534409912946694,45.26093137906335],[-0.534229120219896,45.26079739108687],[-0.534049205277413,45.26083823382048],[-0.533847843937334,45.26066163182447],[-0.53377700847506,45.260389866766175],[-0.533084024881874,45.25990703510143],[-0.532684114157997,45.259235568424174],[-0.532499244274763,45.25907737093275],[-0.531494588707685,45.25907307663295],[-0.531061329060375,45.25918411380862],[-0.530802739740903,45.259111165947864],[-0.530409857020305,45.25919478597237],[-0.53019484125418,45.25874190072236],[-0.52997947877576,45.25874690241411],[-0.529778538018079,45.25885870648472],[-0.529568102805562,45.25880045853291],[-0.528682278799591,45.25815334180686],[-0.527790658773139,45.25769658241802],[-0.526255013462202,45.25773063840663],[-0.52439968594202,45.25751247140205],[-0.524026124687153,45.257558505082876],[-0.52332218834958,45.2574455067373],[-0.523028422400735,45.25752236981612],[-0.522191440097142,45.257323426902815],[-0.520819242369621,45.25685382223059],[-0.520474795774625,45.25685566294469],[-0.518912723474545,45.25764305802122],[-0.518364691866566,45.257674738328305],[-0.517398608121089,45.25795752743774],[-0.516980464112054,45.25818700838044],[-0.515152590531414,45.25860596148469],[-0.514953067338062,45.25894302428783],[-0.51417865190869,45.25880514586701],[-0.513311838442036,45.25876029993796],[-0.512402897522804,45.25918095267466],[-0.511926883703271,45.259241883133875],[-0.511759570850181,45.25915881240237],[-0.511708943679223,45.258922454618286],[-0.511278694215065,45.2589197527739],[-0.510850220375593,45.25880342696921],[-0.51041829766351,45.25824736318037],[-0.510215137402753,45.25779767761727],[-0.509897939194648,45.25776618192654],[-0.509226926339996,45.25789181261832],[-0.508054306556338,45.25750952282663],[-0.507170988797098,45.25708028492149],[-0.505284715552531,45.256672597001625],[-0.503734915043755,45.256541847112516],[-0.500606504429957,45.25571966649961],[-0.497306968684202,45.255646342327054],[-0.496756152770784,45.255470701918064],[-0.495648299185181,45.255284548277416],[-0.495006893609019,45.25486477419162],[-0.494677878104033,45.254888585873715],[-0.494318446041935,45.25475291429678],[-0.494052626564718,45.25478736595099],[-0.493885128142426,45.25470067035378],[-0.493368646030716,45.2547060052004],[-0.492627510761798,45.254465993637275],[-0.492474418018557,45.254283306679504],[-0.491949374302813,45.254355599745764],[-0.49169259410775,45.254147310618634],[-0.491293343510282,45.25404802528945],[-0.490912238885761,45.25403469739583],[-0.490875877504577,45.254207983865456],[-0.490728546340871,45.25428018556355],[-0.490288867550947,45.254228126650155],[-0.490251161907912,45.25444111250673],[-0.490093315005129,45.25446767501947],[-0.489757206450401,45.254276280709156],[-0.489702514748892,45.25413648337825],[-0.489404872712894,45.25402951102171],[-0.489320473946907,45.25386360209133],[-0.488187240661533,45.2536583402136],[-0.487882490716837,45.25374356471353],[-0.487770598978688,45.25370920287948],[-0.487773962384088,45.253477461498434],[-0.487562747072305,45.25340564128418],[-0.487103572384404,45.253449717458494],[-0.485916334158428,45.2531559879361],[-0.485646458888103,45.252778648602195],[-0.484915832042792,45.252522036453],[-0.484022082199198,45.251799123564965],[-0.483166984012633,45.25200064070131],[-0.48293409317462,45.25194931665895],[-0.482610608926964,45.25171424593815],[-0.482428334937023,45.25124764363607],[-0.482329130587728,45.251211979837315],[-0.481957506406701,45.25130918715807],[-0.4814657756983,45.25115867200408],[-0.480929697224796,45.25125829677064],[-0.480823752100037,45.25117597384106],[-0.480856641279168,45.250926188931196],[-0.480785418187769,45.25090948067642],[-0.48006473534325,45.25107704296303],[-0.479687974103991,45.251255520057235],[-0.479270987772551,45.251280224252696],[-0.479017316253384,45.2512025003268],[-0.478930556241408,45.251018632199134],[-0.478238385410606,45.25092752178283],[-0.47862604416238,45.25008535082597],[-0.479098828341371,45.24966684392977],[-0.478356463626334,45.248219033943016],[-0.478241041606095,45.247657510791996],[-0.477571013005024,45.24644809308737],[-0.477019935464888,45.24462929522888],[-0.477558985974659,45.24378061311093],[-0.478496237409961,45.24291412044574],[-0.477576815387518,45.23907616561826],[-0.477288621507939,45.23742133704302],[-0.47554998091961,45.237423178021295],[-0.472268357574881,45.23768027014077],[-0.472998452921788,45.23705189776537],[-0.476308111703531,45.23360330955761],[-0.47688004566774,45.232403901918396],[-0.477073781405626,45.23166511379831],[-0.477437766611336,45.22772501744127],[-0.47777815572304,45.227783817169225],[-0.479091909019273,45.22751847134248],[-0.479253393954363,45.22742871797358],[-0.480611962499426,45.22747290612507],[-0.480623910389014,45.227153473402055],[-0.481906411802456,45.22706211750629],[-0.483336527981413,45.22674081683606],[-0.485984312555579,45.22651578554336],[-0.486046493107406,45.22642912193256],[-0.485967172932631,45.22501745414214],[-0.484492162590238,45.22486430374738],[-0.483215709898232,45.22450034522301],[-0.482282508620822,45.224118458289006],[-0.48203079453341,45.22435613947744],[-0.479838235028041,45.22335194277303],[-0.480651931757595,45.223066106093],[-0.480328345014659,45.222765244049484],[-0.480199044422024,45.22236909726821],[-0.478800659273827,45.221827730507655],[-0.478080589206819,45.22136526411639],[-0.478394761328278,45.220574953316905],[-0.477999571478425,45.21959583644422],[-0.477991754925565,45.21885701600614],[-0.47731979393995,45.21816321706685],[-0.477213202739942,45.21761944956615],[-0.476996974698416,45.21726025707571],[-0.477118400148439,45.21714201090744],[-0.477625799327743,45.21707843901311],[-0.479159254296282,45.21602571806872],[-0.479034933246424,45.21572946008442],[-0.478318312600934,45.21519839217165],[-0.478186393230167,45.21500511804659],[-0.477765585405003,45.21087406743904],[-0.478097543854175,45.20998135704681],[-0.479046886452304,45.20872511144872],[-0.479408982002026,45.207723301781314],[-0.480209605322842,45.20792637234895],[-0.481730922206477,45.20809344217783],[-0.482260600611228,45.20708098694566],[-0.481373170585254,45.20614067395137],[-0.480537721080016,45.204949976579144],[-0.479998362882604,45.20345712271244],[-0.479634828961686,45.20320888282627],[-0.479406264413203,45.20254904943675],[-0.479158719281583,45.20219805025189],[-0.478515396980894,45.20165389028111],[-0.477075251537559,45.20121116215674],[-0.476052793612556,45.20067879922689],[-0.47778290042494,45.19978129481062],[-0.479353753276383,45.19909061651389],[-0.480587585243633,45.19874029925379],[-0.481591185532536,45.1979897644906],[-0.48190243248124,45.19789082684205],[-0.483072753589916,45.1980552995393],[-0.483430475283069,45.197965722759214],[-0.48379720634091,45.19769380175514],[-0.484801372767255,45.19742270848856],[-0.486605065323752,45.19750247321571],[-0.487681566034304,45.197389524891584],[-0.48819342904652,45.19760426098751],[-0.489092870217826,45.198145767761424],[-0.490173409621144,45.19844366194641],[-0.490738203758535,45.19842419648046],[-0.490906444801425,45.19817918874021],[-0.491629587344767,45.19818450875808],[-0.492428453277591,45.19848308128039],[-0.493278973908581,45.198364531867725],[-0.493765910624818,45.198424999739316],[-0.494300444744774,45.19830912286127],[-0.494844555875599,45.19834616479308],[-0.495037021147642,45.19830498727601],[-0.494989829706617,45.19806040960975],[-0.496407128874468,45.19764918915027],[-0.49684777525114,45.19758130601447],[-0.497213704137385,45.197623017395394],[-0.497522778495587,45.19748985385351],[-0.498456635794414,45.19746058562077],[-0.498738261149074,45.19727600338752],[-0.499119987854558,45.19716309031734],[-0.49971972331506,45.19705055044548],[-0.500728492779047,45.19703693999706],[-0.500965200973798,45.19694929902829],[-0.50157189855988,45.197272762265584],[-0.502101181472542,45.19739856180547],[-0.502462937054011,45.19767833169212],[-0.503045067431522,45.19781328419609],[-0.504126515741104,45.198246212947076],[-0.505326457868614,45.198332913655754],[-0.506379356942135,45.19820970995373],[-0.506762797839562,45.1983067213351],[-0.507474323197633,45.19830959993974],[-0.507919572319767,45.198416382053175],[-0.508245617897318,45.19828986521459],[-0.508923948971519,45.198251416441195],[-0.508999277772355,45.19851673694914],[-0.509140931159498,45.198620440457454],[-0.509868579121772,45.198676875604754],[-0.510230889034945,45.19892415730782],[-0.511437996890494,45.198860950233275],[-0.511672707417723,45.19900498589909],[-0.512687844515611,45.199010896938056],[-0.513176367800139,45.19911629665972],[-0.514843213474208,45.199106179274686],[-0.517674318332852,45.199728123927365],[-0.517818121797658,45.199885828128394],[-0.518586711443225,45.199822844726945],[-0.518817270083062,45.19988047082664],[-0.51922353483216,45.20011642470115],[-0.519900186077406,45.2003339361201],[-0.520722609938303,45.200719898106236],[-0.521896273931828,45.200893778565515],[-0.522427555659616,45.20121140172677],[-0.522874935556645,45.20137123635855],[-0.523516272862885,45.20149340051353],[-0.524618440795117,45.20144327942059],[-0.525031164911395,45.20151857483501],[-0.525913258701676,45.20185935261604],[-0.526802592132244,45.2020926381014],[-0.527729936604456,45.20210028689139],[-0.528548758173876,45.202690006064365],[-0.52881838933208,45.20267967938942],[-0.529370139808529,45.202493687598555],[-0.531360607322173,45.203062557533194],[-0.531697897300436,45.20329524283332],[-0.532724641003593,45.20340245645465],[-0.533059337181807,45.203573930079095],[-0.533475337404478,45.20406279856048],[-0.534204795575899,45.20444800385348],[-0.535170621632085,45.20510242542376],[-0.53585836477657,45.20515094538675],[-0.536171581647859,45.20530506429137],[-0.536774531140183,45.20536347549677],[-0.536973995225067,45.20557347327378],[-0.537285506349181,45.20570060354322],[-0.537789180652267,45.20586220244647],[-0.538108673846456,45.20579348995256],[-0.538800383446852,45.20608522438584],[-0.539446144236407,45.20607466484274],[-0.539763165474125,45.20598709811794]]]]}},{"type":"Feature","properties":{"fid":488,"ID":"COMMUNE_0000002200276535","NOM":"Val-de-Livenne","NOM_M":"VAL-DE-LIVENNE","INSEE_COM":"33380","STATUT":"Commune simple","POPULATION":1800,"INSEE_CAN":"13","INSEE_ARR":"1","INSEE_DEP":"33","INSEE_REG":"75","SIREN_EPCI":"243300811"},"geometry":{"type":"MultiPolygon","coordinates":[[[[-0.562139979387517,45.277252112230286],[-0.562540265396822,45.278440855110524],[-0.56294765991187,45.278482851278135],[-0.56337832366516,45.27896847063656],[-0.564110622579781,45.279558942220895],[-0.564558256348249,45.27965102677769],[-0.564980907554629,45.27995121762115],[-0.565084812940742,45.28037784887755],[-0.56485035907013,45.280863945323034],[-0.565070339234924,45.28140855727404],[-0.572940529124234,45.280616440468755],[-0.574404583470682,45.27967548302409],[-0.575873365134445,45.27888848605626],[-0.576006551584889,45.2789545307995],[-0.577005676307431,45.278210485759566],[-0.577827318349982,45.27901704271399],[-0.577584117949737,45.279166341018026],[-0.579317335719755,45.27917754965863],[-0.579965592478022,45.279351481568625],[-0.580190621428987,45.279535362102614],[-0.580666080503071,45.279622886283896],[-0.581445191447212,45.2796078386764],[-0.581782471867522,45.27969077219138],[-0.58167103235814,45.27984396938671],[-0.581300612430838,45.28166847712215],[-0.582858737855401,45.28133821880528],[-0.582844822569193,45.28239235772589],[-0.582707324484748,45.28245805770103],[-0.584555130834101,45.284347563028916],[-0.584859611955639,45.28421791694336],[-0.585497914557529,45.28485093314023],[-0.585332439140878,45.284898605041406],[-0.585466794249601,45.285637019888426],[-0.586053867302704,45.285711929383545],[-0.586304934274897,45.287687779463354],[-0.585896270203505,45.28939275233384],[-0.585823387115317,45.290323496728675],[-0.585519890818974,45.291678970206796],[-0.584653086474818,45.291683332318605],[-0.582102396329434,45.29141716502195],[-0.581958886190221,45.29242227727173],[-0.581342971844136,45.29400497468399],[-0.580925820443653,45.29575977202096],[-0.578452168974348,45.295582085973614],[-0.576611887809517,45.29568153473192],[-0.575606017707477,45.295828181756185],[-0.573061100825829,45.295753608444684],[-0.571537810460467,45.29559857377534],[-0.570249306543187,45.295679387992095],[-0.569840867872458,45.295782566114454],[-0.569621539172984,45.295986966550736],[-0.569887016215988,45.296622059955034],[-0.5696009734494,45.29674206004381],[-0.569535918891105,45.2969226060005],[-0.568503024786516,45.297206155705325],[-0.56800448227261,45.297497882201824],[-0.567575701958045,45.297403402055465],[-0.566996540152912,45.29679543786409],[-0.566156909942775,45.29547018770259],[-0.565977954983894,45.29580669350394],[-0.565811997419213,45.295927360289866],[-0.564887286575081,45.29584598244424],[-0.563983853361633,45.29629661975147],[-0.563893661599317,45.29656359191058],[-0.564174948712621,45.29748662678308],[-0.564085397232792,45.297743663801896],[-0.563330834820485,45.29800657398721],[-0.562199972445651,45.29857621157173],[-0.561058770024185,45.298904603420674],[-0.559613446097397,45.29783204762606],[-0.557720498016585,45.297068462113764],[-0.556766498214033,45.296928459685645],[-0.556033135880604,45.296943675156626],[-0.555743629078062,45.29708988818324],[-0.554783891156063,45.296659816557764],[-0.553689994259246,45.29672884276655],[-0.55356529120552,45.29649575132049],[-0.552012493492919,45.295777145151874],[-0.550884728205852,45.2956552331356],[-0.551172960820435,45.29442745512041],[-0.548098528894654,45.2940572691982],[-0.548703609251935,45.29335213936412],[-0.54722824855854,45.29302490217957],[-0.54539259443456,45.29231338214065],[-0.544970266174692,45.292680101919615],[-0.542645838147398,45.29383990275287],[-0.542014847370861,45.29359670328203],[-0.540083131042485,45.293241467279735],[-0.539316496386475,45.292993534875855],[-0.539311009873174,45.29256557108512],[-0.536851752241575,45.29246854038705],[-0.536169367108522,45.292923671390994],[-0.535972725591403,45.29258197365246],[-0.53296980874227,45.291906266764336],[-0.531524399667619,45.2917067714811],[-0.529879632293512,45.291665878668965],[-0.529719771188336,45.291198625548624],[-0.529196969672751,45.29110967456815],[-0.527330818708106,45.290536734793484],[-0.526590243655301,45.2897912603893],[-0.525990338466804,45.28951274302953],[-0.525810929468216,45.28958329770877],[-0.520299162817043,45.289654246876616],[-0.519697059006762,45.289401003328074],[-0.517746806765535,45.28909104112138],[-0.517140122764269,45.28862341196892],[-0.516682816976192,45.288074467771466],[-0.516253785472743,45.287892375091],[-0.516012644909907,45.28767282483495],[-0.515514575617642,45.28672046200037],[-0.515265053317541,45.28644889696414],[-0.514615017505857,45.2862647349471],[-0.514003086387157,45.285955889527],[-0.513646974567628,45.28605901897172],[-0.513632418275615,45.2862938217426],[-0.513415682703054,45.28637995081883],[-0.512865161365639,45.28645764132495],[-0.511781864672259,45.28689457191941],[-0.511491487456027,45.28686583805681],[-0.510905820472788,45.28701402484623],[-0.510506236062333,45.28725821485737],[-0.510218290344622,45.28769358434221],[-0.509428268545376,45.287962648118395],[-0.509132294116808,45.28833156841744],[-0.507950034260144,45.28829296268445],[-0.506737726869079,45.28864916598195],[-0.506212974162896,45.28862957272964],[-0.505644206624888,45.28888445854432],[-0.50537618317132,45.28921103060608],[-0.504565598930315,45.28917425338976],[-0.503853157659546,45.28935792249525],[-0.503102030951189,45.28988079533457],[-0.502709848242525,45.29002017051455],[-0.500390646670696,45.28985215903991],[-0.499569859243038,45.29003919260034],[-0.498720665949738,45.290383938825684],[-0.498008460779043,45.29047021964353],[-0.497098184200482,45.2903914411874],[-0.496098500528701,45.29075980205863],[-0.495622152214687,45.29063679577326],[-0.494910262797696,45.29066716496091],[-0.493970605599678,45.29052708859562],[-0.493479953596181,45.290786679438085],[-0.492909547018454,45.29093519377493],[-0.491718717133714,45.29100484097054],[-0.491298008934699,45.29123970429585],[-0.490635280904977,45.29134151736761],[-0.488070285996397,45.292611312355625],[-0.486988274595668,45.29348148623094],[-0.486693915870052,45.29359341668316],[-0.486273222305127,45.29360473331144],[-0.48447591732126,45.29343183023957],[-0.483818957855908,45.29346311949124],[-0.483621277994392,45.293855041592685],[-0.482744689586778,45.29398870681197],[-0.482307447921311,45.29432770065178],[-0.481641217150782,45.29423127907331],[-0.481066995788941,45.294278902808955],[-0.480752921930066,45.29442297693289],[-0.479026293162524,45.294093661298554],[-0.47730797644325,45.29340624077954],[-0.475215304254478,45.29359478844589],[-0.474774314125556,45.293731073364285],[-0.474374419492881,45.2940553543559],[-0.473906739714013,45.294009499342394],[-0.473790447289635,45.2939671459548],[-0.473707966387851,45.29379124950465],[-0.473474869334156,45.29375973537764],[-0.473290598285845,45.29358970499725],[-0.47286087774061,45.293538159947715],[-0.472674895685001,45.293299682353826],[-0.471566077394809,45.29286273423883],[-0.471132630764523,45.292320987220755],[-0.470417601321554,45.2920349381916],[-0.46966982653359,45.291264096871565],[-0.468991818814427,45.29095706170642],[-0.46868274584501,45.290566471867976],[-0.468205494322907,45.29032530776779],[-0.468077691422323,45.28995432942289],[-0.467937380776455,45.28985413062454],[-0.467173842051331,45.289711072162845],[-0.465806099367543,45.28981026516126],[-0.46536113468882,45.28977989504768],[-0.46507077694106,45.2895870030306],[-0.464986255813226,45.28900828179285],[-0.46421873804585,45.28912940899809],[-0.463964238584473,45.28893810708846],[-0.463347078293052,45.288828342213705],[-0.462971323234439,45.28888414639827],[-0.462433233870751,45.288772828464175],[-0.462091042522586,45.28850582522761],[-0.461889934166963,45.28845436987],[-0.461362203755489,45.28853019698241],[-0.460678214343248,45.28849549230174],[-0.459901362820981,45.28793188991294],[-0.459189949385242,45.28788720955063],[-0.458918929326891,45.28796409437906],[-0.458489403914431,45.28830545685368],[-0.45794156071769,45.28816017012723],[-0.457507143585514,45.28813485086283],[-0.457200293650588,45.28802536923258],[-0.4563218504041,45.28742883313313],[-0.456047182164514,45.28740577954711],[-0.455352482652888,45.28754802848761],[-0.454683407986178,45.28723883195024],[-0.454232952110351,45.28726356728937],[-0.453414042228112,45.287173502063176],[-0.453109139119445,45.28690982763395],[-0.452508780043138,45.286575963692215],[-0.452071850814555,45.28690130586581],[-0.451633594374794,45.286648955975636],[-0.450774883660367,45.28678181963064],[-0.450274415325833,45.28669992737626],[-0.448838599737022,45.28621427200065],[-0.448170095718294,45.285789654854554],[-0.447253949028368,45.28635598327739],[-0.446295508999024,45.286321543140915],[-0.445567233490508,45.28608622272871],[-0.444965824099866,45.28620930806498],[-0.444796132097232,45.285839599390314],[-0.444491398342776,45.28561915986396],[-0.442534230983635,45.28510442486618],[-0.44102159028707,45.28413794656767],[-0.440779477166143,45.283856084890516],[-0.441156308078583,45.283383925424936],[-0.439596912663119,45.2827135915057],[-0.439942448146733,45.28227214186934],[-0.439885403259821,45.28205127872859],[-0.43973385502677,45.28191263724478],[-0.439442865122431,45.28181073272038],[-0.439088731188006,45.28180270177038],[-0.438278963623964,45.28218993105311],[-0.437171780557265,45.28208157816902],[-0.436706195696995,45.28173627961922],[-0.436157798416928,45.28147644358153],[-0.433576125822386,45.28056075567461],[-0.434876558612212,45.278958870688406],[-0.439918902409315,45.27155293374188],[-0.443956366564392,45.26715557330016],[-0.444692869049812,45.26651639087791],[-0.448790913628383,45.26389341452089],[-0.45148688261854,45.26165518482819],[-0.452242610851515,45.261164067855745],[-0.453307157692256,45.26073460370403],[-0.456510400399511,45.25982890064104],[-0.459625889399406,45.2588474072086],[-0.469199198102934,45.25672814464259],[-0.475462061089867,45.25518785903273],[-0.477667136716223,45.254328799625654],[-0.480053003042861,45.25379123709574],[-0.482038528623934,45.253198502595446],[-0.482358795339848,45.25330028222371],[-0.483473192304372,45.253408848469135],[-0.483966185304722,45.253579145038906],[-0.484411221773745,45.25316598688508],[-0.485160090916492,45.25361220937738],[-0.485764603179586,45.25377000626046],[-0.486490225397482,45.253762686411584],[-0.487769937414348,45.25431039660146],[-0.488499849044131,45.25410644457278],[-0.487882490716837,45.25374356471353],[-0.488187240661533,45.2536583402136],[-0.489320473946907,45.25386360209133],[-0.489404872712894,45.25402951102171],[-0.489702514748892,45.25413648337825],[-0.489757206450401,45.254276280709156],[-0.490093315005129,45.25446767501947],[-0.490251161907912,45.25444111250673],[-0.490288867550947,45.254228126650155],[-0.490728546340871,45.25428018556355],[-0.490875877504577,45.254207983865456],[-0.490912238885761,45.25403469739583],[-0.491293343510282,45.25404802528945],[-0.49169259410775,45.254147310618634],[-0.491949374302813,45.254355599745764],[-0.492474418018557,45.254283306679504],[-0.492627510761798,45.254465993637275],[-0.493368646030716,45.2547060052004],[-0.493885128142426,45.25470067035378],[-0.494052626564718,45.25478736595099],[-0.494318446041935,45.25475291429678],[-0.494677878104033,45.254888585873715],[-0.495006893609019,45.25486477419162],[-0.495648299185181,45.255284548277416],[-0.496756152770784,45.255470701918064],[-0.497306968684202,45.255646342327054],[-0.500606504429957,45.25571966649961],[-0.503734915043755,45.256541847112516],[-0.505284715552531,45.256672597001625],[-0.507170988797098,45.25708028492149],[-0.508054306556338,45.25750952282663],[-0.509226926339996,45.25789181261832],[-0.509897939194648,45.25776618192654],[-0.510215137402753,45.25779767761727],[-0.51041829766351,45.25824736318037],[-0.510850220375593,45.25880342696921],[-0.511278694215065,45.2589197527739],[-0.511708943679223,45.258922454618286],[-0.511759570850181,45.25915881240237],[-0.511926883703271,45.259241883133875],[-0.512402897522804,45.25918095267466],[-0.513311838442036,45.25876029993796],[-0.51417865190869,45.25880514586701],[-0.514953067338062,45.25894302428783],[-0.515152590531414,45.25860596148469],[-0.516980464112054,45.25818700838044],[-0.517398608121089,45.25795752743774],[-0.518364691866566,45.257674738328305],[-0.518912723474545,45.25764305802122],[-0.520474795774625,45.25685566294469],[-0.520819242369621,45.25685382223059],[-0.522191440097142,45.257323426902815],[-0.523028422400735,45.25752236981612],[-0.52332218834958,45.2574455067373],[-0.524026124687153,45.257558505082876],[-0.52439968594202,45.25751247140205],[-0.526255013462202,45.25773063840663],[-0.527790658773139,45.25769658241802],[-0.528682278799591,45.25815334180686],[-0.529568102805562,45.25880045853291],[-0.529778538018079,45.25885870648472],[-0.52997947877576,45.25874690241411],[-0.53019484125418,45.25874190072236],[-0.530409857020305,45.25919478597237],[-0.530802739740903,45.259111165947864],[-0.531061329060375,45.25918411380862],[-0.531494588707685,45.25907307663295],[-0.532499244274763,45.25907737093275],[-0.532684114157997,45.259235568424174],[-0.533084024881874,45.25990703510143],[-0.53377700847506,45.260389866766175],[-0.533847843937334,45.26066163182447],[-0.534049205277413,45.26083823382048],[-0.534229120219896,45.26079739108687],[-0.534409912946694,45.26093137906335],[-0.535021597543753,45.26095709503818],[-0.535109098725706,45.26024407530259],[-0.535715330986296,45.26008338352914],[-0.536120612560628,45.26011472322243],[-0.536428244960848,45.26025641103313],[-0.536739064538199,45.260267303592556],[-0.536751391587494,45.26040121230952],[-0.537019485504152,45.260543248796154],[-0.538155912416745,45.26057216442829],[-0.538759764971776,45.260816231224055],[-0.539107925076112,45.261374848507124],[-0.539376217908276,45.261499748014074],[-0.540146923609025,45.26065331279583],[-0.541718052817231,45.25971029662563],[-0.541626387390191,45.25959332438311],[-0.541735618921981,45.25946457602866],[-0.543897589941196,45.25814045863122],[-0.544065636285316,45.25785300935052],[-0.544673329659749,45.257374949928035],[-0.546195692809832,45.25647036819718],[-0.546723990900799,45.25622916497383],[-0.548088266263295,45.25580908701128],[-0.549324539146908,45.25520287554358],[-0.550738306060058,45.25435846259553],[-0.550977254993644,45.25446353560817],[-0.551333410461616,45.254685662231765],[-0.551426580106256,45.25500628215661],[-0.551052269607133,45.255560787725486],[-0.550924371190567,45.25595693636787],[-0.550548439826567,45.25917044925902],[-0.550715063085884,45.26166547734056],[-0.550859501146752,45.262490122414995],[-0.551065159058068,45.26301357618123],[-0.552657866015842,45.263231548182475],[-0.553235745036751,45.263206863816116],[-0.553231569447343,45.26418225086548],[-0.553626062250075,45.263923638591294],[-0.554905074396599,45.26340524210945],[-0.555340042613847,45.26342114727001],[-0.555800229666049,45.263272203371145],[-0.555467789434872,45.263682979302125],[-0.555149581576194,45.26379675876648],[-0.554883598077979,45.26410897440317],[-0.554977709833626,45.264363764966994],[-0.554932727860505,45.26455898523983],[-0.555566299905917,45.26518689418654],[-0.555578949155923,45.265345128507654],[-0.555434301377911,45.265478623458954],[-0.555451482697503,45.26560787053425],[-0.55564097163134,45.26573704299704],[-0.555532006342888,45.266149721137985],[-0.555929175316419,45.26629301584693],[-0.55600358141803,45.26659890837771],[-0.556526426211583,45.26733128760917],[-0.556413854693341,45.2675674177295],[-0.556705085232992,45.2679105751956],[-0.557015005545993,45.268066558341914],[-0.557621229612283,45.268185166103265],[-0.557780442553544,45.2684396852353],[-0.558348135763169,45.26873437739798],[-0.558882759820043,45.2691707303287],[-0.55930169185929,45.26927456304224],[-0.560379643494087,45.270302914502],[-0.560595331090053,45.27068181991982],[-0.560911592155063,45.270956569272464],[-0.560918042384107,45.27115736464266],[-0.56014937669784,45.27233287765931],[-0.560007157322442,45.27318377507321],[-0.560437663529466,45.273248477919566],[-0.5605427988186,45.27391483114478],[-0.561275476689521,45.274732445797774],[-0.561809203562139,45.275153493450105],[-0.561797918264709,45.27565590537701],[-0.562201662970116,45.27618024260575],[-0.561944759922542,45.276734649146526],[-0.562058761324646,45.276920299536684],[-0.561957531925324,45.27705422167367],[-0.562139979387517,45.277252112230286]]]]}},{"type":"Feature","properties":{"fid":1056,"ID":"COMMUNE_0000000009754376","NOM":"Saint-Androny","NOM_M":"SAINT-ANDRONY","INSEE_COM":"33370","STATUT":"Commune simple","POPULATION":582,"INSEE_CAN":"13","INSEE_ARR":"1","INSEE_DEP":"33","INSEE_REG":"75","SIREN_EPCI":"243300811"},"geometry":{"type":"MultiPolygon","coordinates":[[[[-0.692393199787881,45.23660827705034],[-0.692173657476497,45.236645282065126],[-0.691164683216552,45.23662905717235],[-0.690387098875674,45.236504219219604],[-0.690173901598227,45.23640579898991],[-0.690015316385206,45.236110869234736],[-0.68998393193571,45.23519336890935],[-0.689745280586409,45.23484519707417],[-0.689529723364301,45.234749558099395],[-0.689041250423535,45.2347711036606],[-0.688130778375154,45.23512478209362],[-0.687567729747079,45.23515689662559],[-0.686189737617321,45.23476881221685],[-0.684977983715232,45.234560014736104],[-0.684734821462768,45.23449051712412],[-0.684467160359341,45.234243348643105],[-0.684546492832374,45.233416844963656],[-0.684265702008351,45.23297089851653],[-0.682234780129769,45.232817039405155],[-0.680806822243162,45.23242422966426],[-0.679779556920394,45.231974931993946],[-0.679537955621576,45.23140689574456],[-0.679219613679444,45.2311064004106],[-0.678820946838348,45.23051649580486],[-0.672866412774286,45.21952163189616],[-0.670265142703427,45.210558061474174],[-0.663452755519983,45.21236017663383],[-0.66247382707996,45.20661888958335],[-0.661859432062016,45.20452438687895],[-0.650781710649283,45.207232667933496],[-0.649091629964087,45.20092867662704],[-0.650289827459754,45.198625222350465],[-0.650729024258491,45.19820613593495],[-0.651862597558103,45.19737132569996],[-0.650406287280097,45.19724860816458],[-0.650501559073574,45.19646399367764],[-0.649637886777357,45.19551965068496],[-0.649657885543469,45.19535764941231],[-0.647892945040697,45.19495925628096],[-0.647317938574492,45.194490403871995],[-0.64685105338412,45.1944858316397],[-0.646464708057321,45.1943091665107],[-0.645517032847781,45.19410667083729],[-0.645078410337886,45.19408584461231],[-0.644303233002185,45.193713653683126],[-0.643647333750025,45.193488994773574],[-0.643327667057263,45.193474192989754],[-0.642774714758389,45.19320560618698],[-0.641729297637332,45.19306756361062],[-0.640932333354239,45.19284929548945],[-0.640180201501992,45.19294684374864],[-0.638489493909434,45.192941588993214],[-0.636933869237982,45.193072520675294],[-0.636784879198554,45.193290100498416],[-0.636479519233614,45.19329915006281],[-0.636319863712318,45.19368563366332],[-0.636096701417527,45.193664962492285],[-0.636054129244991,45.19391152326603],[-0.634538705537415,45.19362287363862],[-0.633980212845892,45.19379699903214],[-0.633764373252347,45.19416277361735],[-0.631797511219455,45.19379324013286],[-0.63139102332866,45.19381548180301],[-0.631342069708906,45.19406224776101],[-0.629013582213787,45.193600774975785],[-0.628950257603627,45.193744349308304],[-0.627637372879301,45.19345262641089],[-0.627661426476157,45.193293203506734],[-0.626612422010852,45.19302083325727],[-0.625679630542901,45.19263380957074],[-0.624743575200858,45.192274826955675],[-0.624759630921945,45.19199217740394],[-0.624829863519719,45.1916212367939],[-0.625343523412476,45.190403928931254],[-0.625709820694236,45.19048937579839],[-0.626222999591317,45.189696623082206],[-0.625117682518264,45.18932151278326],[-0.627189863485291,45.18609848646793],[-0.626428056737124,45.18583030356051],[-0.62685062609977,45.18517389425206],[-0.625477311455982,45.1848904272228],[-0.625704458164939,45.18446300967236],[-0.625106509178533,45.18442114526761],[-0.625079540659497,45.184045250418386],[-0.624933098380337,45.184047304018414],[-0.625219998116869,45.1832447807458],[-0.62502613462406,45.183223137040535],[-0.62518352019619,45.182408597042595],[-0.625273279309361,45.18212265177122],[-0.62546120266621,45.18217062754905],[-0.625737804498779,45.18146488349586],[-0.625931442310024,45.18150275768975],[-0.626055023281174,45.18122743027033],[-0.626616580209879,45.18135700255923],[-0.626719425938536,45.1811941177104],[-0.627028579676511,45.18124445961874],[-0.627333850421307,45.1808036821095],[-0.627244405551465,45.180309937103964],[-0.629999292641893,45.176637403573025],[-0.631595588400564,45.17486654405005],[-0.632322753271346,45.17505469177449],[-0.632918092004436,45.174431389559516],[-0.633805334847696,45.174709859599986],[-0.635327613195792,45.17503343115676],[-0.635564229430193,45.1747922656825],[-0.637733473838701,45.175304738740145],[-0.638522148601411,45.17528262446233],[-0.639095564637567,45.175516305136554],[-0.63972482681344,45.17562917993137],[-0.640944273961978,45.175548826388145],[-0.641433658840935,45.17513895354756],[-0.641645577987974,45.17514465528627],[-0.641749288242642,45.17480055083401],[-0.641702648495587,45.17439825828908],[-0.642807214423683,45.174784038158506],[-0.642671821477761,45.17413496346406],[-0.643380236172161,45.17444533773396],[-0.64556546594982,45.17498688377933],[-0.648145420119065,45.17614644482759],[-0.653842246493592,45.177998929142284],[-0.655109888155492,45.178303535738216],[-0.660509980747549,45.177587459078865],[-0.660873965756977,45.17878427138353],[-0.672315610648367,45.17677943071676],[-0.672991848212206,45.17892140630861],[-0.673083636187895,45.17921223767669],[-0.673356069410307,45.17994330977917],[-0.67341812968013,45.18011162928995],[-0.6739794957073,45.181165800218025],[-0.675997724575803,45.18578025507191],[-0.677268227795801,45.1896630619291],[-0.678463598653344,45.193215724936906],[-0.679683185979206,45.19649536247719],[-0.681226735671932,45.200644074112745],[-0.683389864433676,45.20575305553173],[-0.688200283836346,45.21937849517381],[-0.689931953913506,45.22733389276173],[-0.691337413180593,45.23363066307008],[-0.69153914584343,45.23419188357727],[-0.692312689458737,45.23635583933067],[-0.692393199787881,45.23660827705034]]]]}},{"type":"Feature","properties":{"fid":1075,"ID":"COMMUNE_0000000009754164","NOM":"Braud-et-Saint-Louis","NOM_M":"BRAUD-ET-SAINT-LOUIS","INSEE_COM":"33073","STATUT":"Commune simple","POPULATION":1524,"INSEE_CAN":"13","INSEE_ARR":"1","INSEE_DEP":"33","INSEE_REG":"75","SIREN_EPCI":"243300811"},"geometry":{"type":"MultiPolygon","coordinates":[[[[-0.692393199787881,45.23660827705034],[-0.693236643869702,45.23924856892048],[-0.695527008877161,45.249951928445014],[-0.695613693019713,45.25035469795379],[-0.696521046137219,45.25616585992247],[-0.69656105005331,45.256461102739436],[-0.698467429348658,45.2579745894238],[-0.699861066125401,45.2658357069713],[-0.700633248398039,45.270985200588726],[-0.702262050028151,45.27761080188473],[-0.703730486776609,45.28364316763362],[-0.704038411534991,45.284567743279915],[-0.69835744332686,45.28487664987302],[-0.630436336594139,45.29132359853825],[-0.626659644108874,45.28452984582395],[-0.632579006168903,45.270761829981176],[-0.631396415812232,45.26785543859419],[-0.627465611824952,45.26784790355891],[-0.626156988838332,45.267687565835125],[-0.626027953848836,45.267725104202164],[-0.625138284698726,45.2675295259159],[-0.624316824505766,45.26749938544266],[-0.623476283856936,45.26733284774457],[-0.622655371949958,45.26742887071629],[-0.621663226637909,45.267404244245775],[-0.621228503748826,45.267491344840266],[-0.621060080398802,45.267413875808714],[-0.620528383197354,45.267422991909804],[-0.61990400129311,45.2671646942369],[-0.619404139339432,45.267152943416136],[-0.618673417096814,45.26722257984061],[-0.618257130542758,45.2673577461683],[-0.617926167025394,45.26735223752432],[-0.617626023224395,45.267585496717516],[-0.615697473901339,45.26806074637959],[-0.614728640333479,45.26823811358426],[-0.613816238324703,45.26826221601398],[-0.613237484912009,45.26784105985143],[-0.61170104030283,45.26763113403048],[-0.611423415053371,45.26752292814512],[-0.610735105678745,45.26688806937658],[-0.61029185207719,45.26668606156039],[-0.608730271415593,45.26561429429981],[-0.606113219681951,45.264385484780256],[-0.604713832627844,45.2642007889131],[-0.602607689704692,45.26376484881042],[-0.601646531316916,45.26372462615704],[-0.601116045927821,45.26359389975079],[-0.599550723716232,45.26247976974237],[-0.597368282802908,45.261532413524435],[-0.597001257412944,45.261363055157865],[-0.597087728820932,45.26123948825625],[-0.598032308978205,45.260549274040216],[-0.599481794561717,45.25904147074356],[-0.60199671756237,45.25747226084305],[-0.601640357967681,45.25665809634846],[-0.601273777685248,45.25501410126561],[-0.598182934960378,45.25230683966651],[-0.597179942774803,45.25159551456961],[-0.596254576695946,45.251098009811955],[-0.594921228811458,45.250744325491844],[-0.592900511815994,45.250693960531144],[-0.592024320165862,45.250582426480655],[-0.591056596112648,45.25017908302284],[-0.5886659880377,45.24886240413427],[-0.586859331738658,45.24842918878619],[-0.585742585000871,45.247850315300724],[-0.584422949503018,45.2469137937579],[-0.58291543317921,45.245038663666136],[-0.58130586008915,45.24383739748178],[-0.580864658907751,45.24338464088532],[-0.580575361247648,45.24317128047954],[-0.579668716364555,45.24290109091456],[-0.578576069545967,45.24223755421793],[-0.578752503722571,45.24160726355899],[-0.578938431786754,45.241343519102756],[-0.580275082831567,45.24034344358314],[-0.580075867908101,45.24000280814561],[-0.580185446103594,45.23978206951079],[-0.579848030476741,45.239017720902446],[-0.579859889357032,45.23858649397234],[-0.580149048069544,45.23828158148502],[-0.580233905899831,45.23811301231617],[-0.580169234182805,45.23788073358348],[-0.580371520661408,45.23761375789307],[-0.581339252732473,45.23547987275815],[-0.581678340853042,45.23501922316953],[-0.581850330494507,45.2342610770751],[-0.583963384780607,45.23413019079421],[-0.583705435715582,45.23378874307232],[-0.583691975210163,45.23338086156265],[-0.584165965140259,45.2330745128771],[-0.584410706615855,45.23235729191848],[-0.58955839709152,45.23270121537356],[-0.591102910432852,45.23402342665349],[-0.592746540262965,45.23403185465364],[-0.594586139814568,45.23387441027455],[-0.594994496514968,45.233461061813955],[-0.597747785104582,45.22812917982483],[-0.607768240433731,45.22912908683851],[-0.608203027056506,45.229027606366145],[-0.61088450913,45.22830186047523],[-0.6126093505326,45.22761691682387],[-0.615520776973055,45.22502949957431],[-0.617460238151298,45.223428044465166],[-0.617720842976066,45.22347368322035],[-0.64016856402985,45.22283874527127],[-0.645205239785896,45.222485133610874],[-0.645943807170394,45.222486257455564],[-0.647715485114451,45.22276010042805],[-0.653422796922817,45.22302599335624],[-0.655329719489141,45.22347466854198],[-0.663894317488438,45.22577915171436],[-0.665591926254823,45.22635891852362],[-0.668460154030222,45.227165218678024],[-0.66895457292135,45.227370718036894],[-0.669198481517257,45.22758805294386],[-0.669688936915254,45.22835344784878],[-0.670123161603761,45.22876824245243],[-0.672162584763878,45.229150991565795],[-0.672554995912424,45.22933729562732],[-0.672851356480765,45.229634024320674],[-0.673170625640538,45.230336530425255],[-0.673449285403286,45.23051936222714],[-0.674327898254588,45.23061124343032],[-0.676187369921785,45.23043015716032],[-0.676575893534472,45.23059584361577],[-0.677129492634055,45.231291526385185],[-0.677515111765016,45.23158710758007],[-0.679779556920394,45.231974931993946],[-0.680806822243162,45.23242422966426],[-0.682234780129769,45.232817039405155],[-0.684265702008351,45.23297089851653],[-0.684546492832374,45.233416844963656],[-0.684467160359341,45.234243348643105],[-0.684734821462768,45.23449051712412],[-0.684977983715232,45.234560014736104],[-0.686189737617321,45.23476881221685],[-0.687567729747079,45.23515689662559],[-0.688130778375154,45.23512478209362],[-0.689041250423535,45.2347711036606],[-0.689529723364301,45.234749558099395],[-0.689745280586409,45.23484519707417],[-0.68998393193571,45.23519336890935],[-0.690015316385206,45.236110869234736],[-0.690173901598227,45.23640579898991],[-0.690387098875674,45.236504219219604],[-0.691164683216552,45.23662905717235],[-0.692173657476497,45.236645282065126],[-0.692393199787881,45.23660827705034]]]]}},{"type":"Feature","properties":{"fid":1235,"ID":"COMMUNE_0000000009754580","NOM":"Mazion","NOM_M":"MAZION","INSEE_COM":"33280","STATUT":"Commune simple","POPULATION":545,"INSEE_CAN":"13","INSEE_ARR":"1","INSEE_DEP":"33","INSEE_REG":"75","SIREN_EPCI":"243300811"},"geometry":{"type":"MultiPolygon","coordinates":[[[[-0.603147987814647,45.18254280107751],[-0.602917071170883,45.18249978205042],[-0.602523278990536,45.18259902735325],[-0.601756373389035,45.182959991151314],[-0.601812894374919,45.18267063479413],[-0.601046364626333,45.18181295191208],[-0.599546892329145,45.17978732584296],[-0.59679482352723,45.18027357594465],[-0.595768343463807,45.18064106323399],[-0.594785940968658,45.17967492599658],[-0.594538561246884,45.179178140710576],[-0.595047844041718,45.17867590423316],[-0.595487317037666,45.17837601455063],[-0.595558624386073,45.178197052018],[-0.595844370258075,45.17677723083631],[-0.595945217074123,45.17521735031048],[-0.595201879984143,45.17432103074186],[-0.595121016172152,45.17358002427837],[-0.594392897530053,45.170861586969956],[-0.593391452738185,45.17094252305805],[-0.590387401419391,45.17047681038037],[-0.589088804249389,45.17051409217499],[-0.589016433566282,45.170399245817116],[-0.589711281410442,45.16990999149595],[-0.58977240542649,45.16939425804009],[-0.589690728826122,45.1692734022091],[-0.588987547563497,45.16931585793775],[-0.588895815074099,45.16917729823777],[-0.588583410437194,45.16913416947594],[-0.588663855620463,45.168819716494895],[-0.588362956817017,45.16883660706829],[-0.588534953229111,45.168459720430704],[-0.588843304305395,45.16840022640111],[-0.589099680175793,45.16800800518532],[-0.58948807871826,45.16796486191632],[-0.589766402668681,45.167418704202895],[-0.590120036209063,45.16697377645409],[-0.590317670386599,45.16650051900028],[-0.590615945485849,45.166343998807115],[-0.5906324075583,45.166203760502825],[-0.590478190917768,45.16594553211854],[-0.590353927165482,45.165895451317695],[-0.590370343295434,45.16504135001192],[-0.590888939139121,45.16510127023871],[-0.591361266952236,45.16475887545027],[-0.592123611945592,45.16454774878571],[-0.592436684249187,45.16456200231142],[-0.592913161080926,45.16475937272804],[-0.593279456087108,45.16520455540594],[-0.594166997003872,45.16553289319175],[-0.594686964772704,45.16583160865683],[-0.594969595754869,45.16590722658149],[-0.596288480361145,45.16585029045343],[-0.597169724841572,45.16542798564194],[-0.597427887340416,45.165084358402346],[-0.597439838083747,45.164716223106],[-0.597009503764791,45.162842680356356],[-0.59742418032732,45.16202169945146],[-0.598109354679406,45.16144436803282],[-0.59834991315324,45.16104542256782],[-0.599900250271964,45.161497445067084],[-0.602444027349562,45.16105567430042],[-0.604889255881519,45.1603313014136],[-0.605189071407643,45.16033783481973],[-0.605450857394092,45.16050513591138],[-0.605943836038783,45.160425202609915],[-0.606654781385866,45.16046530939454],[-0.607144852193032,45.1601826605994],[-0.608853330908476,45.15971006577759],[-0.609183102129864,45.1590567302613],[-0.611056667188709,45.159069093980314],[-0.611083668637398,45.15883657186485],[-0.612801208737502,45.158623211013364],[-0.612944092482298,45.158075065691726],[-0.613132294368037,45.15805004025747],[-0.614155295766428,45.158266568844],[-0.615065491844056,45.15868864849761],[-0.616150530674723,45.15903654928741],[-0.616448136454037,45.15924502774918],[-0.616763876410723,45.15932041800824],[-0.616998279661752,45.159556182684014],[-0.617506879127099,45.159658666406784],[-0.617794472201995,45.15992875863813],[-0.618442218786004,45.16031065224667],[-0.618568398470528,45.16025247702978],[-0.618703206937747,45.16032742265555],[-0.618639229557135,45.1604214369187],[-0.618919145567345,45.16069087432738],[-0.619007006840559,45.160925981970195],[-0.619028426684429,45.16159048929777],[-0.619146349653399,45.16164074439734],[-0.619541946675906,45.16235800753349],[-0.619383453056969,45.162507368230656],[-0.619494122693717,45.16279942256547],[-0.61940752651267,45.16295726639241],[-0.619558171077959,45.1631191292027],[-0.620018250963489,45.16349448640823],[-0.621111539081752,45.16408544281447],[-0.621790834527127,45.16434371042047],[-0.62270277253461,45.16453492853191],[-0.623321090179429,45.16485465758549],[-0.622873126751907,45.16539289928748],[-0.623149804117326,45.16629879417362],[-0.622826791518202,45.16675996647555],[-0.622680357809842,45.1671541104734],[-0.621914524211423,45.167388997209144],[-0.620836770808119,45.16784402101822],[-0.620509762925825,45.1682440230459],[-0.620528643434602,45.16859403946318],[-0.620325316533462,45.16879893800199],[-0.618170298789709,45.16910862043271],[-0.618786190453753,45.16948884553788],[-0.618511380943048,45.17014403523294],[-0.617503906781592,45.1698954872703],[-0.61604340212074,45.16985270502495],[-0.614386055602107,45.1692691578639],[-0.611452188850821,45.17243059538521],[-0.610944386118914,45.17320867974748],[-0.610348185589539,45.17439342995583],[-0.607155197411053,45.17773348333855],[-0.605325748148002,45.17997209358988],[-0.604489608347607,45.18077968272727],[-0.603147987814647,45.18254280107751]]]]}},{"type":"Feature","properties":{"fid":1675,"ID":"COMMUNE_0000000009754578","NOM":"Saint-Seurin-de-Cursac","NOM_M":"SAINT-SEURIN-DE-CURSAC","INSEE_COM":"33477","STATUT":"Commune simple","POPULATION":773,"INSEE_CAN":"13","INSEE_ARR":"1","INSEE_DEP":"33","INSEE_REG":"75","SIREN_EPCI":"243300811"},"geometry":{"type":"MultiPolygon","coordinates":[[[[-0.627701467534863,45.146992408997164],[-0.628719382014762,45.14701517180127],[-0.629232271474059,45.147106642837336],[-0.629949692441207,45.14742490591723],[-0.631749114284048,45.147752095934585],[-0.632102862731933,45.14794247894322],[-0.633483744069954,45.14892324208172],[-0.634705196425973,45.149626158378815],[-0.63504011045318,45.15066172513342],[-0.635820696671542,45.15189007557995],[-0.636256711712156,45.15254106646053],[-0.636342243162918,45.152817700749694],[-0.635913154642176,45.15413146072918],[-0.636207520579731,45.155717280567885],[-0.636050709328821,45.15855178211142],[-0.635566551331539,45.15986192799411],[-0.635507604493455,45.16052184712873],[-0.635161042704714,45.16146064949383],[-0.634879099920599,45.161885368423675],[-0.634822265929445,45.162460489839276],[-0.634352364099111,45.16361873539668],[-0.634321904204764,45.164090241361095],[-0.634346903983617,45.164806914836774],[-0.634498669486736,45.16514178508419],[-0.634766515256052,45.165439521989],[-0.636028175950981,45.16628444608451],[-0.636167844491975,45.16645295582969],[-0.636290815488266,45.16773429850426],[-0.636174850207456,45.167968829179564],[-0.635860034715353,45.168241389331236],[-0.632739174775314,45.166415948226366],[-0.631719846289326,45.16608318659189],[-0.631219468126821,45.16581464582744],[-0.630909638441432,45.16553719629112],[-0.629788020382331,45.1651789040095],[-0.626832147647799,45.165318321102674],[-0.62636540949365,45.16517485657454],[-0.624645203771213,45.16542816817748],[-0.623321090179429,45.16485465758549],[-0.62270277253461,45.16453492853191],[-0.621790834527127,45.16434371042047],[-0.621111539081752,45.16408544281447],[-0.620018250963489,45.16349448640823],[-0.619558171077959,45.1631191292027],[-0.61940752651267,45.16295726639241],[-0.619494122693717,45.16279942256547],[-0.619383453056969,45.162507368230656],[-0.619541946675906,45.16235800753349],[-0.619146349653399,45.16164074439734],[-0.619028426684429,45.16159048929777],[-0.619007006840559,45.160925981970195],[-0.618919145567345,45.16069087432738],[-0.618639229557135,45.1604214369187],[-0.618703206937747,45.16032742265555],[-0.618568398470528,45.16025247702978],[-0.618442218786004,45.16031065224667],[-0.617794472201995,45.15992875863813],[-0.617506879127099,45.159658666406784],[-0.616998279661752,45.159556182684014],[-0.616763876410723,45.15932041800824],[-0.616448136454037,45.15924502774918],[-0.616150530674723,45.15903654928741],[-0.615065491844056,45.15868864849761],[-0.614155295766428,45.158266568844],[-0.614659314796636,45.15629158988176],[-0.614980024744251,45.15583412261825],[-0.614989871542167,45.155651729738],[-0.615592244365702,45.15547176100833],[-0.616068126038168,45.15518772778414],[-0.616437519748691,45.15558045830222],[-0.619317728532515,45.154753317018184],[-0.619487571568138,45.15448460849025],[-0.619813213473265,45.15453623263391],[-0.620897433711643,45.15447940219192],[-0.621574390785435,45.154605242988005],[-0.621796038061534,45.154310511572824],[-0.621918150038735,45.15360078223313],[-0.622390703715437,45.15279494227151],[-0.624219619260321,45.15184767986433],[-0.625564942618485,45.149947148255244],[-0.626265781483495,45.14877422483952],[-0.626355322016282,45.148426993647995],[-0.62629114833042,45.14763498314489],[-0.627701467534863,45.146992408997164]]]]}},{"type":"Feature","properties":{"fid":1896,"ID":"COMMUNE_0000000009753928","NOM":"Pleine-Selve","NOM_M":"PLEINE-SELVE","INSEE_COM":"33326","STATUT":"Commune simple","POPULATION":220,"INSEE_CAN":"13","INSEE_ARR":"1","INSEE_DEP":"33","INSEE_REG":"75","SIREN_EPCI":"243300811"},"geometry":{"type":"MultiPolygon","coordinates":[[[[-0.59448520594731,45.32123281644602],[-0.59455609705977,45.3217172809807],[-0.593893293820676,45.3257397851031],[-0.594865588939158,45.32807285302563],[-0.594861393617074,45.329511585240354],[-0.594773872316444,45.32995697377507],[-0.594133027419739,45.33101595081583],[-0.594055314393898,45.33161335621883],[-0.594034343645351,45.33348528858259],[-0.593730041947686,45.33471012028956],[-0.593475757990499,45.33498779984094],[-0.59231392609085,45.335797590972426],[-0.590551803788505,45.33734683480545],[-0.588478809356917,45.33986418093957],[-0.588017859902805,45.34066406128829],[-0.586956950736764,45.343300346046114],[-0.586892190954567,45.34453640453639],[-0.586500705567463,45.34405499947752],[-0.586002948172714,45.343689670961616],[-0.585745001454485,45.343316655855205],[-0.584925118109659,45.34308964037529],[-0.583922938536334,45.34203649052441],[-0.583587872835565,45.342192343243795],[-0.582030934536475,45.340621529062176],[-0.582316312045954,45.34042851273129],[-0.582407935732391,45.340164181279036],[-0.582727157004397,45.34011970800693],[-0.580671302623755,45.338639666725996],[-0.579791021328699,45.338108083622345],[-0.579127778357991,45.33781111861071],[-0.578128030566402,45.337726818860546],[-0.577161603526912,45.337405286264286],[-0.576595845901929,45.3373719952763],[-0.577314747737158,45.33513524969865],[-0.576847462064955,45.33502309711435],[-0.576248196402936,45.33450774311469],[-0.575059103744573,45.333961660715325],[-0.574859614032847,45.3337607208086],[-0.573111878513677,45.33331088701044],[-0.572345027715504,45.33299105444336],[-0.572033810891985,45.33270173823796],[-0.570277719491237,45.33188166801213],[-0.568986193472976,45.33152988316506],[-0.568841174544579,45.331301056290194],[-0.569157180548173,45.3308484052436],[-0.569337096485747,45.330146812122216],[-0.57095855885927,45.32898909133381],[-0.571400283492584,45.328026754439996],[-0.571203524836902,45.32750934325053],[-0.571706992591188,45.32665319746668],[-0.571410247727972,45.326150697052086],[-0.571123205496105,45.32599851691872],[-0.571290824134714,45.32560377635206],[-0.571505282331478,45.32432600594853],[-0.572010070473334,45.32339139739831],[-0.572275858662997,45.32321255157898],[-0.572082708831377,45.322890623411276],[-0.573063489429791,45.32238518025015],[-0.573828752668593,45.32118985927472],[-0.573806621414905,45.32090483381482],[-0.573460340736405,45.320625658112554],[-0.573182068770886,45.320251468356794],[-0.57347682940785,45.319529072349646],[-0.573157493669153,45.31859464501537],[-0.573405496342333,45.318278455330116],[-0.57354919597491,45.317651021622424],[-0.573455109822166,45.317041100330385],[-0.573855575897612,45.31647306434047],[-0.574780365551372,45.31595316721312],[-0.57499637942461,45.31553704314167],[-0.575046263291004,45.31504059958471],[-0.574083318679615,45.31420967310635],[-0.574111443430313,45.31361297296977],[-0.573701740566164,45.312643579697216],[-0.573840345891543,45.31191715855016],[-0.573644780828271,45.31139791341415],[-0.574080970581523,45.310770145676805],[-0.575140157394548,45.31079307529815],[-0.575359107133723,45.31263116727141],[-0.576303125929055,45.314221636559616],[-0.576642823041796,45.315194162588845],[-0.576654659136008,45.315756235930536],[-0.576452402410461,45.31642610865087],[-0.576199203936092,45.31707868114008],[-0.575780957755496,45.317687856081484],[-0.577748921747889,45.31771505763109],[-0.579182519282991,45.317617811783556],[-0.580644322315674,45.31710501536432],[-0.582517255205758,45.316747586418664],[-0.585579960461327,45.31683241848414],[-0.589453366055913,45.31567970763694],[-0.591991340882242,45.315829876577745],[-0.592581247238122,45.316042581894045],[-0.593799316202998,45.316882287909216],[-0.59469430848058,45.31835701905734],[-0.594755320663188,45.318668736635296],[-0.594685584725916,45.318954009718865],[-0.594092998694731,45.319808628053266],[-0.594003842334622,45.32009001778769],[-0.594030419138745,45.32034335153948],[-0.59448520594731,45.32123281644602]]]]}},{"type":"Feature","properties":{"fid":1943,"ID":"COMMUNE_0000000009754371","NOM":"Eyrans","NOM_M":"EYRANS","INSEE_COM":"33161","STATUT":"Commune simple","POPULATION":755,"INSEE_CAN":"13","INSEE_ARR":"1","INSEE_DEP":"33","INSEE_REG":"75","SIREN_EPCI":"243300811"},"geometry":{"type":"MultiPolygon","coordinates":[[[[-0.601756373389035,45.182959991151314],[-0.602523278990536,45.18259902735325],[-0.602917071170883,45.18249978205042],[-0.603147987814647,45.18254280107751],[-0.603918519763762,45.18255396962317],[-0.604108978692826,45.182444161807695],[-0.604389859941338,45.18253063207209],[-0.60463653774943,45.182501931855356],[-0.604899562291798,45.1826079062217],[-0.605071374283618,45.18258432792247],[-0.605227019225832,45.18244860232164],[-0.605225797919231,45.182252146319954],[-0.605882603888965,45.18241660090031],[-0.606336298912027,45.18219913244513],[-0.606666784927629,45.182283993711735],[-0.607785621628125,45.182261342071854],[-0.608022650274392,45.18210315091262],[-0.608037758401223,45.18200171040066],[-0.608428112741438,45.18186920618641],[-0.609511763308905,45.18163765862348],[-0.611357692049246,45.18136881075634],[-0.612302945506833,45.181696951988144],[-0.612997904790929,45.1817023920288],[-0.614129251348706,45.18151882921575],[-0.615182549557581,45.181684807393864],[-0.615817475033533,45.181530831503444],[-0.616091475637856,45.18158955354776],[-0.617086338556024,45.18219096272891],[-0.618065785219017,45.1823773357983],[-0.61935863744679,45.18324938657218],[-0.619908038677796,45.1830539950135],[-0.620673022204666,45.18343118190268],[-0.621206507604513,45.18293163934632],[-0.622667777415978,45.18380539878255],[-0.623839190169511,45.18404227597154],[-0.624933098380337,45.184047304018414],[-0.625079540659497,45.184045250418386],[-0.625106509178533,45.18442114526761],[-0.625704458164939,45.18446300967236],[-0.625477311455982,45.1848904272228],[-0.62685062609977,45.18517389425206],[-0.626428056737124,45.18583030356051],[-0.627189863485291,45.18609848646793],[-0.625117682518264,45.18932151278326],[-0.626222999591317,45.189696623082206],[-0.625709820694236,45.19048937579839],[-0.625343523412476,45.190403928931254],[-0.624829863519719,45.1916212367939],[-0.624759630921945,45.19199217740394],[-0.624743575200858,45.192274826955675],[-0.625679630542901,45.19263380957074],[-0.625095495180894,45.19296285693573],[-0.623756772234662,45.19341105014777],[-0.623371328889429,45.19554358140845],[-0.623146482925827,45.195516629357876],[-0.623058688869944,45.1962063215288],[-0.62286894815644,45.19618994694325],[-0.622894120181468,45.19693095519721],[-0.622532671928691,45.198334399378055],[-0.621501132446308,45.198174983910135],[-0.620830968710593,45.19820123485862],[-0.620742058789826,45.19844208012245],[-0.619768414389764,45.19838893443399],[-0.619707465068305,45.19858921175943],[-0.618992861486417,45.19857903542064],[-0.61642011386859,45.1977529535644],[-0.615189957343948,45.198718508871146],[-0.613932596584377,45.19877275070095],[-0.61317875929203,45.19858984451283],[-0.612299622798582,45.19855881235801],[-0.611480592848344,45.19831400831965],[-0.611212043598135,45.19820281687844],[-0.610576244724609,45.19759784266772],[-0.609669288091448,45.19737299646971],[-0.609128319175025,45.19740581499177],[-0.607882529592308,45.19771740416615],[-0.606563709216978,45.19792497864988],[-0.606030763249228,45.1981017401037],[-0.605665678457087,45.198410082508985],[-0.605040969384342,45.19864658912464],[-0.603326380745249,45.199023743570294],[-0.603300477720446,45.199234596203326],[-0.603044098934107,45.19956826322003],[-0.603273187352968,45.199838485622394],[-0.603419453636708,45.20026731656959],[-0.603699175323332,45.20043314873109],[-0.603586583648905,45.200644096401795],[-0.603793963241923,45.20138733071471],[-0.603756888605112,45.20156339131618],[-0.603333427632131,45.20171857639113],[-0.603560564359521,45.20219527275036],[-0.603453848862108,45.202536727496366],[-0.603719987136361,45.20268947821186],[-0.604088343030843,45.20347708988921],[-0.604975058398211,45.20453188873435],[-0.60495218824097,45.20480934478824],[-0.60520056751767,45.20508164559049],[-0.605071334405924,45.20535081937887],[-0.605268371280058,45.20601236319315],[-0.606370724200456,45.206279610183586],[-0.607436717943996,45.20641822568391],[-0.607464544547571,45.20659219047737],[-0.609230890397401,45.20827291806018],[-0.6090812280076,45.20848236630899],[-0.60825737362252,45.210766912554554],[-0.60828807466468,45.211931382193235],[-0.605075941605117,45.2105713498766],[-0.605046795912854,45.21023878760823],[-0.601878002087374,45.20871772935507],[-0.601573972262318,45.209064647205246],[-0.60092707804206,45.208801588802864],[-0.600395412989579,45.208328399369826],[-0.598390683823518,45.20771161565319],[-0.597891821537627,45.207410418444596],[-0.598202838109073,45.20665767551131],[-0.596100331730377,45.205689772846746],[-0.596502593846147,45.20540280047196],[-0.597144888877694,45.20458710781679],[-0.597579670420599,45.20385561618814],[-0.597834228228153,45.203117313081144],[-0.598079867313316,45.20121294276608],[-0.597694509705215,45.199626361063174],[-0.5977302059387,45.19735289526012],[-0.597833395178126,45.19660054325398],[-0.598171579051802,45.195518831473294],[-0.598238178680327,45.19431788307495],[-0.598658609992316,45.19235740161313],[-0.600210974528931,45.19112835929606],[-0.600002507638735,45.19080158354245],[-0.599619263535716,45.190531822617004],[-0.599704573065225,45.19013517902234],[-0.599629882854586,45.18994559995672],[-0.59925514451259,45.189669254229074],[-0.598975176623684,45.189656651541476],[-0.598338811739187,45.189395050036346],[-0.598418497819622,45.189168043491286],[-0.598088199477296,45.18900743706867],[-0.598247244338225,45.18864717560215],[-0.59796093588814,45.18841754897717],[-0.597777917412416,45.1883071754573],[-0.597588466066793,45.18841333367629],[-0.597390025456927,45.188380071714384],[-0.597475323873277,45.188160997211135],[-0.597407267274434,45.18783690170254],[-0.597523699256028,45.18776464524129],[-0.597844944987502,45.18780476362947],[-0.597966850347129,45.18763949088786],[-0.598852553529149,45.187320693211596],[-0.59987758998953,45.186771153493176],[-0.600568159953426,45.186312617323054],[-0.600567608122932,45.18618554425732],[-0.600843190650209,45.18607119302123],[-0.600903038108405,45.18587276656214],[-0.601218181650452,45.18560120341633],[-0.601765795616891,45.185317628800625],[-0.601982971822212,45.1849699064096],[-0.602033502476681,45.18454824415678],[-0.601662435066833,45.18407168856541],[-0.601672714616054,45.18316459488187],[-0.601756373389035,45.182959991151314]]]]}},{"type":"Feature","properties":{"fid":2157,"ID":"COMMUNE_0000000009754373","NOM":"Cartelègue","NOM_M":"CARTELEGUE","INSEE_COM":"33101","STATUT":"Commune simple","POPULATION":1297,"INSEE_CAN":"13","INSEE_ARR":"1","INSEE_DEP":"33","INSEE_REG":"75","SIREN_EPCI":"243300811"},"geometry":{"type":"MultiPolygon","coordinates":[[[[-0.590370343295434,45.16504135001192],[-0.590353927165482,45.165895451317695],[-0.590478190917768,45.16594553211854],[-0.5906324075583,45.166203760502825],[-0.590615945485849,45.166343998807115],[-0.590317670386599,45.16650051900028],[-0.590120036209063,45.16697377645409],[-0.589766402668681,45.167418704202895],[-0.58948807871826,45.16796486191632],[-0.589099680175793,45.16800800518532],[-0.588843304305395,45.16840022640111],[-0.588534953229111,45.168459720430704],[-0.588362956817017,45.16883660706829],[-0.588663855620463,45.168819716494895],[-0.588583410437194,45.16913416947594],[-0.588895815074099,45.16917729823777],[-0.588987547563497,45.16931585793775],[-0.589690728826122,45.1692734022091],[-0.58977240542649,45.16939425804009],[-0.589711281410442,45.16990999149595],[-0.589016433566282,45.170399245817116],[-0.589088804249389,45.17051409217499],[-0.590387401419391,45.17047681038037],[-0.593391452738185,45.17094252305805],[-0.594392897530053,45.170861586969956],[-0.595121016172152,45.17358002427837],[-0.595201879984143,45.17432103074186],[-0.595945217074123,45.17521735031048],[-0.595844370258075,45.17677723083631],[-0.595558624386073,45.178197052018],[-0.595487317037666,45.17837601455063],[-0.595047844041718,45.17867590423316],[-0.594538561246884,45.179178140710576],[-0.594785940968658,45.17967492599658],[-0.595768343463807,45.18064106323399],[-0.59679482352723,45.18027357594465],[-0.599546892329145,45.17978732584296],[-0.601046364626333,45.18181295191208],[-0.601812894374919,45.18267063479413],[-0.601756373389035,45.182959991151314],[-0.601672714616054,45.18316459488187],[-0.601662435066833,45.18407168856541],[-0.602033502476681,45.18454824415678],[-0.601982971822212,45.1849699064096],[-0.601765795616891,45.185317628800625],[-0.601218181650452,45.18560120341633],[-0.600903038108405,45.18587276656214],[-0.600843190650209,45.18607119302123],[-0.600567608122932,45.18618554425732],[-0.600568159953426,45.186312617323054],[-0.59987758998953,45.186771153493176],[-0.598852553529149,45.187320693211596],[-0.597966850347129,45.18763949088786],[-0.597844944987502,45.18780476362947],[-0.597523699256028,45.18776464524129],[-0.597407267274434,45.18783690170254],[-0.597475323873277,45.188160997211135],[-0.597390025456927,45.188380071714384],[-0.597588466066793,45.18841333367629],[-0.597777917412416,45.1883071754573],[-0.59796093588814,45.18841754897717],[-0.598247244338225,45.18864717560215],[-0.598088199477296,45.18900743706867],[-0.598418497819622,45.189168043491286],[-0.598338811739187,45.189395050036346],[-0.598975176623684,45.189656651541476],[-0.59925514451259,45.189669254229074],[-0.599629882854586,45.18994559995672],[-0.599704573065225,45.19013517902234],[-0.599619263535716,45.190531822617004],[-0.600002507638735,45.19080158354245],[-0.600210974528931,45.19112835929606],[-0.598658609992316,45.19235740161313],[-0.598238178680327,45.19431788307495],[-0.598171579051802,45.195518831473294],[-0.597833395178126,45.19660054325398],[-0.5977302059387,45.19735289526012],[-0.597694509705215,45.199626361063174],[-0.598079867313316,45.20121294276608],[-0.597834228228153,45.203117313081144],[-0.597579670420599,45.20385561618814],[-0.597144888877694,45.20458710781679],[-0.596502593846147,45.20540280047196],[-0.596100331730377,45.205689772846746],[-0.592478373177404,45.20409292928824],[-0.592282949869695,45.204107331033235],[-0.592152890256805,45.20422598854262],[-0.591861859327325,45.204181273015806],[-0.5907007284705,45.203731901575075],[-0.590306743220841,45.203493999362486],[-0.590121889876784,45.20325658025725],[-0.58841691676827,45.202577707387],[-0.588233760351366,45.202663815848034],[-0.587124218121764,45.20200453901543],[-0.586279446976498,45.20270679614286],[-0.563093413193608,45.20981911404213],[-0.555139645148559,45.21266584223591],[-0.552855340755735,45.21359933769228],[-0.552412584676276,45.213334914987485],[-0.551619294445805,45.21307262964214],[-0.551210450329522,45.212799912983286],[-0.550371585601822,45.21290320748507],[-0.550005683590117,45.21278415022187],[-0.54981016760633,45.21217655977707],[-0.549636171327174,45.21200723384878],[-0.548716595118831,45.21164348852953],[-0.547336486149881,45.21095547047316],[-0.546032178731833,45.21011540790962],[-0.545870029728179,45.20951035798897],[-0.545233801874582,45.20925025179242],[-0.544754022108465,45.20916453893375],[-0.544353883152533,45.20870675048676],[-0.546404550523373,45.20732838323094],[-0.552839728927069,45.20206366955382],[-0.558648798210237,45.19371702868813],[-0.561800292187206,45.19486033317121],[-0.562703823866054,45.19349841764132],[-0.562877204146279,45.193578509386604],[-0.563884656449269,45.191928443198826],[-0.564706465523409,45.19110451271499],[-0.565196890582044,45.19010188260084],[-0.565707896309625,45.18952131907336],[-0.56604501676533,45.18897244862055],[-0.566442197029711,45.18764831087225],[-0.567456793631659,45.1862927165509],[-0.567779724217219,45.18622019950077],[-0.568213716984948,45.1856321707028],[-0.568019500276537,45.185325617363034],[-0.56799486251358,45.18466121880543],[-0.568199673608323,45.18369835143729],[-0.568734014353288,45.182368015163654],[-0.568733055682921,45.18121703938072],[-0.571119432867108,45.18128580053059],[-0.573427203166833,45.18082343601202],[-0.57326262880277,45.17885026936582],[-0.572813628344603,45.178843917879014],[-0.57293602787228,45.176197276379455],[-0.574070393396376,45.176299747798446],[-0.575093884324694,45.17393519276985],[-0.575406643080227,45.174023415415746],[-0.575578037733285,45.17399358610811],[-0.576464901232586,45.17254104312297],[-0.576997462795939,45.17238065538051],[-0.578095790490066,45.17070950250012],[-0.578635299177303,45.170319943342335],[-0.579149572140253,45.17013309105808],[-0.579369297457188,45.17036038922812],[-0.579868121393858,45.17029030209363],[-0.580276524105836,45.170399777415994],[-0.580550272163989,45.169820442946886],[-0.581556952897314,45.169980111830405],[-0.582014251363204,45.170136683338264],[-0.582076794051962,45.170098621404755],[-0.582262598131114,45.16965820856954],[-0.582228542478118,45.16908785217542],[-0.582114738727491,45.16906176247145],[-0.582202442346046,45.16878043183574],[-0.583574415670948,45.1655402100408],[-0.584105939067574,45.164710122979535],[-0.58414873485449,45.16285649297637],[-0.590426658346853,45.1627672494594],[-0.590370343295434,45.16504135001192]]]]}},{"type":"Feature","properties":{"fid":2625,"ID":"COMMUNE_0000000009754374","NOM":"Anglade","NOM_M":"ANGLADE","INSEE_COM":"33006","STATUT":"Commune simple","POPULATION":896,"INSEE_CAN":"13","INSEE_ARR":"1","INSEE_DEP":"33","INSEE_REG":"75","SIREN_EPCI":"243300811"},"geometry":{"type":"MultiPolygon","coordinates":[[[[-0.679779556920394,45.231974931993946],[-0.677515111765016,45.23158710758007],[-0.677129492634055,45.231291526385185],[-0.676575893534472,45.23059584361577],[-0.676187369921785,45.23043015716032],[-0.674327898254588,45.23061124343032],[-0.673449285403286,45.23051936222714],[-0.673170625640538,45.230336530425255],[-0.672851356480765,45.229634024320674],[-0.672554995912424,45.22933729562732],[-0.672162584763878,45.229150991565795],[-0.670123161603761,45.22876824245243],[-0.669688936915254,45.22835344784878],[-0.669198481517257,45.22758805294386],[-0.66895457292135,45.227370718036894],[-0.668460154030222,45.227165218678024],[-0.665591926254823,45.22635891852362],[-0.663894317488438,45.22577915171436],[-0.655329719489141,45.22347466854198],[-0.653422796922817,45.22302599335624],[-0.647715485114451,45.22276010042805],[-0.645943807170394,45.222486257455564],[-0.645205239785896,45.222485133610874],[-0.64016856402985,45.22283874527127],[-0.617720842976066,45.22347368322035],[-0.617460238151298,45.223428044465166],[-0.608235464296799,45.22056003408813],[-0.609254929918774,45.21739393949668],[-0.608595060018237,45.217129537488866],[-0.609128630558662,45.21548172227154],[-0.609286754129504,45.21526478978448],[-0.609744538785525,45.21368792488419],[-0.608362885103939,45.21332427403324],[-0.60828807466468,45.211931382193235],[-0.60825737362252,45.210766912554554],[-0.6090812280076,45.20848236630899],[-0.609230890397401,45.20827291806018],[-0.607464544547571,45.20659219047737],[-0.607436717943996,45.20641822568391],[-0.606370724200456,45.206279610183586],[-0.605268371280058,45.20601236319315],[-0.605071334405924,45.20535081937887],[-0.60520056751767,45.20508164559049],[-0.60495218824097,45.20480934478824],[-0.604975058398211,45.20453188873435],[-0.604088343030843,45.20347708988921],[-0.603719987136361,45.20268947821186],[-0.603453848862108,45.202536727496366],[-0.603560564359521,45.20219527275036],[-0.603333427632131,45.20171857639113],[-0.603756888605112,45.20156339131618],[-0.603793963241923,45.20138733071471],[-0.603586583648905,45.200644096401795],[-0.603699175323332,45.20043314873109],[-0.603419453636708,45.20026731656959],[-0.603273187352968,45.199838485622394],[-0.603044098934107,45.19956826322003],[-0.603300477720446,45.199234596203326],[-0.603326380745249,45.199023743570294],[-0.605040969384342,45.19864658912464],[-0.605665678457087,45.198410082508985],[-0.606030763249228,45.1981017401037],[-0.606563709216978,45.19792497864988],[-0.607882529592308,45.19771740416615],[-0.609128319175025,45.19740581499177],[-0.609669288091448,45.19737299646971],[-0.610576244724609,45.19759784266772],[-0.611212043598135,45.19820281687844],[-0.611480592848344,45.19831400831965],[-0.612299622798582,45.19855881235801],[-0.61317875929203,45.19858984451283],[-0.613932596584377,45.19877275070095],[-0.615189957343948,45.198718508871146],[-0.61642011386859,45.1977529535644],[-0.618992861486417,45.19857903542064],[-0.619707465068305,45.19858921175943],[-0.619768414389764,45.19838893443399],[-0.620742058789826,45.19844208012245],[-0.620830968710593,45.19820123485862],[-0.621501132446308,45.198174983910135],[-0.622532671928691,45.198334399378055],[-0.622894120181468,45.19693095519721],[-0.62286894815644,45.19618994694325],[-0.623058688869944,45.1962063215288],[-0.623146482925827,45.195516629357876],[-0.623371328889429,45.19554358140845],[-0.623756772234662,45.19341105014777],[-0.625095495180894,45.19296285693573],[-0.625679630542901,45.19263380957074],[-0.626612422010852,45.19302083325727],[-0.627661426476157,45.193293203506734],[-0.627637372879301,45.19345262641089],[-0.628950257603627,45.193744349308304],[-0.629013582213787,45.193600774975785],[-0.631342069708906,45.19406224776101],[-0.63139102332866,45.19381548180301],[-0.631797511219455,45.19379324013286],[-0.633764373252347,45.19416277361735],[-0.633980212845892,45.19379699903214],[-0.634538705537415,45.19362287363862],[-0.636054129244991,45.19391152326603],[-0.636096701417527,45.193664962492285],[-0.636319863712318,45.19368563366332],[-0.636479519233614,45.19329915006281],[-0.636784879198554,45.193290100498416],[-0.636933869237982,45.193072520675294],[-0.638489493909434,45.192941588993214],[-0.640180201501992,45.19294684374864],[-0.640932333354239,45.19284929548945],[-0.641729297637332,45.19306756361062],[-0.642774714758389,45.19320560618698],[-0.643327667057263,45.193474192989754],[-0.643647333750025,45.193488994773574],[-0.644303233002185,45.193713653683126],[-0.645078410337886,45.19408584461231],[-0.645517032847781,45.19410667083729],[-0.646464708057321,45.1943091665107],[-0.64685105338412,45.1944858316397],[-0.647317938574492,45.194490403871995],[-0.647892945040697,45.19495925628096],[-0.649657885543469,45.19535764941231],[-0.649637886777357,45.19551965068496],[-0.650501559073574,45.19646399367764],[-0.650406287280097,45.19724860816458],[-0.651862597558103,45.19737132569996],[-0.650729024258491,45.19820613593495],[-0.650289827459754,45.198625222350465],[-0.649091629964087,45.20092867662704],[-0.650781710649283,45.207232667933496],[-0.661859432062016,45.20452438687895],[-0.66247382707996,45.20661888958335],[-0.663452755519983,45.21236017663383],[-0.670265142703427,45.210558061474174],[-0.672866412774286,45.21952163189616],[-0.678820946838348,45.23051649580486],[-0.679219613679444,45.2311064004106],[-0.679537955621576,45.23140689574456],[-0.679779556920394,45.231974931993946]]]]}},{"type":"Feature","properties":{"fid":4180,"ID":"COMMUNE_0000000009753926","NOM":"Saint-Palais","NOM_M":"SAINT-PALAIS","INSEE_COM":"33456","STATUT":"Commune simple","POPULATION":512,"INSEE_CAN":"13","INSEE_ARR":"1","INSEE_DEP":"33","INSEE_REG":"75","SIREN_EPCI":"243300811"},"geometry":{"type":"MultiPolygon","coordinates":[[[[-0.59448520594731,45.32123281644602],[-0.594030419138745,45.32034335153948],[-0.594003842334622,45.32009001778769],[-0.594092998694731,45.319808628053266],[-0.594685584725916,45.318954009718865],[-0.594755320663188,45.318668736635296],[-0.59469430848058,45.31835701905734],[-0.593799316202998,45.316882287909216],[-0.592581247238122,45.316042581894045],[-0.591991340882242,45.315829876577745],[-0.589453366055913,45.31567970763694],[-0.585579960461327,45.31683241848414],[-0.582517255205758,45.316747586418664],[-0.580644322315674,45.31710501536432],[-0.579182519282991,45.317617811783556],[-0.577748921747889,45.31771505763109],[-0.575780957755496,45.317687856081484],[-0.576199203936092,45.31707868114008],[-0.576452402410461,45.31642610865087],[-0.576654659136008,45.315756235930536],[-0.576642823041796,45.315194162588845],[-0.576303125929055,45.314221636559616],[-0.575359107133723,45.31263116727141],[-0.575140157394548,45.31079307529815],[-0.574080970581523,45.310770145676805],[-0.574034883373227,45.31035068208633],[-0.573385296868437,45.309703530989346],[-0.573460800964846,45.30920807301659],[-0.573083838937269,45.30793207167963],[-0.573194030680536,45.307519332362254],[-0.572970839335932,45.30656921762659],[-0.572296769272003,45.305818286872],[-0.572212405323844,45.305160284227064],[-0.572023142368444,45.30461920416644],[-0.571476214379837,45.30369925929006],[-0.57107431736858,45.3032082349179],[-0.571125566428721,45.30247379234754],[-0.570642635879129,45.301754606857116],[-0.5706436445951,45.301471547696345],[-0.570975707292074,45.3009534774866],[-0.571114222485486,45.30036497243974],[-0.571089043087138,45.29987273289526],[-0.570940983221674,45.299595336152315],[-0.570566486015791,45.29923233070485],[-0.569755166348003,45.29870930952046],[-0.569268482881803,45.29811012070959],[-0.568552421939607,45.29761830234496],[-0.56800448227261,45.297497882201824],[-0.568503024786516,45.297206155705325],[-0.569535918891105,45.2969226060005],[-0.5696009734494,45.29674206004381],[-0.569887016215988,45.296622059955034],[-0.569621539172984,45.295986966550736],[-0.569840867872458,45.295782566114454],[-0.570249306543187,45.295679387992095],[-0.571537810460467,45.29559857377534],[-0.573061100825829,45.295753608444684],[-0.575606017707477,45.295828181756185],[-0.576611887809517,45.29568153473192],[-0.578452168974348,45.295582085973614],[-0.580925820443653,45.29575977202096],[-0.581342971844136,45.29400497468399],[-0.581958886190221,45.29242227727173],[-0.582102396329434,45.29141716502195],[-0.584653086474818,45.291683332318605],[-0.585519890818974,45.291678970206796],[-0.589265250876163,45.29130099134029],[-0.589052375230875,45.29271395931035],[-0.58871934217721,45.29404605548666],[-0.588816957086496,45.29419345040651],[-0.589278885665202,45.29432644541922],[-0.589917340643961,45.29472147677961],[-0.590279925266973,45.29481889898723],[-0.589985485225232,45.29605601831056],[-0.591208481916588,45.29565258738187],[-0.591213726040532,45.29603099406807],[-0.59133828237228,45.29610090536169],[-0.594027240526774,45.29650664522134],[-0.594908507445316,45.29783307356307],[-0.59758030148086,45.29818880667427],[-0.597502721630492,45.298747450154806],[-0.600412336682794,45.29910628173075],[-0.600431740882984,45.29932739506094],[-0.600830976453651,45.29937853572155],[-0.600027231257069,45.300478856601806],[-0.599927653186536,45.30077591092138],[-0.600333625293874,45.30085207529425],[-0.599935452705544,45.30117316608451],[-0.59980331515059,45.30148028232129],[-0.599761089561512,45.303257350409694],[-0.600420041992292,45.3031171526527],[-0.601290708549716,45.30324865741479],[-0.602235612609927,45.30322452994112],[-0.605315806800156,45.30264301837742],[-0.60678974627881,45.302839756534354],[-0.607604308518527,45.30257821820608],[-0.608137587401894,45.30248980196585],[-0.611485254693478,45.30274498115975],[-0.611996869920087,45.30293306880077],[-0.612504065388376,45.30332861481357],[-0.613262972168611,45.30376469977238],[-0.614129398178065,45.3041450246149],[-0.616924293376325,45.3048550819633],[-0.61991554857903,45.30593188911561],[-0.620820441004382,45.306077460468785],[-0.623455782744923,45.30592268772493],[-0.623352145068796,45.30656783421547],[-0.623397865925351,45.307191916012265],[-0.623583726614335,45.307515801445916],[-0.624610704977215,45.3086335912929],[-0.624475182856152,45.309671877130164],[-0.624557243697909,45.31002977304817],[-0.625091507570906,45.31046585408996],[-0.626075437774708,45.31098019646799],[-0.627204382427652,45.31095530265469],[-0.63012605891527,45.312269375333294],[-0.63155090320256,45.31339222200196],[-0.632128301095537,45.31395937675875],[-0.632423037550651,45.3144626972366],[-0.633190519542876,45.31647401730964],[-0.633337426939208,45.31737424537344],[-0.633406146487638,45.318466306631834],[-0.633335637548626,45.318560539508404],[-0.633326837933035,45.318641049546756],[-0.632964624287608,45.318709603589916],[-0.632157065065294,45.318747550223286],[-0.63157551880021,45.31892057291872],[-0.631036984044795,45.31889118524065],[-0.629442395024444,45.31922327546835],[-0.625780359028922,45.319141040023695],[-0.62409290063195,45.31871438841238],[-0.623467726708388,45.31876709416449],[-0.622769525721035,45.318993425883754],[-0.622038173649405,45.31904415432726],[-0.620698724225291,45.319508471995796],[-0.620423344259864,45.3198319709153],[-0.619960839997965,45.32008761167006],[-0.619549343206693,45.3204596816005],[-0.618324900933902,45.321672004851024],[-0.617803296474404,45.32200165882537],[-0.617322108071096,45.32216685200342],[-0.616402992907674,45.32310426943677],[-0.615759471846962,45.323426136804855],[-0.615339964170922,45.32353794799568],[-0.614463313135194,45.323614954326615],[-0.613163977831702,45.32347936038947],[-0.611737445783542,45.32351010803779],[-0.610526802016551,45.32365826008107],[-0.609446821918729,45.323594864311325],[-0.608382665704494,45.32367697177882],[-0.605526923781187,45.32426932654643],[-0.604678378167095,45.324228169951866],[-0.604175865088433,45.32274266237582],[-0.603919453803462,45.322354316818746],[-0.603487898167115,45.321964402464026],[-0.602791399935651,45.32188318039825],[-0.602275467362852,45.32168977616421],[-0.602058141963102,45.32153001992322],[-0.600468961817872,45.32153431490761],[-0.599520641997987,45.3216684955703],[-0.59916266257597,45.321506950662716],[-0.598081612271104,45.32132720379014],[-0.596916736166367,45.32099690840242],[-0.596265672604193,45.32043194905936],[-0.59448520594731,45.32123281644602]]]]}}]}