{"type":"FeatureCollection","name":"COM_64399","crs":{"type":"name","properties":{"name":"urn:ogc:def:crs:OGC:1.3:CRS84"}},"features":[{"type":"Feature","properties":{"fid":4146,"ID":"COMMUNE_0000000009761063","NOM":"Montardon","NOM_M":"MONTARDON","INSEE_COM":"64399","STATUT":"Commune simple","POPULATION":2420,"INSEE_CAN":"25","INSEE_ARR":"3","INSEE_DEP":"64","INSEE_REG":"75","SIREN_EPCI":"200067239"},"geometry":{"type":"MultiPolygon","coordinates":[[[[-0.379921559613572,43.347015572869616],[-0.380045470885185,43.35511823789892],[-0.377724642258491,43.356027247335824],[-0.370704038895953,43.36105727188163],[-0.363962678706054,43.366113254567495],[-0.361814134691249,43.36793408736334],[-0.361895921347884,43.36798196949568],[-0.361035537856849,43.36891003608236],[-0.361388500849889,43.36897290364109],[-0.359803586684238,43.3710643166722],[-0.358527037145746,43.370741984789746],[-0.356256398361107,43.37284562660438],[-0.35607263705136,43.37270005552859],[-0.355459337267251,43.372787513155835],[-0.354324274447145,43.37336837428033],[-0.353752754445328,43.37377057705567],[-0.352330310278067,43.37509777670277],[-0.35271435148262,43.375333493573834],[-0.35210186843532,43.37632583781341],[-0.35158824459771,43.37787158218418],[-0.351407945956208,43.378124786038654],[-0.350677294877438,43.37833920910415],[-0.349819501042794,43.378065928971935],[-0.349316877462952,43.37814722188513],[-0.34897147390626,43.37808768090932],[-0.348206539860617,43.37758550619968],[-0.346967222978822,43.37709800373525],[-0.345405811967581,43.37693019535395],[-0.345562064437916,43.37740979341753],[-0.344487860323332,43.37725661824991],[-0.344360647431638,43.37806283140062],[-0.342916520774459,43.37776800236769],[-0.341291493144367,43.37771645410518],[-0.34056542619233,43.37809544414493],[-0.34151289536249,43.37872349585769],[-0.342435808401992,43.37996999214754],[-0.342186679468649,43.38008033711403],[-0.340852242399566,43.381867480603496],[-0.340862820119666,43.38209226107281],[-0.341591562171629,43.38316197706247],[-0.340990562512526,43.383761313755215],[-0.340527770187973,43.38440230202807],[-0.340424376788632,43.38493944908563],[-0.339462638482022,43.38453512899717],[-0.337494278018045,43.38331365252928],[-0.336551076579437,43.382546765179576],[-0.334888595172899,43.383768573918],[-0.333524396207841,43.385196368853556],[-0.332529076689299,43.3864714186138],[-0.332177890996635,43.38607794232575],[-0.331188261127864,43.38540428069746],[-0.330987012877458,43.38491344128223],[-0.330766261938999,43.38464020461645],[-0.329455019451896,43.38367748824936],[-0.329338987583071,43.38348566669232],[-0.328881150865919,43.38092724588546],[-0.328367228332203,43.38049374656591],[-0.32721994905419,43.37905504639491],[-0.327213893142276,43.3789075637952],[-0.327714661906888,43.37853739692559],[-0.32809824936088,43.37793402208556],[-0.327816550922426,43.37722505330963],[-0.327916827880492,43.37723007253821],[-0.326867608942257,43.37605578199555],[-0.32534183954922,43.37537065227808],[-0.324283691445684,43.37463871934446],[-0.324061637280558,43.374384422071955],[-0.323911021285217,43.373999170204684],[-0.323971077980958,43.37364976485903],[-0.324817163895975,43.37203543366564],[-0.325217807791391,43.37147116556295],[-0.325384172746667,43.37103925554314],[-0.32539573718725,43.37066252726359],[-0.325819220704627,43.36893422178871],[-0.326173414196542,43.36874144805245],[-0.327066780871891,43.36854559715975],[-0.327027553022415,43.36822985850506],[-0.327330385245457,43.36823765169175],[-0.327711859274205,43.36808995462525],[-0.328354912300863,43.36798373054102],[-0.328406697248729,43.367598561313535],[-0.328978430992075,43.367625087703246],[-0.329405250543462,43.367728104602485],[-0.329831946688558,43.36765824430388],[-0.329994394266507,43.36747946373574],[-0.330361368580133,43.367315995983056],[-0.331378002430489,43.36711811414517],[-0.331584688153039,43.36700009715888],[-0.33174169969614,43.36677015768385],[-0.332568999583637,43.366904946197046],[-0.332997233224395,43.36671256945174],[-0.334084900968443,43.36684652672031],[-0.333248910913499,43.366433789512584],[-0.333261497531958,43.36611825673814],[-0.33292341214289,43.36498965166657],[-0.332530229525942,43.364486730168366],[-0.334058579885762,43.364090270764734],[-0.334910510843568,43.36305284350422],[-0.334284062190129,43.362528307823254],[-0.334921433602989,43.36202693713575],[-0.335559274193549,43.3612356154742],[-0.336168208039598,43.36156439355151],[-0.336377581783324,43.361258998346734],[-0.336061333306065,43.36106165851447],[-0.336647566311727,43.360274623250426],[-0.337275644960331,43.36048665096105],[-0.338616557361053,43.359030720115975],[-0.339527021520414,43.35934566818104],[-0.340245591158017,43.35950085960649],[-0.340972560963867,43.35980075345194],[-0.341910403627035,43.35911987959438],[-0.343004878030853,43.35801276251444],[-0.343202706336804,43.357976933791186],[-0.343809374315335,43.35765023738869],[-0.347060158618187,43.35559848398241],[-0.354659612843735,43.35226469006067],[-0.35517773582385,43.35251693982095],[-0.355673568490075,43.35261950956027],[-0.356713145269911,43.351635506856496],[-0.356908138883281,43.351615047361086],[-0.362157518812047,43.354581823696684],[-0.362294083892816,43.35461719638941],[-0.362341932099341,43.35454907766589],[-0.36329597135808,43.35269335985673],[-0.372015834726957,43.35589384988192],[-0.372716838430108,43.35450514439303],[-0.374690823455258,43.35142533896595],[-0.361427398531641,43.34683031950785],[-0.363087825365778,43.34492473643783],[-0.364416177809787,43.34498155790017],[-0.365447882593118,43.34492333931774],[-0.369782597890777,43.34548165677238],[-0.371524113401055,43.34625215260164],[-0.372449523122921,43.346379967072735],[-0.374880030589855,43.347221663987895],[-0.377491511664024,43.347108611049904],[-0.379198323710859,43.3472218634221],[-0.379580002965766,43.347019045193505],[-0.379921559613572,43.347015572869616]]]]}}]}