{"type":"FeatureCollection","features":[{"type":"Feature","properties":{"fid":1196,"ID":"COMMUNE_0000000009758059","NOM":"Bias","NOM_M":"BIAS","INSEE_COM":"40043","STATUT":"Commune simple","POPULATION":787,"INSEE_CAN":"03","INSEE_ARR":"2","INSEE_DEP":"40","INSEE_REG":"75","SIREN_EPCI":"244000543"},"geometry":{"type":"MultiPolygon","coordinates":[[[[-1.185717005002888,44.11437452240486],[-1.189070904063664,44.11505114047809],[-1.193127790753423,44.115707952660834],[-1.193319082190389,44.11563843637117],[-1.223274558691597,44.120577530690205],[-1.225433641895314,44.12085658250389],[-1.237062388732364,44.12276699812911],[-1.250443826586418,44.124225124716446],[-1.290114760208724,44.12823253708136],[-1.283335483797669,44.13159953705526],[-1.283006686417377,44.131886415205614],[-1.282688255470241,44.13191238752983],[-1.273625533439691,44.13648121826665],[-1.26729159509055,44.13978652347798],[-1.261919096682735,44.142451922140765],[-1.261159602481001,44.142756386259876],[-1.260515524051059,44.143197871912534],[-1.254170536224392,44.14645863472512],[-1.244806653373768,44.15112767063486],[-1.245277485015682,44.151246436491526],[-1.245482818341685,44.151531425069365],[-1.241821753113723,44.153184815029704],[-1.240770682967727,44.1538798927609],[-1.239533377508014,44.155049073374805],[-1.234631150267153,44.15374688142519],[-1.234465666640064,44.15399574341505],[-1.234319650273793,44.1547576297412],[-1.231834885081595,44.154981615986735],[-1.231307442853394,44.154791967920474],[-1.231063229385596,44.154572452577014],[-1.227233826646196,44.154611190710376],[-1.226308102314574,44.154486458810396],[-1.224035081515355,44.15454436279425],[-1.222434299502973,44.15411301976374],[-1.222077832709048,44.15394918889397],[-1.218680998649869,44.1535238898658],[-1.218548818568672,44.15292417126447],[-1.218148571505888,44.152726861284904],[-1.214649840744713,44.152816429832974],[-1.206166585388094,44.15235643880765],[-1.203657079800027,44.15233016245359],[-1.19859116226559,44.152116993941284],[-1.198496336216278,44.15201967746235],[-1.198472435020514,44.14881723386598],[-1.198812356222793,44.14743777868036],[-1.199003415798238,44.14577199499562],[-1.198450840723503,44.14280073576965],[-1.197932880348854,44.14097465112502],[-1.197814520992605,44.14001656186988],[-1.197314142017686,44.13934260980752],[-1.195213051918577,44.138059379522645],[-1.194514734627578,44.13694143108672],[-1.193491658781106,44.13667955743871],[-1.185717005002888,44.11437452240486]]]]}},{"type":"Feature","properties":{"fid":1342,"ID":"COMMUNE_0000000009757736","NOM":"Aureilhan","NOM_M":"AUREILHAN","INSEE_COM":"40019","STATUT":"Commune simple","POPULATION":1117,"INSEE_CAN":"03","INSEE_ARR":"2","INSEE_DEP":"40","INSEE_REG":"75","SIREN_EPCI":"244000543"},"geometry":{"type":"MultiPolygon","coordinates":[[[[-1.200495249533835,44.233015903078936],[-1.194926997045219,44.23348131832616],[-1.194356571455799,44.23346436638849],[-1.194060874944376,44.23338192659801],[-1.191672332063004,44.23247898630273],[-1.191650175377835,44.23231488145769],[-1.189229113779555,44.231462709443896],[-1.186764102986916,44.230387723313136],[-1.185199893144169,44.22984799213481],[-1.184982526040904,44.229654377148],[-1.182690641742633,44.22881697285882],[-1.177172903715678,44.22655925952529],[-1.171071258403628,44.22426400064302],[-1.170388518002552,44.223894261095055],[-1.169807326836819,44.22383162575984],[-1.169554574129812,44.223633019187],[-1.169709767988347,44.22299887561817],[-1.16934705993121,44.22270259489012],[-1.16934970591566,44.22253394089136],[-1.169535686829272,44.22211405165879],[-1.169809381657624,44.22198376850757],[-1.169858487268744,44.22186742985201],[-1.169839876166141,44.22125611717337],[-1.16996781497584,44.22079697111331],[-1.170282968890018,44.220736317649546],[-1.170597560019791,44.22056571933012],[-1.170749366737778,44.22029494934724],[-1.170714692266455,44.21987443355908],[-1.170871881156793,44.21897791863945],[-1.170822115895809,44.21867605436665],[-1.171214474014123,44.21838712370729],[-1.171170815892616,44.21825358066502],[-1.17140272514141,44.21775983333338],[-1.17088715621219,44.21683301658447],[-1.170844446480868,44.21538256056514],[-1.170973489500713,44.21514330198401],[-1.170642795762453,44.21485572588278],[-1.170352939761361,44.21432232987535],[-1.170006276957897,44.21405609052027],[-1.170016080268349,44.21343919332522],[-1.170120359532363,44.21310172876223],[-1.17032091491663,44.21291473471288],[-1.170195614075172,44.212505778487696],[-1.170303887580108,44.2119157836645],[-1.170555251966674,44.21184042749446],[-1.170591255782741,44.21171647474246],[-1.170268285699347,44.21144843487585],[-1.170139816906252,44.21120094121601],[-1.169900688983065,44.21106761935781],[-1.169885881961499,44.21083202853298],[-1.169690766431813,44.21051315763909],[-1.170124979403843,44.21004417164476],[-1.170080158469688,44.20974121952028],[-1.170185057822125,44.20951459770156],[-1.170500220514309,44.209471968238645],[-1.17087793449241,44.2092403796792],[-1.17120991774401,44.209153843634226],[-1.172064707210858,44.208303806371205],[-1.171842180746825,44.20803826059477],[-1.172296269503846,44.20697091411824],[-1.172180117699217,44.20677162776827],[-1.172205300844836,44.20656876742342],[-1.172441030950474,44.206434511829194],[-1.172378573217799,44.20594294843796],[-1.172582305349751,44.205901847459884],[-1.172552181952292,44.20571371014733],[-1.172877321629665,44.20550033841842],[-1.173112673553595,44.2050713543154],[-1.173079470349262,44.20473911847606],[-1.173456677934213,44.20467158487859],[-1.173255691530938,44.20394914037391],[-1.17342511509243,44.20345866862862],[-1.173418184410287,44.20304070652823],[-1.173851648408358,44.20256271926043],[-1.174309540849443,44.19982772549052],[-1.174973776855572,44.199319316135195],[-1.175088991555823,44.19884172193502],[-1.175405150963774,44.1983366468352],[-1.175450552420885,44.19808524476186],[-1.175322007221478,44.19763225485387],[-1.175653476458596,44.19743756091832],[-1.175839932663408,44.19688965207125],[-1.176790394540387,44.19586197015889],[-1.177355969633858,44.19544383228217],[-1.177603586912455,44.19511442019891],[-1.178048625863622,44.19413121906124],[-1.178175950493736,44.19361440214196],[-1.177829406801851,44.19181680144181],[-1.177814712958942,44.19102147282438],[-1.177927933358468,44.1905854140281],[-1.177707266980142,44.19012331999514],[-1.177383488017174,44.18975799299898],[-1.177491766043867,44.189442002139636],[-1.177258389166675,44.18906241442952],[-1.177190318805868,44.18871618759054],[-1.177015564668902,44.188571419671426],[-1.177153359507024,44.1882479953812],[-1.176777268949994,44.18775036033037],[-1.176795465333099,44.18695918889065],[-1.176377746925365,44.1860998980363],[-1.176616789934753,44.18533095991458],[-1.177166450313393,44.18558312527722],[-1.178659051682731,44.18605262978582],[-1.1812168068848,44.18664644393912],[-1.181587609343746,44.18690180425511],[-1.182185276837463,44.18710794908316],[-1.182698093303682,44.18723350273597],[-1.183745790454566,44.1871890204768],[-1.184434202177076,44.18740250681461],[-1.184879217283571,44.18771271069796],[-1.185553358626916,44.187902398757764],[-1.186979024573239,44.18900800018214],[-1.187864472191795,44.18946361604829],[-1.1884493335775,44.189512481555454],[-1.190345523202908,44.19001599150713],[-1.191224121460616,44.19087024226641],[-1.191889727292669,44.191181001717574],[-1.192304179524017,44.19150045945372],[-1.192286184006642,44.19171476862045],[-1.192589412851002,44.19215655574153],[-1.192966482218742,44.19241074067464],[-1.193229379853979,44.192442149187194],[-1.193720961568677,44.192652292663524],[-1.1938075925254,44.19279049210341],[-1.194040004249057,44.1928501055011],[-1.194241758584927,44.19324078770861],[-1.194502757555074,44.19336510575482],[-1.194673010989683,44.19356680613255],[-1.19452568173917,44.19386177792768],[-1.194584377801883,44.194096589497576],[-1.194957756243488,44.194571742529504],[-1.195273897041524,44.19517076797638],[-1.195271209434333,44.19535474790776],[-1.197515050188739,44.198336204124104],[-1.199259237336668,44.19898150077988],[-1.200501027442843,44.19974516710578],[-1.200972338612457,44.20013723297792],[-1.201505463722386,44.20082257643735],[-1.201703391598666,44.20095740854128],[-1.201797223819323,44.201547812865044],[-1.201630562119511,44.20175069614969],[-1.201839457350365,44.20186437659733],[-1.201823372913079,44.202120980676646],[-1.201931551408852,44.202194353114514],[-1.201888331429798,44.202253696554024],[-1.201602028313108,44.202211485705625],[-1.201758286630812,44.202443459259555],[-1.201778532656038,44.20273382465016],[-1.201901512689922,44.202736323525],[-1.202119669502429,44.20290733621507],[-1.20236694639074,44.20291318399863],[-1.202559014699603,44.20310412431812],[-1.203095944966695,44.203214244984316],[-1.203207455842738,44.203332556974416],[-1.20323347557537,44.203599265689974],[-1.203549996250668,44.20381247552854],[-1.203560746554279,44.20399143557342],[-1.203704653401632,44.204005749545495],[-1.204166624204429,44.20383120241252],[-1.20503138589413,44.20420546586358],[-1.205123560839397,44.20431640528918],[-1.205008862338579,44.20459481932213],[-1.205167939028588,44.20528728053248],[-1.205348533447981,44.20535697199011],[-1.205401624238136,44.20551537988249],[-1.205382904175757,44.20582076055341],[-1.205246934723915,44.20593053318529],[-1.20524277396158,44.206263298045705],[-1.205626420714961,44.20719592649756],[-1.205570747212022,44.20750993549994],[-1.206014205536362,44.20769393514902],[-1.206856360071671,44.20835388803102],[-1.207272904195348,44.2089183930081],[-1.207079765074338,44.209220550495075],[-1.207471308157215,44.209498476505665],[-1.20766586675571,44.20997595100648],[-1.207709973294601,44.21048623866118],[-1.207828472623646,44.21059706822375],[-1.207683303630946,44.21146164620241],[-1.207699084222692,44.21172514322883],[-1.207870722239515,44.211893424997335],[-1.207864160551081,44.212244311132395],[-1.20850481922756,44.212788498002574],[-1.20912567980913,44.21391032167858],[-1.209494521006916,44.214202634574455],[-1.209702674708655,44.214237911897754],[-1.210154951098011,44.21416827283631],[-1.210322815969012,44.21423484085091],[-1.210860142706776,44.214230438733246],[-1.211009814348467,44.21432204135377],[-1.211461512159465,44.2143290361278],[-1.211625208956247,44.21455891153858],[-1.212488599602829,44.21474298836864],[-1.213249053882283,44.215110386965776],[-1.213514100016189,44.21513535954064],[-1.213808277774275,44.21563694317761],[-1.214585602365028,44.21655172429927],[-1.20619219715851,44.226425794764786],[-1.20321779928181,44.229727967184495],[-1.203010243217665,44.230124412909994],[-1.202428233720605,44.2306613945007],[-1.202183847077744,44.23108538919421],[-1.200495249533835,44.233015903078936]]]]}},{"type":"Feature","properties":{"fid":1825,"ID":"COMMUNE_0000000009757734","NOM":"Saint-Paul-en-Born","NOM_M":"SAINT-PAUL-EN-BORN","INSEE_COM":"40278","STATUT":"Commune simple","POPULATION":982,"INSEE_CAN":"03","INSEE_ARR":"2","INSEE_DEP":"40","INSEE_REG":"75","SIREN_EPCI":"244000543"},"geometry":{"type":"MultiPolygon","coordinates":[[[[-1.116443997362963,44.20445135012934],[-1.11645804571323,44.204282276895626],[-1.116611502462521,44.20413501036779],[-1.116616791558654,44.20387973966232],[-1.116380015394511,44.20381111402473],[-1.116008342151793,44.203143670081154],[-1.116331072033576,44.20299816261709],[-1.116398850534736,44.202827072776266],[-1.116857168868831,44.202702612401],[-1.116868226700267,44.20247506602016],[-1.117031608514575,44.202326524920586],[-1.117251664028878,44.20219929004109],[-1.117760742036459,44.20218738697137],[-1.118605371402035,44.20156801213517],[-1.118605457587691,44.20131023278075],[-1.118854494640294,44.200753781396365],[-1.119705211232955,44.200356793527675],[-1.119828504627645,44.200139451319544],[-1.119968403119826,44.199512288058294],[-1.119862441635655,44.199088144393116],[-1.120111854829153,44.198174755264716],[-1.120135300126104,44.19741046115131],[-1.120423101882977,44.19685345092214],[-1.120008565585379,44.196165100613946],[-1.119892584258669,44.195447506314764],[-1.120202698004848,44.194956355798446],[-1.120941584588413,44.194711373264305],[-1.121022065801598,44.19459478312809],[-1.120911434545548,44.19417532366762],[-1.11996996505776,44.19349325702294],[-1.1197927713547,44.19324394205817],[-1.119876824505963,44.193090264863415],[-1.120609553175755,44.19288156780592],[-1.120775396245233,44.19273292796975],[-1.120746525587422,44.19226623192349],[-1.120599034261472,44.19216722257299],[-1.120165313829378,44.19209429114884],[-1.119977517709209,44.19211306471645],[-1.119615018260872,44.19236553239584],[-1.119408546695899,44.19238590791791],[-1.119164349002583,44.1922661944486],[-1.119044945622863,44.19181191271627],[-1.11919728281043,44.1915979870536],[-1.119301711133598,44.19100010004903],[-1.119241857099961,44.19046877287601],[-1.118960545571182,44.19007915937817],[-1.117961043178407,44.189182946302836],[-1.117806313373735,44.18889763477421],[-1.117860219330195,44.18869101313535],[-1.118065912344796,44.188521953370596],[-1.118507721100716,44.18843054976343],[-1.118934216434457,44.188214437640454],[-1.119770864131482,44.18817849710966],[-1.119704805292545,44.18780333058225],[-1.119880769705629,44.18763898945055],[-1.120080390210819,44.18714478112253],[-1.120171815346873,44.18707554986494],[-1.120813087856791,44.186971232681465],[-1.121223883235734,44.18657363659689],[-1.121603305831654,44.18643409155421],[-1.122105656358449,44.18507225378738],[-1.122285438420151,44.18499519194805],[-1.122337078233271,44.18480938310461],[-1.122944064706014,44.18445758014412],[-1.122871664384169,44.18423677804565],[-1.123218990473196,44.18356936510194],[-1.12351980633444,44.18321014559365],[-1.124999524962191,44.182062091560056],[-1.126947011580056,44.18083692118673],[-1.126861462680139,44.18029755288293],[-1.126233932125766,44.17841851043076],[-1.126203398576604,44.17791222288292],[-1.12575973107342,44.177252940691815],[-1.125431291320427,44.177041777316454],[-1.125119048119177,44.17608822764407],[-1.125229740259302,44.17442295355522],[-1.125787292677092,44.17096258574311],[-1.123731910291047,44.1663008831875],[-1.123832520978487,44.165393092154716],[-1.126505642306968,44.15164049208528],[-1.127945176664257,44.150675058123575],[-1.147614086959651,44.133606953053196],[-1.149760383222833,44.13796007221185],[-1.173176599025691,44.18222255016365],[-1.173265016462379,44.18221557898051],[-1.17366268189322,44.182922412787946],[-1.174036466151948,44.18321914402058],[-1.174207925594368,44.18357495439514],[-1.174583877872707,44.18384996941519],[-1.174932265902794,44.184397336636685],[-1.175513677479128,44.18484299014682],[-1.176616789934753,44.18533095991458],[-1.176377746925365,44.1860998980363],[-1.176795465333099,44.18695918889065],[-1.176777268949994,44.18775036033037],[-1.177153359507024,44.1882479953812],[-1.177015564668902,44.188571419671426],[-1.177190318805868,44.18871618759054],[-1.177258389166675,44.18906241442952],[-1.177491766043867,44.189442002139636],[-1.177383488017174,44.18975799299898],[-1.177707266980142,44.19012331999514],[-1.177927933358468,44.1905854140281],[-1.177814712958942,44.19102147282438],[-1.177829406801851,44.19181680144181],[-1.178175950493736,44.19361440214196],[-1.178048625863622,44.19413121906124],[-1.177603586912455,44.19511442019891],[-1.177355969633858,44.19544383228217],[-1.176790394540387,44.19586197015889],[-1.175839932663408,44.19688965207125],[-1.175653476458596,44.19743756091832],[-1.175322007221478,44.19763225485387],[-1.175450552420885,44.19808524476186],[-1.175405150963774,44.1983366468352],[-1.175088991555823,44.19884172193502],[-1.174973776855572,44.199319316135195],[-1.174309540849443,44.19982772549052],[-1.173851648408358,44.20256271926043],[-1.173418184410287,44.20304070652823],[-1.17342511509243,44.20345866862862],[-1.173255691530938,44.20394914037391],[-1.173456677934213,44.20467158487859],[-1.173079470349262,44.20473911847606],[-1.173112673553595,44.2050713543154],[-1.172877321629665,44.20550033841842],[-1.172552181952292,44.20571371014733],[-1.172582305349751,44.205901847459884],[-1.172378573217799,44.20594294843796],[-1.172441030950474,44.206434511829194],[-1.172205300844836,44.20656876742342],[-1.172180117699217,44.20677162776827],[-1.172296269503846,44.20697091411824],[-1.171842180746825,44.20803826059477],[-1.172064707210858,44.208303806371205],[-1.17120991774401,44.209153843634226],[-1.17087793449241,44.2092403796792],[-1.170500220514309,44.209471968238645],[-1.170185057822125,44.20951459770156],[-1.170080158469688,44.20974121952028],[-1.170124979403843,44.21004417164476],[-1.169690766431813,44.21051315763909],[-1.169885881961499,44.21083202853298],[-1.169900688983065,44.21106761935781],[-1.170139816906252,44.21120094121601],[-1.170268285699347,44.21144843487585],[-1.170591255782741,44.21171647474246],[-1.170555251966674,44.21184042749446],[-1.170303887580108,44.2119157836645],[-1.170195614075172,44.212505778487696],[-1.17032091491663,44.21291473471288],[-1.170120359532363,44.21310172876223],[-1.170016080268349,44.21343919332522],[-1.170006276957897,44.21405609052027],[-1.170352939761361,44.21432232987535],[-1.170642795762453,44.21485572588278],[-1.170973489500713,44.21514330198401],[-1.170844446480868,44.21538256056514],[-1.17088715621219,44.21683301658447],[-1.17140272514141,44.21775983333338],[-1.171170815892616,44.21825358066502],[-1.171214474014123,44.21838712370729],[-1.170822115895809,44.21867605436665],[-1.170871881156793,44.21897791863945],[-1.170714692266455,44.21987443355908],[-1.170749366737778,44.22029494934724],[-1.170597560019791,44.22056571933012],[-1.170282968890018,44.220736317649546],[-1.16996781497584,44.22079697111331],[-1.169839876166141,44.22125611717337],[-1.169858487268744,44.22186742985201],[-1.169809381657624,44.22198376850757],[-1.169535686829272,44.22211405165879],[-1.16934970591566,44.22253394089136],[-1.16934705993121,44.22270259489012],[-1.169709767988347,44.22299887561817],[-1.169554574129812,44.223633019187],[-1.169807326836819,44.22383162575984],[-1.170388518002552,44.223894261095055],[-1.171071258403628,44.22426400064302],[-1.177172903715678,44.22655925952529],[-1.182690641742633,44.22881697285882],[-1.184982526040904,44.229654377148],[-1.185199893144169,44.22984799213481],[-1.186764102986916,44.230387723313136],[-1.189229113779555,44.231462709443896],[-1.191650175377835,44.23231488145769],[-1.191672332063004,44.23247898630273],[-1.194060874944376,44.23338192659801],[-1.191699236893581,44.23567603346708],[-1.190835394467313,44.23635441410859],[-1.189553530485449,44.23680537766389],[-1.18900827809775,44.237095705363934],[-1.18714043765271,44.23760866855889],[-1.181024725614872,44.237559735329526],[-1.179253494683214,44.2371729202119],[-1.178852439293455,44.23999956208625],[-1.178584433223764,44.240616389049464],[-1.178385735621394,44.240846593101885],[-1.17837618311044,44.24110835386119],[-1.177580265535641,44.242201370445976],[-1.17686543708228,44.24218261056612],[-1.176370913064084,44.24287385284397],[-1.176014290176153,44.243190284020535],[-1.175834835179979,44.24352881638252],[-1.175812639560077,44.24395961386571],[-1.17550712413894,44.24439127645333],[-1.174993750657704,44.245593403966545],[-1.174523116074579,44.246081821626376],[-1.173510654068383,44.24682429766599],[-1.173285878421706,44.24712669142366],[-1.173229103021233,44.24771834559148],[-1.172859795017344,44.248033445080175],[-1.172128650433301,44.24804952394917],[-1.172185970699764,44.248777453571],[-1.172091630192134,44.249080294325374],[-1.17178046165843,44.24950404810373],[-1.171698392999653,44.25009305741796],[-1.171398373575917,44.25061733958733],[-1.171527673001381,44.25128394555125],[-1.170743246705304,44.25212769298226],[-1.170398941279475,44.25274920019914],[-1.169370278019459,44.2535977097621],[-1.168369455582645,44.25477415135231],[-1.167593969450583,44.25664509576142],[-1.165397702031666,44.25700067413785],[-1.164208752250841,44.25734233525115],[-1.16369777615035,44.257847555815076],[-1.163387688399645,44.25830459308439],[-1.162060966079907,44.25890564059311],[-1.161676910229672,44.25922666650406],[-1.161235153469606,44.25976981187184],[-1.160398967903753,44.260099858880324],[-1.159614136087079,44.2605487364234],[-1.158593500195374,44.259407518199154],[-1.156655743348715,44.26012628745818],[-1.156464543404757,44.26059772995805],[-1.156016189590439,44.26086348190282],[-1.155853468376572,44.261056224740415],[-1.155403739679993,44.262689396290696],[-1.145959299195644,44.272762261191595],[-1.142707425590816,44.27595233985045],[-1.138389582522209,44.28044259609324],[-1.136235284338022,44.28290065273522],[-1.142525305341148,44.26374487513001],[-1.14570438221731,44.253736978220616],[-1.146436066597864,44.25175520225138],[-1.14664179129722,44.25069284537131],[-1.148225123382248,44.24604061526389],[-1.149186451178623,44.2424358186147],[-1.149247765393092,44.24152583892639],[-1.149554983071499,44.2409950439258],[-1.149571133444319,44.24037610603434],[-1.149742776259382,44.23994598026092],[-1.149402720103996,44.239256686714576],[-1.149482981465844,44.2382973187028],[-1.149879683486948,44.23749904339363],[-1.150343195198717,44.23569503704325],[-1.151199767249652,44.2337121137989],[-1.150207124978049,44.23347565380137],[-1.149490766828424,44.233536998212244],[-1.149294029622341,44.23215005297191],[-1.138892973077382,44.2274791594049],[-1.138611605111861,44.22681827606584],[-1.139009699329232,44.22600377077916],[-1.139277430646967,44.22266412737097],[-1.138752900079649,44.221882628914116],[-1.138524205961031,44.22142796973081],[-1.13844195284367,44.22097048998624],[-1.138186778159399,44.22068537927849],[-1.138190626995833,44.22054913241066],[-1.137797830506829,44.22028453507027],[-1.137566523952592,44.219811045299814],[-1.137268329319795,44.21955459562493],[-1.136996199245001,44.21950086388282],[-1.13633892468589,44.218685606167064],[-1.134968762717548,44.21864712885906],[-1.134212054424794,44.21849628478493],[-1.132717585027017,44.21860938141032],[-1.130558640240894,44.218908817819326],[-1.13000569346906,44.219198233409],[-1.128322184005903,44.21872891700842],[-1.127386501702535,44.218271099624914],[-1.126204042154918,44.217918098406514],[-1.125321160146527,44.21715182767254],[-1.124785532479409,44.21683487394547],[-1.124170492634524,44.21656326587612],[-1.123658268051474,44.21643019891999],[-1.123318940317827,44.2162446631353],[-1.123192559631724,44.216023181180475],[-1.122301763087605,44.21568171053814],[-1.12165450241528,44.21519047611924],[-1.121344186386096,44.215145352463935],[-1.120556691091234,44.21479367816527],[-1.119704693908745,44.21291487879225],[-1.119320602646354,44.21250928862426],[-1.11935798980666,44.212005848985434],[-1.11906806823045,44.21153362933085],[-1.118922923995282,44.21150212583012],[-1.119023990628973,44.21132347441151],[-1.118989891145524,44.21114719495068],[-1.118750361606708,44.2110065707541],[-1.118646505210874,44.210784239445815],[-1.117999167106333,44.2102389117677],[-1.118015024423179,44.209680400142354],[-1.117827633133162,44.20958468535172],[-1.117742617203796,44.20943194906252],[-1.117687608810142,44.20903653292427],[-1.117233425433395,44.208666016664665],[-1.117092954503775,44.20821522307095],[-1.116801563365505,44.20794675258263],[-1.11677532868591,44.20772330938403],[-1.116387414746675,44.20741970438658],[-1.116067115294757,44.20628615262085],[-1.116165333261997,44.20541179553433],[-1.11613208292512,44.20526432640834],[-1.115922575425449,44.2051225708991],[-1.11617655680489,44.20492736794426],[-1.11629847297315,44.20494983162764],[-1.116456430882255,44.204864587169894],[-1.116443997362963,44.20445135012934]]]]}},{"type":"Feature","properties":{"fid":2135,"ID":"COMMUNE_0000000009757897","NOM":"Mimizan","NOM_M":"MIMIZAN","INSEE_COM":"40184","STATUT":"Commune simple","POPULATION":7449,"INSEE_CAN":"03","INSEE_ARR":"2","INSEE_DEP":"40","INSEE_REG":"75","SIREN_EPCI":"244000543"},"geometry":{"type":"MultiPolygon","coordinates":[[[[-1.271744495737332,44.26409201524775],[-1.263401271021436,44.260338287577255],[-1.255183696613069,44.256839616470266],[-1.254064105756727,44.256243905565896],[-1.253758671168404,44.256168305007506],[-1.241177981477493,44.2506418122714],[-1.217539399155094,44.23986523983802],[-1.216343961899622,44.23952087689707],[-1.209082979454516,44.23644557200869],[-1.201656426779758,44.23342573836671],[-1.200495249533835,44.233015903078936],[-1.202183847077744,44.23108538919421],[-1.202428233720605,44.2306613945007],[-1.203010243217665,44.230124412909994],[-1.20321779928181,44.229727967184495],[-1.20619219715851,44.226425794764786],[-1.214585602365028,44.21655172429927],[-1.213808277774275,44.21563694317761],[-1.213514100016189,44.21513535954064],[-1.213249053882283,44.215110386965776],[-1.212488599602829,44.21474298836864],[-1.211625208956247,44.21455891153858],[-1.211461512159465,44.2143290361278],[-1.211009814348467,44.21432204135377],[-1.210860142706776,44.214230438733246],[-1.210322815969012,44.21423484085091],[-1.210154951098011,44.21416827283631],[-1.209702674708655,44.214237911897754],[-1.209494521006916,44.214202634574455],[-1.20912567980913,44.21391032167858],[-1.20850481922756,44.212788498002574],[-1.207864160551081,44.212244311132395],[-1.207870722239515,44.211893424997335],[-1.207699084222692,44.21172514322883],[-1.207683303630946,44.21146164620241],[-1.207828472623646,44.21059706822375],[-1.207709973294601,44.21048623866118],[-1.20766586675571,44.20997595100648],[-1.207471308157215,44.209498476505665],[-1.207079765074338,44.209220550495075],[-1.207272904195348,44.2089183930081],[-1.206856360071671,44.20835388803102],[-1.206014205536362,44.20769393514902],[-1.205570747212022,44.20750993549994],[-1.205626420714961,44.20719592649756],[-1.20524277396158,44.206263298045705],[-1.205246934723915,44.20593053318529],[-1.205382904175757,44.20582076055341],[-1.205401624238136,44.20551537988249],[-1.205348533447981,44.20535697199011],[-1.205167939028588,44.20528728053248],[-1.205008862338579,44.20459481932213],[-1.205123560839397,44.20431640528918],[-1.20503138589413,44.20420546586358],[-1.204166624204429,44.20383120241252],[-1.203704653401632,44.204005749545495],[-1.203560746554279,44.20399143557342],[-1.203549996250668,44.20381247552854],[-1.20323347557537,44.203599265689974],[-1.203207455842738,44.203332556974416],[-1.203095944966695,44.203214244984316],[-1.202559014699603,44.20310412431812],[-1.20236694639074,44.20291318399863],[-1.202119669502429,44.20290733621507],[-1.201901512689922,44.202736323525],[-1.201778532656038,44.20273382465016],[-1.201758286630812,44.202443459259555],[-1.201602028313108,44.202211485705625],[-1.201888331429798,44.202253696554024],[-1.201931551408852,44.202194353114514],[-1.201823372913079,44.202120980676646],[-1.201839457350365,44.20186437659733],[-1.201630562119511,44.20175069614969],[-1.201797223819323,44.201547812865044],[-1.201703391598666,44.20095740854128],[-1.201505463722386,44.20082257643735],[-1.200972338612457,44.20013723297792],[-1.200501027442843,44.19974516710578],[-1.199259237336668,44.19898150077988],[-1.197515050188739,44.198336204124104],[-1.195271209434333,44.19535474790776],[-1.195273897041524,44.19517076797638],[-1.194957756243488,44.194571742529504],[-1.194584377801883,44.194096589497576],[-1.19452568173917,44.19386177792768],[-1.194673010989683,44.19356680613255],[-1.194502757555074,44.19336510575482],[-1.194241758584927,44.19324078770861],[-1.194040004249057,44.1928501055011],[-1.1938075925254,44.19279049210341],[-1.193720961568677,44.192652292663524],[-1.193229379853979,44.192442149187194],[-1.192966482218742,44.19241074067464],[-1.192589412851002,44.19215655574153],[-1.192286184006642,44.19171476862045],[-1.192304179524017,44.19150045945372],[-1.191889727292669,44.191181001717574],[-1.191224121460616,44.19087024226641],[-1.190345523202908,44.19001599150713],[-1.1884493335775,44.189512481555454],[-1.187864472191795,44.18946361604829],[-1.186979024573239,44.18900800018214],[-1.185553358626916,44.187902398757764],[-1.184879217283571,44.18771271069796],[-1.184434202177076,44.18740250681461],[-1.183745790454566,44.1871890204768],[-1.182698093303682,44.18723350273597],[-1.182185276837463,44.18710794908316],[-1.181587609343746,44.18690180425511],[-1.1812168068848,44.18664644393912],[-1.178659051682731,44.18605262978582],[-1.177166450313393,44.18558312527722],[-1.176616789934753,44.18533095991458],[-1.175513677479128,44.18484299014682],[-1.174932265902794,44.184397336636685],[-1.174583877872707,44.18384996941519],[-1.174207925594368,44.18357495439514],[-1.174036466151948,44.18321914402058],[-1.17366268189322,44.182922412787946],[-1.173265016462379,44.18221557898051],[-1.173176599025691,44.18222255016365],[-1.149760383222833,44.13796007221185],[-1.147614086959651,44.133606953053196],[-1.175298685424401,44.13057497398131],[-1.193491658781106,44.13667955743871],[-1.194514734627578,44.13694143108672],[-1.195213051918577,44.138059379522645],[-1.197314142017686,44.13934260980752],[-1.197814520992605,44.14001656186988],[-1.197932880348854,44.14097465112502],[-1.198450840723503,44.14280073576965],[-1.199003415798238,44.14577199499562],[-1.198812356222793,44.14743777868036],[-1.198472435020514,44.14881723386598],[-1.198496336216278,44.15201967746235],[-1.19859116226559,44.152116993941284],[-1.203657079800027,44.15233016245359],[-1.206166585388094,44.15235643880765],[-1.214649840744713,44.152816429832974],[-1.218148571505888,44.152726861284904],[-1.218548818568672,44.15292417126447],[-1.218680998649869,44.1535238898658],[-1.222077832709048,44.15394918889397],[-1.222434299502973,44.15411301976374],[-1.224035081515355,44.15454436279425],[-1.226308102314574,44.154486458810396],[-1.227233826646196,44.154611190710376],[-1.231063229385596,44.154572452577014],[-1.231307442853394,44.154791967920474],[-1.231834885081595,44.154981615986735],[-1.234319650273793,44.1547576297412],[-1.234465666640064,44.15399574341505],[-1.234631150267153,44.15374688142519],[-1.239533377508014,44.155049073374805],[-1.240770682967727,44.1538798927609],[-1.241821753113723,44.153184815029704],[-1.245482818341685,44.151531425069365],[-1.245277485015682,44.151246436491526],[-1.244806653373768,44.15112767063486],[-1.254170536224392,44.14645863472512],[-1.260515524051059,44.143197871912534],[-1.261159602481001,44.142756386259876],[-1.261919096682735,44.142451922140765],[-1.26729159509055,44.13978652347798],[-1.273625533439691,44.13648121826665],[-1.282688255470241,44.13191238752983],[-1.283006686417377,44.131886415205614],[-1.283335483797669,44.13159953705526],[-1.290114760208724,44.12823253708136],[-1.298894314445016,44.128505724056296],[-1.310618065778699,44.1287867627387],[-1.312973952057827,44.128976149703135],[-1.314111968395563,44.12916298791731],[-1.314598357757008,44.1291077715389],[-1.315575126292091,44.12919818742995],[-1.316035019771719,44.12915662829866],[-1.316966872680208,44.12888643837409],[-1.316361881713127,44.13121877435209],[-1.315752124061679,44.13266521648005],[-1.315691540613837,44.1331363332212],[-1.315613230013876,44.133176376360105],[-1.315179657859498,44.13473485850158],[-1.314519994637769,44.13623373849795],[-1.314348217637038,44.13703734572277],[-1.313937698160466,44.13799367886631],[-1.31335722286779,44.14022317663637],[-1.313316958900676,44.14078092907082],[-1.313072948799412,44.14109521184251],[-1.312648313483411,44.143119360407375],[-1.312651236837866,44.143619525719885],[-1.312782215294854,44.144124565363114],[-1.312319765381444,44.145354260829876],[-1.311778772632538,44.14728112926914],[-1.311551355122822,44.14844117706141],[-1.311593922910772,44.148837022741596],[-1.311462463956549,44.14905132284016],[-1.311571026786629,44.149294036341495],[-1.31146888176007,44.14946571805083],[-1.311405298172703,44.15040929069595],[-1.311254525158109,44.15064959003499],[-1.311335457412834,44.150808658887605],[-1.311189388446959,44.15094601241729],[-1.311071682642809,44.15135808081608],[-1.310641592620429,44.15357624450234],[-1.3104565105469,44.15379355442528],[-1.31046031530971,44.154404560639],[-1.310366268141398,44.15463361296256],[-1.310469911879577,44.1548774234287],[-1.310147687795558,44.155778889849664],[-1.310115505919544,44.1563282134126],[-1.309997313540833,44.156453651597445],[-1.309980887447402,44.15704562322372],[-1.309562703856529,44.15894331649966],[-1.309327243246993,44.15965207215929],[-1.309254472637314,44.159666652307386],[-1.309057151394048,44.160482076975285],[-1.308607335943589,44.16127047160178],[-1.308578856208596,44.16157176164603],[-1.308444692145337,44.16170143157011],[-1.308481282371304,44.16236523529803],[-1.308377625483035,44.16250091695936],[-1.308413740985065,44.162729357260254],[-1.308190641414503,44.16340337103752],[-1.307787057373268,44.165511416527764],[-1.307828916680367,44.16574954713527],[-1.307970037574577,44.16561239333542],[-1.307807948965646,44.16661212308547],[-1.30787135037596,44.1668205618158],[-1.307767428097735,44.166886844373835],[-1.307855746597029,44.167242135691595],[-1.307776667806898,44.16740479445617],[-1.307733867487169,44.16862338674846],[-1.307843729671793,44.16868487175598],[-1.307530011786651,44.169303854968],[-1.307138277258398,44.170479372346016],[-1.307122938499561,44.171482349504124],[-1.306940573685697,44.17289211968994],[-1.306424107880257,44.17440515935603],[-1.306086320122632,44.176177095467715],[-1.305648682269344,44.177689739491704],[-1.305318418805737,44.17961101450478],[-1.30498398302398,44.1805030327291],[-1.304898104490026,44.18110494762162],[-1.304945929417704,44.181190507108305],[-1.30488393920022,44.18121547705518],[-1.304852519355159,44.18141231892755],[-1.304942446449474,44.181557521551944],[-1.304832906873553,44.18159968292545],[-1.30488071734388,44.18189978087673],[-1.304783870732356,44.18194414797371],[-1.304762593416489,44.1825885971416],[-1.304652577913058,44.18272362319725],[-1.304721526734666,44.18293905927322],[-1.304584013032379,44.1831409687237],[-1.304708251705131,44.183210006556564],[-1.304460165737413,44.18324228374764],[-1.304374354005398,44.183333090945695],[-1.304242424386046,44.18441817235594],[-1.304003066161873,44.18506126860504],[-1.304122771761036,44.18535133332872],[-1.304157828632874,44.18604495240156],[-1.303862999713223,44.18755919657404],[-1.303702699500336,44.188121666613334],[-1.303270030694733,44.18869392631337],[-1.303321516552302,44.188844245669834],[-1.303589201100315,44.18860748126371],[-1.303743518767655,44.18866001588788],[-1.303642326210858,44.18897768311432],[-1.303310481624453,44.1890952740869],[-1.303630273464567,44.18941354314279],[-1.303622470987183,44.19008721196215],[-1.302934067367028,44.19384702510463],[-1.302608544540364,44.196560467078484],[-1.302314532816422,44.19752481003337],[-1.302148249503988,44.19909981469805],[-1.301681284620778,44.20141947563144],[-1.300895073996868,44.20364438727416],[-1.300667868225796,44.204780082153064],[-1.300236783975695,44.20602022441106],[-1.299512504196737,44.209295566988494],[-1.298697121527782,44.211353040566955],[-1.298704039654895,44.21151051955605],[-1.29921905978783,44.2116417724783],[-1.298173298093301,44.21140331759809],[-1.297999714220633,44.21175897323281],[-1.299114226355089,44.212077666723864],[-1.299519338744873,44.2121311964711],[-1.299580476861221,44.21214412404773],[-1.299551324840709,44.21218943695251],[-1.299443428502776,44.212965291056655],[-1.299055395942075,44.2139477364094],[-1.298634591016947,44.21549035204359],[-1.298401451025454,44.21724375878495],[-1.298380506180723,44.21835694680642],[-1.298581824476368,44.21836708617721],[-1.298606215450061,44.21854010680046],[-1.298314276363917,44.21915370419202],[-1.298012787855243,44.220303126077305],[-1.297812961952195,44.22133858936734],[-1.297788893952711,44.22267545706095],[-1.297102815546913,44.224457426624134],[-1.296637412366002,44.22804443692824],[-1.296123982476828,44.229607802104006],[-1.296097688879609,44.2303696439468],[-1.295600360315008,44.23300688963818],[-1.294811879160285,44.23590613154183],[-1.294569431482702,44.23806915795314],[-1.294272297293882,44.238715400158036],[-1.294045106125666,44.23975553772348],[-1.293901405501527,44.24118633721978],[-1.294002699644979,44.24116614751425],[-1.294068717380117,44.241276244108775],[-1.294024416222877,44.24185039226528],[-1.293599124600524,44.243288605365],[-1.292637265994037,44.24590525758959],[-1.292612641672063,44.24707088333289],[-1.29243073744848,44.24763328660301],[-1.292587663632461,44.24766861493834],[-1.292825567832867,44.24744837166904],[-1.292937862807181,44.24763959194657],[-1.293063759502257,44.24753009975221],[-1.293086028114639,44.24759232958833],[-1.292650222776805,44.249223860576045],[-1.292276712205882,44.25010475603643],[-1.292001773688392,44.251327048131465],[-1.291978929234503,44.25201934869339],[-1.291801252646308,44.252356225175845],[-1.29179112400085,44.25300115361543],[-1.291656051033717,44.25310559423146],[-1.291569684885448,44.253638118981975],[-1.291438691771739,44.25379648640964],[-1.291485491506901,44.253983959815145],[-1.291377670994516,44.25411708210534],[-1.291432680222959,44.25429702302632],[-1.291272982277206,44.25528584154581],[-1.290496704431471,44.257657241414094],[-1.290555380871385,44.259393836609],[-1.290596667485244,44.25942557628815],[-1.290661318725289,44.25940141443515],[-1.290714431536375,44.25942367733356],[-1.290587049212066,44.25953052000847],[-1.290399501099004,44.26015173568402],[-1.290266653172596,44.26028583495856],[-1.290178476888548,44.26097708492359],[-1.29004910646914,44.261107442194195],[-1.290048385942487,44.26137970723608],[-1.289928653294087,44.26152140648466],[-1.289367086493913,44.264179182501046],[-1.289053173791652,44.2649378464571],[-1.288190641193317,44.26836098699226],[-1.287898003912275,44.27101005716405],[-1.280500745580587,44.267917397439646],[-1.272320956673155,44.26428412367515],[-1.271744495737332,44.26409201524775]]]]}},{"type":"Feature","properties":{"fid":3497,"ID":"COMMUNE_0000000009758058","NOM":"Mézos","NOM_M":"MEZOS","INSEE_COM":"40182","STATUT":"Commune simple","POPULATION":855,"INSEE_CAN":"03","INSEE_ARR":"2","INSEE_DEP":"40","INSEE_REG":"75","SIREN_EPCI":"244000543"},"geometry":{"type":"MultiPolygon","coordinates":[[[[-1.147614086959651,44.133606953053196],[-1.127945176664257,44.150675058123575],[-1.126505642306968,44.15164049208528],[-1.126010602468684,44.15154647225133],[-1.125185715887466,44.151202591914895],[-1.093339787848691,44.13474997010015],[-1.084509649748362,44.135009276383364],[-1.07697039776789,44.135330687207265],[-1.076605014967306,44.13526136946444],[-1.07890659681847,44.12860551728177],[-1.079003135704855,44.127998079952164],[-1.083073253411568,44.11627519790179],[-1.083611901152855,44.11544939193728],[-1.084371201281059,44.11149701856729],[-1.084326744667105,44.111226498717144],[-1.084541842779801,44.11000719296015],[-1.08450517068007,44.109705740482504],[-1.084313039052236,44.10950381711617],[-1.08457906607224,44.10801854601452],[-1.084808212546573,44.10767383110219],[-1.0850766011718,44.107509704168706],[-1.086128511476342,44.10716132374438],[-1.086553466962228,44.1069480898515],[-1.08687174439532,44.10638194072762],[-1.087816742463952,44.10545172042876],[-1.088199084959915,44.10516797052942],[-1.088755209095765,44.10493540958411],[-1.089204012348904,44.10444549111243],[-1.089322429707016,44.10416168029565],[-1.089391249764467,44.10331013114124],[-1.089287061088378,44.10295712735687],[-1.088925175789283,44.102394744460646],[-1.088876612905687,44.10178911558225],[-1.090047377756638,44.10086936826012],[-1.090899164962115,44.09986238983003],[-1.09069051489679,44.099343856392665],[-1.0904440427317,44.09908178965853],[-1.090471252761641,44.09886897933566],[-1.090291102515011,44.09846834569992],[-1.091026158031591,44.09823809822491],[-1.091511534952935,44.09742325404464],[-1.091492048340752,44.097291498694254],[-1.090953117448431,44.096875435261424],[-1.090873746430495,44.096641372919784],[-1.090974157637742,44.09574268081679],[-1.091272796705902,44.095026743843945],[-1.091531257088026,44.094743104362806],[-1.09142344400644,44.09397476459368],[-1.091658827253616,44.093474786630445],[-1.091966072726494,44.09310460521527],[-1.092406499769568,44.09303857178821],[-1.09258907897078,44.09293441100264],[-1.093410077348581,44.09190152498158],[-1.094934860444007,44.09143893215593],[-1.095611208593942,44.090863866188315],[-1.096659490175874,44.09055696714303],[-1.096938535951902,44.090316704600795],[-1.097181842301685,44.08970195821225],[-1.097928368152586,44.08961543079221],[-1.098419502106017,44.0894726699277],[-1.09883416921396,44.088841589198886],[-1.100057923369203,44.08807295353823],[-1.10006657899142,44.08779414311567],[-1.100758842382899,44.08744105550308],[-1.100680834088774,44.086758127045066],[-1.101567502241706,44.0853387818389],[-1.101899533316532,44.08501901253682],[-1.102437249162734,44.084985340078056],[-1.102921447361782,44.085215033723074],[-1.103635528912339,44.08577137183122],[-1.103954243620419,44.085821608063654],[-1.104618436292468,44.085703872536556],[-1.105384801203323,44.08535608633573],[-1.105513564972503,44.08511332595007],[-1.105586819693092,44.083409015676416],[-1.105812541386124,44.08312386401762],[-1.106343963007456,44.08281282245349],[-1.106449094402707,44.081584979345884],[-1.106643099645907,44.081310929635556],[-1.106954914486234,44.08117936246145],[-1.107320738853162,44.08037613823619],[-1.10845261679323,44.07982805082372],[-1.108673089321606,44.07941871721635],[-1.109370719271823,44.07931501603141],[-1.110645103373424,44.07855967318729],[-1.111233946167808,44.07842129204014],[-1.11132517559456,44.078213280601744],[-1.111859579977229,44.078030977227606],[-1.111974409315424,44.077665260627604],[-1.112389340076326,44.07735225579527],[-1.112733436309663,44.076889599828235],[-1.112716690898022,44.07662345862216],[-1.112465170182793,44.07625708914505],[-1.112524344848758,44.07551944431696],[-1.112843145698924,44.07527764391242],[-1.114213709534436,44.07473043530628],[-1.114665436802129,44.0742871586333],[-1.115532027256398,44.07283960464985],[-1.11544285444211,44.07254013796083],[-1.114955425485118,44.07191948205197],[-1.114629743502126,44.070994428724006],[-1.11565900094582,44.07025815254575],[-1.115874398751535,44.06964170659263],[-1.114863147714051,44.06945172450493],[-1.113432154213002,44.06855651503986],[-1.11269529873588,44.06837512432223],[-1.111915075685805,44.06792228077077],[-1.111311954223145,44.0677232379803],[-1.109468050676038,44.065972893425474],[-1.108298532554499,44.064992099374116],[-1.107577509465892,44.06452709221443],[-1.106118296634515,44.06434574006377],[-1.105499598566082,44.06417248717918],[-1.104633287564263,44.06372012374726],[-1.103944321921548,44.0634909181292],[-1.103863979096746,44.06315686807062],[-1.103578586049407,44.06302968304751],[-1.102589946852031,44.06327224210579],[-1.101219500283801,44.06291716400474],[-1.100768323520467,44.06258800042537],[-1.100035226799293,44.06237033916708],[-1.099228338654754,44.06236001877217],[-1.098969348631653,44.06242559890068],[-1.09868343913377,44.06272470587263],[-1.097950685599461,44.063049562134445],[-1.09766000640939,44.06352548717166],[-1.097239043134244,44.0637196972916],[-1.096784465805248,44.0640719794314],[-1.096622402806419,44.06409517112682],[-1.095934612890362,44.063899217795175],[-1.095659570828396,44.06393294620876],[-1.094831782634518,44.064656980254675],[-1.094553113291177,44.064640372336505],[-1.09417572986209,44.06434627242275],[-1.093392586744875,44.064440463859945],[-1.092737794900362,44.064755156930424],[-1.091217848675761,44.06459750918262],[-1.090651694699568,44.06477188745648],[-1.090397310314167,44.06474534869953],[-1.08961713106662,44.064220255521576],[-1.089230371193276,44.06412566233927],[-1.08835199477901,44.0640773773945],[-1.088051156860982,44.06394352024763],[-1.0875395318332,44.063293922702506],[-1.087537143407868,44.062738854238496],[-1.086922558566382,44.06236076657925],[-1.086295957668204,44.06165868232014],[-1.086007115282321,44.06160458169038],[-1.085484020530113,44.06126452656155],[-1.084473292163854,44.0600162141146],[-1.083973020384762,44.05964556040533],[-1.08402635265831,44.05882165134417],[-1.08338592299583,44.057682075487094],[-1.083367893611261,44.057239345851265],[-1.083463355733381,44.05695009439607],[-1.08391012231713,44.05634942349692],[-1.084628765421645,44.055915239605355],[-1.084929465120956,44.05545610288384],[-1.08469967293626,44.05464006306807],[-1.084932303311954,44.05377250994778],[-1.084851634013976,44.05343215605607],[-1.084593485046048,44.05319576149616],[-1.083164834346426,44.052720980987914],[-1.082769336371471,44.052172479239225],[-1.082760720013167,44.05159962387677],[-1.082640941931031,44.05134093774981],[-1.082192100893406,44.05135498519436],[-1.081960447157478,44.05124376759971],[-1.081529956756585,44.05126974465328],[-1.081327120963711,44.05135121290271],[-1.080673314974578,44.05110343651959],[-1.080037905429889,44.051042423971126],[-1.079876604724044,44.05095381219575],[-1.079708043902753,44.05074651003635],[-1.079585706614419,44.05029505585752],[-1.079325980360609,44.05014072036533],[-1.079347837058359,44.049922711553684],[-1.079233426276483,44.04973862361481],[-1.079386906907607,44.049578791437895],[-1.079408013978282,44.04922833152601],[-1.079556423680307,44.04898036881304],[-1.079448640370164,44.048383276211084],[-1.079252263056226,44.04824099787646],[-1.079151351355318,44.04796628497312],[-1.07927947491626,44.04778396692212],[-1.079223704076685,44.04754632301137],[-1.078579776753576,44.047104406593775],[-1.078218525406514,44.04701513777993],[-1.077756125455517,44.04643847603059],[-1.078081544628684,44.04583604705614],[-1.078467120822524,44.04561979793906],[-1.078888825065704,44.04561128223246],[-1.078971738329133,44.04549553816315],[-1.078874514806702,44.044958434283885],[-1.078987374580735,44.044911868264535],[-1.078992017890575,44.044819771080675],[-1.078768282177999,44.04469653726653],[-1.078743707793917,44.04458029565308],[-1.078801658903308,44.044342917297314],[-1.079063101177695,44.04436470978974],[-1.07909214005162,44.043863452165766],[-1.078833210359998,44.04326659089092],[-1.078833913468824,44.04277089650594],[-1.079164591822567,44.042747749294875],[-1.079051015970856,44.0424356588347],[-1.07923691719277,44.04229264194547],[-1.079268824636325,44.04211030772319],[-1.079732614610926,44.04183526093007],[-1.079667479368158,44.04169349624962],[-1.079873231128592,44.04125233689651],[-1.079696924210349,44.04091915587107],[-1.079901400562232,44.04086106019194],[-1.079819511133715,44.040590145861295],[-1.080063968790511,44.04023586131938],[-1.079971530372171,44.04006177064489],[-1.079663854932359,44.04005702636808],[-1.079635799552363,44.0399967903686],[-1.079791704396974,44.03966203157568],[-1.079696089628468,44.03940875248957],[-1.079813944891018,44.03924033514997],[-1.079754206273414,44.03898211298521],[-1.079934022179308,44.03824902704478],[-1.080199884414849,44.03817602343905],[-1.080209681899023,44.03794674976561],[-1.080390990627534,44.03763537511688],[-1.080730660462191,44.03737216392152],[-1.080854114850329,44.037125130917744],[-1.08132829902385,44.03704795538021],[-1.081765549016339,44.036664842497174],[-1.081925516953534,44.036474122963234],[-1.082130261232541,44.035862667611845],[-1.081938233459213,44.03551926361012],[-1.081620266277015,44.03521390489378],[-1.080751320124692,44.03469839691252],[-1.079979068992151,44.034573104453436],[-1.07961465370407,44.03435148379054],[-1.078926027622854,44.03370216488565],[-1.078678051340563,44.03329235150382],[-1.077758899072983,44.03275526356728],[-1.077665899680871,44.032172044531144],[-1.077214203692615,44.03142916856423],[-1.076640064249333,44.03072059620653],[-1.076365008429067,44.030629915007054],[-1.076188024050599,44.03030396722005],[-1.076264907491266,44.0301740310352],[-1.076187003968778,44.02988854893966],[-1.076568794601123,44.02923716300039],[-1.076664092061922,44.028666751301124],[-1.076577566599414,44.02820855961512],[-1.076856532428673,44.02746457718858],[-1.076822779572075,44.02730722344979],[-1.077012763756521,44.02711719499219],[-1.077072864358028,44.02668327652575],[-1.078022065554947,44.02631623525469],[-1.078414975912903,44.02630879004464],[-1.078905474872413,44.02576328764735],[-1.078952076996107,44.02515864233064],[-1.078437432654516,44.02486151714452],[-1.07839541014575,44.02465851101536],[-1.078199226040398,44.02448288404235],[-1.078489860740714,44.02421610094306],[-1.078316807884089,44.02404952467719],[-1.079025482622355,44.02374281357508],[-1.079749524903551,44.023563495406144],[-1.079926901672896,44.023372129484656],[-1.079754268249892,44.0223575058425],[-1.079994845113863,44.022159275450896],[-1.080367926173352,44.022049824753154],[-1.080449900855867,44.02171241829596],[-1.080089516669503,44.02158077384449],[-1.079616993845181,44.02112166951681],[-1.079584654144528,44.02098409080911],[-1.080428797301575,44.01967558264758],[-1.080597462307346,44.019519687624545],[-1.082160639602917,44.01923512946172],[-1.082488340635899,44.0190678857569],[-1.08332400308282,44.01889608927059],[-1.083972655193257,44.0186591758616],[-1.086503067220052,44.01814015246544],[-1.087552602153062,44.01807748511863],[-1.088218048551069,44.01821391891443],[-1.088442066495983,44.01818571496274],[-1.088740409475648,44.017870850310345],[-1.089764744010316,44.01818761157927],[-1.111870341829042,44.02639228093737],[-1.117666268466344,44.02862370514775],[-1.118051564694627,44.02864884906893],[-1.123352392294064,44.027298206607576],[-1.130110970169355,44.03268307458635],[-1.130842304844823,44.033568406763955],[-1.131374360307999,44.03401424847451],[-1.13282327299643,44.03506081693002],[-1.133747698199476,44.03561078336258],[-1.134678884751574,44.03683822322592],[-1.134213172689547,44.03773634644992],[-1.133666531445198,44.03963610657435],[-1.136891843186537,44.038923832375204],[-1.139930151021069,44.038698905396586],[-1.141606512642085,44.039639425414414],[-1.141732439648058,44.03987619159159],[-1.146787213354365,44.045342721749876],[-1.153511691608589,44.0472208453223],[-1.16018487945446,44.048732808830614],[-1.164706548715791,44.04988560009657],[-1.167478990315233,44.05114182412805],[-1.17318122730579,44.05390313644134],[-1.176253261950844,44.054944938101336],[-1.177093968678519,44.055399529446895],[-1.177457532107106,44.05550010862202],[-1.177720418284563,44.055472043456206],[-1.189886980608886,44.05530503684617],[-1.191115083263774,44.06018533967533],[-1.191028727238313,44.06033645965465],[-1.191061362642556,44.06057585402554],[-1.190085094995558,44.06222025151236],[-1.190471946009234,44.06241543537057],[-1.190608051433109,44.06258326997102],[-1.190676460119131,44.063240395148256],[-1.190481012512606,44.06350565098243],[-1.189513670239223,44.063659866313664],[-1.189381087035614,44.06376048021328],[-1.189335026289074,44.063949712589874],[-1.189479648521977,44.06419924016265],[-1.189667752152756,44.06432632942533],[-1.190038277606934,44.06441849212005],[-1.190570947221645,44.06504882389087],[-1.191141045119022,44.06542355525314],[-1.192462354776844,44.06564512209754],[-1.194186782138814,44.065637613655426],[-1.194506988149528,44.06570825721274],[-1.197049687097276,44.06699874323217],[-1.20027897177459,44.06768238295532],[-1.203164748513716,44.06990773621484],[-1.203767693731521,44.07018380532527],[-1.204460403998773,44.07032122652366],[-1.20492314968855,44.07052696741235],[-1.205774514041429,44.07122069763032],[-1.204800412054665,44.071115729347056],[-1.203375279491546,44.07113263138243],[-1.202737866321837,44.07091466566717],[-1.20156172887084,44.07100219600014],[-1.201183109302687,44.07095364288109],[-1.200298414938416,44.07065412624276],[-1.19948927328775,44.070700506570674],[-1.19830946068257,44.0711108085342],[-1.197637946819587,44.07146374396724],[-1.1965176389504,44.07224037453989],[-1.196333764646174,44.07228978746221],[-1.195636460624081,44.07224262062973],[-1.194416637764436,44.0728400804311],[-1.193859716774528,44.07284880904409],[-1.193006444078165,44.07334838197398],[-1.192541647106075,44.07401332382815],[-1.192340732250301,44.074103039769795],[-1.191356880595913,44.07435794215594],[-1.190519751156133,44.07424579641637],[-1.190180500489073,44.07401904281572],[-1.190008837187441,44.073996774687714],[-1.189767197008617,44.074025855704285],[-1.187534151216587,44.07480352943749],[-1.18698967251846,44.07459092883873],[-1.186107725737173,44.07490587558292],[-1.185193766614018,44.075703330625245],[-1.185026682716323,44.07679668254981],[-1.185260781825193,44.07708966337699],[-1.185733186551249,44.07734198352758],[-1.18598681697869,44.07769640548233],[-1.186145271365233,44.07821850386846],[-1.186060947168758,44.0788733670467],[-1.186247120946772,44.079653077783945],[-1.186249792396755,44.08137084921195],[-1.185990414651443,44.08175390812835],[-1.185927045525095,44.08201410326642],[-1.186116985549822,44.08337140449695],[-1.186513987653747,44.0840763568919],[-1.187402461556896,44.084748084793574],[-1.188159163603054,44.08612606176154],[-1.187325026238898,44.0867699618452],[-1.187129372698807,44.08739033217436],[-1.186940137053194,44.087673369799575],[-1.185748749975438,44.08845890748296],[-1.185639798404938,44.08990065030988],[-1.185881899352108,44.09086209457441],[-1.185444946536853,44.09160254995369],[-1.185298965722995,44.09215071621223],[-1.185986876276865,44.09344301804598],[-1.185774101519508,44.0944768388928],[-1.184728032768598,44.09518289849482],[-1.184201180043905,44.095824036875975],[-1.183602745111608,44.09595146110158],[-1.183293747536007,44.096137221705334],[-1.182777108244621,44.0962885544535],[-1.182441428365055,44.09679168956863],[-1.182532940753569,44.09693059905494],[-1.183268327881609,44.09730448049212],[-1.18388930666647,44.09778908416261],[-1.184845107800016,44.098217622966146],[-1.185154807123532,44.0985509833861],[-1.185251316871645,44.10353152308058],[-1.185491128014488,44.106431781824064],[-1.185556250645698,44.11200480508344],[-1.185717005002888,44.11437452240486],[-1.193491658781106,44.13667955743871],[-1.175298685424401,44.13057497398131],[-1.147614086959651,44.133606953053196]]]]}},{"type":"Feature","properties":{"fid":3526,"ID":"COMMUNE_0000000009757735","NOM":"Pontenx-les-Forges","NOM_M":"PONTENX-LES-FORGES","INSEE_COM":"40229","STATUT":"Commune simple","POPULATION":1737,"INSEE_CAN":"03","INSEE_ARR":"2","INSEE_DEP":"40","INSEE_REG":"75","SIREN_EPCI":"244000543"},"geometry":{"type":"MultiPolygon","coordinates":[[[[-1.050201332814707,44.21448657263754],[-1.051604670291802,44.21457174307851],[-1.052710055060626,44.214836444015134],[-1.053393542353525,44.21487878621797],[-1.053935495340057,44.214834424072464],[-1.054462773078427,44.21460223343648],[-1.054912806403451,44.21453422531909],[-1.072476863981156,44.214566721918544],[-1.076539719423356,44.21467267692692],[-1.077549875247318,44.214813588264306],[-1.079471752506376,44.21471959794978],[-1.079796752841041,44.21462098604683],[-1.08142478098676,44.21295070293082],[-1.084231854920317,44.20955647616905],[-1.085572912179107,44.20811582697774],[-1.086743614384751,44.20577209768829],[-1.087500004685718,44.204670463932295],[-1.088430582257046,44.20362181678037],[-1.088869577576636,44.20260230568754],[-1.090033379689544,44.20068781360457],[-1.093686746196713,44.19742218769158],[-1.093979698338688,44.19741936280285],[-1.094013046077204,44.19760378533038],[-1.094286482244203,44.19778194804327],[-1.094973889082287,44.19774185992788],[-1.095101723298771,44.198002969548035],[-1.095330317758455,44.19811520694855],[-1.095858610452156,44.19805762170039],[-1.096004581915142,44.198135990422415],[-1.096126321082101,44.19838200466589],[-1.096748302419781,44.1985462408064],[-1.096994900388198,44.19854333717661],[-1.097094503913815,44.19836115831419],[-1.097216594389171,44.198316939522634],[-1.098495030043855,44.19835929648825],[-1.099272852329958,44.198113910660936],[-1.099780100757844,44.19826799781238],[-1.100264256781171,44.198293158573584],[-1.100263571261222,44.19817962006451],[-1.100471283676019,44.198054684024356],[-1.100813891875078,44.1980454777109],[-1.101957202520537,44.198298344464874],[-1.102744866775708,44.19836261393238],[-1.103430687837706,44.19871640237069],[-1.104359259214225,44.19865010638954],[-1.104551212828958,44.19856721218902],[-1.104668508090363,44.198352817662226],[-1.105616192816427,44.1987067052586],[-1.107005598573313,44.19872407892828],[-1.107105319253298,44.198769014742304],[-1.107164271513956,44.19897771266733],[-1.107670401027952,44.19925438424548],[-1.108022106637646,44.19964769950628],[-1.108927221319004,44.20017440367496],[-1.109613033420852,44.20018115235239],[-1.110108028749306,44.20033835678685],[-1.11054978695971,44.20027943763133],[-1.110725855230117,44.200513487639846],[-1.110997804368968,44.20056638509678],[-1.111108327782679,44.200777654996095],[-1.111844970744329,44.200984378077464],[-1.112479411421129,44.20168253858775],[-1.112620505988491,44.20172772091608],[-1.112804960851332,44.20164509330023],[-1.11324142093285,44.20165125670679],[-1.113551123967562,44.2017063373729],[-1.113651732455119,44.201815227571004],[-1.114123441104717,44.20182367057539],[-1.114684281769368,44.20169627436727],[-1.114866666113254,44.201757930935194],[-1.115039604104249,44.20208673038511],[-1.115477227999951,44.202333492098354],[-1.115693806279072,44.20281477781756],[-1.115685351853846,44.202974627682984],[-1.115438873688037,44.203273199118854],[-1.115661334567224,44.20361095552159],[-1.116069559241769,44.20367675332439],[-1.116142740081628,44.20380469734938],[-1.115974201271545,44.203985877865165],[-1.115938191563968,44.204249511907875],[-1.116443997362963,44.20445135012934],[-1.116456430882255,44.204864587169894],[-1.11629847297315,44.20494983162764],[-1.11617655680489,44.20492736794426],[-1.115922575425449,44.2051225708991],[-1.11613208292512,44.20526432640834],[-1.116165333261997,44.20541179553433],[-1.116067115294757,44.20628615262085],[-1.116387414746675,44.20741970438658],[-1.11677532868591,44.20772330938403],[-1.116801563365505,44.20794675258263],[-1.117092954503775,44.20821522307095],[-1.117233425433395,44.208666016664665],[-1.117687608810142,44.20903653292427],[-1.117742617203796,44.20943194906252],[-1.117827633133162,44.20958468535172],[-1.118015024423179,44.209680400142354],[-1.117999167106333,44.2102389117677],[-1.118646505210874,44.210784239445815],[-1.118750361606708,44.2110065707541],[-1.118989891145524,44.21114719495068],[-1.119023990628973,44.21132347441151],[-1.118922923995282,44.21150212583012],[-1.11906806823045,44.21153362933085],[-1.11935798980666,44.212005848985434],[-1.119320602646354,44.21250928862426],[-1.119704693908745,44.21291487879225],[-1.120556691091234,44.21479367816527],[-1.121344186386096,44.215145352463935],[-1.12165450241528,44.21519047611924],[-1.122301763087605,44.21568171053814],[-1.123192559631724,44.216023181180475],[-1.123318940317827,44.2162446631353],[-1.123658268051474,44.21643019891999],[-1.124170492634524,44.21656326587612],[-1.124785532479409,44.21683487394547],[-1.125321160146527,44.21715182767254],[-1.126204042154918,44.217918098406514],[-1.127386501702535,44.218271099624914],[-1.128322184005903,44.21872891700842],[-1.13000569346906,44.219198233409],[-1.130558640240894,44.218908817819326],[-1.132717585027017,44.21860938141032],[-1.134212054424794,44.21849628478493],[-1.134968762717548,44.21864712885906],[-1.13633892468589,44.218685606167064],[-1.136996199245001,44.21950086388282],[-1.137268329319795,44.21955459562493],[-1.137566523952592,44.219811045299814],[-1.137797830506829,44.22028453507027],[-1.138190626995833,44.22054913241066],[-1.138186778159399,44.22068537927849],[-1.13844195284367,44.22097048998624],[-1.138524205961031,44.22142796973081],[-1.138752900079649,44.221882628914116],[-1.139277430646967,44.22266412737097],[-1.139009699329232,44.22600377077916],[-1.138611605111861,44.22681827606584],[-1.138892973077382,44.2274791594049],[-1.149294029622341,44.23215005297191],[-1.149490766828424,44.233536998212244],[-1.150207124978049,44.23347565380137],[-1.151199767249652,44.2337121137989],[-1.150343195198717,44.23569503704325],[-1.149879683486948,44.23749904339363],[-1.149482981465844,44.2382973187028],[-1.149402720103996,44.239256686714576],[-1.149742776259382,44.23994598026092],[-1.149571133444319,44.24037610603434],[-1.149554983071499,44.2409950439258],[-1.149247765393092,44.24152583892639],[-1.149186451178623,44.2424358186147],[-1.148225123382248,44.24604061526389],[-1.14664179129722,44.25069284537131],[-1.146436066597864,44.25175520225138],[-1.14570438221731,44.253736978220616],[-1.142525305341148,44.26374487513001],[-1.136235284338022,44.28290065273522],[-1.134730058714838,44.28271757381634],[-1.133836445014695,44.28274851145657],[-1.109565755894263,44.285038494040336],[-1.109395352379717,44.28533600562086],[-1.102892144375059,44.29239241909274],[-1.095760202372569,44.29995768102535],[-1.094341416627489,44.30158251676703],[-1.086926337439888,44.309517341205876],[-1.085639747692579,44.3109280245483],[-1.083559050884473,44.313478663636246],[-1.076154690912721,44.312253762750686],[-1.070649405700041,44.311423124060326],[-1.06193022304328,44.30927165362768],[-1.060063561265479,44.30806166283744],[-1.059679439002906,44.30750080964855],[-1.053316169393853,44.302860494008684],[-1.050603144894474,44.3007433113427],[-1.040464483085884,44.29322298380547],[-1.03664514817838,44.29044677774558],[-1.036472552694953,44.29033144430122],[-1.03615589194879,44.290289903975655],[-1.031557354765812,44.28680220258886],[-1.033091837147592,44.27557063723736],[-1.03365954790297,44.27053857069453],[-1.03483218982151,44.263310358272534],[-1.035062414149519,44.26235103194701],[-1.035774915286212,44.25747228119595],[-1.037780949753964,44.24586019399613],[-1.037975768066402,44.24500401354797],[-1.038085012354411,44.24500630318216],[-1.03854530832259,44.2427018994531],[-1.040937239350936,44.229290155974944],[-1.041922536634138,44.22747923935473],[-1.042901513837281,44.22642472148997],[-1.044450875688695,44.224282051235306],[-1.046647740603909,44.22081672837803],[-1.04846665609528,44.217731226880666],[-1.050201332814707,44.21448657263754]]]]}}]}