{"type":"FeatureCollection","name":"COM_19089","crs":{"type":"name","properties":{"name":"urn:ogc:def:crs:OGC:1.3:CRS84"}},"features":[{"type":"Feature","properties":{"fid":4031,"ID":"COMMUNE_0000000009754288","NOM":"Gros-Chastang","NOM_M":"GROS-CHASTANG","INSEE_COM":"19089","STATUT":"Commune simple","POPULATION":184,"INSEE_CAN":"14","INSEE_ARR":"2","INSEE_DEP":"19","INSEE_REG":"75","SIREN_EPCI":"241927201"},"geometry":{"type":"MultiPolygon","coordinates":[[[[2.040764486983271,45.20894672267672],[2.039077857550996,45.2089466336528],[2.038528578047063,45.20881223673499],[2.03695320198399,45.20775409908904],[2.036568494336106,45.20731134333603],[2.03615523373475,45.20564547732601],[2.035770690419774,45.20504693589356],[2.035362961492626,45.204611181165035],[2.034248897520798,45.204066664125506],[2.03347682040249,45.20385557482135],[2.032557788109929,45.203672022938655],[2.031195315258155,45.203571965215225],[2.029411648380527,45.206085051075775],[2.02815204668028,45.20680439503462],[2.027760709867691,45.2068928392801],[2.026032976099289,45.206842668040494],[2.025677659433289,45.2069107078455],[2.024439344359517,45.207647305633735],[2.02375766168644,45.20772959777024],[2.022689760507856,45.2080435350883],[2.019362346066966,45.20819176872138],[2.018364897817651,45.208047033229406],[2.018064798188206,45.20816145926475],[2.017556662636206,45.20873240480721],[2.016287250110956,45.209490252084755],[2.015494408764487,45.209733603599695],[2.015058599413754,45.21039072247165],[2.014537102843272,45.211571170211],[2.013836939565271,45.21190267570061],[2.012221777455353,45.21059439766801],[2.011845741980805,45.21046320190838],[2.011169941091298,45.209707111576535],[2.010562654191717,45.20961438620804],[2.009032839755942,45.20881649599985],[2.00833664490225,45.20684544358685],[2.007182657881633,45.20469022057287],[2.006509169416208,45.20381165551199],[2.005752486668433,45.202599163953295],[2.005440441774894,45.202311830364586],[2.005074532185212,45.20211676668629],[2.004477762104174,45.20193945504895],[2.003406500634192,45.20144273515643],[2.003676314948331,45.200955275091566],[2.003651069830964,45.20065698722436],[2.003276175449302,45.20032406223672],[2.003353778206872,45.19968720695246],[2.003087256636215,45.199491222574395],[2.003001335750634,45.19909604042997],[2.003179086013694,45.198343015605765],[2.003163405811511,45.19672469363514],[1.999587977331076,45.19674585041575],[1.998906691213604,45.19482259970687],[1.998496430431036,45.19419307995301],[1.993761971514262,45.19620634169943],[1.992941547542123,45.19713635859188],[1.992557946574488,45.19743186219486],[1.99145938853461,45.197963142663575],[1.991183464796503,45.19751490667193],[1.990569434091027,45.19702939567637],[1.989601453169883,45.19696030896377],[1.989397704092351,45.1968882269063],[1.989478791676299,45.1962784266784],[1.988998415622552,45.195868857148014],[1.987961892254495,45.19642047548867],[1.987532118139672,45.196311222223095],[1.987186043137342,45.196643067458446],[1.986630831974063,45.1968487460865],[1.986929459783629,45.19716662807996],[1.986511582534888,45.19710340397564],[1.985407546901643,45.19660170979067],[1.985057411757887,45.196525588232454],[1.984159762234363,45.196441785010556],[1.9838838332767,45.19655723934181],[1.98350723286007,45.196745617184],[1.983038594848188,45.196812489550595],[1.98267925873883,45.19668224710908],[1.982006563409813,45.19627539737658],[1.981532265960981,45.19616391404968],[1.979059084990402,45.19601526208797],[1.979065430478207,45.19636471179784],[1.978903702623139,45.1965028097474],[1.978647879823885,45.196493266389616],[1.977146463078655,45.19599685969716],[1.976819745383403,45.19596415039955],[1.97657137018678,45.196034814498276],[1.976385310492131,45.19617988980428],[1.976319779370423,45.196419721151344],[1.976579738119726,45.19787099964872],[1.976434974116895,45.19819475155821],[1.976013707941682,45.19866364958168],[1.975194054207035,45.19904784655597],[1.973525429338234,45.19946926261525],[1.97289057123936,45.19970746004752],[1.971230686777499,45.201034821685084],[1.971238037499333,45.20146532659433],[1.972020583533219,45.20268460012837],[1.972524720201373,45.20283782101946],[1.972829394500999,45.20289375276142],[1.973997554885699,45.20288738060922],[1.974318026094672,45.20298487621148],[1.974681783171423,45.20329168336432],[1.974979385912919,45.20373295662933],[1.974925207256945,45.204671677000974],[1.974627237125426,45.20529028445812],[1.975002048386048,45.20624464910068],[1.974861125109171,45.20677374835546],[1.97474883449174,45.208240527710984],[1.974398985523113,45.20904686297311],[1.974370516615398,45.20934826817977],[1.974493981940758,45.209839272349186],[1.974898413319346,45.2105003477564],[1.975376643525547,45.21081990960223],[1.976367186617216,45.21112975733403],[1.976746975477709,45.21112153054156],[1.977185910713564,45.21094455056112],[1.978063627933768,45.21038977328169],[1.978527879310655,45.21022112422859],[1.978909380127412,45.210188592385556],[1.979293626656051,45.21035419363185],[1.979831900467143,45.21108401088745],[1.980636207313737,45.211687482478546],[1.981462932860643,45.212180391499324],[1.981865414597284,45.21260459264395],[1.981909056816928,45.213005711536724],[1.981456785095987,45.213703976393504],[1.981442733191376,45.21391546510833],[1.981755548255206,45.21408761036661],[1.981842820099696,45.214401778854324],[1.981665236516199,45.21470813024381],[1.981269464691301,45.215032302820276],[1.981555060342699,45.21550946904699],[1.982070043297405,45.21591398366357],[1.983175858185921,45.21633738266713],[1.983357336631227,45.21651643233173],[1.983372442576135,45.21673629117807],[1.983663608269821,45.2171189503957],[1.984828123448699,45.21753926484633],[1.985615375722687,45.218247903314435],[1.98533495004504,45.2190954264244],[1.985365470740988,45.21958917634673],[1.985277229578441,45.219887340174374],[1.985454102387958,45.22011046896484],[1.986379435113004,45.22051508709845],[1.986586626333065,45.220823135923254],[1.98663032799932,45.22108287569109],[1.986554570818723,45.22132532294608],[1.986326607775626,45.22145923005398],[1.98539265946453,45.22166777248205],[1.984553532686339,45.22219684593402],[1.984631332934428,45.222402866639925],[1.985148592804145,45.222756959665794],[1.985506784710059,45.22316993942135],[1.985681948810544,45.223978376396076],[1.985640056285636,45.224320185527894],[1.985515358315995,45.22445052616488],[1.984774959609327,45.224733761661135],[1.984701934117139,45.224965426801546],[1.984915054875015,45.22508803006629],[1.985756581476317,45.225270368964004],[1.986456034661258,45.225627910543224],[1.987506722202359,45.224958460687255],[1.988726052692757,45.22454446828372],[1.989818667836946,45.223808739913636],[1.990012059851625,45.2238248962392],[1.990811238566486,45.2244462571642],[1.990789689095977,45.22465137603827],[1.991067127658432,45.22502308580855],[1.991486849189028,45.225278114017556],[1.991630996050952,45.22548112655787],[1.991691488076749,45.22580044875502],[1.99159092869582,45.226428989387045],[1.99140775014286,45.22662274414066],[1.990815189432795,45.226764174930814],[1.989695582692707,45.2267360470972],[1.988596028770006,45.22728891120017],[1.987551486650068,45.22740732222787],[1.987082039436158,45.22757506285132],[1.986794184848925,45.227707527865434],[1.986389804587144,45.228151408382736],[1.986509936790132,45.228693698133],[1.987332668386778,45.22942335784307],[1.98760889855792,45.22993194152224],[1.987428484871593,45.230744358334995],[1.987061070467327,45.23132725363878],[1.986591027091324,45.23180656019744],[1.986347249435758,45.232247395102156],[1.986344234320369,45.23262377676961],[1.986527716232739,45.232976636024965],[1.986971085436963,45.2330544972194],[1.987330353853336,45.233412550561255],[1.987213281230714,45.233964396670515],[1.986909984294625,45.23438398209802],[1.986977175536309,45.23454397977257],[1.987604543839938,45.23466673018548],[1.988366863891605,45.23528957593256],[1.989469470157718,45.23528064135015],[1.990179124265387,45.23536449925253],[1.990908131002019,45.235576398375905],[1.991391216257804,45.23599679043182],[1.99160581305591,45.23632290702639],[1.991431806151775,45.23685353231291],[1.991270549538974,45.23703127641659],[1.992434913785429,45.23741548771828],[1.99299698681619,45.23748629032714],[1.993417520461181,45.23749007885034],[1.994610086353734,45.23730090293464],[1.995853684113214,45.236896053033426],[1.996682090405528,45.236756712009765],[1.996797390461174,45.23679466757177],[1.997724081350385,45.23657605667837],[1.998045211133751,45.23657893629198],[1.998301633740866,45.236352508242646],[1.998831092540828,45.23625189438096],[2.000209084899319,45.23566990178585],[2.000616683864851,45.235043198652114],[2.001064877268042,45.23485359876254],[2.003114093311867,45.23457743494116],[2.004265587853997,45.234541775697075],[2.007728952696194,45.23407820879094],[2.007745529792608,45.23429267433598],[2.009507287494739,45.23390938335153],[2.012091536263345,45.23270668333338],[2.013995358346892,45.2316356988718],[2.013338496302379,45.23087348439651],[2.012584819599542,45.22946205361627],[2.011932346805234,45.22888627221581],[2.012657455913759,45.22809394222835],[2.01394667787222,45.22746777610333],[2.014597530518613,45.22748612479231],[2.015102399823459,45.22703942813821],[2.01653540002544,45.22642260445362],[2.017418419023851,45.22570277369207],[2.017814027501251,45.225597292179],[2.017985405926606,45.22469290148957],[2.018530533083308,45.22427265821965],[2.019919856160568,45.2238147961247],[2.021395963136256,45.22312985236266],[2.023077718312308,45.222778069249514],[2.023368236108312,45.222923787475274],[2.023963536484589,45.22276419933941],[2.024382905477671,45.2229011350388],[2.024930748816215,45.22290501703201],[2.025657290229208,45.22354800364531],[2.025981430910582,45.223666092939524],[2.026775727851177,45.22334793673925],[2.028186681187746,45.22317921916106],[2.029066307707512,45.22271590933331],[2.030529277905387,45.22248548048628],[2.031058860324374,45.22207314684286],[2.032989654032011,45.22146223246596],[2.034567064406762,45.21947498357187],[2.034781986453811,45.219130151724116],[2.034795971222839,45.218689932676334],[2.034883488505341,45.21856552057707],[2.036502333560293,45.21690007971893],[2.036966805335224,45.21619449866998],[2.037029520649323,45.215587208785024],[2.037626827227581,45.21493499870073],[2.038103860292186,45.21386842555918],[2.038812493318707,45.21148462793572],[2.040764486983271,45.20894672267672]]]]}}]}