{"type":"FeatureCollection","name":"COM_64461","crs":{"type":"name","properties":{"name":"urn:ogc:def:crs:OGC:1.3:CRS84"}},"features":[{"type":"Feature","properties":{"fid":4045,"ID":"COMMUNE_0000000009760311","NOM":"Puyoô","NOM_M":"PUYOO","INSEE_COM":"64461","STATUT":"Commune simple","POPULATION":1089,"INSEE_CAN":"16","INSEE_ARR":"3","INSEE_DEP":"64","INSEE_REG":"75","SIREN_EPCI":"200039204"},"geometry":{"type":"MultiPolygon","coordinates":[[[[-0.911993438554697,43.54833583451443],[-0.911453137879064,43.548621966552254],[-0.910900053617678,43.548684248395006],[-0.910519451552059,43.54851510036372],[-0.91033713135042,43.54856581398958],[-0.908943101444664,43.5492826769348],[-0.908466376117239,43.54961154420326],[-0.907600573022346,43.54959229001373],[-0.907301342835087,43.54978143419884],[-0.906780289795982,43.5504235793017],[-0.905442362527093,43.55027357328738],[-0.904851607172761,43.55011016969615],[-0.903244461569955,43.55024458203064],[-0.902406291822292,43.550103580244674],[-0.900853410629339,43.55059904001991],[-0.900462360618536,43.55062210996306],[-0.900350003001404,43.55060903412671],[-0.900632354391744,43.55015296992832],[-0.900248719031755,43.549938853968726],[-0.899508404523018,43.549961866311484],[-0.899132697880955,43.54988258617299],[-0.898761923085237,43.549894111372794],[-0.898386948915546,43.55059131807039],[-0.897922357794868,43.55049811211096],[-0.89746891600177,43.55029550322609],[-0.897146862481519,43.55062326516453],[-0.896546365827779,43.550607903055074],[-0.895328703896085,43.55042282492813],[-0.894366693355606,43.5507744575501],[-0.892722065342577,43.550776735786116],[-0.891662300182402,43.55039947941494],[-0.889923139718109,43.54959166169778],[-0.889346374136134,43.5494510954156],[-0.889076582650229,43.54916169470227],[-0.888600001252915,43.5491652679565],[-0.888419579062029,43.54889698431748],[-0.888200498030022,43.54880754846166],[-0.886862340763677,43.54872578751302],[-0.886161245552763,43.54852299908592],[-0.885893196756401,43.54824073552374],[-0.885743600072459,43.54822627644873],[-0.885469121560805,43.54825142253568],[-0.885195766034648,43.54838462629659],[-0.884990876411976,43.54837665070788],[-0.884933289771593,43.548568786532826],[-0.884761785228698,43.5486514986094],[-0.884118819155436,43.5486303830192],[-0.883268721291146,43.54833021803242],[-0.882764453077493,43.54772310022394],[-0.882107623637255,43.54767994888674],[-0.881523058088858,43.54753331602318],[-0.880836379668806,43.547671388963266],[-0.879402084595223,43.546936280840804],[-0.879567217125649,43.54642952032083],[-0.878562388938002,43.54585470110599],[-0.878239093291093,43.54574374985712],[-0.876755304320113,43.54561302554903],[-0.875584806403932,43.54533506474276],[-0.874934562574366,43.54538892385281],[-0.872880817323193,43.54523526797676],[-0.872183049935158,43.545208833456094],[-0.871726562112999,43.54527107004104],[-0.871521125250964,43.5452180484437],[-0.871601149948843,43.54504583945105],[-0.871796795685479,43.54254901363686],[-0.871955055533281,43.5420497200279],[-0.87238821804446,43.538962495427576],[-0.873607289939313,43.539100024783984],[-0.875719271375347,43.5388723362217],[-0.879614481967614,43.538152045300755],[-0.881378844651065,43.53767364177151],[-0.882158561386261,43.537796169982784],[-0.882664391192645,43.53778707051094],[-0.883408317389459,43.53730732593493],[-0.884376270487672,43.537320404944985],[-0.885475340541987,43.537752160999645],[-0.885683124922349,43.53815098440163],[-0.886236135080175,43.53808883149615],[-0.88678158585519,43.53780534592825],[-0.88738243737703,43.537700034933145],[-0.887740841252841,43.53533155506525],[-0.88798530536354,43.53468141101185],[-0.888265754113618,43.53423356035974],[-0.890717169245386,43.53353668814751],[-0.891365973162605,43.53287923489813],[-0.892844065669701,43.53201725308225],[-0.894207416194252,43.53159986959524],[-0.896251032664549,43.5312454080875],[-0.897707018855088,43.5308435680635],[-0.898678339617423,43.53006907980509],[-0.899074933591759,43.52934587699715],[-0.899349555022609,43.52839464813642],[-0.899394344707323,43.52743186613156],[-0.899150073190245,43.52633264657541],[-0.899200410232338,43.524995828500856],[-0.898888508573243,43.52463230542466],[-0.899052539961029,43.52420392520817],[-0.898792842124639,43.52373403060834],[-0.899200597900364,43.52273838199184],[-0.90382565524398,43.52339530284926],[-0.904597646127344,43.522350483479975],[-0.905272994080965,43.5225423566833],[-0.906499091493512,43.52016687502452],[-0.906450447981919,43.51950652831923],[-0.906806117402108,43.519257699042214],[-0.907643892608341,43.51808977735267],[-0.90780482309627,43.51774436960988],[-0.908171216408506,43.51614392728403],[-0.908739393829819,43.514853296014856],[-0.909085436141999,43.51453634396939],[-0.909432347961401,43.51430493668726],[-0.910901120643146,43.51384389167453],[-0.912010168187905,43.51377144735922],[-0.912589947658039,43.51394239769595],[-0.91317034631819,43.51434032827505],[-0.913961600251516,43.51516213496436],[-0.914259849603389,43.51666834332842],[-0.914099902502519,43.517100204913554],[-0.913144655967712,43.51737790865833],[-0.912911433795742,43.51755207675551],[-0.912289705193047,43.518346514854564],[-0.912001170517403,43.519362239235804],[-0.912155748967756,43.51994129284256],[-0.912314504419628,43.520127438733915],[-0.913623642718614,43.520754905116746],[-0.913950128793276,43.521113356851394],[-0.91435971041919,43.52138322990834],[-0.918615851198515,43.522310475850375],[-0.920398915683402,43.52284236465439],[-0.921275072724916,43.52329082149999],[-0.922012903893497,43.52412442447686],[-0.923223123412932,43.52511299074484],[-0.923938734939257,43.525892436938136],[-0.927372562869946,43.52843728222032],[-0.929567867726663,43.52979638141551],[-0.932087179274219,43.53113018051579],[-0.933503486387728,43.532429171807365],[-0.934893724813789,43.53414167903478],[-0.935556743724367,43.534150049807764],[-0.935693191056903,43.53437030824509],[-0.936340574190943,43.53489091996531],[-0.93616685012916,43.53530080284712],[-0.935644590412145,43.53590080057035],[-0.935657227807774,43.537204762183315],[-0.9356342065974,43.537880329265626],[-0.935513703498783,43.53792884350434],[-0.934183600327734,43.53738434791355],[-0.933835955704652,43.53672042625411],[-0.933206421035045,43.53651444608558],[-0.932507131604265,43.53617586577938],[-0.931919738409688,43.535644948895616],[-0.930750307368862,43.53478740364924],[-0.929747518155217,43.533740939025584],[-0.92862483765833,43.533348313773],[-0.927798751582215,43.53285665342998],[-0.926795633426216,43.53254616013997],[-0.92640759834268,43.53224942254076],[-0.926228299516995,43.5319451264513],[-0.925968714108573,43.53204190562383],[-0.924881695364049,43.532622655295754],[-0.92395039334247,43.53339864512193],[-0.923819431578345,43.533674534828606],[-0.924040193987834,43.53406021144141],[-0.923460944545123,43.53431718834514],[-0.922410582973183,43.53447499520824],[-0.922207884450282,43.5346615923962],[-0.921873740260476,43.53475475199145],[-0.921677571985099,43.535127584562304],[-0.921545557573919,43.53567826377369],[-0.921928558483332,43.53713367514713],[-0.922296656036927,43.53789958583895],[-0.922826308465367,43.538565064787406],[-0.922844038073756,43.53871576406933],[-0.922664645176822,43.53897178447259],[-0.922742846733003,43.53926443051714],[-0.922269566763008,43.540040052558496],[-0.922223658164555,43.540401146938564],[-0.922233592377929,43.54058275686957],[-0.922414939591288,43.540717630023586],[-0.922474953183662,43.541088406508536],[-0.92224394232493,43.54127782940804],[-0.922256333207016,43.54149538414431],[-0.922541093612917,43.54174813064788],[-0.922465290190417,43.54226975521145],[-0.922804354672608,43.54266467169849],[-0.922765014242242,43.54281383220071],[-0.922271552015673,43.54300463947442],[-0.921439659999125,43.54306354666154],[-0.920990678755053,43.54321670614712],[-0.920841262496117,43.54411123547483],[-0.920593437048473,43.544145417306254],[-0.920285569721255,43.543898905355476],[-0.920054242028142,43.54392077877662],[-0.919956831322954,43.54407203684592],[-0.920277872243156,43.544710839418364],[-0.920229415971535,43.54478105455557],[-0.91984528111052,43.54477782167057],[-0.919568020850683,43.54459866517899],[-0.919105113643584,43.54463881400735],[-0.918656772852107,43.544565829806565],[-0.916593675313227,43.54516643560692],[-0.915997517714785,43.54497806564376],[-0.915727325979905,43.54501124197634],[-0.915680446154279,43.54524985446509],[-0.915848044320185,43.54545550065035],[-0.915445622178816,43.54569253487931],[-0.915661752258088,43.546300905516944],[-0.91413934535958,43.54693148812138],[-0.913602132689416,43.547262561851824],[-0.91336959909654,43.54753940086647],[-0.912189337952967,43.54743063521382],[-0.912013740400392,43.547616234769364],[-0.911993438554697,43.54833583451443]]]]}}]}