{"type":"FeatureCollection","name":"COM_16084","crs":{"type":"name","properties":{"name":"urn:ogc:def:crs:OGC:1.3:CRS84"}},"features":[{"type":"Feature","properties":{"fid":4259,"ID":"COMMUNE_0000000009752922","NOM":"Charras","NOM_M":"CHARRAS","INSEE_COM":"16084","STATUT":"Commune simple","POPULATION":346,"INSEE_CAN":"19","INSEE_ARR":"1","INSEE_DEP":"16","INSEE_REG":"75","SIREN_EPCI":"200068914"},"geometry":{"type":"MultiPolygon","coordinates":[[[[0.398847104486563,45.53897620764323],[0.397891214905724,45.53994872775181],[0.397493840477418,45.54106752446637],[0.397509160040966,45.54246256695715],[0.397787436270934,45.543636659220375],[0.398329878911412,45.544591628840124],[0.399191844823549,45.54559633872077],[0.395855789769922,45.54602719545399],[0.395925907703946,45.546582011556794],[0.394432043449255,45.54792044000993],[0.395038397267861,45.54898862800488],[0.394707964692349,45.54925305635657],[0.393400216083648,45.55003989527882],[0.391110621672171,45.550789508574944],[0.390423557809023,45.55097446671969],[0.389706097299561,45.55106951901569],[0.387928144611242,45.55241658365013],[0.387262911544987,45.5526002288413],[0.387279320132926,45.55366735417476],[0.387566191139665,45.55446507305301],[0.3890792966532,45.55648417149809],[0.388350926124765,45.556972685521636],[0.388224385809678,45.55718147119529],[0.389361614679293,45.55767910517029],[0.389818115306396,45.55814379743652],[0.389908065211365,45.55841257275854],[0.390103579810998,45.5583459379884],[0.391152840500724,45.55747024083488],[0.392435248916198,45.55766308385323],[0.394393849217383,45.55724902872757],[0.395241617089226,45.557766917931616],[0.396061530286999,45.55814090173703],[0.396679961109649,45.55873635308096],[0.397884325281989,45.55911742772713],[0.398595529261034,45.559212279257835],[0.399765960024065,45.558430306751724],[0.400535675749646,45.55839856362061],[0.401174298935118,45.558454780367704],[0.401278199164097,45.55670301199099],[0.401599070885285,45.55642392731429],[0.40527525971954,45.55630076105905],[0.405995275810417,45.55664533551056],[0.406818545139396,45.55653730390943],[0.407426586525211,45.55721984698709],[0.408429117176293,45.55799617601071],[0.408864333347142,45.558151267532196],[0.409969772840227,45.558290274899164],[0.411534390282968,45.558236233780626],[0.412572274098798,45.558366451422906],[0.412663772355681,45.55942898481595],[0.413247451605883,45.560223552898],[0.413372171419417,45.56126162353679],[0.415088531756841,45.56230118126245],[0.415969587905275,45.562523259329645],[0.419482553303658,45.562414786284954],[0.420470440704853,45.563511405892875],[0.420721776787254,45.56365051630985],[0.42155352319197,45.56366509931618],[0.42108628857832,45.56419675205214],[0.421316058511539,45.56496513324729],[0.422810483590479,45.56532105627341],[0.423187747029767,45.565510799304725],[0.423314269590305,45.56535513253936],[0.423676588175507,45.56528685848523],[0.424816189662379,45.56541208377283],[0.425247596663537,45.565540894674804],[0.426215136612142,45.56600182241505],[0.42721259647789,45.565210201774306],[0.4286741231593,45.564285040296426],[0.430682862623209,45.56267683993258],[0.429806054976432,45.56214054385828],[0.428983768648746,45.56181180588857],[0.428987941768079,45.56172180624297],[0.429312026319525,45.561592276231984],[0.430839568975653,45.56031903144304],[0.432571347600771,45.56061628511493],[0.433609950811746,45.559818344949456],[0.436150023630343,45.55833390673552],[0.437803265648589,45.55683279899793],[0.43865345113005,45.55630710988323],[0.43910978888693,45.556089572080566],[0.439643955520646,45.556297251020794],[0.440398406355393,45.55645588893247],[0.442265959399332,45.55653265303337],[0.4423547365004,45.55669324035909],[0.442312995156956,45.556903111516704],[0.442016156862991,45.557249524942094],[0.44257190703546,45.557100906329],[0.444283990314633,45.55707319176737],[0.446002719645908,45.55678973400523],[0.446012803908306,45.556487245894864],[0.446518533247535,45.55600412183563],[0.447045141992119,45.555707965540805],[0.447805215694058,45.55557747826549],[0.4469713338179,45.55469272655763],[0.446912963979716,45.55451211239187],[0.449895755701407,45.553649177530076],[0.448955152159884,45.5525196648332],[0.450277755010337,45.55164424075157],[0.450477727675757,45.55142264233083],[0.448762681164093,45.5509890971567],[0.448850094957826,45.55031537505659],[0.451085837182462,45.54859847344028],[0.451884380530579,45.54771204316573],[0.452492004886023,45.54682217958593],[0.453754381827774,45.54733820783003],[0.454993533433145,45.54668427493596],[0.455522316101766,45.546198033213614],[0.455941285454828,45.545170540534556],[0.456316622311605,45.54355644823152],[0.457042433721003,45.54293862005878],[0.457381806781376,45.5423597910234],[0.457816213769928,45.54088217346026],[0.458079373491452,45.54070704028359],[0.460785403221222,45.540212365056256],[0.461008274561297,45.54007685674334],[0.463131156379693,45.540361767546365],[0.463371304166254,45.54029691787311],[0.463953100581608,45.54035870526716],[0.465733723389504,45.53952048052794],[0.465726246892942,45.53800043398744],[0.465554385855293,45.53741275022485],[0.465118634534904,45.53704524570109],[0.464364698937329,45.536627311905725],[0.464530056108771,45.53550577634582],[0.464953707577241,45.53434232145866],[0.464159645595627,45.53320453348939],[0.463664758403259,45.532701447974546],[0.463034096620984,45.53242052712083],[0.462357629104106,45.53159980803047],[0.462188659994237,45.530922090088126],[0.461169462909363,45.52888005734849],[0.45975476892381,45.52719124506871],[0.459577323693424,45.526783611681445],[0.459777949504293,45.526516968205016],[0.459659667453766,45.52624491268799],[0.459348003565051,45.52596938305543],[0.458268353430624,45.52572692515363],[0.457610695836105,45.5253381491798],[0.456714667021115,45.5245295397531],[0.452602392472136,45.524821029974206],[0.451482842310265,45.52385775037318],[0.45129281459264,45.52380929152808],[0.450385726188326,45.52410853341331],[0.449741735922255,45.524232654685015],[0.449301315165323,45.523915431266516],[0.449056989633672,45.524211696134415],[0.448508034585817,45.52430373352599],[0.447627910621619,45.52482429674903],[0.446325580958543,45.52527218731448],[0.443934616018301,45.52586827045239],[0.441985886773606,45.52624013317122],[0.440531922493148,45.52638899495002],[0.438062332534465,45.52740840938167],[0.434399328063515,45.52906451111764],[0.432288319425374,45.52969828165462],[0.430339731453211,45.53050510821956],[0.429674245146728,45.5308691784656],[0.427827081004301,45.53147737301119],[0.426328388822394,45.531840357500094],[0.423984228758894,45.53227312753412],[0.421758566121889,45.53252747870752],[0.421246623290406,45.53289592658318],[0.419299134066936,45.533755749616105],[0.418762846825032,45.53337944103072],[0.417739387603852,45.5333622212291],[0.41726114514173,45.53350168366162],[0.416084909423712,45.53362688988164],[0.414864189813538,45.533853768733394],[0.412880359217545,45.53367564870145],[0.413393037183105,45.53499744443243],[0.413197990134561,45.535083948752856],[0.409918494033354,45.53561020733885],[0.410005215422861,45.53627891431738],[0.409729556383298,45.537048280383864],[0.409354773385267,45.53741443435985],[0.407424746324515,45.53723475854054],[0.407217731180837,45.5371380824156],[0.407030103332525,45.53717519508183],[0.405862461892178,45.53612744870202],[0.403675207826841,45.536404858288584],[0.405806031580255,45.541391341055764],[0.40421687025461,45.541048302621746],[0.402767988273843,45.54039314932125],[0.401310723599693,45.539945003303735],[0.400246179403656,45.53926987667196],[0.399233544147869,45.53893740517969],[0.398847104486563,45.53897620764323]]]]}}]}