{"type":"FeatureCollection","name":"COM_19075","crs":{"type":"name","properties":{"name":"urn:ogc:def:crs:OGC:1.3:CRS84"}},"features":[{"type":"Feature","properties":{"fid":4020,"ID":"COMMUNE_0000000009754290","NOM":"Espagnac","NOM_M":"ESPAGNAC","INSEE_COM":"19075","STATUT":"Commune simple","POPULATION":381,"INSEE_CAN":"14","INSEE_ARR":"2","INSEE_DEP":"19","INSEE_REG":"75","SIREN_EPCI":"241927201"},"geometry":{"type":"MultiPolygon","coordinates":[[[[1.934120723320344,45.218373606236156],[1.932384753551518,45.21947095550518],[1.932084870943148,45.21916191742868],[1.931748800738505,45.21907945994596],[1.931758456249744,45.219174105370094],[1.928011350515382,45.220823961278576],[1.927162117117459,45.221386730857574],[1.92610755602653,45.22175931481312],[1.924850282412508,45.22140953259505],[1.92486707289393,45.22172847373744],[1.924406881837022,45.22180508997805],[1.924289669466285,45.22140773825799],[1.923902957855274,45.2213742974543],[1.923926763705565,45.22086664062733],[1.924150212949087,45.22037981720222],[1.92386493743929,45.22037256716588],[1.923606461737004,45.22049524764943],[1.923340410595489,45.220416140915304],[1.922941856080466,45.22079861698635],[1.923352913311026,45.22128705199975],[1.922980758080903,45.22274408837335],[1.922544679921675,45.22289116911997],[1.921794170592124,45.22282449537912],[1.921541049675182,45.22286707776464],[1.920832693738492,45.223322198659964],[1.920074641184599,45.223250037489294],[1.919159560644041,45.223456410318235],[1.918571266431393,45.223698357528136],[1.91773076066169,45.22419810596208],[1.915626800069323,45.22499266685163],[1.914264301068042,45.22507308810999],[1.913434688188942,45.22527214053732],[1.912585161271512,45.225250368138774],[1.911803446571303,45.22560656344851],[1.911344537759076,45.22522297826442],[1.912261856664433,45.224708716224065],[1.912459770834767,45.22468813008638],[1.912504154736441,45.22450305708685],[1.912858957738755,45.22421294378415],[1.912856139574405,45.22376896513889],[1.912665065794225,45.222980960985],[1.912530176415408,45.22284096969077],[1.9119800349667,45.222562759239395],[1.911005593517805,45.2222840131888],[1.907889834441826,45.22164755688175],[1.90582713762845,45.22105014772445],[1.906263465632046,45.221737006799934],[1.906553247243368,45.222489968293694],[1.905435959322018,45.22234935438521],[1.904968091639353,45.223010247041],[1.902356573531434,45.22336463662812],[1.902252898513761,45.22351760544772],[1.900502885206226,45.22399387772497],[1.899054402867129,45.22416962205533],[1.898511748838107,45.22448305477102],[1.898156663025145,45.224331869604704],[1.897597321879288,45.225102593570035],[1.89717445089483,45.22489940724476],[1.896336063974347,45.22489473088142],[1.895355619171281,45.2246635157007],[1.89484255747635,45.224189274970605],[1.892135738466529,45.22445963704543],[1.891031463197431,45.22443337326462],[1.89000430858362,45.2243097088124],[1.890031541771692,45.22415779262466],[1.889737285005081,45.22376854875182],[1.889612324657152,45.2237727100011],[1.889158873821278,45.22325130792056],[1.888540802608947,45.2229344839578],[1.887759041758517,45.22226392640467],[1.887778313724629,45.22193633145381],[1.887975473052259,45.22144211130555],[1.888696046170745,45.22006609348857],[1.888219634202318,45.219995616074776],[1.888025459576733,45.21989282615266],[1.887967146100508,45.21955815551231],[1.888276991751998,45.219227149055726],[1.888818364415111,45.219170399639246],[1.889154814117944,45.21897473231172],[1.889286918626186,45.21880314741768],[1.889216694754058,45.21810635323644],[1.888763653179378,45.21763087987971],[1.888415180433842,45.21683136031742],[1.888747924274224,45.2156054719605],[1.889268376376218,45.21474165424078],[1.888779019170619,45.21461972097114],[1.886952687552895,45.21611980203222],[1.886646497598427,45.21626803694297],[1.88634639679613,45.21611105806605],[1.883503627143369,45.21797195857567],[1.882047333782161,45.218160910813516],[1.881155038356579,45.218498675705],[1.881006623329462,45.2183386988403],[1.88056199135461,45.218146037019146],[1.88028896592482,45.2181640126851],[1.879974741912306,45.218711076740675],[1.879323686759401,45.21921694011943],[1.87871317399023,45.21948006796455],[1.878362634907593,45.21999434486922],[1.87763030116484,45.22023192997084],[1.877162431472622,45.22049738303451],[1.876575783285173,45.22090302069309],[1.876117827407749,45.22149815768282],[1.875029687063883,45.22212837300278],[1.87500383513833,45.222652212609425],[1.874457804559174,45.22300061570727],[1.874104905817523,45.223376177072886],[1.872961781825713,45.223129617062206],[1.873363756912631,45.22291124388798],[1.872893606502245,45.22202579758794],[1.872874618682294,45.22164108588646],[1.872986542859313,45.22152514796988],[1.873501292881369,45.221526737303805],[1.873000709168794,45.22088682543997],[1.872520727407851,45.22111971864164],[1.872259406805094,45.22156643840279],[1.871434039428917,45.22236946878225],[1.871837993839438,45.223502795518804],[1.871069148010895,45.22384082766969],[1.870548190279778,45.22445962038075],[1.870254703895259,45.22466827455623],[1.870845425643719,45.22501013870354],[1.871918927143565,45.22441583554898],[1.872192787074251,45.22454737408672],[1.871637710240678,45.22502624746643],[1.872460993405493,45.2254001684008],[1.871815599299372,45.22561878259195],[1.871312109141563,45.22600362122937],[1.870639189237537,45.2260076277224],[1.87055360909101,45.22532507154076],[1.868568473021043,45.22619379709033],[1.868203515453218,45.22584160069948],[1.86628303655482,45.22628499643014],[1.8648037788194,45.226837303204775],[1.864228714439196,45.226979144085135],[1.863235383864173,45.227009565781195],[1.862370588026475,45.22767345129677],[1.862139433805336,45.227760248885794],[1.862640041538821,45.22820840079119],[1.861944934947089,45.22886140329785],[1.860962672582311,45.22953398787891],[1.8611622704058,45.22974494275636],[1.861002561311198,45.22995223531229],[1.861051064199665,45.230073399262196],[1.861399409217954,45.230302079117955],[1.862774420866276,45.23074382810868],[1.862816232580626,45.23106844045114],[1.862962539688253,45.23120590767159],[1.863687304393437,45.2314753312079],[1.86465779063698,45.231631980457614],[1.865546254859302,45.2313726494599],[1.865802910656626,45.23153644766218],[1.866162286122099,45.231349184855816],[1.86800977420993,45.232564704670374],[1.867461529724073,45.232889639823945],[1.866778858555212,45.23349507159796],[1.865975945746002,45.23437213654512],[1.865316570883623,45.23533440198567],[1.864752070746288,45.23658129149472],[1.864298700669101,45.23718903845868],[1.864153395277901,45.23781522411046],[1.863744775097332,45.23854049159229],[1.863418430568052,45.2389180931849],[1.863224146119997,45.23938258670624],[1.863000103531333,45.239555909078],[1.862598852095608,45.23960585737121],[1.862274660501272,45.239564735634524],[1.861628175532231,45.23995167999765],[1.86037731290615,45.239911015638434],[1.860369291179071,45.239617363988934],[1.85923500497572,45.23973546666941],[1.857203555165637,45.23972011552903],[1.856419471425284,45.23985347697463],[1.854850957181922,45.24032279738931],[1.852915704309987,45.24009132828073],[1.850766057142747,45.24030608135017],[1.850153687926936,45.24014669375891],[1.846880540213202,45.24013998545336],[1.846060679620124,45.240214371382365],[1.845135936376098,45.240059835094705],[1.844944811566547,45.240856624464136],[1.845211142392007,45.24104488458635],[1.844985518925424,45.241045254641314],[1.844880006479285,45.241216164208026],[1.844600435026618,45.24129792357145],[1.844704812715614,45.24173575669682],[1.844396393266512,45.24179470428053],[1.844057688360038,45.24226937994411],[1.844026247963406,45.24255632198553],[1.844275896624778,45.2430577942525],[1.843896699213543,45.2435176425286],[1.844430294615319,45.24403465860748],[1.84441738135898,45.24441184485749],[1.844790777550063,45.244724584729695],[1.845175856006343,45.244719558892],[1.845253911339193,45.24482842828999],[1.845220322504181,45.24595823960182],[1.845344912532235,45.24634405080053],[1.845341684573815,45.247115767211056],[1.845839242661137,45.24789805902224],[1.845053474449395,45.24798269667523],[1.844238834938124,45.24841463305694],[1.843549073464113,45.248418305097914],[1.843227921916632,45.24865902435517],[1.840858999197579,45.24885601263405],[1.840645831696052,45.24899158232626],[1.839853777534035,45.248948243778045],[1.838994134448445,45.248722291287564],[1.837986344522071,45.24997795924194],[1.838631155176625,45.25078702981726],[1.839785945991588,45.25135104459518],[1.840867646623021,45.2521817457613],[1.841626977636307,45.25214549124966],[1.842048635410779,45.252039095221086],[1.842617045693136,45.251680268785556],[1.842637213661133,45.25138420449976],[1.843687206650087,45.2511636358094],[1.844132614156157,45.25058740328623],[1.84433333769856,45.25049852560511],[1.844439684053848,45.250226765780425],[1.844641133196713,45.250102774576455],[1.845538638608932,45.24979506274187],[1.846126534706825,45.24972458841116],[1.846234883068018,45.249786942539544],[1.846368839209604,45.250152137334005],[1.847381254701249,45.25082266645142],[1.847837897970537,45.251366788762624],[1.848242060757561,45.25155105888153],[1.848479612392046,45.25177773704169],[1.849016633078033,45.25170222057824],[1.849796994867026,45.25287102980856],[1.850624466649102,45.253364023486654],[1.850677629905585,45.25381573321361],[1.851286912946393,45.25450369340533],[1.851795353370278,45.25476466604929],[1.851988590041163,45.25479186536608],[1.85223156295466,45.254756538255826],[1.852760638702806,45.25444858649057],[1.853212240190892,45.25431183779691],[1.853652989612183,45.25433076681363],[1.854041014156926,45.25437166672723],[1.854875106891036,45.25466928249171],[1.854925447267347,45.254763452719274],[1.854169124535628,45.255272604246855],[1.854051358267041,45.25566762807858],[1.854311307455682,45.25579906755665],[1.855194197995961,45.25583242657403],[1.855688776024184,45.25596266321409],[1.855836978248249,45.2560722431136],[1.855973823528037,45.257046210458],[1.856070503467719,45.25724351422143],[1.856330982478037,45.25741187586578],[1.856874887270901,45.25756242328675],[1.857825146628553,45.25754512017256],[1.858320025402092,45.25772397640472],[1.859298389772503,45.25745480090154],[1.859536352782567,45.257540076979836],[1.859851608244059,45.25727493634412],[1.860586232641246,45.25757689757388],[1.861726799206821,45.256169290729915],[1.860531143129573,45.25590496329368],[1.860421229328102,45.25579307845217],[1.860279280165966,45.25431657325926],[1.858709666188781,45.253326192523055],[1.859024780119195,45.252880047942924],[1.859896896477951,45.25318882048313],[1.860193668042396,45.25289107202038],[1.859571553738249,45.25257674788596],[1.859971353948904,45.252103548543786],[1.860980188507132,45.252459633578994],[1.861148676392836,45.252200198520704],[1.859684319884211,45.25161343769368],[1.859755994757068,45.25110087057729],[1.860353860513981,45.25079178452674],[1.860094862611268,45.25042713336766],[1.859138544012199,45.2505596596329],[1.858686176760376,45.250736046910056],[1.858307854979345,45.250720476682545],[1.857742598205071,45.25043283804798],[1.857254651877552,45.25004332722813],[1.85667525984052,45.24988611450778],[1.856350699739385,45.249922417324136],[1.85523242797988,45.2506160804412],[1.85479599841301,45.25026400777818],[1.855970073798598,45.24964656422813],[1.856125179089183,45.248735020795024],[1.855095270980142,45.24866504183924],[1.854474260476049,45.247804082353795],[1.853857127745089,45.247561818772844],[1.854231833328359,45.24725588034324],[1.854248982101423,45.246979595447925],[1.854452800219803,45.2468006793519],[1.854491133843607,45.24654802518301],[1.855449893810694,45.24517554427135],[1.856232794471938,45.24460632362557],[1.857082121950672,45.24421608044847],[1.858000565653133,45.244558661775585],[1.858706665761937,45.24462620915406],[1.85833859160175,45.24404971793548],[1.858563259489242,45.24390973011738],[1.858976531180853,45.24414628463714],[1.859680235095283,45.244081424712206],[1.860930323445289,45.24354035106199],[1.860967112035215,45.24329938619934],[1.861399970651383,45.243201137278604],[1.861726683226605,45.24330712459388],[1.861872243570409,45.24360758007467],[1.862229168025561,45.24379492047324],[1.863147513202339,45.24376824447446],[1.863449287053277,45.24353447651999],[1.864805707374662,45.2439670039927],[1.866690085847183,45.24407617938892],[1.867145990495314,45.24397273879965],[1.868355462163538,45.24392195482189],[1.870020380109805,45.24410449546512],[1.870522337176509,45.245503574580496],[1.871319513145615,45.24598530117322],[1.871431566702535,45.247125591041986],[1.871748287917143,45.2474124524752],[1.872477002375049,45.2477511973082],[1.873224914438275,45.24625667153738],[1.873942201105528,45.24589828911337],[1.874118349127363,45.245697446632846],[1.874325649572413,45.24641634845068],[1.874561657083007,45.24647095522505],[1.874811695464667,45.247473049785484],[1.875270387067664,45.24748487047485],[1.875420139687133,45.24707574016166],[1.875234798422093,45.24570958771764],[1.876307946419118,45.24565644491852],[1.875893526781157,45.24452392686533],[1.876044523161858,45.244368755040234],[1.875568059062027,45.24391190192509],[1.875408535111661,45.24335197497134],[1.876563936241742,45.242693608531965],[1.876761304563419,45.24327372541971],[1.876262446212354,45.243485735922775],[1.876872528424817,45.2443338535843],[1.87808729615661,45.24427311181921],[1.877716510230025,45.2435048487125],[1.877965572623639,45.24348033378672],[1.878419075891044,45.244255729754386],[1.878157469930089,45.24465023312911],[1.8779500133222,45.24526770780742],[1.877313857911377,45.24546033444392],[1.877919394614654,45.24583923013454],[1.878566855870377,45.24546480858716],[1.878688417793342,45.245251704658536],[1.879018946758942,45.24523340768601],[1.879212146338572,45.24399262918277],[1.878741316731279,45.243190947703035],[1.879082754953576,45.24300976625251],[1.879512310724746,45.243518363907896],[1.879762606261027,45.24438447027235],[1.880090174336863,45.244703835021724],[1.880727812628609,45.244563437724985],[1.880887323462964,45.244682102398166],[1.880941245292695,45.244980713949005],[1.880856807431146,45.24525002410909],[1.880958578598372,45.24532398510264],[1.880891547890519,45.24548810889735],[1.881634030719156,45.24577740292223],[1.882086795684393,45.24621147970141],[1.882127630654645,45.24659100648975],[1.882805259102861,45.24668243035771],[1.882787398005922,45.24687406230706],[1.88296006758851,45.24690910725772],[1.883052219643125,45.247018090408474],[1.883525838221814,45.24711197359736],[1.883733462188838,45.24712035092892],[1.88431430502792,45.246952350141655],[1.884736086784674,45.246961062026955],[1.885505494967054,45.24737216865732],[1.88559488779288,45.24749192837309],[1.885519980095886,45.24824221388007],[1.884551844667951,45.24769584764725],[1.883850986853579,45.24838225071711],[1.883770732469549,45.24876146825423],[1.883227881378745,45.24925943603189],[1.883094214587505,45.24963181592056],[1.881519245940809,45.249276571743465],[1.881132846687457,45.24928261037156],[1.88102939833819,45.249355417426244],[1.881105623363494,45.24949576097369],[1.881537916311329,45.24974412811947],[1.88249802691104,45.24980055788758],[1.882702672665006,45.24989445659434],[1.882799975803172,45.25006472677387],[1.882459196756499,45.25052959035221],[1.88205992773398,45.25060484360474],[1.881294424013511,45.251015026145716],[1.881539845758062,45.2512372088525],[1.882187847256736,45.25121937668121],[1.882428422045852,45.25130192839826],[1.882591382525084,45.25163134664557],[1.882572160028772,45.251954441038436],[1.882705174734028,45.252124167800346],[1.882913995976393,45.25220099793736],[1.882810511567328,45.25361197878427],[1.883268420760474,45.255448211896145],[1.884731239692961,45.25542769491974],[1.884807010894532,45.25629295003946],[1.883417100490482,45.25630068866997],[1.881525915487869,45.257017508822734],[1.882112250036701,45.257407895808925],[1.88321078929871,45.25692539004084],[1.883186134298765,45.25675584589358],[1.883361634314232,45.256587400651604],[1.884171947494513,45.25661710400989],[1.884510795055295,45.256696129313305],[1.884048211753289,45.258085518220234],[1.884053910449891,45.258501615615295],[1.884482214689805,45.259845864879374],[1.885185917880456,45.26029954242102],[1.886634243714656,45.25967010290235],[1.888113961850776,45.26008646115584],[1.889394235167791,45.25989026595724],[1.889439293369755,45.260188785686275],[1.888627832502501,45.26034191522022],[1.888229328325977,45.260567585769216],[1.887756160464669,45.261020343855805],[1.887238941794608,45.26125203407644],[1.886750485850477,45.26055377053235],[1.886029338200607,45.2609725336929],[1.887097723072585,45.262194374153566],[1.888281522057721,45.26287433785948],[1.888952632210511,45.263367290107965],[1.89051928288975,45.264098761204934],[1.890925959586528,45.26295012982097],[1.892122200382908,45.26300701578091],[1.892650560257944,45.26292039700079],[1.893970455208152,45.26252912842824],[1.895399453954073,45.26229381181957],[1.896151668564678,45.26262182592769],[1.897607270530534,45.26310445763863],[1.897881453578092,45.26303872126043],[1.89850686255341,45.26268647785766],[1.899458955414685,45.26257968682148],[1.900078818282789,45.26263711625648],[1.900514968015162,45.26244059052016],[1.900694816915595,45.26243785641907],[1.901171376594185,45.26251998573262],[1.90140945841711,45.26266820939023],[1.901583618973669,45.26282480974969],[1.901601384347448,45.26321761040891],[1.903589487779672,45.26334068379115],[1.905366915537504,45.263348194050366],[1.905820188562704,45.263058161493504],[1.906117491561961,45.262723376426855],[1.907770017522272,45.26279176229928],[1.908101622699053,45.26265812260831],[1.910120670191372,45.262763371755945],[1.910270681951475,45.26317817139746],[1.910299971918275,45.2637673952164],[1.91082185633722,45.264011117512645],[1.911079393477666,45.264274776056084],[1.910945050156223,45.26455893160007],[1.910846175888263,45.264593989184796],[1.910726902823874,45.26449827292033],[1.910452718389127,45.26462977850432],[1.910398632127663,45.26485257978962],[1.910483727922148,45.26493535613093],[1.910805236022987,45.264992519627874],[1.911063744093225,45.264945509129504],[1.911795339191789,45.264376300812444],[1.912549619145266,45.26401622851797],[1.912802810828875,45.26397996856331],[1.913678228028493,45.26407762871954],[1.914439235871083,45.26441911181577],[1.915641018402566,45.26478377615534],[1.915780801741104,45.26494002060832],[1.915791467947626,45.265047285532724],[1.915164894160034,45.265529288109505],[1.915269973533736,45.26569960477331],[1.915634594919059,45.265769779792905],[1.915765610343708,45.26598357232296],[1.915744329031134,45.266159867280855],[1.915542192048054,45.2663245025959],[1.914378373374614,45.266562652023474],[1.91345248993954,45.267482092048596],[1.912862174631327,45.267671766487446],[1.912574281190593,45.267851772131394],[1.912608803451454,45.268435643414065],[1.912859063826613,45.268746954494546],[1.913182289118242,45.26956776685812],[1.913201098315055,45.26978047192214],[1.9130035543216,45.27010093723974],[1.913088977936423,45.27016750543039],[1.913642557986696,45.26990092853401],[1.913859432474073,45.26937353079959],[1.913817804911991,45.26921913789317],[1.913967005035833,45.268761323040536],[1.914297735417852,45.26821521905062],[1.914389128930939,45.2675821420972],[1.914503438309504,45.26740945201028],[1.915262450005025,45.26687290553367],[1.915639138384611,45.266782004981096],[1.916155245474039,45.2664727285529],[1.91648309296998,45.26646690086493],[1.917010479422517,45.26669263688042],[1.917529576436031,45.26675439606601],[1.917763510347271,45.266922355641086],[1.918116318438355,45.26701041847195],[1.918594304440946,45.266890771037275],[1.919256338761142,45.266552274128614],[1.91974741876642,45.26648047576863],[1.921089360901167,45.26659158886374],[1.921774335347076,45.26697821407734],[1.921899599020026,45.26696321264236],[1.922673555014226,45.26644116900352],[1.924691650741576,45.26640566392042],[1.926083618078761,45.26610476203398],[1.926807492022975,45.26539940475406],[1.927093473107232,45.26531569987927],[1.927589746733413,45.26530425163738],[1.929414642511508,45.264170882278044],[1.930033725055428,45.263939072611436],[1.930491129586709,45.262895250387935],[1.930785294165068,45.261918304730436],[1.930943853833686,45.26029889631779],[1.932980362743175,45.25948897861046],[1.931714555408856,45.258007252988385],[1.928343561445646,45.2550114008852],[1.927700631380141,45.25483053615206],[1.926170442770992,45.254114348113156],[1.923944786586268,45.25343287008419],[1.923359574405581,45.25316968847386],[1.931061491175148,45.24923992633778],[1.930485094514884,45.24851760559248],[1.931571235555752,45.245589625360225],[1.932959513370296,45.24325345595246],[1.930130011700489,45.2396477792529],[1.927152904627154,45.23995873224166],[1.927357012480208,45.23928710970653],[1.92875719994094,45.23752653532538],[1.928301040281352,45.237121435005065],[1.929513290923159,45.236449566975764],[1.929885227450447,45.23533199520282],[1.930555831420152,45.23405789121609],[1.930937017856891,45.234184908250896],[1.932790905509176,45.2342107329773],[1.93383407557094,45.23431074128647],[1.934950712408456,45.233032762289476],[1.934597809901886,45.232692608286236],[1.933529196524926,45.232058362825306],[1.933246080259791,45.231801717218126],[1.93541853493775,45.23162522407989],[1.935420662225917,45.231046218038884],[1.93671066415244,45.2304290460239],[1.937324708502878,45.23084191654338],[1.93753476064942,45.23065300646302],[1.937797783814277,45.23056005329567],[1.938112025103141,45.23058825418715],[1.9373587865537,45.22998946048947],[1.939342118893173,45.22876290368807],[1.941159465919552,45.22949604222761],[1.94135192818504,45.22936008837902],[1.942705317795774,45.22929275752666],[1.943952516110968,45.229381995261875],[1.94423072605662,45.22963046235283],[1.944888479301135,45.22881271252217],[1.945845408346,45.2287515050036],[1.945394995796601,45.227635130724636],[1.943706967695921,45.226869965217865],[1.944313019547699,45.225079185286916],[1.94372580146483,45.22479808089793],[1.943735388577218,45.22442626299953],[1.943620751151236,45.2242892029473],[1.943481334847204,45.22357648588987],[1.94314445878824,45.22346704025482],[1.943231139879647,45.222321517712714],[1.943079666890688,45.22123677799689],[1.943182331815979,45.22099641401536],[1.942460612171743,45.221158879563774],[1.941357911795037,45.22125379530761],[1.940376882968313,45.22104728464116],[1.939353183869795,45.22114202935523],[1.93947705381739,45.22072537099323],[1.940516904754737,45.219309738267526],[1.940539910849449,45.21910464144548],[1.94135432308041,45.21855494967558],[1.940794482644846,45.217842747443434],[1.940073002041248,45.21799439335418],[1.939529072365932,45.21919500682799],[1.937713289914079,45.22094184535876],[1.936912806745027,45.22055601909877],[1.935558594301898,45.21960840039675],[1.934120723320344,45.218373606236156]]]]}}]}