{"type":"FeatureCollection","name":"COM_16137","crs":{"type":"name","properties":{"name":"urn:ogc:def:crs:OGC:1.3:CRS84"}},"features":[{"type":"Feature","properties":{"fid":4258,"ID":"COMMUNE_0000000009752919","NOM":"Feuillade","NOM_M":"FEUILLADE","INSEE_COM":"16137","STATUT":"Commune simple","POPULATION":284,"INSEE_CAN":"19","INSEE_ARR":"1","INSEE_DEP":"16","INSEE_REG":"75","SIREN_EPCI":"200068914"},"geometry":{"type":"MultiPolygon","coordinates":[[[[0.500290130084982,45.61959709061589],[0.500344315588851,45.618794664713185],[0.499702936414712,45.61767316658324],[0.499628822099468,45.61735258972291],[0.499703453683347,45.616950631775666],[0.499908512672013,45.61653175236881],[0.500348552779978,45.61611178833515],[0.500920595914708,45.61563979891579],[0.501449298269276,45.61538847280927],[0.500822473282394,45.61277806735485],[0.499017484587334,45.613064083051874],[0.496384784459256,45.61320101407817],[0.496289077587334,45.610319507226095],[0.494846411855022,45.6093504135904],[0.493840949045654,45.608450505293966],[0.49353035464578,45.6069741636628],[0.49360795500768,45.605712786740206],[0.493539651225819,45.605463508208835],[0.492811169576316,45.604287770323374],[0.493136758155269,45.60415538427264],[0.492975321293496,45.60403556525002],[0.492559392532185,45.603214552433705],[0.492286190021919,45.60289853984663],[0.492199357168336,45.60198125659241],[0.493109225216608,45.6016150441427],[0.49374037997399,45.6017354225701],[0.49403086456123,45.6015842333446],[0.494063448235658,45.60128945402881],[0.493646177290671,45.600895456870205],[0.493599125998375,45.60068719396016],[0.4938040669348,45.60069626635089],[0.494193231336191,45.60088872897907],[0.494538192209306,45.60080992604618],[0.494470640692519,45.60017506647692],[0.494760641372893,45.59955177710188],[0.49355913912288,45.59816639814633],[0.493860717521889,45.59788302025628],[0.494126150224857,45.59737720713621],[0.494341029772918,45.59725136069659],[0.491946324672296,45.59449968248803],[0.491826457701812,45.594227630178636],[0.49319723696996,45.59348520159247],[0.492756035723395,45.59325283401865],[0.491413062229143,45.59170841286274],[0.493153329381228,45.590767916690666],[0.492527671163083,45.59069900793145],[0.491596894897851,45.59022687897008],[0.490993811604187,45.58977286659612],[0.489899898508765,45.58848354101807],[0.489537825242249,45.58744028611508],[0.48919393846154,45.58681727015016],[0.488783689089709,45.586837837752405],[0.488484794955127,45.586468085313456],[0.485424968533939,45.58575191578977],[0.485238598845114,45.58536304861744],[0.484275013638214,45.584203610923154],[0.483228018298184,45.58332789272479],[0.479716354443688,45.58101309817313],[0.478369647789697,45.58046756157205],[0.478247253392576,45.58033778404674],[0.477775217202115,45.57878479267771],[0.477022526541733,45.5783813996151],[0.476418059133548,45.577878622507995],[0.476453272521411,45.577753282126984],[0.475806897157178,45.57704414731139],[0.475257895011892,45.57622547967922],[0.475042701804385,45.57500708543957],[0.475063707836168,45.5743769024212],[0.475589761693176,45.5739805950209],[0.47656723634075,45.573502525936576],[0.475718799729843,45.572048284382255],[0.475728530872017,45.57177822242053],[0.478133587229227,45.570738479302975],[0.477822862969608,45.57046302826083],[0.476937337353944,45.57013413170858],[0.476511810058212,45.570408372416296],[0.475583649644173,45.569804623491336],[0.473594285918721,45.56881574083613],[0.472226646267597,45.56789306156584],[0.472194811332245,45.5677472948303],[0.471303318516964,45.56712901752904],[0.470448447837089,45.5667205743387],[0.469967471409527,45.56666379939141],[0.468282844125091,45.56560690076165],[0.466086554989502,45.56513846420257],[0.464611905495098,45.564372740940044],[0.46425700183035,45.564448520463635],[0.463618487932676,45.56435933283365],[0.46244522021495,45.56398778581491],[0.462432676442051,45.56412174249508],[0.463143368962486,45.565044133043166],[0.46420551494183,45.56582669566511],[0.464194951918384,45.566141785856026],[0.462803359248657,45.56751313895536],[0.462066714859853,45.5684460961422],[0.461919482939784,45.56902838203345],[0.461786443240875,45.56916051840912],[0.458573248013936,45.569467199130344],[0.457923840669266,45.569726398169685],[0.457606249373173,45.56963092186044],[0.45604333214983,45.56852433485467],[0.455236325195921,45.56774566914972],[0.454875047019084,45.56706538496134],[0.454901194977625,45.566300176288365],[0.454606888256368,45.565530412602705],[0.453517525086694,45.5636678103424],[0.45244585295941,45.56131007892104],[0.451692037271886,45.560242487234284],[0.451016541797917,45.5597037182483],[0.450355787353576,45.558231001489034],[0.450286424221315,45.55781499376621],[0.450495997058611,45.5570503439604],[0.45005122897856,45.55659878911434],[0.447805215694058,45.55557747826549],[0.447045141992119,45.555707965540805],[0.446518533247535,45.55600412183563],[0.446012803908306,45.556487245894864],[0.446002719645908,45.55678973400523],[0.444283990314633,45.55707319176737],[0.44257190703546,45.557100906329],[0.442016156862991,45.557249524942094],[0.442312995156956,45.556903111516704],[0.4423547365004,45.55669324035909],[0.442265959399332,45.55653265303337],[0.440398406355393,45.55645588893247],[0.439643955520646,45.556297251020794],[0.43910978888693,45.556089572080566],[0.43865345113005,45.55630710988323],[0.437803265648589,45.55683279899793],[0.436150023630343,45.55833390673552],[0.433609950811746,45.559818344949456],[0.432571347600771,45.56061628511493],[0.430839568975653,45.56031903144304],[0.429312026319525,45.561592276231984],[0.428987941768079,45.56172180624297],[0.428983768648746,45.56181180588857],[0.429806054976432,45.56214054385828],[0.430682862623209,45.56267683993258],[0.4286741231593,45.564285040296426],[0.42721259647789,45.565210201774306],[0.426215136612142,45.56600182241505],[0.427351338010966,45.566366596991266],[0.428020885461479,45.566754015887966],[0.428734328749067,45.56743974907378],[0.428766228040994,45.56810718336103],[0.429199090578163,45.568564859174266],[0.430447296099229,45.56953129568671],[0.432866434102931,45.569977592682406],[0.434208126248909,45.57009021805839],[0.434842753894476,45.57023624350833],[0.435408831363152,45.570560891012725],[0.435775614630056,45.57106207954412],[0.436957721566549,45.57396127047913],[0.437263302980561,45.57437186386786],[0.438581652293456,45.57515871303771],[0.437196997519574,45.576305591680814],[0.436675608360164,45.576566690159446],[0.436606568855397,45.57670025815189],[0.437234762625666,45.57707045808268],[0.438226896404618,45.57803276477721],[0.438666466337204,45.57826531662222],[0.439430683427504,45.578413365823316],[0.443322952772627,45.58261839515627],[0.444543001758653,45.583484018266724],[0.444538266700025,45.58361454803499],[0.444895876115978,45.583845210866976],[0.445254076703982,45.58428580668793],[0.445610081233273,45.585080423677866],[0.446061160206222,45.585538443141246],[0.446392265350422,45.58653970951469],[0.447298560582366,45.58817478918943],[0.447591562730891,45.58894544478809],[0.447446987708429,45.58943768329084],[0.447051679288878,45.5897458408569],[0.44576215603869,45.589994043328986],[0.444845351972558,45.59056333173929],[0.444776273224398,45.59069780495049],[0.447498589455327,45.59168852004869],[0.449593376094368,45.592263111930954],[0.451187931280564,45.59247045123692],[0.451312521863537,45.592607516554416],[0.450637420122803,45.59358595470007],[0.450618987595582,45.59412610457767],[0.450959102346107,45.595436584255275],[0.449930387229833,45.59550875835821],[0.44991894857823,45.59586887765121],[0.450754398642183,45.597682507850145],[0.450712645334598,45.598896938389665],[0.452024126070087,45.59940326436671],[0.453830898874261,45.59982889414731],[0.454302932970866,45.60075674414683],[0.45382420657977,45.60349379054784],[0.454784820666215,45.603510130777295],[0.455349200437275,45.60511127015511],[0.453165381382127,45.60595917713818],[0.454520209008822,45.60750974733825],[0.454616603131759,45.60845702161954],[0.455217088161152,45.60963643481279],[0.454875078501929,45.60976023382665],[0.455524832179196,45.61162818189609],[0.455952534949571,45.61179101797189],[0.458478298254975,45.61365091230482],[0.458732021489697,45.61374493783771],[0.459781891363963,45.61347044091704],[0.461291096971198,45.615246041075096],[0.461707733967207,45.61581943513168],[0.461883578918357,45.61624054039513],[0.462914138550793,45.616332261875954],[0.463180145645493,45.61677521927224],[0.4641001200341,45.61768429412277],[0.464445830863847,45.61815337054349],[0.464660713135738,45.61833930369183],[0.464921993206246,45.61840915944427],[0.464399293495867,45.620544326723625],[0.462572214559116,45.623348310713936],[0.462499559530312,45.623616955279715],[0.463337117323887,45.623496198102714],[0.464168995574314,45.62355549555243],[0.465438124800781,45.62393636553364],[0.466569683755199,45.624630353902106],[0.468299207588771,45.624659378780095],[0.469181908796236,45.6251243054893],[0.470324851178069,45.625458133879235],[0.471159634151888,45.625426449044426],[0.471676440440486,45.62530022093461],[0.471930969698018,45.625350087093416],[0.472436516165063,45.62558307803976],[0.474236237926096,45.62736771939398],[0.475561971645156,45.62797497765235],[0.476835380824337,45.628265717279916],[0.47837384772607,45.62829120061033],[0.479522484581808,45.62655560429819],[0.479839157203151,45.62665099050898],[0.481286867815159,45.62748524618408],[0.481478081922028,45.62748772500089],[0.482222043810181,45.62637550195547],[0.483830971845178,45.626177254421684],[0.484302976290247,45.625510305596364],[0.484853126791258,45.62439463395236],[0.485075290504105,45.62419598907049],[0.485682836346164,45.624360926635056],[0.486352485859108,45.62437408937564],[0.487200516690173,45.624191224941626],[0.488161522831337,45.624178450784285],[0.488546168257728,45.62438884794839],[0.488739367287539,45.62460217779355],[0.488798671983304,45.62337913084668],[0.48901863935143,45.623398455832174],[0.489799513771026,45.62381860052693],[0.49097840290043,45.62423950871643],[0.493503988178924,45.624864297077174],[0.494490153282488,45.62534574053194],[0.494290471431091,45.62405476067425],[0.494358677750445,45.62396618653886],[0.495193383758673,45.62393522345887],[0.495150004591224,45.623304505605645],[0.49618832674,45.6229158941452],[0.499778637146431,45.62213986202685],[0.500173661568554,45.62166574201718],[0.500001185195815,45.62059430612994],[0.500290130084982,45.61959709061589]]]]}}]}