{"type":"FeatureCollection","name":"COM_47224","crs":{"type":"name","properties":{"name":"urn:ogc:def:crs:OGC:1.3:CRS84"}},"features":[{"type":"Feature","properties":{"fid":4192,"ID":"COMMUNE_0000000009757192","NOM":"Romestaing","NOM_M":"ROMESTAING","INSEE_COM":"47224","STATUT":"Commune simple","POPULATION":158,"INSEE_CAN":"08","INSEE_ARR":"2","INSEE_DEP":"47","INSEE_REG":"75","SIREN_EPCI":"244701355"},"geometry":{"type":"MultiPolygon","coordinates":[[[[0.018671863926106,44.38940602458338],[0.018461495783158,44.3897507428209],[0.018157566222992,44.389987530916976],[0.017387359689729,44.39032338520858],[0.017004543686228,44.39041210073376],[0.016557613628249,44.39093056758292],[0.016531217104961,44.39124063336102],[0.016191984293011,44.39167013508261],[0.015602647735787,44.39207754130913],[0.013839749946147,44.39396378404176],[0.012088073524779,44.39487382024422],[0.012373268400477,44.395302243460094],[0.008466296678639,44.39634017722628],[0.008129740266856,44.39647966592794],[0.006756616890043,44.39735577059172],[0.006675182945673,44.39744634096147],[0.006507312170855,44.397389528443114],[0.00420750958986,44.39766026967235],[0.00585019050282,44.40050021573899],[0.005072110689955,44.401194305309026],[0.004713774842977,44.401364721251646],[0.003315032306039,44.40179598564011],[0.002295822119822,44.40201236151998],[0.001222462391478,44.40268126980439],[0.000469680314082,44.40329944866891],[-5.0580771476e-05,44.40348976052391],[-0.000360267579562,44.40371373463717],[-0.0008637361451,44.404226996967864],[-0.002356685258296,44.40534205694902],[-0.00378207077586,44.406556231876486],[-0.003943947942561,44.406977908177055],[-0.005173267140199,44.40863972560836],[-0.005582607294084,44.40998160231577],[-0.005491064817993,44.41086061136855],[-0.005946702249352,44.41158325321623],[-0.006268850650689,44.41182759235794],[-0.007176444698205,44.41213881993921],[-0.007974910397973,44.41226474714731],[-0.008681068746063,44.41223824735471],[-0.008081960698465,44.414467066853675],[-0.007481955505143,44.41500143644447],[-0.006806695973303,44.41523157349473],[-0.006512302663832,44.41541527465806],[-0.005089225518245,44.41782241543583],[-0.006621357679586,44.4184129812337],[-0.007528782413322,44.41860079973527],[-0.007672453762055,44.418182490863394],[-0.010639370494119,44.41857165446252],[-0.014055866159948,44.418645753041616],[-0.012429215740318,44.42152160194838],[-0.01192193447421,44.422121923954535],[-0.00901856590495,44.423545342788636],[-0.005918169490918,44.42405520437558],[-0.005037222523961,44.424390935202034],[-0.003658489365282,44.425129397890274],[-0.000855695372773,44.42736510860105],[0.001070613839071,44.42847155559304],[0.004626007689316,44.433024743529685],[0.012396467060073,44.43895968443561],[0.013946603959858,44.43993948407026],[0.015195628131305,44.438525690300466],[0.016534201145048,44.43846375998632],[0.017612759597856,44.438635297066355],[0.020182191146097,44.43828864471016],[0.022064829413906,44.437612582441204],[0.023379532529142,44.437239137779684],[0.026877859000581,44.43665618788535],[0.027923728669444,44.43622949222429],[0.029563664939523,44.435766560234626],[0.029489051433087,44.435463671710345],[0.030581280244154,44.43515891316557],[0.031538890598941,44.435885566501405],[0.032634822365364,44.436492523941986],[0.033553788890713,44.43661456411603],[0.033980537956744,44.43679631147116],[0.034805020263097,44.4367302268179],[0.03592784598209,44.43706492409397],[0.036310652067313,44.43738961185674],[0.036786875196943,44.43746728246199],[0.039524284336734,44.438255236871626],[0.04023201368623,44.4386183691387],[0.041495293994485,44.43874508804102],[0.042642308272013,44.43912360420483],[0.043104696202162,44.43920177635588],[0.04338174703003,44.4393137078926],[0.044179146870134,44.43988640987545],[0.044855438520161,44.440009949758426],[0.047266020260145,44.44113755721162],[0.047920934398238,44.43981648733633],[0.047794971531829,44.43760519906517],[0.047627645078091,44.43717372566913],[0.047708118576825,44.43676420743026],[0.047529233063968,44.43612073139633],[0.047544371251633,44.43472306451945],[0.047682346634576,44.43434391426325],[0.048859820590112,44.43264409300765],[0.048889230471986,44.432032324594815],[0.048665288045349,44.43167410464099],[0.047847971552198,44.43090632481927],[0.047470333027247,44.430795311083465],[0.046578916862815,44.43074889220343],[0.045321720414482,44.43009991577757],[0.044744344579696,44.42957726493024],[0.043004668790529,44.428299154319916],[0.042538713306928,44.42781011041006],[0.041961583229007,44.427572109652125],[0.041439862275272,44.4272121819254],[0.041225448571096,44.42688933375843],[0.040729644250192,44.426442719237826],[0.04008501989091,44.425284959862616],[0.039476000365245,44.4246722483862],[0.039385894913534,44.42425635028409],[0.039367023765657,44.42396848175269],[0.03957297055374,44.42334794890573],[0.039613650309653,44.42249866988531],[0.039758303725945,44.421896307669044],[0.039707792562378,44.4208680177876],[0.040204029864316,44.419119357951374],[0.040058387894197,44.41882808297538],[0.040498027798391,44.41837687935083],[0.041068353884217,44.4182624876422],[0.042598085201508,44.41765949721107],[0.04183081409462,44.4161804694532],[0.042005564491325,44.41608337166684],[0.04102945569896,44.41544999799767],[0.041562593813073,44.414988692701485],[0.040956573513554,44.4145607372179],[0.040663600948299,44.41461141696921],[0.039741325550061,44.414030824422014],[0.03974634844402,44.41374269877783],[0.038590579093185,44.41342155912297],[0.037659017726413,44.413355064092535],[0.036490674530495,44.41368215103003],[0.034767407251995,44.41450144393654],[0.035029834657425,44.41383469945188],[0.035079931141165,44.4130946764248],[0.034555711403923,44.41158700663842],[0.034268962206746,44.41029652197779],[0.033977747137446,44.409642793035175],[0.033405876624698,44.409380563118944],[0.033174649817228,44.40918876488585],[0.032990158128346,44.40896849861761],[0.032882320845189,44.40855662243555],[0.032857817803541,44.40737048937887],[0.033473934992214,44.40669256346598],[0.033064508841961,44.40592124386383],[0.031495585106143,44.404137678995944],[0.031238852840456,44.40373800143885],[0.031188825093204,44.40330246003277],[0.031465050416865,44.40280365109876],[0.031514125620343,44.402514912380255],[0.031266301006551,44.40098765703334],[0.02963312965544,44.399019466796986],[0.029179173618304,44.39778211166604],[0.029035977657476,44.39687202983972],[0.028538072527717,44.39565870903331],[0.028141663776991,44.394618379720896],[0.028010994573439,44.39268080986821],[0.028060020123255,44.39208219354481],[0.027747232404624,44.392009790321275],[0.027403424614889,44.391810434947054],[0.02672597755995,44.390955284390245],[0.026563025309607,44.390852694144336],[0.026143140914699,44.39078640111414],[0.025875743578451,44.390471999727616],[0.025433111722748,44.390336627609926],[0.02506261107133,44.39033472168572],[0.024858981819205,44.39076701218464],[0.024913456393523,44.39094954771247],[0.024710560632283,44.39143950993319],[0.024065904156613,44.39139505824319],[0.023675753509836,44.391479995363746],[0.023270116335094,44.3913816473895],[0.0230797579735,44.39122696435394],[0.022723399625191,44.39086060411431],[0.022773340371831,44.390723229831664],[0.022702092940916,44.39064473361551],[0.022011740498438,44.39053777831755],[0.021693098988784,44.39019495532079],[0.02114093656082,44.390088130282905],[0.021132509568816,44.390152760743106],[0.020614407241002,44.390138737749915],[0.020195808839637,44.390239106999175],[0.018671863926106,44.38940602458338]]]]}}]}