{"type":"FeatureCollection","name":"COM_87117","crs":{"type":"name","properties":{"name":"urn:ogc:def:crs:OGC:1.3:CRS84"}},"features":[{"type":"Feature","properties":{"fid":4066,"ID":"COMMUNE_0000000009751851","NOM":"Peyrat-le-Château","NOM_M":"PEYRAT-LE-CHATEAU","INSEE_COM":"87117","STATUT":"Commune simple","POPULATION":1028,"INSEE_CAN":"07","INSEE_ARR":"2","INSEE_DEP":"87","INSEE_REG":"75","SIREN_EPCI":"248719353"},"geometry":{"type":"MultiPolygon","coordinates":[[[[1.770650498482347,45.86866371286415],[1.771295804169562,45.86735855408825],[1.774498843558685,45.8618114084406],[1.77557377567134,45.86123586875372],[1.776224836078709,45.8605917870999],[1.776928173455607,45.86026347767888],[1.777121840777567,45.86007464638645],[1.777154160702316,45.85977959934218],[1.776904030725418,45.85879433779639],[1.777143470706504,45.85886627532208],[1.777387440949312,45.85873382517297],[1.777167824803518,45.85800016174214],[1.776328724080789,45.85741919739305],[1.775744405792457,45.85616103417675],[1.775360948513141,45.85601638540332],[1.775424679943349,45.85581624225064],[1.776116556142388,45.85600205694432],[1.778074235349974,45.85490289766538],[1.778928688641009,45.854032248698445],[1.780133493046625,45.85357785100228],[1.780065840570035,45.85331504621265],[1.780268512270327,45.853125406556636],[1.781195475643386,45.85305345467059],[1.781302474210286,45.85206034741496],[1.780831702780936,45.85201834417093],[1.78007046829353,45.852173136287334],[1.779556804310529,45.852089237050954],[1.779166092640263,45.851923808861976],[1.778862416414107,45.85149454372865],[1.778388379010567,45.85130929960828],[1.778406567568631,45.849789284262265],[1.777958944325294,45.84934314988363],[1.777215112565546,45.84929547573414],[1.77670765145742,45.84916569975759],[1.77611022418251,45.849257395131595],[1.775574690210535,45.84917324053329],[1.775576479392303,45.84891839012624],[1.776327661440932,45.8484600176263],[1.776410575155241,45.84809166967824],[1.775821389352565,45.847580050712004],[1.775651253968312,45.84729091573514],[1.775363767180458,45.84717972791466],[1.774933676081532,45.84681662632984],[1.774320192326352,45.84652988581855],[1.773410109376647,45.845904898834924],[1.772788378945605,45.84517856729093],[1.773230136115055,45.84391441925697],[1.772637380034132,45.8432190216974],[1.772669860986058,45.8428014960129],[1.772509978198592,45.84193698375945],[1.772797984003975,45.84092243445704],[1.772750418661275,45.83970070376072],[1.773527110195149,45.83977128050609],[1.774219625791807,45.839686935928974],[1.774111291917317,45.83922735493912],[1.774317916879567,45.839032365670235],[1.774042309082556,45.83862050250761],[1.773732519937026,45.83754362475483],[1.773453687313154,45.83716144484006],[1.774617336891376,45.83674718978643],[1.774707781668856,45.835517050961606],[1.775206109358423,45.83535584454205],[1.774843582856956,45.834913320947656],[1.77482783479959,45.834461949661296],[1.775109852968317,45.83452624904791],[1.775552688839707,45.83343952364721],[1.776060080557458,45.83298481652573],[1.777253170413124,45.832690634257084],[1.779430556468454,45.832628627762865],[1.782670813056217,45.832391615693936],[1.782349966067814,45.82994123162266],[1.785335132978094,45.82893588648991],[1.785468405510186,45.828733784637],[1.787574381980036,45.82792696162784],[1.788014393328392,45.82824599276351],[1.788252858148561,45.82859167904252],[1.78847197151487,45.829701764229014],[1.788660088651283,45.82993523543914],[1.788961008486825,45.830077154383865],[1.790115672643945,45.831235989143984],[1.790465680286545,45.83131358680602],[1.792154495267902,45.83132085222952],[1.793549708188969,45.831616749892206],[1.794642958264679,45.83164103044292],[1.796506518035081,45.831551930437094],[1.797458550521783,45.831612503955704],[1.797670497283799,45.830990647534705],[1.797685219658943,45.82984164424171],[1.798166335571254,45.8286904001508],[1.798043504467181,45.828001038060734],[1.797623671199213,45.82698970344484],[1.797265622226228,45.826572517617564],[1.797169314416889,45.8261446096344],[1.798031338115773,45.82542430499242],[1.79869876252053,45.825062162319426],[1.798978738322035,45.82504172463137],[1.800053744354223,45.82518824107456],[1.801150958378593,45.823719315821],[1.801323826383908,45.82358876336228],[1.80154073021348,45.824040462187426],[1.802073974467632,45.82404251741431],[1.802254919979452,45.82389583851943],[1.802442255853049,45.82327641495038],[1.805643833379221,45.82354627569828],[1.807811953136649,45.82276135219097],[1.809071748840529,45.82240179895971],[1.809040263757782,45.82147295512191],[1.808819884202344,45.820284549217355],[1.809224922095249,45.81989886408547],[1.809589937044259,45.819696476682225],[1.810686531515672,45.81943515161846],[1.811293900723085,45.81892370587734],[1.811783643799844,45.81825161440869],[1.812952193784097,45.81787664964335],[1.813993121351174,45.81630704767796],[1.813232057483225,45.81564251947828],[1.814407147469008,45.814720049019826],[1.814449252555826,45.81443860574334],[1.815140430360805,45.81415857186646],[1.815698134369085,45.814036538733625],[1.81568323642364,45.81353024976877],[1.817336999955404,45.81322427137277],[1.818404364551623,45.81275633153761],[1.819613433788915,45.81246637921518],[1.820294471781038,45.81217630183586],[1.820619513031141,45.81233369857518],[1.821445443031005,45.81219372520464],[1.821716581583043,45.812040752822014],[1.82174217809821,45.811746526712035],[1.822216937985667,45.81146599280931],[1.823747013458591,45.811037051545526],[1.827008207380551,45.81029016782027],[1.828037376236539,45.809916303517795],[1.828286058244399,45.80990987869966],[1.828845767341556,45.81023629584637],[1.828936577174301,45.81117655276914],[1.829453922061442,45.813198337576154],[1.829071362248161,45.81368699351296],[1.828872596570803,45.815468099855046],[1.829127715074093,45.8158273791296],[1.829213815245024,45.81638303520328],[1.829539922285826,45.816917763919854],[1.829747485694155,45.81806276359904],[1.829664991551705,45.81934164672696],[1.829018740494956,45.8209046754245],[1.829766847669341,45.82134201171096],[1.82978900879297,45.82224103003839],[1.830367644265496,45.822531610927044],[1.830760284245189,45.823637098116464],[1.831479831875632,45.824026395628714],[1.831658875877251,45.824209266568424],[1.831603148619447,45.82513809854675],[1.831895769850477,45.82537167648022],[1.832293767087794,45.82549557070096],[1.833232747525002,45.82549987186612],[1.833947905423653,45.82567206587993],[1.835265216820483,45.82551184553328],[1.836177406026046,45.82574819784256],[1.836984849206757,45.82539267786036],[1.837510391066252,45.82496580610575],[1.83785926708436,45.82418048109178],[1.838000743295165,45.82406846270354],[1.838817770955097,45.82386792983399],[1.839080926316991,45.823666201745766],[1.839396923838477,45.82199255431082],[1.839619371287698,45.821888570834346],[1.840715209385611,45.82178094797813],[1.84146032544253,45.82162919054729],[1.841844452727253,45.821370159033506],[1.841847185103776,45.821117121879645],[1.841369074491188,45.82063760767991],[1.841424965498831,45.818710923139776],[1.84196974405773,45.8182833285184],[1.842356156325485,45.817729826838],[1.842872603166805,45.81723979705245],[1.843792941430793,45.81658999440014],[1.844793282354977,45.816116617482706],[1.844432861882178,45.81586076518371],[1.841538864725763,45.814633329890405],[1.844009262470908,45.81222526168129],[1.845770358504584,45.810841064723824],[1.846700069258697,45.80998239968625],[1.847403114242382,45.810480398620086],[1.847374055816796,45.811255506996154],[1.847533478186792,45.81145346222897],[1.849546785519781,45.81236017124987],[1.849897127159417,45.81211067567263],[1.850695040938791,45.81201343190814],[1.851130253617763,45.81275994396491],[1.852722308213847,45.81249965215307],[1.852702312313552,45.81234634940051],[1.853045335395173,45.812262477596406],[1.853321114931233,45.81281193414958],[1.854406386510531,45.81283105582137],[1.855822997069567,45.81183856563054],[1.855946471436705,45.81147327864974],[1.856049343334188,45.8111077828177],[1.855914017797159,45.810615592748796],[1.856096846335746,45.81030674335784],[1.856251949597013,45.80866294582511],[1.856135791780362,45.808240295248744],[1.856142651675653,45.80741182655578],[1.856311229610163,45.806920013850515],[1.856050828025603,45.806933586152795],[1.855440333282896,45.80662840440092],[1.855221264531989,45.806325387847664],[1.85564910581352,45.80575064918052],[1.855521147454875,45.80552510641319],[1.85497735135012,45.80554390817839],[1.854940224034387,45.805347204062535],[1.855131995178655,45.80516542961481],[1.854790123093969,45.80507190366206],[1.855110956444516,45.80444114587332],[1.855023921321421,45.80410524554984],[1.855528765306051,45.80379065696211],[1.855429843112645,45.80359332654996],[1.854916306955333,45.80383037619997],[1.854706074838524,45.80366073476239],[1.855058930678685,45.80347248933895],[1.855264149655223,45.80295223118814],[1.854985054298514,45.80287465219646],[1.855215716822221,45.802741903759944],[1.85520777034615,45.80256620910901],[1.853771068351091,45.802490390864186],[1.853893316707232,45.80230791267669],[1.853798196694449,45.80192780057194],[1.853596837060308,45.80176545174088],[1.853681405790903,45.801351140756985],[1.853465344854915,45.80078067729262],[1.853518377402988,45.80052094679462],[1.852778598560863,45.80030719704145],[1.852904149480721,45.7997176889899],[1.853213931108422,45.799866731282656],[1.853348813245664,45.79950966856968],[1.853130852877076,45.79909318517057],[1.852859799680954,45.79906341343221],[1.853022528412826,45.79885342948457],[1.853707701515956,45.798533476960294],[1.849564465202725,45.796492026771794],[1.846635315305686,45.79477173495598],[1.846605365039709,45.79460301931534],[1.848953710878932,45.79175862613083],[1.848758042025287,45.79169629125513],[1.847605162048955,45.79024809173524],[1.846808278740972,45.789570817101016],[1.845707980384807,45.789060644652935],[1.844039463014941,45.78814568310444],[1.83750408781494,45.78581177755775],[1.837375720774771,45.78555018548312],[1.837612193489204,45.78409997420558],[1.837329355401159,45.78273807451089],[1.837188942466649,45.78243763282147],[1.836529509475484,45.78202917405117],[1.83645546425762,45.78187801253769],[1.83651423180172,45.781715612167574],[1.83637925227142,45.781524196492526],[1.836148815867463,45.78140384316835],[1.834389381335531,45.78140009275862],[1.832861079576547,45.78148336095647],[1.831636582942363,45.78144277145916],[1.828426898234919,45.77893377613704],[1.827882689659436,45.77868046271963],[1.820763141208076,45.77720766879075],[1.820608196664216,45.7769899078576],[1.819354184518156,45.77670931853413],[1.81910474046264,45.7764572448169],[1.819150112872268,45.77577957541771],[1.819672600638091,45.77457645065537],[1.81918421202742,45.7732807953445],[1.815903428809568,45.77257637341198],[1.813710933113337,45.772256147582766],[1.813616429218137,45.77174271778946],[1.813416603613192,45.77157941067764],[1.812103016736913,45.77114411155898],[1.81173519900486,45.77125281220829],[1.810967397860552,45.77164908861909],[1.810549117448242,45.77171042290159],[1.810412175841637,45.771436099985564],[1.80935194779735,45.771069182779556],[1.808822519573417,45.771391409759644],[1.808709843024598,45.77052925460683],[1.807975629115548,45.77056112579071],[1.808408920067307,45.771713056503636],[1.807756479995652,45.77242753798153],[1.807404734185852,45.77262555312115],[1.805118980362823,45.772870646559376],[1.80495402481469,45.773238142346685],[1.804909689556096,45.77570439514793],[1.805376322120864,45.77709895051788],[1.805454814642975,45.77834980372336],[1.804547833921232,45.778450070876715],[1.80427511729851,45.778681335403704],[1.80265670971588,45.77888481942491],[1.801835143464725,45.7786068215434],[1.801189207413155,45.77883591639169],[1.800707453800483,45.77861645605472],[1.79944764132426,45.77777631465206],[1.798970282459688,45.77765145581362],[1.797613862680172,45.77764511550682],[1.796942561964757,45.777501970559605],[1.795555697946349,45.77759344563197],[1.795397077080797,45.77719459038423],[1.795467877747397,45.776603655894654],[1.795793492539614,45.77583622293293],[1.796125491087367,45.77536605325071],[1.795525952291963,45.775179536091684],[1.79500237471154,45.77534595924435],[1.793843160367256,45.7755055870378],[1.793136659678656,45.77550253552824],[1.791614025345038,45.77527189770151],[1.790220702999067,45.774778751431626],[1.789468320552148,45.77469683313532],[1.788394611209442,45.775065359788655],[1.787488017337132,45.77585264801281],[1.78700835525303,45.7760105003558],[1.7858720911089,45.77658816979875],[1.785345204693386,45.77666895640198],[1.784460529783517,45.77645679550269],[1.783978885961426,45.77611928594194],[1.783561141981849,45.77597789253106],[1.782587177526967,45.77596378589135],[1.780534360919856,45.77561470203776],[1.780177292655708,45.776223248171384],[1.780297384416481,45.776321810824605],[1.780620302229017,45.77621092519899],[1.780974751172202,45.776887500740635],[1.781628139304871,45.776848627292466],[1.782463367630672,45.77766908006505],[1.781628891346164,45.77774833132815],[1.781694328265314,45.77880813939932],[1.778913834647239,45.77841784607879],[1.778535437954915,45.77911621639748],[1.778315484279427,45.77905169405305],[1.777766277570049,45.77967436356159],[1.776791143983662,45.77976826661615],[1.774383761776714,45.78141455526415],[1.774261568494146,45.78152670340188],[1.774435674229804,45.78180147560125],[1.773471544413605,45.78180360894476],[1.773519675178185,45.782070709118734],[1.772969320279945,45.78187199819669],[1.772714763834993,45.78151079188718],[1.772810382716666,45.78108855060424],[1.77188503036955,45.78108388717142],[1.772298448353032,45.78315796077929],[1.771951604068567,45.78364771484131],[1.771348492501699,45.78362133692066],[1.77015542864459,45.78396047528754],[1.769760095291656,45.784372242948876],[1.769453362618646,45.7849668964334],[1.768305627325166,45.78488773133418],[1.767716717394507,45.784743510624395],[1.765481722829988,45.78366538196972],[1.765295191518346,45.78325717081214],[1.764926922177363,45.78326304749849],[1.765322719625201,45.78432918561395],[1.765296374595751,45.78452883051156],[1.764297541681689,45.7853320402325],[1.764159526906939,45.78563222992111],[1.76416473058259,45.78626270688547],[1.763775088446523,45.78664749861336],[1.763483567057082,45.78713423138169],[1.763154086092805,45.78741881301103],[1.762484849794433,45.78723946196497],[1.763312544918585,45.78557341860664],[1.763195644588985,45.78504528644602],[1.763060514580741,45.78475651397351],[1.762759250093534,45.78452896205606],[1.762262609922932,45.783886791715375],[1.761649202322303,45.78294163669082],[1.755500011731322,45.78358276376763],[1.753553708481176,45.78421241833349],[1.750157230161471,45.7851006721425],[1.749736190034735,45.78447999621742],[1.747871731822299,45.78353890866547],[1.746978754692656,45.78284273759701],[1.746422461278828,45.782739294226246],[1.746092511883381,45.78287161954354],[1.745401239415107,45.783724012463],[1.745612194397507,45.784354077993434],[1.745793087048779,45.7860816443668],[1.745412318645449,45.785956731213425],[1.744061872721131,45.785904785637626],[1.74112203056428,45.786570899050425],[1.739659367476197,45.78585120184812],[1.740154535595376,45.78547487452473],[1.738608368447932,45.78446783878667],[1.737482481260529,45.783547439042145],[1.736911888270739,45.783394255426856],[1.736108136924136,45.783305102550486],[1.735407661398383,45.783034278462964],[1.734686268871989,45.78289020075116],[1.734081641339738,45.78281857612788],[1.73381931448503,45.78286336513991],[1.733561286973467,45.78260830020818],[1.734141270868804,45.781901528284585],[1.733761287249949,45.781800900377085],[1.733276589102104,45.78216921178483],[1.732694135301402,45.78281471051542],[1.732367042155674,45.783382020661776],[1.731786474818785,45.78315935227355],[1.731124786952627,45.78305014568889],[1.729973227106119,45.78269316006],[1.727810748529779,45.78459339800069],[1.726135832188087,45.783542408602074],[1.725451630057715,45.78346083334463],[1.723409663593952,45.7879921237054],[1.723125813422814,45.788131208573375],[1.722890502413778,45.78845366535935],[1.722075219705746,45.78863806735833],[1.721873457864558,45.78856733640721],[1.721486996397051,45.78913484506279],[1.721029257326186,45.79038960927979],[1.720516460166234,45.79035227577913],[1.720568162143429,45.790232180412],[1.720218540355835,45.790097628314065],[1.718536278771074,45.790305493407935],[1.718005336566014,45.79016257124838],[1.717702529316696,45.79017444162705],[1.715901049603362,45.79119056046041],[1.715581558691925,45.79103382151446],[1.715470315477268,45.79122258399651],[1.714391481736091,45.791554333194306],[1.713997249874403,45.792451351909],[1.713838343465194,45.79341499451983],[1.713777458268568,45.79520020931039],[1.713294534553579,45.795260449697025],[1.712950440231218,45.795385313815004],[1.712181413052181,45.795843958761104],[1.712790478541493,45.796227361028414],[1.713391756661395,45.79639272362295],[1.714601647567953,45.79751515830518],[1.715383231141046,45.79812206051815],[1.714534201630701,45.798532078957024],[1.714638651994452,45.79902319994856],[1.714918628992087,45.79910924374786],[1.715474582871038,45.79967485000746],[1.715542574275496,45.79990708029361],[1.71523683969383,45.80026384477906],[1.715439240179458,45.800530026747865],[1.717099895150798,45.801931346997925],[1.717216460453699,45.80229021347432],[1.718378705146887,45.80336613311621],[1.71867927203791,45.80428636491077],[1.719035557444342,45.804914530165185],[1.71979720260935,45.804943883800235],[1.721285710395408,45.8048364696973],[1.722389192361527,45.807122098667314],[1.722866963094954,45.80790112691264],[1.723811588575946,45.80887455886041],[1.725234377864185,45.80921935446944],[1.727622610235059,45.80952728417221],[1.728084529596644,45.809656772760015],[1.729023171640543,45.81016808086871],[1.729841122446793,45.81077618947],[1.731273582572837,45.81148846442702],[1.730987858942326,45.81461846508475],[1.729790947562226,45.815980234088805],[1.72877138504412,45.81685315676604],[1.726988966137746,45.817516637448044],[1.726175862687777,45.8179235487184],[1.725670060512712,45.81885537477797],[1.725134593301711,45.81934196340399],[1.725110556287387,45.81960196781997],[1.725452652671817,45.8196247423217],[1.726483408860737,45.81989034312735],[1.726792297781876,45.82012438191119],[1.726960016817997,45.82044778984981],[1.727035105271468,45.82098990170949],[1.728588072599275,45.82050665915591],[1.728911098638473,45.82124609205444],[1.728770951574851,45.82201813646759],[1.728827420332415,45.82236280425604],[1.729084642696695,45.822771873421374],[1.735560112823888,45.82198178226948],[1.735748652942612,45.82201721561471],[1.735881311197029,45.82224295166539],[1.738128309723863,45.82199429800336],[1.740412805290895,45.82185138895952],[1.741059123989275,45.821469534573815],[1.742489673294436,45.82115315040719],[1.742653210681269,45.82098565762998],[1.74370488666127,45.82044979460189],[1.744214932470032,45.82050770282766],[1.746397440838864,45.82281048168986],[1.74748849022327,45.8241725937576],[1.747514027726764,45.82457995014699],[1.747693735878791,45.82477827479975],[1.747760781962284,45.82568412558605],[1.74848530032803,45.82833002661876],[1.748172644742954,45.82848326675477],[1.748479635789138,45.82892076026319],[1.748690080488825,45.828900576917206],[1.74903685685846,45.82923133772536],[1.749132592872347,45.82966829049672],[1.749020710772709,45.82983006069408],[1.749109249533759,45.83069832319272],[1.749628391200333,45.83075720721982],[1.749142659832039,45.831270576903734],[1.748810586591428,45.83193874960804],[1.748897318641691,45.832091011878276],[1.748684283463895,45.83262271032452],[1.748860622245147,45.833198348729915],[1.752565793915831,45.8354286972319],[1.753472505910321,45.836242045366305],[1.7543171628574,45.836266673604804],[1.7562184784004,45.83662805314993],[1.757272278196288,45.83692063976271],[1.757107533042236,45.837313291279834],[1.756783429819568,45.83751596279863],[1.75558893367103,45.83814854258465],[1.75496460015969,45.8382371269761],[1.75473537397217,45.838973995682885],[1.753939518953618,45.83906878903486],[1.753886298721801,45.839257328723114],[1.753471395873387,45.839542745494235],[1.753158819798957,45.83957622061184],[1.752600008811701,45.84012842573117],[1.752557204775328,45.84025493821187],[1.753346137008861,45.841608248814936],[1.753221312616832,45.842057173150714],[1.752726901968899,45.8421534837567],[1.752709387908299,45.84281433365406],[1.75246690029208,45.842938641280924],[1.752513427303669,45.84338855644467],[1.751835009069654,45.84375751549914],[1.751807319955463,45.84441194876407],[1.751214402756978,45.84527267822748],[1.751506304849719,45.846040517389994],[1.751503177369524,45.846292652009694],[1.750506322866934,45.84746232391725],[1.750629231402436,45.84806708810709],[1.750554446892025,45.848410291994576],[1.749969670175305,45.849307129915935],[1.75052387828848,45.850272403985656],[1.750096160849076,45.85066393918382],[1.751254747453851,45.851234224125996],[1.752340831436824,45.851364201510336],[1.753492605689134,45.85161017043685],[1.755466229197178,45.85221731890651],[1.755923526850621,45.85251324987406],[1.756885508545786,45.85334788976834],[1.75777539151037,45.85463833442355],[1.755732820103763,45.855711895293204],[1.755896979327946,45.85940617794806],[1.755849277289048,45.860263928142025],[1.756147846328627,45.86245748312898],[1.756096309247338,45.863371028697344],[1.755848396465895,45.86384652033574],[1.75622915229195,45.86479724595109],[1.755852122304568,45.86522448523252],[1.755921987251261,45.866356412765626],[1.756291368964199,45.86661174667468],[1.756563645595578,45.866542694288526],[1.75662580362533,45.867159391098795],[1.756802984229892,45.86747745209106],[1.762913939399548,45.86889991250561],[1.763641894017905,45.86932215504078],[1.76397873535137,45.86936366448931],[1.764971805362023,45.86934660149894],[1.765753820488666,45.86919753852983],[1.766927788793029,45.86870061164588],[1.767704471608012,45.86850104346507],[1.768741926846363,45.868400675509015],[1.770650498482347,45.86866371286415]]]]}}]}