{"type":"FeatureCollection","name":"COM_16234","crs":{"type":"name","properties":{"name":"urn:ogc:def:crs:OGC:1.3:CRS84"}},"features":[{"type":"Feature","properties":{"fid":4114,"ID":"COMMUNE_0000000009752408","NOM":"Moulidars","NOM_M":"MOULIDARS","INSEE_COM":"16234","STATUT":"Commune simple","POPULATION":664,"INSEE_CAN":"18","INSEE_ARR":"2","INSEE_DEP":"16","INSEE_REG":"75","SIREN_EPCI":"200070514"},"geometry":{"type":"MultiPolygon","coordinates":[[[[-0.008253380569964,45.65706457188574],[-0.007940368476264,45.65641240526958],[-0.007254664315237,45.655664764290336],[-0.007129866853334,45.655354503744974],[-0.007138418244579,45.65503887786164],[-0.008236034141209,45.65561060207001],[-0.008493922313613,45.65565056768231],[-0.009931352207143,45.6547200084884],[-0.010121421959685,45.65467076925577],[-0.010579046385303,45.65488651610049],[-0.011094889363845,45.65492047614165],[-0.011705223082762,45.65418774078896],[-0.012207701079993,45.65395261310925],[-0.012843382174157,45.65380403093215],[-0.013394376486698,45.65316208679207],[-0.014205569972991,45.652650143830435],[-0.014803523031294,45.65251697877286],[-0.018025279654486,45.65356155500383],[-0.01846789520323,45.653548783222355],[-0.019019642587212,45.65329878563987],[-0.019573771986045,45.65332807492191],[-0.020683474384967,45.65353078919313],[-0.021009813489031,45.65355356940028],[-0.021215419781862,45.653483167758715],[-0.021436345044197,45.65371694028223],[-0.022695645941523,45.65197636104608],[-0.02447792639427,45.65028479128161],[-0.025819445875025,45.65002794809773],[-0.026628828615491,45.64965023051857],[-0.027904023943472,45.64923834659688],[-0.029136191844854,45.64865098165146],[-0.030051052918775,45.648041508175986],[-0.0305980443168,45.64735452380071],[-0.030830403587568,45.646764323581905],[-0.031338841331534,45.64666411795436],[-0.031524038544966,45.646479800824864],[-0.031929305875388,45.64548122636645],[-0.032764612664582,45.645508279010166],[-0.034126686669888,45.64584012857702],[-0.034509188129358,45.645786559007156],[-0.036549506523539,45.64695888073497],[-0.037959198894585,45.64825092579436],[-0.039868037176615,45.647657785609354],[-0.041610031167859,45.64730251977023],[-0.042213664762851,45.64701765910333],[-0.042907655732165,45.64685741384143],[-0.043492265785064,45.646810964225565],[-0.045691711562712,45.646971334979796],[-0.045768059564916,45.646514186882506],[-0.047425557081157,45.646399020413796],[-0.048895915870175,45.646385323493135],[-0.049705206110568,45.6474321604703],[-0.05117999324177,45.648500600553106],[-0.053087374976373,45.64949060152688],[-0.054482238494124,45.65069183774479],[-0.055207016383099,45.65104253793383],[-0.055860924456519,45.65148257038218],[-0.056964728748877,45.65239069572535],[-0.059468793008758,45.65375638945241],[-0.060322557705543,45.6545793638613],[-0.061988315626268,45.655817305555885],[-0.063674155216377,45.6565112784208],[-0.064325337870615,45.65734064109702],[-0.066300051549568,45.65907205875955],[-0.066551495355991,45.65957436456192],[-0.06658245561239,45.66048099102616],[-0.066760215909965,45.66097539141016],[-0.067167180388972,45.661454534289604],[-0.067903212338582,45.66193461982771],[-0.068489285210647,45.66253774268779],[-0.07020789452753,45.66655062017935],[-0.070586875262717,45.66708008012977],[-0.071998615405272,45.66822298861036],[-0.073154483132387,45.66822928773328],[-0.074882610016525,45.668101891941056],[-0.075404767294893,45.668315622621314],[-0.075545593538643,45.6685830262065],[-0.075427139663934,45.668810652935576],[-0.075794498690537,45.6691529720872],[-0.076340163184296,45.668425238307755],[-0.07708977605035,45.66868411166996],[-0.077541618204979,45.66871952141045],[-0.078595552218051,45.66788686098902],[-0.078786889411695,45.667837470711284],[-0.079312783255862,45.66814119822767],[-0.080073565390166,45.669385624830866],[-0.08047237225559,45.66969192359074],[-0.081138182414822,45.66980707484851],[-0.080798682453472,45.67019665997784],[-0.080740387034013,45.67044247214182],[-0.080252233188244,45.67100193857306],[-0.079970437524204,45.67115834160558],[-0.079374643839786,45.671955052578234],[-0.078953170579049,45.672281088476296],[-0.078225138535748,45.672619110126035],[-0.07770619044451,45.67227913982397],[-0.075282833670424,45.671533414637196],[-0.073484853995822,45.67123827174671],[-0.073227459963445,45.671302072246206],[-0.073302864097376,45.67372414965391],[-0.073128470816319,45.67637022749163],[-0.073220715426062,45.67712829365896],[-0.072770873990186,45.67840310539078],[-0.072609923658271,45.67832909651319],[-0.069826008317211,45.67796977445121],[-0.066661914956446,45.676711466945825],[-0.063688912499372,45.67620845516494],[-0.063416337953508,45.67599869228775],[-0.062665326136921,45.674971975479735],[-0.062192100144461,45.674597348847385],[-0.061855993120086,45.67447041513087],[-0.06034241901793,45.674227704098435],[-0.059771090194912,45.6738917810769],[-0.059507844429746,45.673617773606615],[-0.057112693141683,45.67572847027234],[-0.057001524653722,45.67613610920426],[-0.057234718360362,45.67707599394823],[-0.056852022691511,45.67712964086704],[-0.056807516173887,45.67758052750771],[-0.057577935710971,45.6775641133425],[-0.057423467500469,45.678467665002216],[-0.057417170507682,45.67977271452429],[-0.057144654122433,45.68095973170103],[-0.055464631165666,45.68070885382237],[-0.055285827010498,45.68119582564134],[-0.055066056303917,45.682989687165396],[-0.055525022917635,45.683873886216766],[-0.055428223406794,45.68463528854042],[-0.055176958764247,45.685090883274015],[-0.054107132396392,45.68576423322258],[-0.053806580774875,45.686095900296806],[-0.053372233402249,45.686193288836336],[-0.05188052058749,45.685862451154186],[-0.048491644033344,45.6849116106372],[-0.045101754534826,45.6834263144223],[-0.044185617858085,45.682665280383006],[-0.042436608073765,45.68543763923608],[-0.041756130568948,45.6866942068854],[-0.039877097099785,45.68694139933443],[-0.036847057973985,45.68664557371013],[-0.033181052657773,45.68649836757008],[-0.032206930197571,45.68624885100836],[-0.03195253051007,45.68629895623008],[-0.03141724552831,45.68730012506191],[-0.03090237214738,45.687266223480584],[-0.028175159444335,45.68655920160863],[-0.02715913527859,45.6859899606723],[-0.025085353016573,45.685239165632446],[-0.02324888652691,45.68468922581401],[-0.021894316096872,45.68535818926967],[-0.020985020366283,45.68539970953906],[-0.019463232508595,45.68531436618832],[-0.018899915336365,45.68538173629433],[-0.017202335150429,45.68608056314363],[-0.01492659009073,45.68756622122254],[-0.014476783129735,45.68811263976399],[-0.013950042260309,45.68939464400425],[-0.013399975384003,45.68991850899589],[-0.012936056243003,45.69011205113254],[-0.011585791353607,45.68902264502858],[-0.009739579975206,45.68789151108856],[-0.007081961587841,45.685787163847685],[-0.006410870429817,45.68512562550345],[-0.004561291333238,45.683904389614405],[-0.006300977930476,45.68265403692019],[-0.007041119284193,45.681866504381254],[-0.008996094645166,45.68062928110359],[-0.010018799799639,45.67915291501425],[-0.012700181058994,45.6796435105609],[-0.011966250283362,45.67839434219122],[-0.011887606875558,45.678035990328645],[-0.012305540990548,45.67730660138467],[-0.012696964857849,45.67594892474057],[-0.01335115235557,45.67471938456907],[-0.01339356014029,45.674223523878574],[-0.013254352391473,45.673956908014475],[-0.0131442057433,45.67287848880312],[-0.013461717861003,45.671297501990566],[-0.013484752878676,45.67035159022451],[-0.012907221742271,45.668833310031765],[-0.0124980728802,45.66677164096676],[-0.011822416982901,45.665975992842725],[-0.011736708650018,45.663952527494104],[-0.011907503545373,45.663454133815485],[-0.011884584889584,45.66291496536694],[-0.011476531443997,45.662383398417056],[-0.010710212521699,45.66095937520834],[-0.010957290240829,45.66072928382602],[-0.011011780304631,45.66050254177184],[-0.01030463203046,45.660472795495274],[-0.00971975246255,45.66030460484232],[-0.009651979866756,45.66021630338737],[-0.010063800006007,45.65935281507225],[-0.00998030207357,45.65890447961594],[-0.009644959966371,45.65855119025876],[-0.008507009445828,45.658160783114695],[-0.008253380569964,45.65706457188574]]]]}}]}