{"type":"FeatureCollection","name":"COM_40057","crs":{"type":"name","properties":{"name":"urn:ogc:def:crs:OGC:1.3:CRS84"}},"features":[{"type":"Feature","properties":{"fid":4149,"ID":"COMMUNE_0000000009759579","NOM":"Buanes","NOM_M":"BUANES","INSEE_COM":"40057","STATUT":"Commune simple","POPULATION":240,"INSEE_CAN":"01","INSEE_ARR":"2","INSEE_DEP":"40","INSEE_REG":"75","SIREN_EPCI":"200030435"},"geometry":{"type":"MultiPolygon","coordinates":[[[[-0.436137165204053,43.70722546709706],[-0.435931030349855,43.70734906678899],[-0.435635746369839,43.707766401789264],[-0.435379289333202,43.707961842835076],[-0.43542080229609,43.7082811744843],[-0.435692976771553,43.70853377649306],[-0.436037984586728,43.708593132823395],[-0.436384427452692,43.70900731165513],[-0.436757244800267,43.709095509893146],[-0.438283173103488,43.709880424029215],[-0.438454282368738,43.710124505346386],[-0.438745864629195,43.71028641884248],[-0.440624366133957,43.7123913717279],[-0.441202943254023,43.71307200525537],[-0.441445732997491,43.713557902101314],[-0.441145938319695,43.71371419722575],[-0.440593915036796,43.71364068704143],[-0.439785971683005,43.71311051163321],[-0.439219884453638,43.713360785872354],[-0.438966453656842,43.713710157426],[-0.43858148736329,43.71368900021586],[-0.438270915649783,43.71391407995994],[-0.437940282724235,43.71403261104301],[-0.437585118670779,43.71405284072488],[-0.437288940879365,43.713897373213285],[-0.437139650505068,43.713665209529104],[-0.436862886858766,43.71362621675566],[-0.436565514191087,43.71388510050479],[-0.436491400859866,43.714243212402344],[-0.436325719422109,43.71446190820085],[-0.435826936913598,43.71440650720438],[-0.434845831519438,43.71461131924463],[-0.434692698628058,43.71483231825438],[-0.434514552918676,43.71492620936535],[-0.434072406641781,43.71492485476352],[-0.434044501272947,43.71508065339659],[-0.43354186141243,43.71560270259145],[-0.43339605390757,43.71592524591935],[-0.433253900140906,43.71601889971532],[-0.432624268781564,43.71605948255756],[-0.432197754820496,43.716691709006305],[-0.431642051774054,43.716784895511566],[-0.431490570435943,43.71690946438594],[-0.431247531688492,43.71732964314784],[-0.431594045128253,43.71759972829292],[-0.432155174368795,43.71894296514067],[-0.432200570693526,43.7198863534269],[-0.432102713223477,43.720428951812366],[-0.432206761905133,43.72212256545082],[-0.431659738021972,43.72229924093477],[-0.431001256953212,43.72270910356552],[-0.43011291363392,43.72247501123944],[-0.430012991599518,43.72256913057436],[-0.429650046070441,43.723392991275674],[-0.429562396984378,43.72400281751385],[-0.429746498250127,43.72433927634592],[-0.428998644231596,43.727134265385374],[-0.42871888083479,43.729202058299244],[-0.428317559150539,43.72984248369248],[-0.427301057684901,43.73194969451476],[-0.427598860940652,43.73217269381287],[-0.425518706477986,43.73174371084933],[-0.425144683459282,43.73321460246989],[-0.423617160262716,43.73552430262221],[-0.421285472360234,43.73554358502278],[-0.42103909776663,43.73566121402439],[-0.420759371703486,43.735678112685854],[-0.419770659182648,43.73542997055878],[-0.4191913741441,43.73492397007873],[-0.417995967514129,43.7334195412282],[-0.415580992914965,43.732562249883024],[-0.415228340910137,43.732605742009575],[-0.414174278656217,43.73194798961534],[-0.414415763856378,43.73176928318363],[-0.414127677578427,43.731312667369664],[-0.413905443904163,43.731106176896226],[-0.413182504215094,43.73075146679358],[-0.412703175616294,43.73033687331006],[-0.412223182807782,43.73016097987578],[-0.411780795380827,43.72988663172446],[-0.41129986928844,43.72946577815088],[-0.410589938099038,43.728557626134894],[-0.409853437149169,43.727849353693],[-0.407715790568951,43.72676254537428],[-0.406009526003925,43.72614045650238],[-0.405043490311344,43.725476267502984],[-0.40688257524458,43.72432438057093],[-0.408637352770716,43.72288418346377],[-0.40933966596768,43.721435508012824],[-0.409940522894461,43.719535166644],[-0.411225555814919,43.71723869350211],[-0.413279053283536,43.71573230906127],[-0.414254094044098,43.714112924039846],[-0.414844814969243,43.71444024330012],[-0.41498513657098,43.7144403421928],[-0.415260396265173,43.714225447039816],[-0.415179646737341,43.71393346112476],[-0.415317059599213,43.71353104915282],[-0.416721782802221,43.71193507893477],[-0.417035091533908,43.711837873123024],[-0.418225358054154,43.71106012618552],[-0.416720125615432,43.710367958001214],[-0.417441699097214,43.70958062092154],[-0.417368756982888,43.70906592581106],[-0.418569107633679,43.70895705823489],[-0.418863072430931,43.70851549658682],[-0.419054300861286,43.70720621219067],[-0.418355714528916,43.70661030550527],[-0.41272185826334,43.70303411363606],[-0.412277562258668,43.70247432735459],[-0.411805430272276,43.701405635858734],[-0.413110311844672,43.70111611417936],[-0.413665441931047,43.70091135473016],[-0.413402674179662,43.70046026134003],[-0.413118978128116,43.700449349249716],[-0.413115370679368,43.7000973020823],[-0.413248391608014,43.699725656246436],[-0.413852302541447,43.69902760133438],[-0.41390238718213,43.69872250506561],[-0.41479200991042,43.69861081650417],[-0.415161119995785,43.698492948829944],[-0.415227420243337,43.69835576716085],[-0.415594994782119,43.69812896559967],[-0.416394163698969,43.69777061960377],[-0.416264132739761,43.697505404814464],[-0.417518375461748,43.69674366771207],[-0.417585219179631,43.69655332815869],[-0.418694384673025,43.696397780431674],[-0.419688175769695,43.69640977025075],[-0.420468077364218,43.69626996042685],[-0.422848424055638,43.69513949145497],[-0.423891508427558,43.69365117976263],[-0.424143441398079,43.69369188413299],[-0.426099595871971,43.69481015417036],[-0.427139910543073,43.69551682727703],[-0.427762623199971,43.69577911301246],[-0.429083623792721,43.69694347058972],[-0.429398816665895,43.69706593146767],[-0.429642252059293,43.697316748368095],[-0.430026134239241,43.69740461734517],[-0.430047303451068,43.69753004390318],[-0.429760217637579,43.697856134021116],[-0.429804603022691,43.698079001890605],[-0.43033631197576,43.69837566784908],[-0.430889251392898,43.699047242748684],[-0.431622890635643,43.69939877916044],[-0.432536271835457,43.70020128115556],[-0.433267598531732,43.70138330404638],[-0.433874313528525,43.70309525364089],[-0.436099082884455,43.705536091970174],[-0.43695881139947,43.705938556113665],[-0.436137165204053,43.70722546709706]]]]}}]}