{"type":"FeatureCollection","name":"COM_19289","crs":{"type":"name","properties":{"name":"urn:ogc:def:crs:OGC:1.3:CRS84"}},"features":[{"type":"Feature","properties":{"fid":4061,"ID":"COMMUNE_0000000009754304","NOM":"Yssandon","NOM_M":"YSSANDON","INSEE_COM":"19289","STATUT":"Commune simple","POPULATION":696,"INSEE_CAN":"19","INSEE_ARR":"1","INSEE_DEP":"19","INSEE_REG":"75","SIREN_EPCI":"200043172"},"geometry":{"type":"MultiPolygon","coordinates":[[[[1.409032979675876,45.18525618666867],[1.408859230170384,45.18518616557563],[1.404886600727931,45.18484848974162],[1.403783992504144,45.18466161651328],[1.403193443262201,45.18469369855472],[1.402131221112121,45.184964891770406],[1.399955230920151,45.18526064543655],[1.398691314949107,45.18501467192755],[1.397952665194286,45.18466004502606],[1.396838019281362,45.18476022215561],[1.395832599874487,45.184560255937164],[1.395345592964274,45.184534344496285],[1.394600713272492,45.184707358625204],[1.391487814609166,45.185783803494786],[1.390401866169318,45.1858149838478],[1.389188043278748,45.185687603638264],[1.388989612566765,45.186032373692186],[1.389039861059346,45.18671845859396],[1.389247911422793,45.1869231957536],[1.38879092001407,45.18687157147231],[1.388483264128561,45.186632073395124],[1.38854938456424,45.18628269266259],[1.387809772349571,45.18574245947207],[1.387422764350324,45.18529647466042],[1.387064144156768,45.184441123607954],[1.386388462120639,45.18367305077954],[1.38639834282564,45.18346335278916],[1.38679143332128,45.18321326210766],[1.387019038359135,45.1829607792595],[1.387005742336773,45.182803882054955],[1.38608400089082,45.18239879775847],[1.385993840106768,45.18221377104596],[1.386011478737345,45.18169167569878],[1.385240259646269,45.18114646482404],[1.385241988959302,45.18091053157488],[1.384893333297541,45.180725367022724],[1.384336564750072,45.18003105004436],[1.382134276261585,45.17925975827933],[1.381869143706351,45.1789614177584],[1.381604591518595,45.17881888956932],[1.379606889653395,45.17841615838243],[1.378437865056798,45.17850635493937],[1.377884155576481,45.17823623411805],[1.377769514134549,45.17841288801212],[1.377399197294562,45.178667780811004],[1.377340018078705,45.17882002351954],[1.376971363662858,45.1789299416572],[1.376150218448555,45.1794052275114],[1.375941018848799,45.1798993186751],[1.375235933518085,45.18041141028453],[1.374808178520239,45.18088880937253],[1.374190793031101,45.18241175177999],[1.374220894122266,45.18303991321341],[1.374472107320314,45.18364067378865],[1.374230935048965,45.18378846395334],[1.371843452289546,45.184258010844026],[1.369345533468209,45.18423416210009],[1.368668281545587,45.18418193933215],[1.368175352942162,45.1840540538448],[1.368041130660215,45.18437631101217],[1.36811181629307,45.1848771821514],[1.367450576923447,45.185191734022006],[1.367094768561674,45.18551345161292],[1.366808769678059,45.18423220441326],[1.365499513774594,45.18440937649703],[1.36420250992783,45.18447233544544],[1.363993907902051,45.184333286688826],[1.36399800921494,45.184106393147495],[1.363609138283723,45.183687314019274],[1.363277868022991,45.183779723693455],[1.362608096315661,45.18425443050972],[1.360436044633808,45.18436574981249],[1.359990417399073,45.18453572411762],[1.36018929597362,45.18517897968862],[1.360228673871311,45.18600631883741],[1.361142847128692,45.187272491690315],[1.361162335625462,45.1874763158455],[1.360830175152936,45.18794516112181],[1.360527908873293,45.18795963580252],[1.360506727185629,45.188333979068176],[1.360403758353448,45.18850088131754],[1.359633303477632,45.18893176464181],[1.359529577715175,45.18964442578546],[1.358458526176081,45.190205075686656],[1.358599553666085,45.190736709009364],[1.358402819590674,45.190973379566266],[1.358363264476644,45.19127900622081],[1.35817936462312,45.19151226270292],[1.358155472136246,45.19310419463693],[1.357510224611991,45.19386562972849],[1.357529551209785,45.19489711620813],[1.357135175582402,45.19483727769775],[1.357074137141377,45.194703989451526],[1.357174171279941,45.19420472022442],[1.356975309143196,45.19399375256503],[1.35658400120514,45.19434913995492],[1.355844335523819,45.194595826650804],[1.353295412316496,45.193564888401134],[1.351791555904077,45.19277447589187],[1.351605620086894,45.19281676180078],[1.351443283218434,45.19296566833302],[1.351338252240981,45.19328743816882],[1.350709135992731,45.19380140450489],[1.350730470122979,45.19402777393597],[1.349170588609998,45.1947450285779],[1.348637393056907,45.19490015580067],[1.348213348557151,45.1952406208153],[1.347596067245059,45.19612760065626],[1.347698010851517,45.197072954792006],[1.347830394324195,45.19733429101913],[1.349387251870809,45.199522395680205],[1.349598328700029,45.20005237591704],[1.350588208868094,45.20091177894131],[1.351120014441281,45.20343595447074],[1.350897440058655,45.20407030466895],[1.35107231394088,45.20453310195194],[1.351922990309383,45.20579571469925],[1.353378961427083,45.20757339311122],[1.353966772620552,45.209241894717735],[1.354678475572963,45.210642033245456],[1.355627257510125,45.21156472808431],[1.356148353001258,45.212473916150444],[1.356296146304299,45.212603978781075],[1.356950280628683,45.212803633151985],[1.357433730308887,45.2136942488744],[1.358221402878554,45.21442272018074],[1.35873935871357,45.214531201024776],[1.359595591355693,45.21448884108666],[1.36030109977755,45.214935998830285],[1.360715664155463,45.215094287779856],[1.361332099790785,45.21519069240839],[1.363057420313622,45.21527633081835],[1.363330920639816,45.21550909497552],[1.363295221162474,45.2169000239227],[1.363085109246097,45.21780746841718],[1.362598874890348,45.218874778069676],[1.362570885379707,45.219524613239514],[1.36227176981281,45.219990350604384],[1.362044821406054,45.220168047296305],[1.364445563546419,45.22108402517827],[1.366462981360608,45.222341984082654],[1.367489133458625,45.22381328091262],[1.368148882124353,45.22448036973923],[1.369678559359348,45.22455493833061],[1.370152466345835,45.224648312131905],[1.371049837825186,45.225035155554416],[1.373196840846948,45.22544289649355],[1.374694397790363,45.22600866422109],[1.37516307981453,45.22575700483809],[1.375875139056846,45.22590064938567],[1.377025885643612,45.22585973253246],[1.377876107893901,45.225328109039985],[1.378987158176275,45.22489843109128],[1.379253521469512,45.22450332351218],[1.38065276916182,45.22485684090134],[1.381903605001935,45.2250550868524],[1.382946043989115,45.225056670704404],[1.385551532873719,45.22547801298183],[1.386253940832786,45.22569169936467],[1.387003530296321,45.22541973172719],[1.387508478372496,45.224837119764764],[1.387641567753969,45.224509416548756],[1.387973194059626,45.22639648156699],[1.38827605224686,45.22628016892273],[1.38839809107918,45.22598202550709],[1.389049531606511,45.22588694956211],[1.389758968451012,45.22559276993095],[1.390380668538241,45.22489384792822],[1.390804582066755,45.22468921154999],[1.39092432783174,45.22469093626344],[1.39101482078294,45.22583961853796],[1.392728469982749,45.22616598923233],[1.393476745643857,45.226027250033596],[1.394386218432495,45.225999796514174],[1.394778346578276,45.226190957012],[1.395015482092239,45.22645373973913],[1.395380619032428,45.22634280574804],[1.395398774434267,45.22597741859725],[1.396702936075004,45.22565300911604],[1.397491517299695,45.22584084251813],[1.39788224232758,45.226613765948485],[1.398626274683236,45.22560133997088],[1.399060990925193,45.226307343831486],[1.399801892360254,45.2258919696697],[1.400611245586232,45.226378180089185],[1.40135868489308,45.2261790355515],[1.402263589962029,45.22533189845216],[1.402584726050851,45.225154567557475],[1.403273823798987,45.22583537164523],[1.404389164302243,45.22560544011926],[1.403685225975283,45.224106678655644],[1.403676188578685,45.22375441169663],[1.403730826583004,45.22362640541472],[1.404123731799934,45.22365723565829],[1.404406867030439,45.223560411694834],[1.404687841213992,45.2231825665043],[1.404849647599108,45.22309481615736],[1.405064968469012,45.22314111954273],[1.405241778487083,45.22333097002367],[1.407581534003881,45.2230635421111],[1.40766613329322,45.22300170544436],[1.407601333987972,45.222726997260445],[1.407751541371246,45.222643580508816],[1.408321630274597,45.22258325808904],[1.409135343357375,45.222336374258425],[1.410174056399073,45.22224308806773],[1.410358472751979,45.22230064930897],[1.410570418919243,45.22255493411112],[1.410856830982411,45.22270040379209],[1.411941498259242,45.2228284032811],[1.412617899545727,45.223286518004194],[1.413071075968331,45.22339382400939],[1.413185923216029,45.22361250135605],[1.413378701130192,45.223689989615565],[1.413726719314811,45.22373095579473],[1.414040723899388,45.223578708389724],[1.414527716901145,45.22366217211769],[1.414769906104814,45.22343595445182],[1.415095064121364,45.223294669683916],[1.415865038240803,45.223330807242526],[1.416706944465478,45.22325718449953],[1.416968805806638,45.222831306719776],[1.417107432611547,45.22275131590738],[1.417863281007137,45.222880902534136],[1.418335595445212,45.222493125544915],[1.419532746912109,45.22202464234679],[1.420004456184678,45.2216575639728],[1.420159538077199,45.221266193238485],[1.420790717296696,45.221252602304624],[1.421225115614609,45.221122750976384],[1.422070390202378,45.2207933646455],[1.422217257424241,45.22064683944637],[1.421659401035979,45.22027601601171],[1.420611651367813,45.21997031297209],[1.419752868847791,45.21956190256745],[1.41929825705601,45.2195059375995],[1.418237980063938,45.21910367007436],[1.417483730682608,45.21864989055078],[1.417921005581213,45.21832826443371],[1.417905827552817,45.21823438666847],[1.417576109834501,45.21813335188571],[1.417210459588554,45.21786159284095],[1.417012617449132,45.21755888831864],[1.41694485762705,45.21716256295606],[1.416273326848524,45.2168036099699],[1.414783177155704,45.21471558678974],[1.414458438886421,45.21408145564819],[1.414132569360435,45.21380124480112],[1.413207347753093,45.213359417563545],[1.41285234280268,45.21293919534946],[1.411992269401492,45.210969958516856],[1.411368370104339,45.21019467261687],[1.410992360812285,45.20948415111962],[1.410818977967607,45.20836943873662],[1.41129750477735,45.207716104158855],[1.410976763252551,45.20725763721736],[1.407415581473443,45.2059289567738],[1.406739933413371,45.20500700839307],[1.407787664529171,45.20409522931835],[1.407654668129469,45.20313058811437],[1.40736894779692,45.20247357649236],[1.407001384871934,45.20200632460963],[1.406431334224448,45.201938751916984],[1.406371934866998,45.200315917954256],[1.406020401493939,45.19951116537274],[1.406248595068956,45.198300409779385],[1.406841815019963,45.19693005241378],[1.406677571283834,45.1950085259453],[1.406904495312183,45.193350153588554],[1.407636184096016,45.19243657360997],[1.408983837571477,45.19109227499433],[1.409621987376457,45.1908221802718],[1.411083239919521,45.19049535276656],[1.412123246586314,45.18988783356801],[1.4117724629683,45.189682911199874],[1.411213999850415,45.189122898168435],[1.411058076397997,45.189097263693924],[1.410189786406477,45.187342242940204],[1.409837746329721,45.18601965242706],[1.409558696225582,45.185667145599425],[1.409032979675876,45.18525618666867]]]]}}]}