{"type":"FeatureCollection","features":[{"type":"Feature","properties":{"fid":503,"ID":"COMMUNE_0000000009748010","NOM":"Boussais","NOM_M":"BOUSSAIS","INSEE_COM":"79047","STATUT":"Commune simple","POPULATION":448,"INSEE_CAN":"17","INSEE_ARR":"3","INSEE_DEP":"79","INSEE_REG":"75","SIREN_EPCI":"200041416"},"geometry":{"type":"MultiPolygon","coordinates":[[[[-0.284154833773039,46.82498640564097],[-0.283787467679592,46.82505547431387],[-0.283533733688276,46.82524475621282],[-0.283186073789319,46.82596390083035],[-0.282183414221351,46.8269892148212],[-0.281920784558335,46.82794203195966],[-0.281646627220576,46.82840133968109],[-0.281363889525982,46.829304263494095],[-0.280887464071839,46.830304631332595],[-0.280847674414274,46.830926667345956],[-0.281264502279706,46.8317816915116],[-0.280944725430423,46.832160292402655],[-0.280067497241884,46.83267915494587],[-0.279547196930801,46.83276068102209],[-0.277488117238426,46.83217235455037],[-0.276537214006654,46.831756083021446],[-0.276094401283383,46.83142535799812],[-0.275306881861371,46.83145229802959],[-0.274836826543939,46.831561208877304],[-0.274413577059583,46.83187965607675],[-0.274074938661818,46.83277243389185],[-0.273805610569504,46.83300899616923],[-0.273068319959939,46.833215622884104],[-0.272120440520049,46.83315338421043],[-0.27143641071369,46.8333071187232],[-0.271225099191263,46.833460919879116],[-0.270795372457897,46.83410755782032],[-0.27055332945913,46.83418743568146],[-0.269788370505799,46.83424072973774],[-0.269498491741683,46.83444181920485],[-0.268940696705142,46.835425517792004],[-0.26789967853289,46.83632291727479],[-0.267473722965407,46.83722896578283],[-0.265955562405439,46.838272370667454],[-0.265613751514624,46.838745269786344],[-0.265641074644821,46.838980595990606],[-0.266452241023223,46.839931706101396],[-0.266733351857874,46.84004177265993],[-0.267844999946069,46.83996513370921],[-0.268243198088316,46.840013294658505],[-0.26868978787091,46.84023219931252],[-0.269019569278481,46.84066979839862],[-0.268954106557147,46.84165211455107],[-0.269169809252726,46.842636351412004],[-0.269113139524525,46.842850634448126],[-0.268657510292521,46.84339616583902],[-0.268309148436714,46.844130592567865],[-0.268275644681515,46.84461996942256],[-0.26848093880543,46.84493134147521],[-0.26842990440126,46.84510851649496],[-0.26788279138772,46.84537908842735],[-0.266873627337905,46.84545822058783],[-0.266223047983467,46.84569026999612],[-0.265463762727694,46.84640661645224],[-0.26439348766286,46.84675780624902],[-0.263809157388083,46.8472177542353],[-0.262777574967781,46.84760117278112],[-0.262081295674742,46.84768580413599],[-0.26085589569704,46.84722852284878],[-0.258893998245517,46.84601260549783],[-0.257688962245373,46.845499745134674],[-0.256692973085295,46.84525219914281],[-0.255955231475915,46.84490902217199],[-0.254293893707305,46.84445139772884],[-0.251360785613097,46.84348271330343],[-0.248039690180642,46.84261232538921],[-0.245168398398774,46.842211264920195],[-0.243653801383,46.84128436170508],[-0.243107215532297,46.84068790049732],[-0.242686408152803,46.840393377712275],[-0.242216538931249,46.84017863592889],[-0.241019936774223,46.839845598785296],[-0.240626466711878,46.83985398300233],[-0.240052505148917,46.84018194895554],[-0.239724638188769,46.84018938295136],[-0.239305462156567,46.83974611428858],[-0.236937333309479,46.84088244251504],[-0.236547974625459,46.84098171185119],[-0.236024646985858,46.84099283322771],[-0.235553476193834,46.84073394571572],[-0.235339198344561,46.8403786173109],[-0.234949786611833,46.840476981626914],[-0.232453865481072,46.840398471303004],[-0.230815775404519,46.84043458722968],[-0.228805835806131,46.84092988505715],[-0.228455073059348,46.84044320643144],[-0.228132512113678,46.84053967071794],[-0.227878350378729,46.840726130134314],[-0.227616031402475,46.84073168980355],[-0.225218098886917,46.83896875705905],[-0.226398919280781,46.83833367848088],[-0.227226048454984,46.838022107707516],[-0.227551639942316,46.83764620852985],[-0.22784445020487,46.837469478173354],[-0.228530616682344,46.837370917262014],[-0.228744339093016,46.836836851439976],[-0.227707286250237,46.836203627873985],[-0.226866773308594,46.83514405050496],[-0.225693782098512,46.83412353172459],[-0.225560473811494,46.833494673997535],[-0.224558713532773,46.83219539659551],[-0.224492177444685,46.83039409031749],[-0.224718134915148,46.82982274163723],[-0.22512638265648,46.828365869334206],[-0.225491503510451,46.827772592209534],[-0.225534183314768,46.82727667081529],[-0.225841796633424,46.826864331613976],[-0.226735392535087,46.8263490389487],[-0.227289095383116,46.82557203707183],[-0.228577510550381,46.82185741533624],[-0.229297935291736,46.820200711546384],[-0.229393612945048,46.820242179885334],[-0.230678613272478,46.81964466620499],[-0.23245863708763,46.81860968281263],[-0.233413986084385,46.81849450483421],[-0.235798584084714,46.817912857976715],[-0.23693405555571,46.81738526279538],[-0.237378992241615,46.816878906399396],[-0.237814795064801,46.81661521331132],[-0.239165867680368,46.81659877964573],[-0.240018616503177,46.816371089546976],[-0.24082549935107,46.815574260023205],[-0.241933090952241,46.81477975757297],[-0.243041674233957,46.81367341807094],[-0.243238879004843,46.81275769424543],[-0.243096157266918,46.812237252439125],[-0.242491532700791,46.81167487090812],[-0.242395557377865,46.811474819760186],[-0.242465175985088,46.810817720840426],[-0.242369745710844,46.810297746461835],[-0.242686290495385,46.80970937800937],[-0.242442675529129,46.808950273672444],[-0.242391675878766,46.80818573544241],[-0.243282348006471,46.807936220269575],[-0.243385911570551,46.80780263119212],[-0.244306101118018,46.80769555773296],[-0.247744590707499,46.807057758641136],[-0.249530472427079,46.80657022235385],[-0.250268955899066,46.80645381891628],[-0.254771422717934,46.80627053349632],[-0.256445010039692,46.80609966964204],[-0.259208499038848,46.80550227146624],[-0.261055772035592,46.80496865391103],[-0.262055619887785,46.80455097922619],[-0.260384085079736,46.80340257192705],[-0.26016429391125,46.80291226834762],[-0.259607358388005,46.80224949305859],[-0.259275663872842,46.80157852540014],[-0.258705969807027,46.80033215712231],[-0.257798973952992,46.79928098755895],[-0.257568653976748,46.79798173747897],[-0.263501056507042,46.79599487270883],[-0.264281880364538,46.79588708434157],[-0.267048834565857,46.7961842362585],[-0.268688276491245,46.79619258519376],[-0.269796689081447,46.79607724277433],[-0.272205924334353,46.79575183113941],[-0.273550363875947,46.7950908328196],[-0.275034068022338,46.79460698338052],[-0.276203856363055,46.7944006128581],[-0.277275475832395,46.794871104506335],[-0.27895740772309,46.79577746140278],[-0.28036080914411,46.796330377265036],[-0.280949194017959,46.79631718408642],[-0.282376901257733,46.796014170983334],[-0.28605944723155,46.794940161597964],[-0.289494635865725,46.79508969731746],[-0.290145051577413,46.794779996622424],[-0.29059230987186,46.79432291012492],[-0.294412382918969,46.79225609446483],[-0.294576666242753,46.791850360017854],[-0.29603339928696,46.78980526163031],[-0.297217403212292,46.788562808418035],[-0.29863710775903,46.7867746679911],[-0.30028227485946,46.78556669963187],[-0.301503437743574,46.78508823225381],[-0.303020625101396,46.78483915328965],[-0.303732303038285,46.7845906907143],[-0.305358338085727,46.784190655720586],[-0.306751226046176,46.784248801894215],[-0.308279027019277,46.78449680139031],[-0.313114227214923,46.78555964948705],[-0.313262894309724,46.78571667487107],[-0.311187184538624,46.787475254839926],[-0.307878771184963,46.79083735022714],[-0.304620173378821,46.79388248928544],[-0.303232767974628,46.79499478744133],[-0.302048761439312,46.79623730053494],[-0.300946931168783,46.79783881197622],[-0.298977296071055,46.799909506549255],[-0.296966115713412,46.80220574679162],[-0.295172127122887,46.804407403479495],[-0.294858273737739,46.80468495177895],[-0.293195738481513,46.80689271583905],[-0.29105367780499,46.810110878147555],[-0.28964138902768,46.81313778681218],[-0.288627308520688,46.815828858998955],[-0.288440411785458,46.81610185288317],[-0.288376529806793,46.81643350820998],[-0.288685648379617,46.81877941984631],[-0.288277868753202,46.81880910786207],[-0.287130583792308,46.81922131015293],[-0.286608697708467,46.82042126661712],[-0.286258771398524,46.82086383001608],[-0.285581308050251,46.82138243950056],[-0.284589182884605,46.82197311639794],[-0.284199046489239,46.82231589080193],[-0.283663334025392,46.8225096235157],[-0.283316937807614,46.82275111598805],[-0.283537656476671,46.823446820163845],[-0.283896508973344,46.82386552553934],[-0.284109435285637,46.82449746859369],[-0.284154833773039,46.82498640564097]]]]}},{"type":"Feature","properties":{"fid":508,"ID":"COMMUNE_0000000009747790","NOM":"Irais","NOM_M":"IRAIS","INSEE_COM":"79141","STATUT":"Commune simple","POPULATION":209,"INSEE_CAN":"17","INSEE_ARR":"3","INSEE_DEP":"79","INSEE_REG":"75","SIREN_EPCI":"200041416"},"geometry":{"type":"MultiPolygon","coordinates":[[[[-0.11355446321632,46.84502934885185],[-0.112780816222079,46.84648931376351],[-0.112075518135284,46.847448224372236],[-0.110550481676369,46.85135329940031],[-0.108291067953254,46.854207708778645],[-0.108124565901297,46.85549443890337],[-0.108752716156594,46.8570777784455],[-0.108750573350104,46.85795548433722],[-0.11028761147496,46.858095059100584],[-0.113321901888217,46.85875547910648],[-0.114737517235226,46.85877032782853],[-0.115293346997921,46.85870481863532],[-0.115559876285205,46.8597752915406],[-0.11610501834484,46.86109863015392],[-0.116034518663167,46.865054469039634],[-0.116457298301299,46.86625947380058],[-0.116580249004155,46.867368073034044],[-0.117241521557234,46.86974792732181],[-0.117147683583696,46.87055963593418],[-0.116800554854729,46.87165032947658],[-0.11641346272748,46.872480791531416],[-0.115914030074198,46.87453254687931],[-0.114037236506855,46.877197359127706],[-0.112780128070072,46.878438802636964],[-0.112147104674187,46.87894790640642],[-0.111085555466206,46.8801407892868],[-0.110601678208513,46.8810504327726],[-0.11064162365939,46.88190537043784],[-0.111485736510106,46.8831467578413],[-0.111726940896101,46.88379892017947],[-0.113223810517053,46.88592281789791],[-0.113857205411555,46.887086088772044],[-0.114533390481216,46.88874108446915],[-0.115604096731673,46.8907413229579],[-0.11568370471573,46.89132486431038],[-0.115591265480585,46.893942271345345],[-0.116331451854557,46.899352983295046],[-0.116484373485613,46.902189912785],[-0.116824459427416,46.90514882488234],[-0.115292579796573,46.90480281882907],[-0.112979592393276,46.90360838309279],[-0.110969802646666,46.901992123076596],[-0.107967644129043,46.89902669491922],[-0.107545998420317,46.896675482888476],[-0.107478895193812,46.894843625514625],[-0.107328653618721,46.89415025555505],[-0.106672187802651,46.8931335479498],[-0.105795381941833,46.89244536291136],[-0.105564095426404,46.891942500038695],[-0.10393620648909,46.89248108616434],[-0.100089270235648,46.89322179058263],[-0.099384118380068,46.89325699530237],[-0.09739574785036,46.89317174358446],[-0.092451139475974,46.89342991312644],[-0.091790986699027,46.893493597393665],[-0.088892523964415,46.8942742237875],[-0.087691358079869,46.894439800402814],[-0.085902564244409,46.894466134386896],[-0.083456836086395,46.89382883861467],[-0.077869671932789,46.891735618428356],[-0.076271519397737,46.89122959237263],[-0.070190859790946,46.888837435357104],[-0.069858147374884,46.88878773983438],[-0.069616344569258,46.888904115787504],[-0.068502000382706,46.88839769891941],[-0.06888379468892,46.887667582321946],[-0.068133666261941,46.886352220725996],[-0.067122134050338,46.885386219148366],[-0.066420056030807,46.884917455431385],[-0.065860440289118,46.88466655173245],[-0.066196398239859,46.884171036321085],[-0.066147039703113,46.88399574523895],[-0.06709704988688,46.88348296776319],[-0.067995153790983,46.8816145818728],[-0.069126275931591,46.88051938363289],[-0.070200289619811,46.878974268384425],[-0.070941205692981,46.87762725022111],[-0.071494118831899,46.875839221149725],[-0.071740396993326,46.8753397713926],[-0.071829381258403,46.87521755608803],[-0.072454836451805,46.87503236334029],[-0.073333688633254,46.87424209963013],[-0.075023352165763,46.873153542544685],[-0.076322981881659,46.87197716992811],[-0.077219869201019,46.87069711617948],[-0.077561965116278,46.87035908171158],[-0.078961949010925,46.869078171509024],[-0.081707239094844,46.86694395976242],[-0.082976475876716,46.8657926447472],[-0.08457179749906,46.86460103592879],[-0.087861240954592,46.862663824277526],[-0.090083761078168,46.858425010628416],[-0.090146413809779,46.858072812666],[-0.090909207299763,46.85634029339605],[-0.09096633559016,46.8558224464087],[-0.091145403209966,46.85571491350203],[-0.091240240574414,46.85463829144688],[-0.092281212696946,46.85177555096833],[-0.092246471105419,46.85130522518074],[-0.092708355911235,46.85097563196394],[-0.09470677204402,46.85009200176307],[-0.096465652658175,46.848948065454415],[-0.097360550061949,46.848222037163445],[-0.098496002171569,46.84697230525546],[-0.099986674818623,46.848189140746584],[-0.100673255415728,46.84951413809319],[-0.101492624328373,46.850588657372924],[-0.101910204597123,46.85054135527347],[-0.104110282468346,46.850154018430345],[-0.108283690739995,46.84856536211153],[-0.109358091481813,46.84829213336413],[-0.110797765003825,46.84701602722418],[-0.111959213721972,46.846270054915514],[-0.11355446321632,46.84502934885185]]]]}},{"type":"Feature","properties":{"fid":570,"ID":"COMMUNE_0000000009748009","NOM":"Maisontiers","NOM_M":"MAISONTIERS","INSEE_COM":"79165","STATUT":"Commune simple","POPULATION":130,"INSEE_CAN":"17","INSEE_ARR":"3","INSEE_DEP":"79","INSEE_REG":"75","SIREN_EPCI":"200041416"},"geometry":{"type":"MultiPolygon","coordinates":[[[[-0.313574818793132,46.78536793084497],[-0.313114227214923,46.78555964948705],[-0.308279027019277,46.78449680139031],[-0.306751226046176,46.784248801894215],[-0.305358338085727,46.784190655720586],[-0.303732303038285,46.7845906907143],[-0.303020625101396,46.78483915328965],[-0.301503437743574,46.78508823225381],[-0.30028227485946,46.78556669963187],[-0.29863710775903,46.7867746679911],[-0.297217403212292,46.788562808418035],[-0.29603339928696,46.78980526163031],[-0.294576666242753,46.791850360017854],[-0.294412382918969,46.79225609446483],[-0.29059230987186,46.79432291012492],[-0.290145051577413,46.794779996622424],[-0.289494635865725,46.79508969731746],[-0.28605944723155,46.794940161597964],[-0.282376901257733,46.796014170983334],[-0.280949194017959,46.79631718408642],[-0.28036080914411,46.796330377265036],[-0.27895740772309,46.79577746140278],[-0.277275475832395,46.794871104506335],[-0.276203856363055,46.7944006128581],[-0.275034068022338,46.79460698338052],[-0.273550363875947,46.7950908328196],[-0.272205924334353,46.79575183113941],[-0.269796689081447,46.79607724277433],[-0.268688276491245,46.79619258519376],[-0.267048834565857,46.7961842362585],[-0.264281880364538,46.79588708434157],[-0.263501056507042,46.79599487270883],[-0.257568653976748,46.79798173747897],[-0.257798973952992,46.79928098755895],[-0.258705969807027,46.80033215712231],[-0.259275663872842,46.80157852540014],[-0.258584907657871,46.80141788148765],[-0.257782192422465,46.80107566987011],[-0.255450636551831,46.80031808173808],[-0.254581063338125,46.79993268474965],[-0.254253441743521,46.79994016022083],[-0.252974617890502,46.800803627143935],[-0.250736519552445,46.79943682265258],[-0.249666119071464,46.79898407682669],[-0.249279251017313,46.79887876694967],[-0.248901267481658,46.79894352286165],[-0.248506182347003,46.7986573106886],[-0.247990677069149,46.79846371508246],[-0.24423820908044,46.79770550576739],[-0.243241831293964,46.797545289457815],[-0.241190084790212,46.79735716220825],[-0.236333234155148,46.797219194989715],[-0.236301914364575,46.79458511612026],[-0.235940522296961,46.79387257164211],[-0.23663287642833,46.793271830449335],[-0.23702063624249,46.79317349610348],[-0.236825443051884,46.790432287550175],[-0.237153734473848,46.78907491671504],[-0.237242895172992,46.78821721184853],[-0.237016679744043,46.78759277914874],[-0.236317025151037,46.78666357624784],[-0.235637575982505,46.786138417500986],[-0.233695990766223,46.7852820172709],[-0.229898679548123,46.783972226423074],[-0.22977816974049,46.7836890488622],[-0.226825324690216,46.78252393274708],[-0.225651346206931,46.781974759356366],[-0.224684222336661,46.781263869992515],[-0.222084065527113,46.77878928425942],[-0.221501522543411,46.778809226543515],[-0.221395260293826,46.77874281812473],[-0.223739252388805,46.77657919176876],[-0.225127800551282,46.77562194507002],[-0.224790907170793,46.77551515507593],[-0.225327335736156,46.77542620026388],[-0.226594769238315,46.774748987600695],[-0.228974699740468,46.77389991287029],[-0.232897645062693,46.77290734036016],[-0.233083321038473,46.7730517057264],[-0.233190547669929,46.77383809774155],[-0.233321014361679,46.77409035284611],[-0.233987991606123,46.77436535253961],[-0.234487666255634,46.77489197565948],[-0.234962317087008,46.77513093239363],[-0.236465953778871,46.77544633508451],[-0.237367189352261,46.77514068001326],[-0.238227371145057,46.775443553463965],[-0.238489158388862,46.77543437094907],[-0.239164348161495,46.774880047095735],[-0.240358792872548,46.77410380603274],[-0.240637295464912,46.77400132777248],[-0.241214738409109,46.77400666312463],[-0.241657802707389,46.774331192906295],[-0.243213295982008,46.773780834206576],[-0.24423919897187,46.77332381324996],[-0.244337636471586,46.77236039796747],[-0.245142878230618,46.77183300172738],[-0.245381079273714,46.77140813376414],[-0.245248183759132,46.77037104955668],[-0.244889292640823,46.76965575589834],[-0.244747923937546,46.7691343737206],[-0.245156649727773,46.768227974507916],[-0.245938164565698,46.76732725899385],[-0.246683051914493,46.76592472474664],[-0.246537584703237,46.76391113665721],[-0.246670334432302,46.76336848918934],[-0.24964264831633,46.75983476794135],[-0.251087204836638,46.75735442707871],[-0.251372955013591,46.75356864978106],[-0.2501892502498,46.75280733403686],[-0.249729070820347,46.752260735424706],[-0.249125930650783,46.7517569308659],[-0.248500743504814,46.75084101343116],[-0.248163953838789,46.75029632506191],[-0.248007823883958,46.749703269291714],[-0.247322974327232,46.748775516529605],[-0.246955823765247,46.74802982274254],[-0.246785960430125,46.74659366307649],[-0.24752952560423,46.74661949304528],[-0.248185144322034,46.74655588752476],[-0.249360541231313,46.74680919757647],[-0.249590954942421,46.74678194919334],[-0.249832445979017,46.74658947322547],[-0.250158351481538,46.746471206174945],[-0.250396464581853,46.74611300975149],[-0.250698721398637,46.74588456697429],[-0.251658766383525,46.745825838596815],[-0.252039807716986,46.74503102926138],[-0.25290645653064,46.744508130116316],[-0.253185524906354,46.74443984411378],[-0.253444942827852,46.743890889938264],[-0.253594945388541,46.74381274291214],[-0.254407742674486,46.74407537522201],[-0.254961164216388,46.74414439541398],[-0.255831386378806,46.74459914139434],[-0.25634877441001,46.74457004825466],[-0.257476175091606,46.74435152185222],[-0.258404453629188,46.74448468581436],[-0.258706655823894,46.74477980291631],[-0.259094619792744,46.74480033083212],[-0.259102981545727,46.74507044496412],[-0.259301743257012,46.745476637719854],[-0.25921499705488,46.746171200171105],[-0.260003781683184,46.74690578901578],[-0.26132962421001,46.74785041123822],[-0.262309540470538,46.74825243039727],[-0.262767374143253,46.748649453795736],[-0.26403133294138,46.74891271641962],[-0.264974254377643,46.74920041537606],[-0.266165544255496,46.75080396486442],[-0.267845109734466,46.7522845655936],[-0.269049983643471,46.75415444930869],[-0.269326481955778,46.75513065937395],[-0.268715474327551,46.75604472255281],[-0.267472843125266,46.75742283699023],[-0.267418323473106,46.75764968153819],[-0.270928343474766,46.759819810336715],[-0.269238270857012,46.761433275021766],[-0.268146444086014,46.76226909893175],[-0.267213954448115,46.763290525538636],[-0.264760327989299,46.76483732164256],[-0.263033184848672,46.76625438119324],[-0.26187285393087,46.76689202595127],[-0.261284353436438,46.76755217227098],[-0.260214381722603,46.76805746484047],[-0.259725087231529,46.76860123897591],[-0.260087763530711,46.76848190392466],[-0.262354916363505,46.76816880669454],[-0.263170273689231,46.768140236873144],[-0.263824097309348,46.76823881068003],[-0.264169085040527,46.76837049002604],[-0.264493363194499,46.76883348601417],[-0.264681520605559,46.76895249920023],[-0.267429781991146,46.7691798450505],[-0.270589101006767,46.76932873468613],[-0.272791207559258,46.76956789968903],[-0.273466484543277,46.7695432487524],[-0.274036392816101,46.769402642616654],[-0.274627573342754,46.769701199767646],[-0.275529677576565,46.769718732874146],[-0.27582048773034,46.770038466344836],[-0.276527418059488,46.77023368246814],[-0.277936213342591,46.770084442858874],[-0.279429495244906,46.76966242075239],[-0.280198765041066,46.76965216876731],[-0.281092281251464,46.76985284234561],[-0.281764029738314,46.77013824827349],[-0.282332602398031,46.77060413087809],[-0.283090088839542,46.770723966175986],[-0.28354451446769,46.77095068918442],[-0.283813288343493,46.77120885258305],[-0.284636042748696,46.771215065920536],[-0.285204264281713,46.77078697651434],[-0.285978007034961,46.77115325098899],[-0.289693147865568,46.77148848285555],[-0.291872217878807,46.77220917755156],[-0.291603487164373,46.77419947667387],[-0.291571912821827,46.77532144988747],[-0.299540458439541,46.774392610207265],[-0.299532143275641,46.775592325150086],[-0.299793904436175,46.77959146843107],[-0.300192468746844,46.77971699891998],[-0.303414556886285,46.77995782709868],[-0.305720974549051,46.780219511775776],[-0.308884317264892,46.781947035085004],[-0.313652106974467,46.78296223120037],[-0.313574818793132,46.78536793084497]]]]}},{"type":"Feature","properties":{"fid":609,"ID":"COMMUNE_0000000009748008","NOM":"Louin","NOM_M":"LOUIN","INSEE_COM":"79156","STATUT":"Commune simple","POPULATION":679,"INSEE_CAN":"17","INSEE_ARR":"3","INSEE_DEP":"79","INSEE_REG":"75","SIREN_EPCI":"200041416"},"geometry":{"type":"MultiPolygon","coordinates":[[[[-0.235641600586672,46.748928687220385],[-0.236470580262254,46.74873770620697],[-0.237222828201439,46.74877687621457],[-0.238268474310563,46.74856985992234],[-0.238667652685133,46.748931681169346],[-0.239007493457788,46.74948532016777],[-0.239442509511145,46.74954694236708],[-0.239838760997971,46.74935462807022],[-0.240193594150489,46.74882013851967],[-0.241467372767055,46.74819662528266],[-0.241782698045958,46.747856995470165],[-0.242617236796157,46.74736482344215],[-0.244410511770298,46.74716456769729],[-0.245109876764038,46.74682398738748],[-0.246346506438155,46.74672053811748],[-0.246785960430125,46.74659366307649],[-0.246955823765247,46.74802982274254],[-0.247322974327232,46.748775516529605],[-0.248007823883958,46.749703269291714],[-0.248163953838789,46.75029632506191],[-0.248500743504814,46.75084101343116],[-0.249125930650783,46.7517569308659],[-0.249729070820347,46.752260735424706],[-0.2501892502498,46.75280733403686],[-0.251372955013591,46.75356864978106],[-0.251087204836638,46.75735442707871],[-0.24964264831633,46.75983476794135],[-0.246670334432302,46.76336848918934],[-0.246537584703237,46.76391113665721],[-0.246683051914493,46.76592472474664],[-0.245938164565698,46.76732725899385],[-0.245156649727773,46.768227974507916],[-0.244747923937546,46.7691343737206],[-0.244889292640823,46.76965575589834],[-0.245248183759132,46.77037104955668],[-0.245381079273714,46.77140813376414],[-0.245142878230618,46.77183300172738],[-0.244337636471586,46.77236039796747],[-0.24423919897187,46.77332381324996],[-0.243213295982008,46.773780834206576],[-0.241657802707389,46.774331192906295],[-0.241214738409109,46.77400666312463],[-0.240637295464912,46.77400132777248],[-0.240358792872548,46.77410380603274],[-0.239164348161495,46.774880047095735],[-0.238489158388862,46.77543437094907],[-0.238227371145057,46.775443553463965],[-0.237367189352261,46.77514068001326],[-0.236465953778871,46.77544633508451],[-0.234962317087008,46.77513093239363],[-0.234487666255634,46.77489197565948],[-0.233987991606123,46.77436535253961],[-0.233321014361679,46.77409035284611],[-0.233190547669929,46.77383809774155],[-0.233083321038473,46.7730517057264],[-0.232897645062693,46.77290734036016],[-0.228974699740468,46.77389991287029],[-0.226594769238315,46.774748987600695],[-0.225327335736156,46.77542620026388],[-0.224790907170793,46.77551515507593],[-0.225127800551282,46.77562194507002],[-0.223739252388805,46.77657919176876],[-0.221395260293826,46.77874281812473],[-0.221501522543411,46.778809226543515],[-0.222084065527113,46.77878928425942],[-0.224684222336661,46.781263869992515],[-0.225651346206931,46.781974759356366],[-0.226825324690216,46.78252393274708],[-0.22977816974049,46.7836890488622],[-0.229898679548123,46.783972226423074],[-0.233695990766223,46.7852820172709],[-0.235637575982505,46.786138417500986],[-0.236317025151037,46.78666357624784],[-0.237016679744043,46.78759277914874],[-0.237242895172992,46.78821721184853],[-0.237153734473848,46.78907491671504],[-0.236825443051884,46.790432287550175],[-0.23702063624249,46.79317349610348],[-0.23663287642833,46.793271830449335],[-0.235940522296961,46.79387257164211],[-0.236301914364575,46.79458511612026],[-0.236333234155148,46.797219194989715],[-0.234460896658581,46.79684836969374],[-0.227125715682662,46.79614263500443],[-0.225315509137735,46.796218688499415],[-0.223711281533063,46.796757529769145],[-0.221080319362141,46.7973089106501],[-0.219181986633278,46.797028682159805],[-0.21775985390139,46.797033367315464],[-0.217614904120294,46.79693469592084],[-0.216395933111237,46.797222941549265],[-0.215267219261987,46.79739600621093],[-0.213523513336206,46.797930493477],[-0.210793668081151,46.799118799699244],[-0.209125304662326,46.799686256548576],[-0.208434733750964,46.79981367435967],[-0.207224205449511,46.79989161922893],[-0.204309651058322,46.800956056734314],[-0.200430139175333,46.80328184197359],[-0.19835299991377,46.80430928012204],[-0.196657817105585,46.80500525384836],[-0.195688328464355,46.80527822199333],[-0.194590115210273,46.805482669363464],[-0.19156469111343,46.805654128998775],[-0.190228955562655,46.805814666290054],[-0.18919526832898,46.80582262717979],[-0.188717387800344,46.80590887724198],[-0.188301470293731,46.80611145380714],[-0.186481825592708,46.80746133570944],[-0.184077742110294,46.80820289931915],[-0.183046294096259,46.80914340256776],[-0.182148488087342,46.809454817712805],[-0.181542488942303,46.80959504621856],[-0.181112899521733,46.80958801239179],[-0.179601581705033,46.80944239527167],[-0.178362108135657,46.80920994349518],[-0.177208112054148,46.80920400016158],[-0.176302637041471,46.80898211856417],[-0.175532042581742,46.80879975745616],[-0.173555250346488,46.80872819651892],[-0.17280543021967,46.80874348964656],[-0.171694044023088,46.80888229596463],[-0.169533723882824,46.80867966153452],[-0.168563673442507,46.80874425307675],[-0.16602961650348,46.809489914670245],[-0.163450923683321,46.81012410774686],[-0.159579650641366,46.81155071021202],[-0.158681778001481,46.81195385217832],[-0.15861855469301,46.811679849858976],[-0.158720166212728,46.8110138408381],[-0.159449270774222,46.81003502174468],[-0.159581235940026,46.80871937718182],[-0.159751752121902,46.80804246104654],[-0.159557408260164,46.808085650020175],[-0.157833344168383,46.808003268394124],[-0.156562129661764,46.8078768869225],[-0.155859438975534,46.807687124743445],[-0.15446163068077,46.80705416843054],[-0.154174144996642,46.80721074085089],[-0.152545914944877,46.80859445694264],[-0.152008039078269,46.80932018161605],[-0.151712813632512,46.81020144958242],[-0.151191250616993,46.8105536639758],[-0.150884312616793,46.81051161598435],[-0.151292076490239,46.80869912516761],[-0.151398487122339,46.80700843363991],[-0.151328202227722,46.806499432638645],[-0.150331877044358,46.80509578624623],[-0.148276524342269,46.80342017623642],[-0.148162146730103,46.80323587898301],[-0.148168908439871,46.80290048194639],[-0.1485060423511,46.8019045342625],[-0.14879709521789,46.80129011502482],[-0.14899993752738,46.80107730258981],[-0.149771704578845,46.80078672240522],[-0.152395285641847,46.800162408759],[-0.154889931997247,46.79987137965114],[-0.155933991673551,46.79986343929467],[-0.156845624254904,46.79974468592966],[-0.15772764711864,46.79979344455641],[-0.159259576765862,46.799443161770355],[-0.161396030924283,46.798613958365436],[-0.161763934232155,46.79837495409285],[-0.164177783650983,46.797578614520376],[-0.166407822407112,46.79637727875077],[-0.168776853160601,46.794794495411075],[-0.169574645998943,46.794817549249366],[-0.170235967981138,46.79475064621458],[-0.171130767566306,46.79423394573908],[-0.173085422899035,46.793376188749725],[-0.176221981297117,46.79231361903103],[-0.177429294896905,46.79265330575448],[-0.178459470900735,46.79261219926211],[-0.179120584631713,46.79238575090466],[-0.180198760606229,46.791396218965374],[-0.180836990831983,46.79042245974239],[-0.183477595961443,46.7879126846074],[-0.185218790742575,46.78713541605219],[-0.187368095725085,46.78575836146523],[-0.18789292095688,46.78506795359199],[-0.188513831758952,46.78449472652266],[-0.188599030394786,46.78424815579998],[-0.19113827249152,46.78337024149037],[-0.19052437854614,46.78252400769715],[-0.190641764248436,46.781910681766654],[-0.190244961911394,46.78051773846928],[-0.190220047229379,46.77987141781327],[-0.190052865706316,46.779326369942666],[-0.190214199636722,46.77845680313961],[-0.189967981669167,46.77774994390787],[-0.189839876256532,46.77684335769397],[-0.190042942517463,46.776638568509334],[-0.191034173170495,46.77431404952649],[-0.192251990187025,46.773723311568354],[-0.195484940940463,46.77245203110904],[-0.195795176002904,46.77208564909096],[-0.195715075158097,46.77177248003467],[-0.195095086304617,46.77111117227896],[-0.195075159370004,46.77070621537479],[-0.19552561940381,46.77051616025766],[-0.197465133039177,46.76997827414236],[-0.199284270797264,46.76966809061632],[-0.201342698617598,46.768857384054634],[-0.202571017616233,46.768514951338176],[-0.204725475786393,46.76837645833773],[-0.20524140189356,46.76818543801451],[-0.206124898042394,46.767490329557745],[-0.206638150826286,46.76725432006479],[-0.207484138557344,46.767145088892384],[-0.208999686686594,46.76733615046767],[-0.211291799659222,46.76733066032891],[-0.212018809457561,46.76744910713508],[-0.212621624201203,46.76775125238313],[-0.212904953216557,46.76819480055877],[-0.213247119277308,46.76850243148736],[-0.214034282985526,46.76852906863176],[-0.215521816548723,46.7681359859955],[-0.216093805685501,46.76776311693908],[-0.217406110741166,46.76642871077338],[-0.218046254729111,46.7660998802025],[-0.219081942270647,46.76585097591745],[-0.220131081673201,46.76587293064584],[-0.222446642495691,46.75668473240376],[-0.22304365254386,46.75545592720067],[-0.223587660472653,46.755387488346074],[-0.223977623947164,46.75515395530416],[-0.224278667011846,46.7551671302212],[-0.224712487437271,46.75529642899068],[-0.22498399706683,46.755474441394234],[-0.225062178500233,46.75568672010636],[-0.225009144723566,46.75598559019551],[-0.225378350151912,46.75610859099724],[-0.225949073152851,46.756004245685176],[-0.226147253017877,46.75583106330591],[-0.226373067793802,46.75524077091266],[-0.227201363759761,46.754948049463216],[-0.227660275068164,46.75463957201433],[-0.228696508429572,46.75424997739986],[-0.229077709557681,46.75367152990716],[-0.229406769270567,46.75334056291616],[-0.229920278100487,46.75300260415107],[-0.231148652251514,46.75240572168174],[-0.232377224044194,46.75212062019714],[-0.232752633336467,46.75219385882425],[-0.232985430743706,46.75205213050297],[-0.233044973599836,46.751687287285485],[-0.232845663191758,46.75102694352355],[-0.232850462648984,46.75011753983083],[-0.232695686057124,46.74969835340125],[-0.232819065428443,46.749568717324486],[-0.232706144823511,46.74938986278928],[-0.233204540565271,46.74921722493888],[-0.233562808638564,46.74928914082243],[-0.234553829949865,46.74930898727156],[-0.234842710249357,46.749404481836294],[-0.235191720498083,46.749299125148184],[-0.235349571197022,46.749044154786134],[-0.235641600586672,46.748928687220385]]]]}},{"type":"Feature","properties":{"fid":986,"ID":"COMMUNE_0000000009747792","NOM":"Airvault","NOM_M":"AIRVAULT","INSEE_COM":"79005","STATUT":"Commune simple","POPULATION":3295,"INSEE_CAN":"17","INSEE_ARR":"3","INSEE_DEP":"79","INSEE_REG":"75","SIREN_EPCI":"200041416"},"geometry":{"type":"MultiPolygon","coordinates":[[[[-0.114899220625065,46.843225017089395],[-0.11355446321632,46.84502934885185],[-0.111959213721972,46.846270054915514],[-0.110797765003825,46.84701602722418],[-0.109358091481813,46.84829213336413],[-0.108283690739995,46.84856536211153],[-0.104110282468346,46.850154018430345],[-0.101910204597123,46.85054135527347],[-0.101492624328373,46.850588657372924],[-0.100673255415728,46.84951413809319],[-0.099986674818623,46.848189140746584],[-0.098496002171569,46.84697230525546],[-0.099142520096612,46.84592315817747],[-0.100166820506641,46.844752091675154],[-0.100343975094653,46.844313899525844],[-0.100288605364503,46.84389729291813],[-0.099617105722952,46.84421094311556],[-0.097314517069517,46.84505239882725],[-0.09506708407627,46.84557334250739],[-0.09334669988209,46.845757484947285],[-0.091128930637991,46.8461550064399],[-0.089679260992372,46.84654987695907],[-0.08792630374299,46.847315100506066],[-0.086656410414043,46.84837640123495],[-0.085455880457906,46.84906548708191],[-0.083808690268653,46.84947639065341],[-0.083042422193141,46.84958163015817],[-0.080319377448446,46.84973567373921],[-0.078536422769268,46.85011589501696],[-0.074065261070928,46.84983088551913],[-0.071331207838916,46.85002285415974],[-0.070570153365843,46.85012787055988],[-0.069593656777216,46.85037108666614],[-0.068962866351811,46.85061948901544],[-0.067267510929329,46.85150449197435],[-0.065476054362557,46.85192257786594],[-0.062188789327626,46.852437226873334],[-0.06088219773452,46.85251164475275],[-0.059345649663648,46.85249124502884],[-0.057518524789713,46.85262812297675],[-0.055502054865064,46.852412282538054],[-0.055581858140545,46.84861312129591],[-0.055939451903191,46.84738629713938],[-0.056427967051236,46.84657137894109],[-0.053303458997624,46.844052112258154],[-0.053609077438919,46.842066183525134],[-0.053455249831623,46.8415737858796],[-0.052836199560266,46.84091172389913],[-0.05127523743201,46.839729512690205],[-0.050269032041478,46.839210163289465],[-0.050004220050742,46.839171232252696],[-0.049269043872797,46.83887085152267],[-0.047879472483704,46.83858510670824],[-0.046393050846013,46.83758106838626],[-0.046174849952021,46.832184129699186],[-0.045757505519367,46.83218707436808],[-0.045735176126926,46.83062253429031],[-0.046570315041534,46.8270070031572],[-0.04618290228982,46.8267244237973],[-0.045693725847806,46.82656978543871],[-0.045455860820923,46.826308472121106],[-0.044832181294578,46.82558251922641],[-0.044245701501627,46.82439694118651],[-0.049109133869495,46.82317959716919],[-0.049011298853218,46.82305063714211],[-0.050655114052735,46.82277636377202],[-0.051769330900207,46.82270174257606],[-0.054208693690208,46.8228712464362],[-0.054887318565061,46.82303343002726],[-0.057281743823834,46.82322028240829],[-0.058301955999561,46.82366620806157],[-0.059117186483999,46.82385266660415],[-0.059211113918567,46.82374924861356],[-0.059196735422315,46.82349463056485],[-0.05976542086021,46.82284875468445],[-0.059856904307388,46.822585912993084],[-0.059973406885683,46.82258010931055],[-0.060333391921648,46.82221370729154],[-0.060822619839539,46.821393331721254],[-0.061052107999159,46.82066907441173],[-0.060839053931981,46.82031342001084],[-0.060121287167569,46.81962068617535],[-0.061785459422652,46.818826694279274],[-0.062716822173484,46.81860725711128],[-0.065889447527751,46.81751800698982],[-0.069312833460157,46.81652469291468],[-0.072710235217336,46.81523731789428],[-0.077018744264188,46.814465196745246],[-0.079105673967176,46.81374973316468],[-0.083921234444539,46.815225464499456],[-0.085447251541037,46.81540167701981],[-0.087873445321676,46.8155275630751],[-0.089792229481186,46.816031072250794],[-0.093203243378245,46.816416016245256],[-0.097906078760393,46.81756171171512],[-0.102122164675894,46.81838695412239],[-0.109177118834015,46.82009496286845],[-0.110501250092239,46.81880843889949],[-0.111862443501831,46.81782546181178],[-0.113253978772614,46.8162063782827],[-0.114262507365097,46.81539241176078],[-0.114951709774786,46.8144582326375],[-0.116315389709977,46.813681478834624],[-0.117233172988047,46.81268341740347],[-0.118907168138618,46.81125663765213],[-0.119529538379937,46.810896433414435],[-0.121244233102856,46.81045160399097],[-0.121950584451033,46.810114336117564],[-0.121702451367575,46.80979397811413],[-0.121646248381943,46.80925124395922],[-0.122150066049097,46.80963584395263],[-0.122808096841605,46.809849550105255],[-0.123473656641149,46.80976118146885],[-0.123577128129472,46.8096664581724],[-0.123477757916409,46.80905821642679],[-0.123651772034411,46.80845696312604],[-0.123496072484713,46.808169239526514],[-0.124224971796409,46.807131192635424],[-0.124729890567978,46.80671557880032],[-0.12537361442883,46.80643135267835],[-0.127206031925381,46.806392325536955],[-0.128043789382814,46.806059552017196],[-0.129274700999923,46.805762926007766],[-0.13051728231725,46.8056912432041],[-0.133439690273274,46.80652802846232],[-0.133834173861249,46.80656413078834],[-0.133733659231468,46.80580183756124],[-0.133383925370271,46.8053139652305],[-0.133058281245462,46.80392613760289],[-0.133119901532236,46.8038343478502],[-0.134822461084003,46.803797835536265],[-0.135672414970308,46.80233919552178],[-0.135930661591458,46.8022438415243],[-0.136815033592776,46.80294509487864],[-0.137075816610941,46.80293887822671],[-0.138727675305982,46.80177821354636],[-0.141148852069806,46.80107768849295],[-0.140631344422715,46.79984650544452],[-0.140985314403497,46.79956920373539],[-0.14265646833653,46.798857600828164],[-0.144223575323023,46.798298402696204],[-0.1446994593947,46.79872061619961],[-0.145536148131266,46.79916449177175],[-0.146155806331394,46.79953140130806],[-0.146885445082825,46.800323322178514],[-0.14783738715826,46.800627057787786],[-0.148192500854434,46.8008669375418],[-0.14899993752738,46.80107730258981],[-0.14879709521789,46.80129011502482],[-0.1485060423511,46.8019045342625],[-0.148168908439871,46.80290048194639],[-0.148162146730103,46.80323587898301],[-0.148276524342269,46.80342017623642],[-0.150331877044358,46.80509578624623],[-0.151328202227722,46.806499432638645],[-0.151398487122339,46.80700843363991],[-0.151292076490239,46.80869912516761],[-0.150884312616793,46.81051161598435],[-0.151191250616993,46.8105536639758],[-0.151712813632512,46.81020144958242],[-0.152008039078269,46.80932018161605],[-0.152545914944877,46.80859445694264],[-0.154174144996642,46.80721074085089],[-0.15446163068077,46.80705416843054],[-0.155859438975534,46.807687124743445],[-0.156562129661764,46.8078768869225],[-0.157833344168383,46.808003268394124],[-0.159557408260164,46.808085650020175],[-0.159751752121902,46.80804246104654],[-0.159581235940026,46.80871937718182],[-0.159449270774222,46.81003502174468],[-0.158720166212728,46.8110138408381],[-0.15861855469301,46.811679849858976],[-0.158681778001481,46.81195385217832],[-0.159579650641366,46.81155071021202],[-0.163450923683321,46.81012410774686],[-0.16602961650348,46.809489914670245],[-0.168563673442507,46.80874425307675],[-0.169533723882824,46.80867966153452],[-0.171694044023088,46.80888229596463],[-0.17280543021967,46.80874348964656],[-0.173555250346488,46.80872819651892],[-0.175532042581742,46.80879975745616],[-0.176302637041471,46.80898211856417],[-0.177208112054148,46.80920400016158],[-0.178362108135657,46.80920994349518],[-0.179601581705033,46.80944239527167],[-0.181112899521733,46.80958801239179],[-0.181542488942303,46.80959504621856],[-0.182148488087342,46.809454817712805],[-0.183046294096259,46.80914340256776],[-0.184077742110294,46.80820289931915],[-0.186481825592708,46.80746133570944],[-0.188301470293731,46.80611145380714],[-0.188717387800344,46.80590887724198],[-0.18919526832898,46.80582262717979],[-0.190228955562655,46.805814666290054],[-0.19156469111343,46.805654128998775],[-0.194590115210273,46.805482669363464],[-0.195688328464355,46.80527822199333],[-0.196657817105585,46.80500525384836],[-0.19835299991377,46.80430928012204],[-0.200430139175333,46.80328184197359],[-0.204309651058322,46.800956056734314],[-0.207224205449511,46.79989161922893],[-0.208434733750964,46.79981367435967],[-0.209125304662326,46.799686256548576],[-0.210793668081151,46.799118799699244],[-0.213523513336206,46.797930493477],[-0.215267219261987,46.79739600621093],[-0.216395933111237,46.797222941549265],[-0.217614904120294,46.79693469592084],[-0.21775985390139,46.797033367315464],[-0.219181986633278,46.797028682159805],[-0.221080319362141,46.7973089106501],[-0.223711281533063,46.796757529769145],[-0.225315509137735,46.796218688499415],[-0.227125715682662,46.79614263500443],[-0.234460896658581,46.79684836969374],[-0.236333234155148,46.797219194989715],[-0.241190084790212,46.79735716220825],[-0.243241831293964,46.797545289457815],[-0.24423820908044,46.79770550576739],[-0.247990677069149,46.79846371508246],[-0.248506182347003,46.7986573106886],[-0.248901267481658,46.79894352286165],[-0.249279251017313,46.79887876694967],[-0.249666119071464,46.79898407682669],[-0.250736519552445,46.79943682265258],[-0.252974617890502,46.800803627143935],[-0.254253441743521,46.79994016022083],[-0.254581063338125,46.79993268474965],[-0.255450636551831,46.80031808173808],[-0.257782192422465,46.80107566987011],[-0.258584907657871,46.80141788148765],[-0.259275663872842,46.80157852540014],[-0.259607358388005,46.80224949305859],[-0.26016429391125,46.80291226834762],[-0.260384085079736,46.80340257192705],[-0.262055619887785,46.80455097922619],[-0.261055772035592,46.80496865391103],[-0.259208499038848,46.80550227146624],[-0.256445010039692,46.80609966964204],[-0.254771422717934,46.80627053349632],[-0.250268955899066,46.80645381891628],[-0.249530472427079,46.80657022235385],[-0.247744590707499,46.807057758641136],[-0.244306101118018,46.80769555773296],[-0.243385911570551,46.80780263119212],[-0.243282348006471,46.807936220269575],[-0.242391675878766,46.80818573544241],[-0.242442675529129,46.808950273672444],[-0.242686290495385,46.80970937800937],[-0.242369745710844,46.810297746461835],[-0.242465175985088,46.810817720840426],[-0.242395557377865,46.811474819760186],[-0.242491532700791,46.81167487090812],[-0.243096157266918,46.812237252439125],[-0.243238879004843,46.81275769424543],[-0.243041674233957,46.81367341807094],[-0.241933090952241,46.81477975757297],[-0.24082549935107,46.815574260023205],[-0.240018616503177,46.816371089546976],[-0.239165867680368,46.81659877964573],[-0.237814795064801,46.81661521331132],[-0.237378992241615,46.816878906399396],[-0.23693405555571,46.81738526279538],[-0.235798584084714,46.817912857976715],[-0.233413986084385,46.81849450483421],[-0.23245863708763,46.81860968281263],[-0.230678613272478,46.81964466620499],[-0.229393612945048,46.820242179885334],[-0.229297935291736,46.820200711546384],[-0.228577510550381,46.82185741533624],[-0.227289095383116,46.82557203707183],[-0.226735392535087,46.8263490389487],[-0.225841796633424,46.826864331613976],[-0.225534183314768,46.82727667081529],[-0.225491503510451,46.827772592209534],[-0.22512638265648,46.828365869334206],[-0.224718134915148,46.82982274163723],[-0.224492177444685,46.83039409031749],[-0.224558713532773,46.83219539659551],[-0.225560473811494,46.833494673997535],[-0.225693782098512,46.83412353172459],[-0.226866773308594,46.83514405050496],[-0.227707286250237,46.836203627873985],[-0.228744339093016,46.836836851439976],[-0.228530616682344,46.837370917262014],[-0.22784445020487,46.837469478173354],[-0.227551639942316,46.83764620852985],[-0.227226048454984,46.838022107707516],[-0.226398919280781,46.83833367848088],[-0.225218098886917,46.83896875705905],[-0.22464070114411,46.83917418605872],[-0.224791035570183,46.839493477761856],[-0.224741543645873,46.83958858338126],[-0.223790947743333,46.83983420879005],[-0.223460297933379,46.839838971049716],[-0.222118151911305,46.84056684807764],[-0.217862461067723,46.84088514595736],[-0.214240440824071,46.8412819982909],[-0.213576864858096,46.84174029170881],[-0.213475849532964,46.84198551748878],[-0.213490832370654,46.842370781506375],[-0.213098751026163,46.84242498965833],[-0.212947946605189,46.84260582345319],[-0.212904976275193,46.84294404541041],[-0.213162004244579,46.84333606456018],[-0.213169933386204,46.84400087487848],[-0.212844387365707,46.84440195912975],[-0.212792026084375,46.844891832420274],[-0.212399180265412,46.84508843695501],[-0.21133126292974,46.846325766346176],[-0.210772300017763,46.847951681352384],[-0.210860482119127,46.84833129684884],[-0.211087072461073,46.84869713622667],[-0.211007119898472,46.84894357296373],[-0.209922084144364,46.849362240975445],[-0.20784203895919,46.849769000793955],[-0.203143772163849,46.85032345124978],[-0.202068596752245,46.85053270813274],[-0.20246301288977,46.8507388984349],[-0.20406352245045,46.85228210499814],[-0.203951129774691,46.85242490908687],[-0.203023585317738,46.85288778223054],[-0.20236326813336,46.853760427232594],[-0.201998238249618,46.85409589212626],[-0.201280169057108,46.85443667478591],[-0.20030953285723,46.85454928712681],[-0.198196058737115,46.85495048660228],[-0.197483460754547,46.85493965677587],[-0.196589454686742,46.855060019665466],[-0.195064285230289,46.85550338469224],[-0.194381818833912,46.85575842882023],[-0.193125042658842,46.85643220868953],[-0.191911001051013,46.85760851087026],[-0.190684460896962,46.85826159834917],[-0.190456629606256,46.858274224385106],[-0.189993035202257,46.858454686414305],[-0.190719103270146,46.858960802422445],[-0.190884097991555,46.85946445419986],[-0.190628902525115,46.86380498023022],[-0.190441376234996,46.865393432837934],[-0.190753240733,46.86613721313788],[-0.190989606668595,46.86787340728977],[-0.191193987801456,46.868465175940756],[-0.18625008315544,46.86639445864986],[-0.184053926254842,46.86627052275624],[-0.182326713561686,46.865965970981456],[-0.181095033381192,46.86566481648934],[-0.179314086247004,46.865003966861195],[-0.178554589087402,46.86506910395875],[-0.177205710536225,46.86469545353221],[-0.175975589629593,46.86448701648319],[-0.174406115953082,46.86458529356183],[-0.172022688840713,46.864985332437314],[-0.170486840214841,46.865142101260524],[-0.169749275486055,46.865043476182564],[-0.167033437325523,46.86420904794432],[-0.166728090057956,46.86426701252498],[-0.166220325917437,46.86463782158037],[-0.165300515910762,46.864612666676045],[-0.164507979395615,46.86449479538102],[-0.159562718220011,46.865302011406484],[-0.159501807994573,46.86540640896239],[-0.157701629423701,46.86562703260609],[-0.157778322309091,46.86473464485609],[-0.157620642410157,46.86372073308007],[-0.157806625728677,46.863147938139086],[-0.157725718833918,46.86288703830495],[-0.157889810983112,46.861848976580454],[-0.158737426884557,46.861741006686614],[-0.159226865739199,46.858129483660264],[-0.15964409386414,46.85722053144505],[-0.159897406129907,46.85690179396409],[-0.160802690519601,46.856680486171605],[-0.16081346267957,46.856212519403954],[-0.161850068277712,46.85576592415763],[-0.163077713964244,46.855351912921705],[-0.164012936839145,46.85451970971597],[-0.16478496315804,46.8535027561043],[-0.165048947733908,46.85296294190735],[-0.164798689090987,46.851602854155786],[-0.165064340331251,46.851046773672195],[-0.165655284435348,46.85037090521909],[-0.167339167770817,46.84884493976339],[-0.167518652150546,46.8485453362679],[-0.166142381975849,46.847402779013734],[-0.163924114968886,46.84484070251122],[-0.163453202876015,46.84458062050877],[-0.160991288859717,46.843824696545674],[-0.160739038649292,46.84411547606891],[-0.159845115803443,46.84398775111958],[-0.158777748241701,46.8437007821885],[-0.158314901435909,46.84366843731298],[-0.158038558481445,46.84370395922593],[-0.15798113481751,46.84398037187836],[-0.15825916790452,46.844334079685225],[-0.157089164716696,46.84453921124323],[-0.156394753768724,46.84456728023694],[-0.155565285309782,46.84473421539866],[-0.154741695889055,46.844641466397384],[-0.153717818962557,46.844401917506936],[-0.153224019866994,46.84444699419127],[-0.152765284488881,46.844801085724036],[-0.151964470580631,46.84577639559429],[-0.15150538230672,46.84578627159949],[-0.148135816446048,46.84527390761809],[-0.147183743510207,46.84452952397644],[-0.145696621627187,46.84357179004693],[-0.144361543334109,46.84306042946966],[-0.141641537781015,46.84239946317458],[-0.138332686847395,46.84175089867413],[-0.136999069696855,46.841285371411765],[-0.135992014326449,46.84076677211621],[-0.134484820658431,46.84025098286829],[-0.133803761396753,46.84166623361738],[-0.128616894603499,46.84123975513299],[-0.128331038344024,46.84120157503092],[-0.128240097738064,46.84110492874175],[-0.12781054269392,46.83930632367596],[-0.127226296311007,46.83955829643893],[-0.126088836762037,46.83987216057159],[-0.12498294989093,46.839982410516804],[-0.122843424780447,46.840044127398706],[-0.12273997963012,46.83925217762693],[-0.11960267978886,46.8394995127744],[-0.119876586579216,46.840812172909644],[-0.116033294048287,46.841457912276574],[-0.114899220625065,46.843225017089395]]]]}},{"type":"Feature","properties":{"fid":989,"ID":"COMMUNE_0000000009748005","NOM":"Assais-les-Jumeaux","NOM_M":"ASSAIS-LES-JUMEAUX","INSEE_COM":"79016","STATUT":"Commune simple","POPULATION":766,"INSEE_CAN":"17","INSEE_ARR":"3","INSEE_DEP":"79","INSEE_REG":"75","SIREN_EPCI":"200041416"},"geometry":{"type":"MultiPolygon","coordinates":[[[[-0.049011298853218,46.82305063714211],[-0.047871207034802,46.821568889818664],[-0.049756969066126,46.820556554470926],[-0.048871414439121,46.81942218076354],[-0.04795586550582,46.82032048252059],[-0.046521050599358,46.82150916076751],[-0.045865875363735,46.82195001577735],[-0.04485150940933,46.822469760712785],[-0.042531919653902,46.82108947616317],[-0.041364784767544,46.82064189531503],[-0.040178372699478,46.819148688214426],[-0.039555521603746,46.8186921028424],[-0.038177265363208,46.819627784497726],[-0.036834949872207,46.820339037669186],[-0.035876172729944,46.819438976834874],[-0.034727664413835,46.82000181982116],[-0.033026911244932,46.819774581163614],[-0.032859730177736,46.82016464138573],[-0.031139835295728,46.8204163377626],[-0.03106397745384,46.82028047688203],[-0.030041796443509,46.82021641407164],[-0.029720238749696,46.81960676761912],[-0.029410651284505,46.81975098391231],[-0.028271318852453,46.81862405065423],[-0.027830587045659,46.8189816615253],[-0.027025481988645,46.81838564284345],[-0.025523926684742,46.815706702422375],[-0.025078540495287,46.81513454294943],[-0.024756922734738,46.814498755212526],[-0.02433718886476,46.814033143066865],[-0.023581767937558,46.81378450129619],[-0.022700118806232,46.813625674451515],[-0.02189921162005,46.81371430893361],[-0.021517362424869,46.813833372585286],[-0.020326846462859,46.81255993989504],[-0.019807760681935,46.81299526708873],[-0.017594480798242,46.8142824127771],[-0.01565653278032,46.815118075485046],[-0.014840841321188,46.81555485097508],[-0.01403364374362,46.81576703758358],[-0.01216539048435,46.81663054555823],[-0.010594465697549,46.81831068958469],[-0.010030357679181,46.81911927767225],[-0.010020267798983,46.81945743246207],[-0.00912001590281,46.82064243973688],[-0.00822656705045,46.82145422986925],[-0.008147796653197,46.82140673354425],[-0.007018334025733,46.82212917769696],[-0.006798426481316,46.82195111660304],[-0.006476096232696,46.82137026552181],[-0.005111065989563,46.8202364019766],[-0.004430038385969,46.81983792000935],[-0.003183091732159,46.81922265089594],[-0.00144673432076,46.818065106990154],[-0.001185086944511,46.81722766450272],[-0.00073097956758,46.81680161325093],[0.000719669302663,46.816060970415776],[0.000705406190831,46.815536194276355],[0.000922475273155,46.81533732154653],[0.003956422867934,46.81461090122721],[0.005011901490488,46.81458253887696],[0.006326209359434,46.81481049404619],[0.007896667909585,46.81444050637872],[0.007592216633854,46.81348919812988],[0.007804299491937,46.81264323992047],[0.007057623586244,46.81150111185812],[0.006070143842691,46.80856594992267],[0.004382707647942,46.80803993206903],[0.00312368990401,46.80728988777006],[0.001329776504164,46.80638891760402],[-6.8510877729e-05,46.805714494125674],[-0.001212821934717,46.80526473635366],[-0.002164260728371,46.80462628046541],[-0.003156412482491,46.804130919043004],[-0.006158761642982,46.803018937211554],[-0.00703333607673,46.80279422574528],[-0.007985388086618,46.80271254800756],[-0.007244756383069,46.80189846230868],[-0.008085567642026,46.80033296929066],[-0.008505976106759,46.799255127201036],[-0.008885872715565,46.79957496483957],[-0.009637838792711,46.799010142822524],[-0.014614819356631,46.79620629098362],[-0.017796560154318,46.79361515993875],[-0.01789355009473,46.79347204888975],[-0.017854367258788,46.79326313294667],[-0.017563449506692,46.792467935817],[-0.018037118401933,46.79138504731512],[-0.018390153170109,46.791410915750156],[-0.01891257308045,46.790638506216304],[-0.022327233908184,46.78976392799592],[-0.023417860503472,46.78958385998313],[-0.026706323452175,46.78873048938072],[-0.025541373130448,46.7872023423971],[-0.02497045827206,46.78670377205646],[-0.021418538969024,46.782946118666814],[-0.019584980833763,46.78382148973299],[-0.019426446573889,46.78347154177474],[-0.018809040358289,46.78277232853858],[-0.017507283885403,46.78059443746442],[-0.017412888424109,46.78012386329606],[-0.01747872900255,46.77920936609332],[-0.017228015457822,46.77788599451329],[-0.017713174037415,46.77795434649378],[-0.022215785278866,46.77642312800772],[-0.024324082722098,46.77840944126901],[-0.025045478428506,46.77885629514646],[-0.027280271373605,46.77680879179643],[-0.029292208851096,46.77481307050082],[-0.030394781624612,46.77431273536847],[-0.032246958770976,46.77384937164318],[-0.033714550914383,46.77328710583817],[-0.036500153732879,46.772022299225725],[-0.036810507016831,46.77185010112144],[-0.036869784633569,46.771714275366975],[-0.035305414390906,46.771881771822706],[-0.032648339518519,46.77103647150879],[-0.031464508498117,46.77092625310555],[-0.031198787831732,46.770841357052205],[-0.029584395752305,46.76839971979527],[-0.028556170075192,46.767341055966675],[-0.028443807093546,46.766996208733104],[-0.029675363893575,46.766413181062525],[-0.03086576244378,46.76568074794309],[-0.032564308618198,46.7649610166595],[-0.034335836241522,46.76397621983411],[-0.034229129916029,46.76380333118849],[-0.032932701664736,46.76261482868021],[-0.031380659477276,46.76156731846884],[-0.030182167509772,46.761097053496115],[-0.027596077927435,46.7603849366174],[-0.025752754493253,46.760153285797045],[-0.025738716825497,46.7600896802159],[-0.026825221434861,46.758272439647875],[-0.028851484919388,46.75593481804671],[-0.029880903029123,46.75415509010966],[-0.030995658852763,46.75280110432641],[-0.03171429624626,46.75045918289368],[-0.031998600529839,46.74970559231245],[-0.032527634366002,46.748757214226465],[-0.03257567770459,46.74849103139378],[-0.032772071823465,46.74848674520351],[-0.034462163047331,46.74971169737917],[-0.034725268745508,46.74975159942076],[-0.034917942677889,46.749657301139656],[-0.035311997416624,46.74969464165909],[-0.038822975928292,46.747641045899854],[-0.039082343452481,46.74759092964646],[-0.039211778196354,46.747608228222965],[-0.039874397332023,46.74818088847043],[-0.041350027985156,46.7490383773707],[-0.042906436884147,46.75009644891191],[-0.043962409569169,46.74987472921597],[-0.044498685337667,46.750133536223906],[-0.044939760617871,46.750097511397136],[-0.046768769657741,46.7490749331238],[-0.052795657272344,46.7468027263324],[-0.058120363677505,46.74531391115095],[-0.058625548980603,46.746160084239726],[-0.059445161808119,46.747049238911956],[-0.061369954972171,46.74868295445497],[-0.061049783620318,46.74958356006861],[-0.06107942596023,46.75127049266196],[-0.060460077316853,46.75263141249222],[-0.059357782894954,46.75430976004432],[-0.059472072462455,46.754755452091125],[-0.060625002611542,46.75629801212699],[-0.060509353121526,46.756316412725134],[-0.06092964261229,46.756538590064665],[-0.061373476624187,46.756922332452035],[-0.062394260828017,46.75832873199473],[-0.063160902472846,46.7591345751429],[-0.065408121054722,46.761243512049845],[-0.066809223998975,46.76218377775316],[-0.0680939545633,46.76363894983973],[-0.06889136594279,46.764267324234666],[-0.071693568487204,46.76595673153834],[-0.072759620727455,46.76722847683966],[-0.073731184066237,46.76798912526079],[-0.077286850617894,46.769777181627056],[-0.078634259820753,46.76814705859728],[-0.078957225909181,46.767945569599014],[-0.080267546604999,46.76933505182514],[-0.080803306885333,46.76962434857535],[-0.08172976114577,46.76974997710815],[-0.082323845973708,46.769911550325126],[-0.083345145408645,46.77055184392554],[-0.083903016380668,46.7705837239855],[-0.08457149845814,46.7703468107222],[-0.085394610484285,46.77029226482607],[-0.086756666766565,46.77044399746655],[-0.08743178764721,46.77073853023011],[-0.08769438241355,46.77104324790735],[-0.087585246239659,46.77246629463322],[-0.088639793024118,46.773204769659564],[-0.088838908987986,46.773269700460645],[-0.089402697792483,46.7727373147236],[-0.090123555316369,46.77229171047605],[-0.091025492365144,46.77152584773514],[-0.092844464846466,46.77062805910713],[-0.094024288899505,46.7702286403769],[-0.095250385436445,46.76933055993096],[-0.096275632306632,46.769141632078956],[-0.099383207444063,46.77161061565137],[-0.102125259479835,46.77479224530279],[-0.102821757275196,46.77511404765145],[-0.104471272430602,46.7754497429188],[-0.104844707388785,46.77560364937999],[-0.106450004707456,46.777387669537625],[-0.108563090614366,46.77926425956935],[-0.109036422720896,46.77958125162832],[-0.111643224263378,46.779315137532556],[-0.112187136056568,46.779124690410484],[-0.11357803817855,46.77888245313388],[-0.114853524493099,46.77870910820746],[-0.115848381209479,46.77867401981495],[-0.116426597494405,46.77846459963142],[-0.118052434438939,46.776788592357676],[-0.118781908123383,46.776495757037345],[-0.119696603954355,46.77634476626287],[-0.11989354629298,46.77621146145566],[-0.119805602814374,46.77543529900725],[-0.119367809179665,46.77466503273055],[-0.119036358981391,46.77442082355899],[-0.118459417930926,46.77430943222854],[-0.118457989082244,46.77403373432676],[-0.119288902089915,46.77409137212837],[-0.119472928585311,46.774144045257366],[-0.119616717965148,46.77436361339111],[-0.120096214618259,46.774582173476475],[-0.120309324754697,46.774775528228936],[-0.120606389025528,46.77483233791424],[-0.120418011772967,46.77509156564927],[-0.120818581590607,46.77546545405812],[-0.121078671931513,46.77551786049669],[-0.12136140958339,46.77546241993555],[-0.121351001168024,46.77591956108944],[-0.121671144432969,46.77626319242494],[-0.121623321117987,46.77650328380322],[-0.122120315364798,46.776843009267054],[-0.12226216260898,46.777096869060706],[-0.122008057465284,46.778560855526344],[-0.122126341103277,46.77872434465409],[-0.123600517926281,46.77901767902649],[-0.123735196915212,46.77919243517244],[-0.124352369332709,46.77940903746716],[-0.126977725924071,46.77935202568655],[-0.127769867430337,46.779395341116114],[-0.128304869211941,46.77950602738389],[-0.128532988498771,46.779640387529696],[-0.129201280447378,46.78033315732331],[-0.13007069130107,46.78189631721934],[-0.130609756481481,46.78244031377927],[-0.131140217355031,46.78281243165773],[-0.131833050564214,46.783043153354214],[-0.132877039671239,46.78306244864471],[-0.133554132551767,46.7828844877486],[-0.13393377276195,46.782802945315815],[-0.134320027083841,46.782813133916314],[-0.134766534960532,46.78293521653167],[-0.135185710902362,46.78328782529528],[-0.135896235944553,46.783347731281026],[-0.136982625857198,46.78362354862926],[-0.137275296681384,46.78398861531424],[-0.137502771840741,46.784723113182594],[-0.137418403943433,46.78580404133773],[-0.137558074972258,46.78581464500532],[-0.138158500337855,46.78651012120207],[-0.137696683494369,46.78675882356],[-0.138251662701624,46.78694100880792],[-0.139393823640989,46.787725308508065],[-0.139935438432659,46.787970928639886],[-0.142467824925791,46.78852075809424],[-0.143622212031363,46.788971273617975],[-0.144179248295421,46.789052450877485],[-0.14440513014141,46.789237304672234],[-0.144828195653745,46.789089658952754],[-0.145103261270302,46.789353363986564],[-0.14546473000035,46.790111214194816],[-0.14615113595179,46.790770957235566],[-0.146369846928128,46.79126147977094],[-0.146323869150474,46.7916673366297],[-0.145410171356359,46.79317287208927],[-0.145253936880877,46.79407555313212],[-0.145171886116127,46.79551056002619],[-0.145564815209664,46.79662889290126],[-0.145301836373794,46.79725244819636],[-0.145536148131266,46.79916449177175],[-0.1446994593947,46.79872061619961],[-0.144223575323023,46.798298402696204],[-0.14265646833653,46.798857600828164],[-0.140985314403497,46.79956920373539],[-0.140631344422715,46.79984650544452],[-0.141148852069806,46.80107768849295],[-0.138727675305982,46.80177821354636],[-0.137075816610941,46.80293887822671],[-0.136815033592776,46.80294509487864],[-0.135930661591458,46.8022438415243],[-0.135672414970308,46.80233919552178],[-0.134822461084003,46.803797835536265],[-0.133119901532236,46.8038343478502],[-0.133058281245462,46.80392613760289],[-0.133383925370271,46.8053139652305],[-0.133733659231468,46.80580183756124],[-0.133834173861249,46.80656413078834],[-0.133439690273274,46.80652802846232],[-0.13051728231725,46.8056912432041],[-0.129274700999923,46.805762926007766],[-0.128043789382814,46.806059552017196],[-0.127206031925381,46.806392325536955],[-0.12537361442883,46.80643135267835],[-0.124729890567978,46.80671557880032],[-0.124224971796409,46.807131192635424],[-0.123496072484713,46.808169239526514],[-0.123651772034411,46.80845696312604],[-0.123477757916409,46.80905821642679],[-0.123577128129472,46.8096664581724],[-0.123473656641149,46.80976118146885],[-0.122808096841605,46.809849550105255],[-0.122150066049097,46.80963584395263],[-0.121646248381943,46.80925124395922],[-0.121702451367575,46.80979397811413],[-0.121950584451033,46.810114336117564],[-0.121244233102856,46.81045160399097],[-0.119529538379937,46.810896433414435],[-0.118907168138618,46.81125663765213],[-0.117233172988047,46.81268341740347],[-0.116315389709977,46.813681478834624],[-0.114951709774786,46.8144582326375],[-0.114262507365097,46.81539241176078],[-0.113253978772614,46.8162063782827],[-0.111862443501831,46.81782546181178],[-0.110501250092239,46.81880843889949],[-0.109177118834015,46.82009496286845],[-0.102122164675894,46.81838695412239],[-0.097906078760393,46.81756171171512],[-0.093203243378245,46.816416016245256],[-0.089792229481186,46.816031072250794],[-0.087873445321676,46.8155275630751],[-0.085447251541037,46.81540167701981],[-0.083921234444539,46.815225464499456],[-0.079105673967176,46.81374973316468],[-0.077018744264188,46.814465196745246],[-0.072710235217336,46.81523731789428],[-0.069312833460157,46.81652469291468],[-0.065889447527751,46.81751800698982],[-0.062716822173484,46.81860725711128],[-0.061785459422652,46.818826694279274],[-0.060121287167569,46.81962068617535],[-0.060839053931981,46.82031342001084],[-0.061052107999159,46.82066907441173],[-0.060822619839539,46.821393331721254],[-0.060333391921648,46.82221370729154],[-0.059973406885683,46.82258010931055],[-0.059856904307388,46.822585912993084],[-0.05976542086021,46.82284875468445],[-0.059196735422315,46.82349463056485],[-0.059211113918567,46.82374924861356],[-0.059117186483999,46.82385266660415],[-0.058301955999561,46.82366620806157],[-0.057281743823834,46.82322028240829],[-0.054887318565061,46.82303343002726],[-0.054208693690208,46.8228712464362],[-0.051769330900207,46.82270174257606],[-0.050655114052735,46.82277636377202],[-0.049011298853218,46.82305063714211]]]]}},{"type":"Feature","properties":{"fid":991,"ID":"COMMUNE_0000000009747791","NOM":"Availles-Thouarsais","NOM_M":"AVAILLES-THOUARSAIS","INSEE_COM":"79022","STATUT":"Commune simple","POPULATION":184,"INSEE_CAN":"17","INSEE_ARR":"3","INSEE_DEP":"79","INSEE_REG":"75","SIREN_EPCI":"200041416"},"geometry":{"type":"MultiPolygon","coordinates":[[[[-0.116457298301299,46.86625947380058],[-0.116034518663167,46.865054469039634],[-0.11610501834484,46.86109863015392],[-0.115559876285205,46.8597752915406],[-0.115293346997921,46.85870481863532],[-0.114737517235226,46.85877032782853],[-0.113321901888217,46.85875547910648],[-0.11028761147496,46.858095059100584],[-0.108750573350104,46.85795548433722],[-0.108752716156594,46.8570777784455],[-0.108124565901297,46.85549443890337],[-0.108291067953254,46.854207708778645],[-0.110550481676369,46.85135329940031],[-0.112075518135284,46.847448224372236],[-0.112780816222079,46.84648931376351],[-0.11355446321632,46.84502934885185],[-0.114899220625065,46.843225017089395],[-0.116033294048287,46.841457912276574],[-0.119876586579216,46.840812172909644],[-0.11960267978886,46.8394995127744],[-0.12273997963012,46.83925217762693],[-0.122843424780447,46.840044127398706],[-0.12498294989093,46.839982410516804],[-0.126088836762037,46.83987216057159],[-0.127226296311007,46.83955829643893],[-0.12781054269392,46.83930632367596],[-0.128240097738064,46.84110492874175],[-0.128331038344024,46.84120157503092],[-0.128616894603499,46.84123975513299],[-0.133803761396753,46.84166623361738],[-0.134484820658431,46.84025098286829],[-0.135992014326449,46.84076677211621],[-0.136999069696855,46.841285371411765],[-0.138332686847395,46.84175089867413],[-0.141641537781015,46.84239946317458],[-0.144361543334109,46.84306042946966],[-0.145696621627187,46.84357179004693],[-0.147183743510207,46.84452952397644],[-0.148135816446048,46.84527390761809],[-0.15150538230672,46.84578627159949],[-0.151964470580631,46.84577639559429],[-0.152765284488881,46.844801085724036],[-0.153224019866994,46.84444699419127],[-0.153717818962557,46.844401917506936],[-0.154741695889055,46.844641466397384],[-0.155565285309782,46.84473421539866],[-0.156394753768724,46.84456728023694],[-0.157089164716696,46.84453921124323],[-0.15825916790452,46.844334079685225],[-0.15798113481751,46.84398037187836],[-0.158038558481445,46.84370395922593],[-0.158314901435909,46.84366843731298],[-0.158777748241701,46.8437007821885],[-0.159845115803443,46.84398775111958],[-0.160739038649292,46.84411547606891],[-0.160991288859717,46.843824696545674],[-0.163453202876015,46.84458062050877],[-0.163924114968886,46.84484070251122],[-0.166142381975849,46.847402779013734],[-0.167518652150546,46.8485453362679],[-0.167339167770817,46.84884493976339],[-0.165655284435348,46.85037090521909],[-0.165064340331251,46.851046773672195],[-0.164798689090987,46.851602854155786],[-0.165048947733908,46.85296294190735],[-0.16478496315804,46.8535027561043],[-0.164012936839145,46.85451970971597],[-0.163077713964244,46.855351912921705],[-0.161850068277712,46.85576592415763],[-0.16081346267957,46.856212519403954],[-0.160802690519601,46.856680486171605],[-0.159897406129907,46.85690179396409],[-0.15964409386414,46.85722053144505],[-0.159226865739199,46.858129483660264],[-0.158737426884557,46.861741006686614],[-0.157889810983112,46.861848976580454],[-0.157725718833918,46.86288703830495],[-0.157806625728677,46.863147938139086],[-0.157620642410157,46.86372073308007],[-0.157778322309091,46.86473464485609],[-0.157701629423701,46.86562703260609],[-0.153961752174752,46.86633513799193],[-0.152476238908652,46.867109335509916],[-0.152232679568236,46.867664773563604],[-0.151472637946984,46.86828571911746],[-0.149297565421581,46.869381521898276],[-0.147438982907071,46.87043077930779],[-0.146552000724951,46.8714237067583],[-0.146272539542443,46.87215402118507],[-0.145982006731904,46.87258097026148],[-0.14523749437436,46.8720696780992],[-0.142125872248405,46.87258720031192],[-0.142102497396483,46.87209404268532],[-0.141169401017347,46.87206815356153],[-0.140767916039371,46.871897091948604],[-0.140322118276938,46.870781097118716],[-0.140054491535622,46.87065233583643],[-0.137153197106452,46.870354810835536],[-0.135455502063986,46.86978563845244],[-0.130682914209085,46.86861801700345],[-0.123707924052245,46.86773527972671],[-0.122648216820058,46.86742613626279],[-0.116457298301299,46.86625947380058]]]]}},{"type":"Feature","properties":{"fid":1907,"ID":"COMMUNE_0000000009748217","NOM":"Le Chillou","NOM_M":"LE CHILLOU","INSEE_COM":"79089","STATUT":"Commune simple","POPULATION":164,"INSEE_CAN":"17","INSEE_ARR":"3","INSEE_DEP":"79","INSEE_REG":"75","SIREN_EPCI":"200041416"},"geometry":{"type":"MultiPolygon","coordinates":[[[[-0.096275632306632,46.769141632078956],[-0.098691364759907,46.76856917156804],[-0.10017589940246,46.768087576514795],[-0.102002137623708,46.76647306867979],[-0.102497908406329,46.76583251583196],[-0.102293782190793,46.765656909522605],[-0.101165150279085,46.765320643745405],[-0.100048033345245,46.765254384648244],[-0.100248613411056,46.763900032384285],[-0.10020261172103,46.7628659165175],[-0.100324612151675,46.7626833053258],[-0.102126138498524,46.76196965014524],[-0.103420050041558,46.761597682716506],[-0.103911373563838,46.76207189802931],[-0.104340770720074,46.76231169800546],[-0.105561062339157,46.76253191493468],[-0.107246460155398,46.7636604583436],[-0.108182498110502,46.76409108563763],[-0.110701723554087,46.76475727607896],[-0.111976747490087,46.765449922811335],[-0.112504901224848,46.76610693025997],[-0.113039473064988,46.76603026647231],[-0.113762405711906,46.76564842740856],[-0.115242195700484,46.76520190315445],[-0.115878894841168,46.76482599335363],[-0.119890552891194,46.76583355493911],[-0.120155708541036,46.76545059197492],[-0.121875328010023,46.765936415224154],[-0.122372078950774,46.76593192284215],[-0.123186135998714,46.76569893086813],[-0.124096435862445,46.76513351069417],[-0.125771209666906,46.76431749737705],[-0.127025050527013,46.76347957886636],[-0.129360707172072,46.76218775115138],[-0.133076497825861,46.76052391686582],[-0.133617283190743,46.76017034457944],[-0.135734220711138,46.75916008625244],[-0.138464940131446,46.75801767110588],[-0.141391920086774,46.75664363908095],[-0.141695813582068,46.75634426523417],[-0.144103029871784,46.75523488857627],[-0.145231829239351,46.75480388006249],[-0.148076165514243,46.75433845590876],[-0.147797226900221,46.755360761648994],[-0.147685490238171,46.757208412268],[-0.147510827663707,46.75738441204684],[-0.147385269040217,46.75793212817761],[-0.147385537940396,46.758795390868116],[-0.147272600345417,46.7593121226861],[-0.147391228827353,46.759797276741125],[-0.1476034191791,46.76008702735883],[-0.147498123312111,46.76062247321568],[-0.147920279500115,46.76109570301251],[-0.147915871365193,46.76147158944858],[-0.147426130150693,46.76207073803419],[-0.146647922155157,46.762715635040124],[-0.145582093376898,46.76330802953789],[-0.145114351308278,46.76345060023759],[-0.143916481512456,46.76552081659449],[-0.143624423110086,46.76566307685485],[-0.142850075258495,46.766602503239085],[-0.142894690909157,46.766829263979545],[-0.142716035160538,46.76748025051641],[-0.142712254869805,46.768523842435606],[-0.142804374063448,46.76875561113946],[-0.142488588265404,46.76962030801928],[-0.139992756135143,46.76939209899165],[-0.139353462036803,46.769721358221524],[-0.134562227528516,46.76950978944274],[-0.133654424068515,46.769709374858195],[-0.133195976135805,46.76971917801998],[-0.13233165035032,46.76942285868569],[-0.131989937458692,46.769114987068],[-0.131860234946215,46.769162677971174],[-0.132080330874108,46.76981718828187],[-0.132092295167209,46.770342207644035],[-0.131707573319479,46.771174507279355],[-0.131612477564736,46.772820718651346],[-0.131075301782789,46.77498810461442],[-0.131276150325009,46.77594501092033],[-0.131860567394044,46.77686622937904],[-0.131892704821829,46.77726364194195],[-0.131433469865688,46.77814662884786],[-0.13099438158634,46.77849290681173],[-0.13075080102173,46.77913572517657],[-0.13118706887224,46.780671032032885],[-0.131585985510373,46.78146844974968],[-0.131930590592245,46.781688837668305],[-0.132052694964399,46.78194052155188],[-0.132862059465717,46.7824627213086],[-0.133393881281596,46.7826311423517],[-0.133554132551767,46.7828844877486],[-0.132877039671239,46.78306244864471],[-0.131833050564214,46.783043153354214],[-0.131140217355031,46.78281243165773],[-0.130609756481481,46.78244031377927],[-0.13007069130107,46.78189631721934],[-0.129201280447378,46.78033315732331],[-0.128532988498771,46.779640387529696],[-0.128304869211941,46.77950602738389],[-0.127769867430337,46.779395341116114],[-0.126977725924071,46.77935202568655],[-0.124352369332709,46.77940903746716],[-0.123735196915212,46.77919243517244],[-0.123600517926281,46.77901767902649],[-0.122126341103277,46.77872434465409],[-0.122008057465284,46.778560855526344],[-0.12226216260898,46.777096869060706],[-0.122120315364798,46.776843009267054],[-0.121623321117987,46.77650328380322],[-0.121671144432969,46.77626319242494],[-0.121351001168024,46.77591956108944],[-0.12136140958339,46.77546241993555],[-0.121078671931513,46.77551786049669],[-0.120818581590607,46.77546545405812],[-0.120418011772967,46.77509156564927],[-0.120606389025528,46.77483233791424],[-0.120309324754697,46.774775528228936],[-0.120096214618259,46.774582173476475],[-0.119616717965148,46.77436361339111],[-0.119472928585311,46.774144045257366],[-0.119288902089915,46.77409137212837],[-0.118457989082244,46.77403373432676],[-0.118459417930926,46.77430943222854],[-0.119036358981391,46.77442082355899],[-0.119367809179665,46.77466503273055],[-0.119805602814374,46.77543529900725],[-0.11989354629298,46.77621146145566],[-0.119696603954355,46.77634476626287],[-0.118781908123383,46.776495757037345],[-0.118052434438939,46.776788592357676],[-0.116426597494405,46.77846459963142],[-0.115848381209479,46.77867401981495],[-0.114853524493099,46.77870910820746],[-0.11357803817855,46.77888245313388],[-0.112187136056568,46.779124690410484],[-0.111643224263378,46.779315137532556],[-0.109036422720896,46.77958125162832],[-0.108563090614366,46.77926425956935],[-0.106450004707456,46.777387669537625],[-0.104844707388785,46.77560364937999],[-0.104471272430602,46.7754497429188],[-0.102821757275196,46.77511404765145],[-0.102125259479835,46.77479224530279],[-0.099383207444063,46.77161061565137],[-0.096275632306632,46.769141632078956]]]]}},{"type":"Feature","properties":{"fid":3015,"ID":"COMMUNE_0000000009748007","NOM":"Saint-Loup-Lamairé","NOM_M":"SAINT-LOUP-LAMAIRE","INSEE_COM":"79268","STATUT":"Commune simple","POPULATION":1038,"INSEE_CAN":"17","INSEE_ARR":"3","INSEE_DEP":"79","INSEE_REG":"75","SIREN_EPCI":"200041416"},"geometry":{"type":"MultiPolygon","coordinates":[[[[-0.103911373563838,46.76207189802931],[-0.106563576122755,46.76160550623568],[-0.107064361506835,46.76109995932347],[-0.107839877614506,46.76085820623089],[-0.10795157705795,46.76045059013277],[-0.106688203354517,46.76002701565184],[-0.106680566262227,46.7598479037048],[-0.107054210416572,46.75943500428156],[-0.107588303907163,46.759648530884895],[-0.107850191363058,46.75964234501712],[-0.107977314409681,46.75954969592125],[-0.107425261025536,46.75893116265014],[-0.107477924856973,46.758660309061874],[-0.108112218280467,46.75819709953349],[-0.107960711603111,46.75774974928852],[-0.106836175233905,46.75606358490129],[-0.106707916129629,46.75467125217195],[-0.106217587516021,46.75396183526315],[-0.105878695917757,46.7536988701194],[-0.105935205000445,46.753518022884016],[-0.107018714125093,46.75286424807545],[-0.110856249423129,46.75247740014145],[-0.111244418231045,46.75250202615636],[-0.112709433123521,46.75178108791943],[-0.114858464027688,46.75119206042092],[-0.121142060512979,46.749618405574836],[-0.12275075647692,46.74937011329221],[-0.123826943880925,46.749094836206964],[-0.123850188570116,46.74883828900564],[-0.123151633128056,46.747702972982076],[-0.123173585501244,46.747423933343434],[-0.124804441948672,46.74737955911792],[-0.125427620834551,46.747274288085904],[-0.126430723064332,46.74661890380636],[-0.12716846494855,46.745795021528345],[-0.12851947791211,46.74528603278028],[-0.129333935749815,46.74483851138727],[-0.131095447872569,46.744538172662274],[-0.132890708601853,46.74470906889054],[-0.13424839602415,46.74381775587497],[-0.137114472428289,46.74169664542454],[-0.138071941625751,46.74302125045232],[-0.139113466960021,46.74471030439486],[-0.140798762885437,46.74667190018508],[-0.143405570690616,46.74867493103563],[-0.144453529665067,46.74906795854262],[-0.147716852313557,46.75379501963648],[-0.148863880395063,46.75505667577053],[-0.150058163781023,46.756973039551724],[-0.151869627996423,46.75861022900566],[-0.152272238343663,46.759513813882776],[-0.153358042300079,46.75951554309011],[-0.154083511599814,46.759634392565665],[-0.157569532044125,46.76135885972782],[-0.158567458849813,46.761697272880475],[-0.160141640403029,46.76175309029786],[-0.161246230317912,46.76167132599173],[-0.162071039111326,46.76182884336975],[-0.162626374622586,46.762064964892986],[-0.162919936127134,46.76239930708913],[-0.162888332951711,46.76264438182781],[-0.163262546293055,46.76296749079425],[-0.16509776188597,46.76360808977065],[-0.168630979141488,46.76404232650973],[-0.169480994549647,46.76402427834257],[-0.170511646587862,46.76364168791968],[-0.171495577385801,46.76367129188061],[-0.1720108746905,46.763782317455],[-0.17301013336026,46.7640962414587],[-0.173211653421344,46.764268195805144],[-0.173201542912339,46.764431579218495],[-0.173489737488098,46.76494176450055],[-0.173879954735022,46.76511120698637],[-0.174547500974016,46.76502246941499],[-0.174862800885379,46.7647857684133],[-0.175056209414851,46.76448304940197],[-0.175353317681618,46.76328624676428],[-0.175458302376859,46.7615630889522],[-0.175327576042767,46.759979815006716],[-0.174932718996288,46.75899137982746],[-0.174184642581399,46.75772524718919],[-0.174017659117324,46.757246857411516],[-0.174109471668944,46.75697848645751],[-0.174503564589199,46.75667742880472],[-0.175450381567901,46.756187168246555],[-0.175939189460677,46.756048392901704],[-0.176839261999335,46.755946899343876],[-0.177122755513369,46.75581740328815],[-0.177279896627998,46.75554541940758],[-0.177397856522769,46.75496272795909],[-0.176995944167833,46.754435873136174],[-0.176181413917995,46.75398260921017],[-0.17620766337185,46.7537367754512],[-0.176820255029222,46.75324943815025],[-0.177412081696718,46.75312402573141],[-0.178090824675302,46.75287094716964],[-0.178454952460601,46.75252925150441],[-0.17881604096216,46.75193442036725],[-0.179066310673854,46.75179772827403],[-0.179531295850943,46.751275712977765],[-0.180169087926881,46.75083902270271],[-0.180717468084171,46.75021917189201],[-0.181082709765503,46.74998647311303],[-0.181872409876195,46.74965910660714],[-0.182658978006586,46.749591348108105],[-0.182951145518238,46.74963281141328],[-0.183767179077234,46.750178802852126],[-0.184200768808438,46.75032898346622],[-0.184987077985762,46.751060523954884],[-0.185650539477153,46.751329580616044],[-0.186077875949108,46.751216796210905],[-0.187554474711375,46.75048644339043],[-0.188316776779412,46.749916485218954],[-0.18982237839805,46.75083978568327],[-0.190032022782181,46.75110520386719],[-0.18972055981481,46.75147160860588],[-0.189665721187387,46.751698416482725],[-0.191930808052543,46.75382974354256],[-0.192513409478036,46.75341434232983],[-0.193453914586405,46.75250867716886],[-0.197261702882065,46.75227024321699],[-0.197993723139882,46.752121895304114],[-0.200011619718381,46.75145740389713],[-0.201663819774024,46.75201691367392],[-0.204278426287565,46.75330921183593],[-0.205224325321571,46.75391811848627],[-0.205105395814911,46.75419088041961],[-0.205137413172445,46.754865844984465],[-0.2060978875442,46.75718471046801],[-0.206129865830814,46.75785877459673],[-0.205762344904806,46.75840701802842],[-0.20499527521176,46.75878438093045],[-0.200791117640215,46.75991272031477],[-0.199957173180417,46.760291010662506],[-0.199140517102159,46.761029269054006],[-0.198834418165547,46.7614865634277],[-0.198923825880759,46.761979699919564],[-0.201796534455495,46.76457152740759],[-0.201819149414551,46.76506562307223],[-0.201511703908761,46.765477904640704],[-0.200999791585256,46.76575891082509],[-0.199575080817382,46.76610589864994],[-0.198297232732793,46.76676417712719],[-0.197186615321686,46.766833848024596],[-0.196065357724117,46.766678519846366],[-0.195202078459142,46.76642769276383],[-0.194663583075159,46.766124571224026],[-0.194202495941179,46.766044578653904],[-0.193229505987682,46.766246455429055],[-0.192720191915757,46.76657240783662],[-0.192479472676222,46.76702786481348],[-0.192667506611462,46.76823917116215],[-0.192965287929856,46.76899775966388],[-0.1933768025718,46.76939363238332],[-0.19552561940381,46.77051616025766],[-0.195075159370004,46.77070621537479],[-0.195095086304617,46.77111117227896],[-0.195715075158097,46.77177248003467],[-0.195795176002904,46.77208564909096],[-0.195484940940463,46.77245203110904],[-0.192251990187025,46.773723311568354],[-0.191034173170495,46.77431404952649],[-0.190042942517463,46.776638568509334],[-0.189839876256532,46.77684335769397],[-0.189967981669167,46.77774994390787],[-0.190214199636722,46.77845680313961],[-0.190052865706316,46.779326369942666],[-0.190220047229379,46.77987141781327],[-0.190244961911394,46.78051773846928],[-0.190641764248436,46.781910681766654],[-0.19052437854614,46.78252400769715],[-0.19113827249152,46.78337024149037],[-0.188599030394786,46.78424815579998],[-0.188513831758952,46.78449472652266],[-0.18789292095688,46.78506795359199],[-0.187368095725085,46.78575836146523],[-0.185218790742575,46.78713541605219],[-0.183477595961443,46.7879126846074],[-0.180836990831983,46.79042245974239],[-0.180198760606229,46.791396218965374],[-0.179120584631713,46.79238575090466],[-0.178459470900735,46.79261219926211],[-0.177429294896905,46.79265330575448],[-0.176221981297117,46.79231361903103],[-0.173085422899035,46.793376188749725],[-0.171130767566306,46.79423394573908],[-0.170235967981138,46.79475064621458],[-0.169574645998943,46.794817549249366],[-0.168776853160601,46.794794495411075],[-0.166407822407112,46.79637727875077],[-0.164177783650983,46.797578614520376],[-0.161763934232155,46.79837495409285],[-0.161396030924283,46.798613958365436],[-0.159259576765862,46.799443161770355],[-0.15772764711864,46.79979344455641],[-0.156845624254904,46.79974468592966],[-0.155933991673551,46.79986343929467],[-0.154889931997247,46.79987137965114],[-0.152395285641847,46.800162408759],[-0.149771704578845,46.80078672240522],[-0.14899993752738,46.80107730258981],[-0.148192500854434,46.8008669375418],[-0.14783738715826,46.800627057787786],[-0.146885445082825,46.800323322178514],[-0.146155806331394,46.79953140130806],[-0.145536148131266,46.79916449177175],[-0.145301836373794,46.79725244819636],[-0.145564815209664,46.79662889290126],[-0.145171886116127,46.79551056002619],[-0.145253936880877,46.79407555313212],[-0.145410171356359,46.79317287208927],[-0.146323869150474,46.7916673366297],[-0.146369846928128,46.79126147977094],[-0.14615113595179,46.790770957235566],[-0.14546473000035,46.790111214194816],[-0.145103261270302,46.789353363986564],[-0.144828195653745,46.789089658952754],[-0.14440513014141,46.789237304672234],[-0.144179248295421,46.789052450877485],[-0.143622212031363,46.788971273617975],[-0.142467824925791,46.78852075809424],[-0.139935438432659,46.787970928639886],[-0.139393823640989,46.787725308508065],[-0.138251662701624,46.78694100880792],[-0.137696683494369,46.78675882356],[-0.138158500337855,46.78651012120207],[-0.137558074972258,46.78581464500532],[-0.137418403943433,46.78580404133773],[-0.137502771840741,46.784723113182594],[-0.137275296681384,46.78398861531424],[-0.136982625857198,46.78362354862926],[-0.135896235944553,46.783347731281026],[-0.135185710902362,46.78328782529528],[-0.134766534960532,46.78293521653167],[-0.134320027083841,46.782813133916314],[-0.13393377276195,46.782802945315815],[-0.133554132551767,46.7828844877486],[-0.133393881281596,46.7826311423517],[-0.132862059465717,46.7824627213086],[-0.132052694964399,46.78194052155188],[-0.131930590592245,46.781688837668305],[-0.131585985510373,46.78146844974968],[-0.13118706887224,46.780671032032885],[-0.13075080102173,46.77913572517657],[-0.13099438158634,46.77849290681173],[-0.131433469865688,46.77814662884786],[-0.131892704821829,46.77726364194195],[-0.131860567394044,46.77686622937904],[-0.131276150325009,46.77594501092033],[-0.131075301782789,46.77498810461442],[-0.131612477564736,46.772820718651346],[-0.131707573319479,46.771174507279355],[-0.132092295167209,46.770342207644035],[-0.132080330874108,46.76981718828187],[-0.131860234946215,46.769162677971174],[-0.131989937458692,46.769114987068],[-0.13233165035032,46.76942285868569],[-0.133195976135805,46.76971917801998],[-0.133654424068515,46.769709374858195],[-0.134562227528516,46.76950978944274],[-0.139353462036803,46.769721358221524],[-0.139992756135143,46.76939209899165],[-0.142488588265404,46.76962030801928],[-0.142804374063448,46.76875561113946],[-0.142712254869805,46.768523842435606],[-0.142716035160538,46.76748025051641],[-0.142894690909157,46.766829263979545],[-0.142850075258495,46.766602503239085],[-0.143624423110086,46.76566307685485],[-0.143916481512456,46.76552081659449],[-0.145114351308278,46.76345060023759],[-0.145582093376898,46.76330802953789],[-0.146647922155157,46.762715635040124],[-0.147426130150693,46.76207073803419],[-0.147915871365193,46.76147158944858],[-0.147920279500115,46.76109570301251],[-0.147498123312111,46.76062247321568],[-0.1476034191791,46.76008702735883],[-0.147391228827353,46.759797276741125],[-0.147272600345417,46.7593121226861],[-0.147385537940396,46.758795390868116],[-0.147385269040217,46.75793212817761],[-0.147510827663707,46.75738441204684],[-0.147685490238171,46.757208412268],[-0.147797226900221,46.755360761648994],[-0.148076165514243,46.75433845590876],[-0.145231829239351,46.75480388006249],[-0.144103029871784,46.75523488857627],[-0.141695813582068,46.75634426523417],[-0.141391920086774,46.75664363908095],[-0.138464940131446,46.75801767110588],[-0.135734220711138,46.75916008625244],[-0.133617283190743,46.76017034457944],[-0.133076497825861,46.76052391686582],[-0.129360707172072,46.76218775115138],[-0.127025050527013,46.76347957886636],[-0.125771209666906,46.76431749737705],[-0.124096435862445,46.76513351069417],[-0.123186135998714,46.76569893086813],[-0.122372078950774,46.76593192284215],[-0.121875328010023,46.765936415224154],[-0.120155708541036,46.76545059197492],[-0.119890552891194,46.76583355493911],[-0.115878894841168,46.76482599335363],[-0.115242195700484,46.76520190315445],[-0.113762405711906,46.76564842740856],[-0.113039473064988,46.76603026647231],[-0.112504901224848,46.76610693025997],[-0.111976747490087,46.765449922811335],[-0.110701723554087,46.76475727607896],[-0.108182498110502,46.76409108563763],[-0.107246460155398,46.7636604583436],[-0.105561062339157,46.76253191493468],[-0.104340770720074,46.76231169800546],[-0.103911373563838,46.76207189802931]]]]}}]}