{"type":"FeatureCollection","name":"COM_24243","crs":{"type":"name","properties":{"name":"urn:ogc:def:crs:OGC:1.3:CRS84"}},"features":[{"type":"Feature","properties":{"fid":4173,"ID":"COMMUNE_0000000009754123","NOM":"Lisle","NOM_M":"LISLE","INSEE_COM":"24243","STATUT":"Commune simple","POPULATION":873,"INSEE_CAN":"03","INSEE_ARR":"3","INSEE_DEP":"24","INSEE_REG":"75","SIREN_EPCI":"200040400"},"geometry":{"type":"MultiPolygon","coordinates":[[[[0.582281570410112,45.24712695655371],[0.582241301954242,45.246790968800234],[0.583185642462316,45.24483403045654],[0.583432141735093,45.2434421434457],[0.583272363778204,45.24271530548736],[0.582610278575159,45.24178031502589],[0.581904465032193,45.24111913319885],[0.581320069934653,45.24006960619531],[0.580635618809452,45.23976921823289],[0.580642691909558,45.23998827795369],[0.580509283347625,45.24021240338759],[0.579692396131925,45.24073071730893],[0.579159847786638,45.24133716392081],[0.578069483032046,45.24216213671244],[0.576286117435094,45.24291171282888],[0.574684160243685,45.24306613218181],[0.574532429183472,45.2432123802633],[0.574264132216512,45.24395696663877],[0.573951457931173,45.24440240672448],[0.573090327901009,45.24490890467792],[0.572493444431889,45.244998636737556],[0.572239781873312,45.24520122308607],[0.569097600453281,45.24610853652808],[0.569068677897463,45.24589440463928],[0.567019266132188,45.24610114052839],[0.562604770178701,45.246995880386635],[0.562492877058836,45.246813268164665],[0.562215034094415,45.24669279825595],[0.560886557551658,45.246743084294685],[0.558837675611228,45.24702355356267],[0.55764489106222,45.24729477352888],[0.555898751934377,45.247359293708136],[0.555642228828151,45.24765457008219],[0.553859094953909,45.24795157245704],[0.552048575457581,45.247971382385785],[0.55050192077889,45.248168111072324],[0.549102135975749,45.24809868196191],[0.54773917449072,45.24814895727143],[0.546364861519456,45.2480223974944],[0.546216234674529,45.24905242476159],[0.546887155696723,45.251137339951974],[0.54640551070878,45.25222852329011],[0.544775896321,45.25184409836182],[0.540961059847779,45.25199174455901],[0.539755147884615,45.251977815401254],[0.537982493818754,45.2521766058402],[0.538593149350459,45.2527314784244],[0.539552020894411,45.253921918709814],[0.53957399286134,45.25455120774878],[0.539206825864771,45.25498094541623],[0.539861330468421,45.25523678709995],[0.540010003690552,45.255451763473786],[0.539815810948871,45.25586368964496],[0.539520698265763,45.25581665400376],[0.539046759972522,45.25620890696918],[0.537434039375885,45.25682651375078],[0.537153002651219,45.257095986928135],[0.536341973161869,45.259342897009084],[0.535730747308042,45.260502354692946],[0.535219758620585,45.261240611359554],[0.534695633055383,45.26117950440751],[0.533726856501167,45.26355715133362],[0.53346253804232,45.264629661860916],[0.533256078563933,45.266095328177165],[0.532585380090269,45.266404839482384],[0.532857399778165,45.2669459614007],[0.531850808866253,45.275647795414955],[0.531864617883815,45.27620033595102],[0.53236103536039,45.27637164922899],[0.533106184650657,45.276861952697615],[0.533778406521607,45.27718398074382],[0.533252340197794,45.27742281820922],[0.533805269962125,45.278566513300284],[0.533313689629901,45.27909258997283],[0.533215810619485,45.27940123206942],[0.533279590095758,45.27986298581702],[0.534157181115579,45.28073547111072],[0.533951234080232,45.28190026361584],[0.535625910317818,45.28220744807978],[0.536345221758244,45.28253410062008],[0.535404842481804,45.28319533849802],[0.533495927243763,45.28408565217268],[0.531111129275684,45.2850005628333],[0.530342736275417,45.28537817841778],[0.529288923451978,45.286666575332035],[0.528745721041476,45.28708789384592],[0.528308563800295,45.2880529811525],[0.528379995042715,45.28814014331874],[0.529710987211685,45.28894881197812],[0.532394559053558,45.290888188785836],[0.532735789179597,45.29136777678809],[0.532801052704284,45.29182506002905],[0.532451632706767,45.29265426509478],[0.532467830504941,45.29410413313714],[0.532010028005765,45.2956795752721],[0.531785716533787,45.29581606292577],[0.531448278079959,45.29579780498991],[0.531073547894297,45.29561296132918],[0.52952753866927,45.294468039279884],[0.529171910715019,45.29428451179779],[0.528832972301911,45.294213961682935],[0.528369504773897,45.29421723314168],[0.528019275219071,45.29431489526718],[0.527737290755568,45.29454289059026],[0.527556629751855,45.29484609645919],[0.527501037079745,45.29566736981782],[0.527737873749987,45.29671582315251],[0.527903704636016,45.296948311935935],[0.528606296959269,45.29736743294064],[0.529588969675975,45.298350379869596],[0.530943766347784,45.29937666711604],[0.533493856681237,45.300883344162514],[0.535242403935353,45.30158223170707],[0.536052263378287,45.30177214208867],[0.536435381437055,45.299892343561574],[0.536389929642894,45.29812021964031],[0.539285972483886,45.297720922864805],[0.541101666426348,45.2971869983129],[0.542580875707215,45.29664114801365],[0.542876475024955,45.29662421981581],[0.543519537968998,45.296919418138145],[0.543905031055214,45.296861219624],[0.544919014817638,45.29635737241784],[0.546921976129047,45.295162622828045],[0.547395179167493,45.29502525797214],[0.54963228611843,45.2948598870386],[0.550042610845638,45.29475897010623],[0.551165350119147,45.294334024878545],[0.552657717265269,45.29339735617232],[0.554787979186241,45.292989013853145],[0.557070950221178,45.291949756622515],[0.5574539021804,45.29165723146063],[0.558848177083165,45.29112012869318],[0.560124612545292,45.290766917659404],[0.561153313703589,45.291203754836964],[0.560970301692846,45.290719601888334],[0.561957908491411,45.290345656911185],[0.564141277889649,45.289973432283745],[0.568396179186066,45.288806623171126],[0.570289975380936,45.288663109098195],[0.572741861360607,45.287748829364226],[0.574196952808603,45.28756780029186],[0.575632754857086,45.286920589495544],[0.579804581500199,45.28598037439895],[0.579885050010728,45.285537992640165],[0.58105440142846,45.28549933328272],[0.581620812590291,45.28562148916332],[0.581991251199981,45.28561328456206],[0.582136813878202,45.285729039292036],[0.582754085249549,45.28582616416541],[0.583011720149486,45.285535350959066],[0.58306603771559,45.285283384043595],[0.583306535080082,45.284946256138966],[0.583317749748143,45.28483479220621],[0.583510407840105,45.284688512624754],[0.583306212967975,45.28418862823433],[0.583350575883738,45.28390131273103],[0.583108696686604,45.28353484122247],[0.582924843172039,45.28300746917783],[0.583480540336125,45.282405095522336],[0.584119912868691,45.28196217724721],[0.584310201816973,45.28163477330718],[0.585006347407547,45.28091200982601],[0.585310795615935,45.28074742240306],[0.5861785483986,45.28054004409638],[0.58626486624205,45.28040317575625],[0.586394812559148,45.27973033935146],[0.5862420194655,45.27925138937001],[0.586394737365516,45.279024968066025],[0.58632214280126,45.27884503163218],[0.586114136091671,45.27869820597133],[0.586745234491327,45.27820915214448],[0.586470754203406,45.277240213522],[0.585916007777407,45.27682105050733],[0.585695984287837,45.276510008864655],[0.583149050816777,45.272365097427276],[0.580734953366025,45.2714291428806],[0.579268089696112,45.27095146598466],[0.580435729280555,45.270474966839764],[0.579696135332429,45.269878805856244],[0.580023515027348,45.26980211362895],[0.579742735966775,45.269305068740245],[0.580511901007701,45.26889651474151],[0.579686942149212,45.26721117320706],[0.580505838886245,45.267008190893876],[0.580185237658845,45.26645893651217],[0.58023466150095,45.266172633619576],[0.579867811129296,45.26598361998858],[0.579406676703848,45.26543942823424],[0.578080666266604,45.26166494983397],[0.577663601978047,45.261135217942716],[0.57723693652594,45.2609439977909],[0.575906746120084,45.25897291280738],[0.575017349871085,45.25716271922215],[0.575746187605008,45.25621191312483],[0.576128548435042,45.25621840448196],[0.576955072467344,45.25425174477165],[0.577126491117363,45.25338883969293],[0.577504017363267,45.25259616480697],[0.577233599487741,45.25065977385515],[0.582281570410112,45.24712695655371]]]]}}]}