{"type":"FeatureCollection","name":"COM_24558","crs":{"type":"name","properties":{"name":"urn:ogc:def:crs:OGC:1.3:CRS84"}},"features":[{"type":"Feature","properties":{"fid":4058,"ID":"COMMUNE_0000000009755579","NOM":"Trémolat","NOM_M":"TREMOLAT","INSEE_COM":"24558","STATUT":"Commune simple","POPULATION":629,"INSEE_CAN":"12","INSEE_ARR":"1","INSEE_DEP":"24","INSEE_REG":"75","SIREN_EPCI":"200034833"},"geometry":{"type":"MultiPolygon","coordinates":[[[[0.853444041225348,44.85148256853297],[0.852513274001357,44.8512213813969],[0.848657100002685,44.850513525019934],[0.84677018452335,44.85035804160423],[0.844713208995675,44.85034513171301],[0.842413606458988,44.850451759287935],[0.839008125440143,44.850999755648196],[0.83479478229997,44.851908371563475],[0.832560721074995,44.85257809586606],[0.830147921396769,44.85357933298871],[0.828625731879487,44.854435826264215],[0.82529111143704,44.8567077915952],[0.824579451444496,44.85742699659028],[0.823963744909007,44.85831650565239],[0.823456648583557,44.85914779634745],[0.822706177504387,44.86093173347596],[0.822486198087742,44.861803779414444],[0.8223816395134,44.86276905840694],[0.822274188395461,44.86645343616269],[0.822117675193909,44.86800674308535],[0.822060123414021,44.8721019168799],[0.822172649330031,44.87507818039602],[0.822446665626093,44.87683088177016],[0.822486596600672,44.87975258467007],[0.822629202081678,44.881366706885274],[0.822463122109533,44.88251272469573],[0.822139432185242,44.883149466109415],[0.821090764383986,44.884152973559935],[0.82024298224636,44.88464792477834],[0.819288711067996,44.88501378173722],[0.817029427587904,44.88538100413557],[0.815661284008142,44.88547479192996],[0.811757214939727,44.88549069700596],[0.809194220350648,44.88532757403542],[0.807090468382499,44.884954593926594],[0.805432399032296,44.8843949325495],[0.804567707685539,44.88399054227267],[0.803848885712471,44.884877019816315],[0.802746821957377,44.8850668807919],[0.801530588674575,44.886101122263454],[0.800922821148901,44.88696456210251],[0.800729594672248,44.88837122220741],[0.800462294465654,44.888887430140315],[0.797533324070267,44.8918151842634],[0.79633081752602,44.892816322222046],[0.797106173161446,44.89346489443918],[0.796597782865896,44.89363314710119],[0.795548063310272,44.89435629175429],[0.794739484404127,44.89526255380561],[0.794547582160228,44.89543798211886],[0.794307444216059,44.89551877956629],[0.793975631443882,44.895965240573446],[0.795554528241293,44.897449416863736],[0.797507103964575,44.89887522944716],[0.798115566014241,44.89919353090815],[0.798663446636046,44.89986099979298],[0.799719816925965,44.899325300067524],[0.801871454954238,44.89803577250276],[0.802537127855891,44.89789672714666],[0.803688993828826,44.897865469114016],[0.805126051436406,44.89767050466929],[0.806126148980577,44.897048068335536],[0.80864614814496,44.89806606357593],[0.809426995630391,44.89786530031098],[0.810531748477698,44.89706024706092],[0.811768824372992,44.89711795266006],[0.813765233807959,44.897591402058346],[0.814292731989931,44.89761529446088],[0.815009505817135,44.89668367095803],[0.816102035312516,44.8961899634217],[0.816746811023611,44.89573968473829],[0.817110662112512,44.89531180287945],[0.817378873536495,44.89525762855661],[0.81783793350852,44.89560711027338],[0.818686971850985,44.89586697537489],[0.819760927722306,44.896045683739196],[0.821360228931506,44.895814065890136],[0.821673591627483,44.89600035036572],[0.822453674876811,44.89611112071296],[0.823616244595409,44.8965212045859],[0.824836518160077,44.896718042157],[0.825876412630467,44.89790749716944],[0.826592555310748,44.898034099285276],[0.82690592113775,44.8987445694676],[0.828726272441749,44.897975855581834],[0.829808398164802,44.897650240122616],[0.830103940723502,44.89708587931348],[0.830651924340644,44.89638323972238],[0.831570024041691,44.89571034186995],[0.832134663178544,44.89615009131799],[0.832426702509464,44.8962332502816],[0.833929522994476,44.89528262351682],[0.834662315325969,44.89510866959325],[0.835236356455159,44.89454972626569],[0.835860190694009,44.894407866939936],[0.83664803462564,44.89435026065251],[0.836970790403801,44.89412957465617],[0.837102334411251,44.89387273946337],[0.837725110928395,44.89323187041089],[0.837970645337904,44.892285528621066],[0.837694312717448,44.89195950533812],[0.838115285969826,44.8916227393021],[0.838213390519742,44.8910166878556],[0.837887770312468,44.8905888291294],[0.838416921056556,44.89020643220117],[0.838470297265264,44.8898733178153],[0.838252233474392,44.88971235438792],[0.838261573833856,44.8893054276296],[0.83842366381897,44.88924193226798],[0.838521222789264,44.88861695619583],[0.838390519725522,44.88839194356279],[0.838909202056806,44.88788594780731],[0.83922108990555,44.88718948511803],[0.839865488583944,44.88670844865098],[0.839488341975182,44.885085289291936],[0.839589864237203,44.88471888599437],[0.839257422959405,44.88437015882972],[0.839237264382715,44.8841698154019],[0.840154895063344,44.882974451334235],[0.840399154534453,44.88215778199084],[0.840297718756393,44.88140284070756],[0.839753858623868,44.881116652976196],[0.839759536647016,44.88090330232501],[0.839594324360553,44.88075237642008],[0.839672117154807,44.880409830352065],[0.839408110616674,44.88009395889793],[0.839749849532437,44.87990426011219],[0.839820914501151,44.8792427426837],[0.840904239897925,44.87910529456062],[0.840780308333279,44.87936318077501],[0.842544433902995,44.87944250733492],[0.843342251894451,44.879811973380335],[0.843863173677255,44.879640153339814],[0.844377919006179,44.879332208647234],[0.845473563064876,44.87907156247196],[0.846108049835186,44.87901001711094],[0.849345554959065,44.877168744939326],[0.850237239262885,44.8771382778379],[0.851278354349369,44.87724129352914],[0.854034915605299,44.87783411086328],[0.854355854003914,44.877988024074305],[0.856085041784077,44.87593006298575],[0.857010106933008,44.876219024812464],[0.85731933489771,44.87558461454544],[0.858311146671956,44.87538578842424],[0.858295406833203,44.87327520989954],[0.859512244702027,44.87325274307843],[0.859684305450504,44.87332451132488],[0.85984856576701,44.87370055588538],[0.860279400226657,44.873629601132556],[0.860333403911811,44.87374142451318],[0.863072451809417,44.87359423025308],[0.86295028354083,44.87317666961826],[0.863016124707016,44.87221241848121],[0.862206996923713,44.871840175282465],[0.861966506011417,44.87067187821101],[0.861928655424949,44.86960385547139],[0.862062340663933,44.868188776387484],[0.862631888851131,44.86626961051485],[0.862999044336268,44.86560748268579],[0.86357199311197,44.86496192425351],[0.864252528024114,44.864417506726156],[0.865011223715104,44.863049577767754],[0.864703282218582,44.86135670563888],[0.864236730092781,44.85987243787421],[0.863755369602427,44.858911170303436],[0.86312822404293,44.85812092250597],[0.859943459923555,44.85526389263159],[0.858124587162832,44.853884110538615],[0.856370948432918,44.85268839287718],[0.85444368256382,44.85176399329196],[0.853444041225348,44.85148256853297]]]]}}]}