{"type":"FeatureCollection","name":"COM_79117","crs":{"type":"name","properties":{"name":"urn:ogc:def:crs:OGC:1.3:CRS84"}},"features":[{"type":"Feature","properties":{"fid":4291,"ID":"COMMUNE_0000000009749246","NOM":"Faye-sur-Ardin","NOM_M":"FAYE-SUR-ARDIN","INSEE_COM":"79117","STATUT":"Commune simple","POPULATION":658,"INSEE_CAN":"01","INSEE_ARR":"3","INSEE_DEP":"79","INSEE_REG":"75","SIREN_EPCI":"200069748"},"geometry":{"type":"MultiPolygon","coordinates":[[[[-0.475288069691441,46.4242852189766],[-0.475755910768533,46.423895113857675],[-0.475913930071794,46.42387948461697],[-0.476686505142398,46.42287169193314],[-0.478081370150044,46.421730457332565],[-0.478272798552976,46.421441603005],[-0.481342031369527,46.42072427835633],[-0.483665542858878,46.41984125879599],[-0.487424830572584,46.41852403476418],[-0.491906025247828,46.41741172815365],[-0.493665219763249,46.417123525982134],[-0.49456287661599,46.417098740155154],[-0.494977863954925,46.417188782434835],[-0.496017832363628,46.417941091809446],[-0.496698179079986,46.418307822158695],[-0.497022045312688,46.41837901755574],[-0.497047141105818,46.41990963374592],[-0.496940005391692,46.421207248449406],[-0.496760604202376,46.4226179425667],[-0.496398143397047,46.42420279630029],[-0.496542881483078,46.42556660177519],[-0.49609575102453,46.42670517816979],[-0.496920465012748,46.42769572393193],[-0.500276441994709,46.429048511408986],[-0.501860403768526,46.42955875280337],[-0.503515449939487,46.430201091580194],[-0.50489325591644,46.43056529359514],[-0.506324974070964,46.43075386296734],[-0.507519192091796,46.43075592421352],[-0.510295701568645,46.431159089159536],[-0.512037091236107,46.431256941068376],[-0.513142351758726,46.431193178610165],[-0.514041916376636,46.431234887864406],[-0.51554074408176,46.43151321480864],[-0.517098774576166,46.43165810045311],[-0.520946967844688,46.43238401398475],[-0.524271912743345,46.43273747489173],[-0.526220619494495,46.43323792731181],[-0.527401731089615,46.433378996518634],[-0.529597464962987,46.433807761285436],[-0.53125639911425,46.434039472386715],[-0.532927016081631,46.434612414121176],[-0.53455936802839,46.43497650011358],[-0.537755987927292,46.435397546718306],[-0.53913871157374,46.4358918917881],[-0.539991461094066,46.43629539715793],[-0.541452219370733,46.43666561085743],[-0.542218953772733,46.436988843655776],[-0.54285559322572,46.43715566666769],[-0.545888370625204,46.43770055754761],[-0.548205543538614,46.43796656055726],[-0.550092564829382,46.43801334377296],[-0.550915482078244,46.438177033072776],[-0.550558878965763,46.43920847717548],[-0.550163738755516,46.43938752135123],[-0.548803021639127,46.440657499929074],[-0.547424847285074,46.44135923955275],[-0.54670789695293,46.44238474053097],[-0.545647123945689,46.44289541931583],[-0.544687445813833,46.44313614398383],[-0.544786643451829,46.44335840511188],[-0.54479048913073,46.44381888379196],[-0.544562158289014,46.44475978913138],[-0.543229862746075,46.44484531720169],[-0.542719540326518,46.44503872492463],[-0.542100045028147,46.44563932913392],[-0.541683258572028,46.4463697466756],[-0.541244142402802,46.446696142568626],[-0.540535611161728,46.44684971856289],[-0.539303055894993,46.44692579606904],[-0.538801711424115,46.44729827799919],[-0.53850767310482,46.4478914753091],[-0.538124528603277,46.448035850843446],[-0.537143591216312,46.4479707040392],[-0.536289625580165,46.44781238104989],[-0.535899029881066,46.44782177561869],[-0.535606571324413,46.44845998345778],[-0.53570750990252,46.4491319765453],[-0.535849687681769,46.449353814665216],[-0.535731461052191,46.44958191511442],[-0.535351212747047,46.44977125904076],[-0.535188565095642,46.450179203748455],[-0.535644571361583,46.45039402791471],[-0.53497733749278,46.45072295500048],[-0.535245162363961,46.451072501932224],[-0.535229492782705,46.45125325918931],[-0.535553374013091,46.45138113777537],[-0.53530862402358,46.45158881891565],[-0.535106436780089,46.451326474320844],[-0.534644424703626,46.451200167074376],[-0.534369054055141,46.4521830621012],[-0.533778245695038,46.45206163966947],[-0.533652563620856,46.45215476429525],[-0.533411552465965,46.45252096449574],[-0.533487041138285,46.452699801379346],[-0.533823146542707,46.45291563985893],[-0.533830587989459,46.45305061341585],[-0.532105543051788,46.45367996192211],[-0.529297429984873,46.454240012866336],[-0.529015377307796,46.45477872886927],[-0.528294666883673,46.45573390643317],[-0.527556022288685,46.455363738515075],[-0.526641900032542,46.45474029740465],[-0.526206383206469,46.4545599574721],[-0.524189469242474,46.45416614538126],[-0.520244669893897,46.45374612781255],[-0.518906052773091,46.45347462383487],[-0.517098176867729,46.455633180475175],[-0.515368225791474,46.45527994778843],[-0.515426566915131,46.45509247351291],[-0.512099897062135,46.45457021713883],[-0.511909448904172,46.45509615295608],[-0.511756171742429,46.45638168237999],[-0.511287743435902,46.45769492992442],[-0.510080259624486,46.45917781523416],[-0.509727918629014,46.46006655675779],[-0.505610792808595,46.45802529661471],[-0.504843727260638,46.45751524871865],[-0.502434924354853,46.45637956017945],[-0.498491139793052,46.45434806448699],[-0.497762156393895,46.45475527165388],[-0.496091573555844,46.45593581589819],[-0.495628116691919,46.45645745978817],[-0.494859260194187,46.45760676799492],[-0.493861170826192,46.45823219602028],[-0.493589365228229,46.45899763646107],[-0.493040183713099,46.458935120033715],[-0.489001805406596,46.45768495061734],[-0.488003003204909,46.45726029154175],[-0.485691575235479,46.45664225758977],[-0.483568242496219,46.455885042542796],[-0.483374453813909,46.45593421878977],[-0.482959732877913,46.45671029929844],[-0.482964176428692,46.45680029704192],[-0.483291276420546,46.45683718809754],[-0.483366549338592,46.45701515836164],[-0.482839310965695,46.458153400930726],[-0.480736583203562,46.461581287275806],[-0.480809040664069,46.4617151796329],[-0.481008804971282,46.461800124666325],[-0.480959851923901,46.46211618150036],[-0.480472591283753,46.46275835998914],[-0.479559418369648,46.46273571405418],[-0.479236723432278,46.46278881015244],[-0.479057578343638,46.4631088323417],[-0.478614332821207,46.46460502272766],[-0.478577106771973,46.465146053058625],[-0.476820267721995,46.46518963930855],[-0.476028433412288,46.46498390541506],[-0.474761817677095,46.46443027984001],[-0.473768938087222,46.46413961395283],[-0.471857433980806,46.46388408247652],[-0.473401367596943,46.459126795662364],[-0.473523016654909,46.458354262537036],[-0.473439091674441,46.457855677200165],[-0.473833904421459,46.45604822053063],[-0.474394463020033,46.454611571802495],[-0.474974833173004,46.45356819704887],[-0.475066051036014,46.45313728928452],[-0.477395212784647,46.45283112639639],[-0.475697985400421,46.45200310860898],[-0.476926146166858,46.45056684823395],[-0.477691396725229,46.44997029383811],[-0.478092513468931,46.44920546279821],[-0.479124212454866,46.445222586282824],[-0.479517923016607,46.44452647502083],[-0.480395995578601,46.44155144564898],[-0.481495487717732,46.4392077968337],[-0.481877291043755,46.437652164219976],[-0.482501103336774,46.43586471297662],[-0.482984763751425,46.43498647498261],[-0.483817728080837,46.43386232388715],[-0.484053577589751,46.4331665033245],[-0.484876142771726,46.4314721136337],[-0.485067495044991,46.43036573746643],[-0.485049953531372,46.42927475324763],[-0.483644085494991,46.429203206615405],[-0.482454030228256,46.428959211577556],[-0.481239687359198,46.42886556709035],[-0.480829093709943,46.428579749163795],[-0.480136728541759,46.42827007479312],[-0.479242724028595,46.427394196360645],[-0.479012858700582,46.42734622276776],[-0.478953814952591,46.42742193220583],[-0.47791155864781,46.42710308171543],[-0.476324986897788,46.42718116734559],[-0.475649284393712,46.4269277434343],[-0.475463918809961,46.426575559571006],[-0.475447693223826,46.42589104042242],[-0.475258797144064,46.42550381184379],[-0.474688194148524,46.42550856879638],[-0.475288069691441,46.4242852189766]]]]}}]}