{"type":"FeatureCollection","name":"COM_64410","crs":{"type":"name","properties":{"name":"urn:ogc:def:crs:OGC:1.3:CRS84"}},"features":[{"type":"Feature","properties":{"fid":4265,"ID":"COMMUNE_0000000009761079","NOM":"Mourenx","NOM_M":"MOURENX","INSEE_COM":"64410","STATUT":"Commune simple","POPULATION":5744,"INSEE_CAN":"09","INSEE_ARR":"3","INSEE_DEP":"64","INSEE_REG":"75","SIREN_EPCI":"200039204"},"geometry":{"type":"MultiPolygon","coordinates":[[[[-0.636624150084763,43.37390237430365],[-0.635920801335243,43.374220505455874],[-0.635434219529931,43.374276485065735],[-0.633890874775567,43.37480204407999],[-0.632832028651211,43.3752779889297],[-0.633788766757891,43.376352656344544],[-0.634211641452378,43.37704720086204],[-0.635205769924102,43.37750100804702],[-0.634975378423246,43.37803648626538],[-0.634817592360771,43.37813814952899],[-0.634914867819424,43.37827086763159],[-0.634261484728626,43.379967888572864],[-0.632266656357681,43.38052209613436],[-0.63121202599351,43.380518776394894],[-0.629890778786482,43.380320863259804],[-0.630056174977065,43.37996769234444],[-0.630437050612951,43.37958567631384],[-0.630589002660609,43.37894117033549],[-0.630035347720326,43.37856079690301],[-0.628962165434683,43.37810599235836],[-0.62848639368576,43.37837321104358],[-0.62780666599926,43.37849957394976],[-0.627733961167005,43.37871724848598],[-0.626672222845714,43.379560660112965],[-0.626716774322668,43.37960149335497],[-0.625706486931736,43.37996856947094],[-0.620883768656414,43.38126211139428],[-0.621768966562923,43.38177102062248],[-0.623001220738938,43.38267355808954],[-0.622851798141247,43.3829478326522],[-0.622058155766353,43.38373719013089],[-0.620839489517078,43.38479742972857],[-0.61959679001938,43.38396455917502],[-0.618814411276242,43.3842663063886],[-0.618541807843351,43.38495805630915],[-0.618365828010385,43.385163868579966],[-0.617866900520438,43.38537867921387],[-0.617770910348023,43.385501664867725],[-0.617242450988316,43.38569854804448],[-0.616923536790922,43.385496675685125],[-0.616902879900109,43.38508940833552],[-0.616527808537688,43.384917330077414],[-0.615576212707186,43.38514005605957],[-0.615201307422405,43.38461674619173],[-0.61287728439831,43.38549858619127],[-0.612689337722317,43.385671467205356],[-0.612372941149451,43.385804508931024],[-0.611685428663155,43.38582836248596],[-0.611248692773387,43.386031159354204],[-0.611142427717697,43.386659699795125],[-0.609669440938819,43.38746893183279],[-0.60957252174935,43.38657339969818],[-0.608515027625722,43.38713640676952],[-0.608078474000963,43.387283349165884],[-0.607764315665033,43.387156939297455],[-0.605446437099349,43.38865259500981],[-0.605033076206721,43.38834216513958],[-0.605364434048151,43.388132099043574],[-0.604056200962236,43.38697973553715],[-0.603690757531531,43.387079262922384],[-0.601649230944889,43.385238050608166],[-0.601020748348266,43.38478437523849],[-0.600509189582461,43.385133707732834],[-0.599843994398493,43.38476409920534],[-0.599523963573789,43.3850368102059],[-0.599322000385789,43.38506514282245],[-0.598550877252794,43.38458107738882],[-0.599174878404905,43.384094731123945],[-0.597854832953022,43.38330291951904],[-0.597425564487328,43.38376387109786],[-0.595596170421512,43.382644956205986],[-0.595181075491637,43.38283886244137],[-0.594628779425083,43.38235830652254],[-0.594999564754433,43.37977490120908],[-0.595409874761687,43.37918851280917],[-0.59606500815805,43.37955667730222],[-0.596430862391544,43.37910864676807],[-0.595437224385194,43.37857882942622],[-0.596349875774855,43.37773349148721],[-0.596437641431672,43.37779451299764],[-0.59671855843025,43.377528515555234],[-0.596832597009562,43.37763459144249],[-0.597742142375959,43.37683887491378],[-0.596625716754489,43.37627983350532],[-0.598094803062793,43.37495579588951],[-0.597636566253815,43.37469546806849],[-0.597979274132944,43.374371577958186],[-0.600784221819575,43.37192600007282],[-0.601179029376806,43.37227758019304],[-0.603269052341399,43.37109489406729],[-0.603335327580954,43.371207056439424],[-0.604106483690271,43.37058970074736],[-0.604947315054573,43.37096692939829],[-0.605189583426055,43.3707157053147],[-0.605141570205333,43.370461548484755],[-0.606248406228317,43.369744733721554],[-0.607859559433449,43.36890121861087],[-0.610320493163458,43.36743675194372],[-0.61096381362852,43.36696770069558],[-0.611080477398603,43.366780993249186],[-0.61236365874213,43.36645717066361],[-0.612213036180705,43.366063255830966],[-0.615740068402477,43.365068260643795],[-0.615962533683359,43.36554442129062],[-0.616191637779146,43.365418788581586],[-0.61617188907545,43.365340200003295],[-0.616590077070487,43.36511998973241],[-0.616822303154927,43.36486727290137],[-0.616831858871332,43.36472466558504],[-0.6173004112799,43.36436318205594],[-0.619023426566999,43.36377241067696],[-0.618812270960274,43.36373174681867],[-0.618090318528034,43.36387117246359],[-0.617852880210515,43.36378545767565],[-0.617707115592636,43.363528272113165],[-0.617885719041663,43.36301168294193],[-0.617284440619429,43.36275352418988],[-0.617156947571855,43.36262990968366],[-0.616734591210899,43.362547675677725],[-0.616198725711322,43.36230893703093],[-0.616145512507477,43.36214951727379],[-0.616324842798589,43.36193909529798],[-0.617970587422321,43.361239254844634],[-0.619500832490563,43.36070535380299],[-0.619923815613829,43.36140623655783],[-0.620087593071296,43.361243157358764],[-0.620745287553823,43.36090684614587],[-0.621747272562579,43.36054999562853],[-0.623529505986412,43.36027506182176],[-0.624339647023475,43.36024341123872],[-0.624826847703527,43.3601010043214],[-0.628958581028717,43.35946622872646],[-0.63477905149113,43.3593265891955],[-0.634800000629413,43.35954111919791],[-0.6346048199448,43.360124939068555],[-0.634293073742801,43.36064153165417],[-0.63412671759675,43.36183856565502],[-0.634149082699887,43.36193867711011],[-0.63424717927239,43.3619479885421],[-0.63423011547111,43.36216649813022],[-0.63398546004093,43.36374620203985],[-0.634294215085068,43.36480479682157],[-0.634231395088143,43.36711415616994],[-0.634331455682231,43.367389068915884],[-0.634752568864802,43.368056646810416],[-0.634954360666986,43.368183149191644],[-0.634763122113535,43.368692993215085],[-0.635838675676475,43.37188448301493],[-0.636275354447261,43.3728172041717],[-0.636624150084763,43.37390237430365]]]]}}]}