{"type":"FeatureCollection","features":[{"type":"Feature","properties":{"fid":95,"ID":"COMMUNE_0000000009757210","NOM":"Biscarrosse","NOM_M":"BISCARROSSE","INSEE_COM":"40046","STATUT":"Commune simple","POPULATION":15412,"INSEE_CAN":"07","INSEE_ARR":"2","INSEE_DEP":"40","INSEE_REG":"75","SIREN_EPCI":"244000873"},"geometry":{"type":"MultiPolygon","coordinates":[[[[-1.120643594049501,44.460937374836156],[-1.112136625490252,44.4587799649692],[-1.109527292613533,44.45822291363682],[-1.107660458894365,44.457162167112486],[-1.107565397178098,44.45699714688352],[-1.106959671629136,44.45678446338195],[-1.106131152144408,44.45622492400018],[-1.103224808453134,44.45459079470648],[-1.080679030718224,44.44323154707643],[-1.080512088563518,44.44321970513492],[-1.079434895897078,44.44262503129311],[-1.076829792196635,44.441378427955286],[-1.074612064088084,44.44012825159524],[-1.072354330220163,44.43898497711338],[-1.071430158730301,44.43859099125929],[-1.07102202131866,44.43865385473021],[-1.029303530098779,44.42274060849898],[-1.03589150658926,44.41921562338085],[-1.048275093049122,44.412811880891326],[-1.048707539776277,44.412686909397785],[-1.048819673520367,44.41254938247548],[-1.052013909357518,44.41086616068391],[-1.089208030675069,44.39143490329604],[-1.098906869331699,44.386269620292424],[-1.099235193824199,44.38596083160457],[-1.101713267669607,44.38477238295194],[-1.103806937556362,44.38358830059113],[-1.106272561179968,44.38245609364242],[-1.108415392876945,44.38127639274908],[-1.118706815542251,44.37305844915841],[-1.12864243884216,44.36556672469649],[-1.13336159080833,44.36163784863753],[-1.135619558031219,44.36014317109058],[-1.141112889079949,44.35841126846346],[-1.190630596530223,44.342165621208586],[-1.195306278468872,44.34051164484115],[-1.196976510300836,44.34042264665811],[-1.218212795668272,44.33929426080956],[-1.275655648655412,44.335822651792554],[-1.275620342202849,44.3364694781032],[-1.275324289426316,44.337555547308526],[-1.275339284745592,44.33875211771985],[-1.274722824514323,44.34090176380981],[-1.274282499938413,44.344286787702124],[-1.274056815834986,44.34510779005745],[-1.273588959205496,44.34604908811524],[-1.273545655649454,44.34642398157801],[-1.273089580931966,44.34770467493562],[-1.272945593975152,44.34940864879968],[-1.273090060432389,44.34965815097678],[-1.27308784823662,44.350011615055315],[-1.273424395540495,44.34952706213292],[-1.273449600620237,44.349627949022675],[-1.272822902605602,44.35182756720532],[-1.272658482323762,44.35264528515988],[-1.272666544219131,44.35311824662651],[-1.272326920894004,44.354061767758544],[-1.271807531303114,44.35650241304607],[-1.271581442981162,44.358234820867324],[-1.271726065908611,44.35876918735412],[-1.271918067754221,44.3585994619072],[-1.271907322300026,44.35900644587239],[-1.271688610567664,44.35948821881434],[-1.271680111070908,44.35999157376294],[-1.27134529935916,44.36061668391016],[-1.271002385552031,44.361783896137915],[-1.270928556458742,44.3628369863874],[-1.270509476229756,44.36414418048782],[-1.270137669114638,44.36592822304546],[-1.270011619919078,44.36687245953568],[-1.270197821630505,44.36725827471609],[-1.270406597358351,44.36657766337057],[-1.270391653844846,44.367412112947164],[-1.269769906039405,44.36909858492746],[-1.269721893890943,44.36989465371033],[-1.269517390031581,44.3704822456023],[-1.269309281136538,44.37168839334501],[-1.26886148992942,44.37313282084121],[-1.268684790264375,44.37435577850389],[-1.268529585811762,44.37464757206883],[-1.26843210086025,44.3754545763244],[-1.268490636757591,44.37598057350089],[-1.268668109850997,44.376250441082924],[-1.268872441182883,44.376076637775675],[-1.268895756699027,44.376219068669236],[-1.268655707120509,44.377018986177504],[-1.268536354848116,44.37803598420199],[-1.268189487473885,44.37925292582249],[-1.267920642784498,44.38085447746033],[-1.267281547329301,44.38339711969388],[-1.267021791505883,44.38410314271472],[-1.266644747688336,44.386287643506],[-1.266558583828254,44.38752872597664],[-1.266242813030416,44.388609233843404],[-1.26612038030792,44.388752810692154],[-1.266058780155147,44.38948630529717],[-1.265894064862598,44.38966938393131],[-1.265653556377673,44.39094800351897],[-1.265448425484129,44.3915121746122],[-1.265445398398394,44.39243902127543],[-1.26561933027166,44.393194936664386],[-1.265742151085945,44.393206401443166],[-1.26573866916055,44.393476982963605],[-1.265576240738308,44.393490492483075],[-1.265681044456149,44.39376318606247],[-1.265499582242703,44.394124506478185],[-1.265188605765913,44.39551944612804],[-1.264885654089905,44.39760461507675],[-1.264970162510068,44.397691488311516],[-1.264759372691076,44.39801427874621],[-1.26409659406423,44.39986367995427],[-1.263819975734215,44.40214885962374],[-1.26364396521223,44.402416210567154],[-1.263617766604048,44.402886000964344],[-1.263414638380717,44.40352761952305],[-1.263373688198794,44.40461910914555],[-1.263592296521385,44.40523357015208],[-1.263648822517337,44.40528276508328],[-1.263740728893934,44.40526748469355],[-1.263720089055269,44.4055107857833],[-1.263389590761813,44.40663152463898],[-1.262959380287325,44.40914893171641],[-1.262771887575175,44.40946450503169],[-1.26296540864951,44.40936235208948],[-1.262529513891755,44.41132105302891],[-1.262571797393574,44.411848592259815],[-1.26202860573053,44.41353559040497],[-1.261901149199297,44.41483146633083],[-1.261630346008509,44.4160779018893],[-1.260985758505961,44.420442658471224],[-1.260520476360595,44.42206353000544],[-1.260326753151152,44.42346564402769],[-1.260331037496861,44.42429034845266],[-1.260168860678062,44.42475909331149],[-1.26013529778328,44.42526523102467],[-1.259899506991874,44.425875655043754],[-1.259777618811936,44.426945942647066],[-1.259233157205181,44.42891965540369],[-1.258934668309327,44.4312363367806],[-1.259026467254125,44.431770079361954],[-1.259194622401016,44.43151385854005],[-1.259241400275746,44.431633751310265],[-1.258903152026377,44.43514285576141],[-1.258493179431305,44.437617108126226],[-1.257951586771489,44.438979488743904],[-1.257697852764124,44.44042178775541],[-1.257341033175704,44.441731945381896],[-1.257077410436928,44.44366143779974],[-1.257031173719531,44.44486853574185],[-1.25690099308778,44.44532882778879],[-1.256735924688333,44.44753127342953],[-1.256433163800484,44.448607653263956],[-1.256268346054998,44.44977786669231],[-1.256000388744353,44.45043099588622],[-1.255820927733024,44.451908286939215],[-1.255394387131035,44.453480768405484],[-1.255351455614342,44.455183570268794],[-1.255433890116497,44.45532552788217],[-1.255237276563687,44.455890255717655],[-1.255044800313002,44.45749606454255],[-1.254641021636851,44.459087498347685],[-1.254604112788179,44.4605196178248],[-1.254275183742811,44.46201891057763],[-1.254245686461806,44.46368333458147],[-1.254062732695651,44.46484793885901],[-1.254272543105857,44.46589550472189],[-1.254541171993995,44.46563451004892],[-1.254566759050071,44.465790384671465],[-1.25418574238909,44.467367418007484],[-1.254049035679547,44.46747456800292],[-1.253667230020848,44.467486606859204],[-1.251196345828773,44.468010204648934],[-1.250147713112459,44.468161552324474],[-1.238752145949634,44.47069840546427],[-1.235283434308214,44.47153498135441],[-1.234872479055106,44.47156159706152],[-1.233425016198674,44.47188587430722],[-1.229169669279154,44.47289581468671],[-1.228500493995329,44.473038694805076],[-1.228418978161651,44.47295888563223],[-1.228170002214363,44.47296303203936],[-1.225792799879367,44.47348244828063],[-1.208434381052763,44.477534654223405],[-1.202166494263889,44.479073817349466],[-1.199953435068369,44.479537718961495],[-1.178632532968339,44.47465375004523],[-1.162733613742921,44.47092768280155],[-1.147128893935979,44.46716579782893],[-1.130938166764867,44.46346703437577],[-1.120643594049501,44.460937374836156]]]]}},{"type":"Feature","properties":{"fid":99,"ID":"COMMUNE_0000000009757552","NOM":"Gastes","NOM_M":"GASTES","INSEE_COM":"40108","STATUT":"Commune simple","POPULATION":925,"INSEE_CAN":"07","INSEE_ARR":"2","INSEE_DEP":"40","INSEE_REG":"75","SIREN_EPCI":"244000873"},"geometry":{"type":"MultiPolygon","coordinates":[[[[-1.195306278468872,44.34051164484115],[-1.1712994306368,44.33807201065861],[-1.123518273789951,44.333094634382],[-1.119391822456067,44.33261389655328],[-1.117969948610735,44.33015775600467],[-1.118045223023213,44.329932296711874],[-1.118566726586643,44.32935029928453],[-1.119771970835415,44.326912885736526],[-1.123591755663016,44.320273437770624],[-1.125333796102821,44.31697212969508],[-1.136235284338022,44.28290065273522],[-1.13812255952928,44.28386522012791],[-1.138913975424415,44.28441046645349],[-1.149928732352443,44.29219547889166],[-1.150692913546253,44.29263982488428],[-1.158496191448443,44.298350563392894],[-1.158852004699788,44.29856424107283],[-1.16198269313138,44.29928846116762],[-1.162447844134576,44.30039215994009],[-1.162756233353087,44.301548670628655],[-1.163047580620226,44.30342964151622],[-1.168666106628274,44.30609382039364],[-1.167025222519283,44.30762624146045],[-1.16951575063266,44.30827449721351],[-1.170211375332192,44.30827693951946],[-1.170227598378786,44.30873603473318],[-1.171838819931882,44.30864241418102],[-1.173573884598289,44.30884963860929],[-1.173665782714165,44.30915983347757],[-1.17482586936007,44.309195981263464],[-1.17642842169079,44.3094613795691],[-1.17652605004055,44.309116939742715],[-1.176984943123258,44.30924552051397],[-1.177061206282961,44.31036486256879],[-1.179784715716609,44.31052629516606],[-1.180226002854109,44.310722236692506],[-1.181191356936221,44.31075581226406],[-1.181862122616921,44.31091416926902],[-1.192973325473004,44.31192843220732],[-1.194859663108071,44.31197180789642],[-1.200885414440366,44.31146033556412],[-1.205360611559467,44.31121882161684],[-1.234997270656825,44.3098235070759],[-1.236844498843229,44.30964591560649],[-1.23804540646005,44.30967261264372],[-1.256102228349975,44.308840252306666],[-1.258166242299817,44.308725114620465],[-1.258614073858211,44.308620315379336],[-1.260042788472173,44.30863794079622],[-1.271864110340813,44.30812752378335],[-1.281210938534808,44.30763386126664],[-1.281059818118091,44.308424923572964],[-1.280879221668554,44.308742965380645],[-1.280901822106649,44.30897556335749],[-1.28078862254427,44.30908905124224],[-1.280837703372543,44.3092899677194],[-1.280638550814583,44.3107247425779],[-1.280079982736624,44.312171717214596],[-1.280042174832578,44.313316245340026],[-1.280117565142298,44.3134665571772],[-1.280012031212034,44.3135653220539],[-1.280054223861446,44.31369168621603],[-1.279625799639727,44.314983946044556],[-1.279653794124808,44.315155035221174],[-1.279246029163781,44.316089509195535],[-1.279000326915207,44.31818867275067],[-1.279072275105583,44.31835985354256],[-1.278936046049354,44.318351636791945],[-1.278982446979502,44.31865001763126],[-1.278861033430205,44.31875480838438],[-1.278819453666677,44.31916839709907],[-1.278711615244168,44.3193033088415],[-1.278531285183896,44.3203235777009],[-1.278364634414953,44.32032826365346],[-1.277717824382399,44.32371771609482],[-1.277469731426146,44.32424030797289],[-1.2767588342169,44.32796309035756],[-1.276612118898072,44.32961217593446],[-1.276743341787876,44.330119103528034],[-1.27651858837991,44.33075166581415],[-1.276450820378073,44.33131772080591],[-1.276343933906915,44.33144898697359],[-1.276375351155809,44.33164879208999],[-1.276231973650444,44.33191219102059],[-1.276231275161101,44.33228542640942],[-1.2759582512403,44.333276847633265],[-1.275955923754226,44.333961153604825],[-1.275775166161356,44.3341953562214],[-1.275890815578759,44.33418003936958],[-1.275928133968227,44.33427504478421],[-1.275655648655412,44.335822651792554],[-1.218212795668272,44.33929426080956],[-1.196976510300836,44.34042264665811],[-1.195306278468872,44.34051164484115]]]]}},{"type":"Feature","properties":{"fid":590,"ID":"COMMUNE_0000000009757553","NOM":"Sainte-Eulalie-en-Born","NOM_M":"SAINTE-EULALIE-EN-BORN","INSEE_COM":"40257","STATUT":"Commune simple","POPULATION":1457,"INSEE_CAN":"07","INSEE_ARR":"2","INSEE_DEP":"40","INSEE_REG":"75","SIREN_EPCI":"244000873"},"geometry":{"type":"MultiPolygon","coordinates":[[[[-1.194060874944376,44.23338192659801],[-1.194356571455799,44.23346436638849],[-1.194926997045219,44.23348131832616],[-1.200495249533835,44.233015903078936],[-1.201656426779758,44.23342573836671],[-1.209082979454516,44.23644557200869],[-1.216343961899622,44.23952087689707],[-1.217539399155094,44.23986523983802],[-1.241177981477493,44.2506418122714],[-1.253758671168404,44.256168305007506],[-1.254064105756727,44.256243905565896],[-1.255183696613069,44.256839616470266],[-1.263401271021436,44.260338287577255],[-1.271744495737332,44.26409201524775],[-1.272320956673155,44.26428412367515],[-1.280500745580587,44.267917397439646],[-1.287898003912275,44.27101005716405],[-1.287644093286209,44.272048527791796],[-1.287501149796305,44.27229840302644],[-1.287467080433961,44.27339048823076],[-1.287528380514728,44.27405156206585],[-1.287700772004314,44.274439665429284],[-1.287793819874979,44.274442341832426],[-1.287935394532044,44.27422407036101],[-1.287934607625974,44.274362924567804],[-1.28774181217601,44.27474996481372],[-1.287541621277938,44.275901724302734],[-1.286880818913776,44.27819648037073],[-1.286569420173789,44.28011791387109],[-1.285880170592635,44.2820045158682],[-1.285734043241253,44.28365627336821],[-1.285286583001409,44.28490782633895],[-1.28520733880703,44.285967423189454],[-1.284774913868075,44.287633958384504],[-1.284625168770128,44.28885676541356],[-1.284237642805284,44.29002214108575],[-1.283657528027567,44.292956473017426],[-1.283558063248041,44.293068527181916],[-1.283112074559123,44.29503847623249],[-1.282993651959288,44.295215272567624],[-1.282961665257156,44.29585475174803],[-1.283234615187768,44.296642799552075],[-1.283398307835366,44.296500295808826],[-1.282537070367491,44.300814905612306],[-1.282423432563158,44.30087252209541],[-1.282371825586362,44.301119731016804],[-1.282326765641612,44.30163622112227],[-1.282468293345994,44.30141615617229],[-1.282461071069987,44.301885196832224],[-1.282337593603707,44.301962127434216],[-1.282419333120735,44.30221315251476],[-1.282157311804299,44.30318071777429],[-1.281848615470226,44.30560686254376],[-1.281235785105461,44.307348031117655],[-1.281210938534808,44.30763386126664],[-1.271864110340813,44.30812752378335],[-1.260042788472173,44.30863794079622],[-1.258614073858211,44.308620315379336],[-1.258166242299817,44.308725114620465],[-1.256102228349975,44.308840252306666],[-1.23804540646005,44.30967261264372],[-1.236844498843229,44.30964591560649],[-1.234997270656825,44.3098235070759],[-1.205360611559467,44.31121882161684],[-1.200885414440366,44.31146033556412],[-1.194859663108071,44.31197180789642],[-1.192973325473004,44.31192843220732],[-1.181862122616921,44.31091416926902],[-1.181191356936221,44.31075581226406],[-1.180226002854109,44.310722236692506],[-1.179784715716609,44.31052629516606],[-1.177061206282961,44.31036486256879],[-1.176984943123258,44.30924552051397],[-1.17652605004055,44.309116939742715],[-1.17642842169079,44.3094613795691],[-1.17482586936007,44.309195981263464],[-1.173665782714165,44.30915983347757],[-1.173573884598289,44.30884963860929],[-1.171838819931882,44.30864241418102],[-1.170227598378786,44.30873603473318],[-1.170211375332192,44.30827693951946],[-1.16951575063266,44.30827449721351],[-1.167025222519283,44.30762624146045],[-1.168666106628274,44.30609382039364],[-1.163047580620226,44.30342964151622],[-1.162756233353087,44.301548670628655],[-1.162447844134576,44.30039215994009],[-1.16198269313138,44.29928846116762],[-1.158852004699788,44.29856424107283],[-1.158496191448443,44.298350563392894],[-1.150692913546253,44.29263982488428],[-1.149928732352443,44.29219547889166],[-1.138913975424415,44.28441046645349],[-1.13812255952928,44.28386522012791],[-1.136235284338022,44.28290065273522],[-1.138389582522209,44.28044259609324],[-1.142707425590816,44.27595233985045],[-1.145959299195644,44.272762261191595],[-1.155403739679993,44.262689396290696],[-1.155853468376572,44.261056224740415],[-1.156016189590439,44.26086348190282],[-1.156464543404757,44.26059772995805],[-1.156655743348715,44.26012628745818],[-1.158593500195374,44.259407518199154],[-1.159614136087079,44.2605487364234],[-1.160398967903753,44.260099858880324],[-1.161235153469606,44.25976981187184],[-1.161676910229672,44.25922666650406],[-1.162060966079907,44.25890564059311],[-1.163387688399645,44.25830459308439],[-1.16369777615035,44.257847555815076],[-1.164208752250841,44.25734233525115],[-1.165397702031666,44.25700067413785],[-1.167593969450583,44.25664509576142],[-1.168369455582645,44.25477415135231],[-1.169370278019459,44.2535977097621],[-1.170398941279475,44.25274920019914],[-1.170743246705304,44.25212769298226],[-1.171527673001381,44.25128394555125],[-1.171398373575917,44.25061733958733],[-1.171698392999653,44.25009305741796],[-1.17178046165843,44.24950404810373],[-1.172091630192134,44.249080294325374],[-1.172185970699764,44.248777453571],[-1.172128650433301,44.24804952394917],[-1.172859795017344,44.248033445080175],[-1.173229103021233,44.24771834559148],[-1.173285878421706,44.24712669142366],[-1.173510654068383,44.24682429766599],[-1.174523116074579,44.246081821626376],[-1.174993750657704,44.245593403966545],[-1.17550712413894,44.24439127645333],[-1.175812639560077,44.24395961386571],[-1.175834835179979,44.24352881638252],[-1.176014290176153,44.243190284020535],[-1.176370913064084,44.24287385284397],[-1.17686543708228,44.24218261056612],[-1.177580265535641,44.242201370445976],[-1.17837618311044,44.24110835386119],[-1.178385735621394,44.240846593101885],[-1.178584433223764,44.240616389049464],[-1.178852439293455,44.23999956208625],[-1.179253494683214,44.2371729202119],[-1.181024725614872,44.237559735329526],[-1.18714043765271,44.23760866855889],[-1.18900827809775,44.237095705363934],[-1.189553530485449,44.23680537766389],[-1.190835394467313,44.23635441410859],[-1.191699236893581,44.23567603346708],[-1.194060874944376,44.23338192659801]]]]}},{"type":"Feature","properties":{"fid":721,"ID":"COMMUNE_0000000009757733","NOM":"Lüe","NOM_M":"LUE","INSEE_COM":"40163","STATUT":"Commune simple","POPULATION":613,"INSEE_CAN":"07","INSEE_ARR":"2","INSEE_DEP":"40","INSEE_REG":"75","SIREN_EPCI":"244000873"},"geometry":{"type":"MultiPolygon","coordinates":[[[[-1.050201332814707,44.21448657263754],[-1.04846665609528,44.217731226880666],[-1.046647740603909,44.22081672837803],[-1.044450875688695,44.224282051235306],[-1.042901513837281,44.22642472148997],[-1.041922536634138,44.22747923935473],[-1.040937239350936,44.229290155974944],[-1.03854530832259,44.2427018994531],[-1.038085012354411,44.24500630318216],[-1.037975768066402,44.24500401354797],[-1.037780949753964,44.24586019399613],[-1.035774915286212,44.25747228119595],[-1.035062414149519,44.26235103194701],[-1.03483218982151,44.263310358272534],[-1.03365954790297,44.27053857069453],[-1.033091837147592,44.27557063723736],[-1.031557354765812,44.28680220258886],[-1.010956714249972,44.289930455244594],[-0.98594017346031,44.29356659760523],[-0.980435761820982,44.294306962897565],[-0.957000072349972,44.2862167709701],[-0.935003595982401,44.27850018807687],[-0.934625013985106,44.27843173956332],[-0.933039424620018,44.277890112483014],[-0.921511038756371,44.27377368212985],[-0.921425072358308,44.27363706094171],[-0.921644091926153,44.27029377768803],[-0.921775758752336,44.2701845322493],[-0.922182923604049,44.26758525724182],[-0.924392356322842,44.25270272624386],[-0.926472739096042,44.237149823578285],[-0.927196008482644,44.234071513193854],[-0.92789771827049,44.23175099475265],[-0.93160962817166,44.222191322567774],[-0.932082261197138,44.22121729343088],[-0.936393278260724,44.22091039489882],[-0.936684786253854,44.22054215174492],[-0.936948232860764,44.21967924497585],[-0.937402977453,44.21890049507268],[-0.937716110133624,44.21790512672786],[-0.938356423392501,44.21794072081365],[-0.938851402700479,44.21817529122729],[-0.939374340888269,44.21823492047436],[-0.939670101376229,44.21816301687145],[-0.939873743812316,44.217991681828],[-0.940481618454676,44.21725338047454],[-0.940504520524249,44.21689747776517],[-0.940123344685703,44.21680392387433],[-0.939826279439176,44.21687497456374],[-0.939903187539687,44.21648468877326],[-0.940381450895026,44.21620796033392],[-0.940430209734381,44.21608003843143],[-0.940274684579031,44.2156629535694],[-0.940801799589607,44.21556651442699],[-0.941558280683544,44.216535183091395],[-0.942416856494542,44.215888798760076],[-0.942460739312464,44.21567273157684],[-0.942293320555225,44.215373235033624],[-0.94159926333861,44.21463574460563],[-0.941415233822929,44.21424131492171],[-0.941102516556707,44.214014628894724],[-0.940887086090252,44.21320406331328],[-0.940280364443169,44.21264096893106],[-0.940171098626428,44.21218617471894],[-0.94018548340407,44.212050475620046],[-0.941616389585201,44.210192129578864],[-0.941634649887801,44.20996797186693],[-0.936658779125449,44.20365884069744],[-0.935534597358813,44.20262314105384],[-0.935481051106431,44.201850924106914],[-0.935260950653709,44.20169390062675],[-0.933687308693103,44.19923328242076],[-0.933041311705776,44.19781091743772],[-0.932545303759688,44.197486246894776],[-0.932180184140966,44.19691716094335],[-0.923601490484759,44.181506661289966],[-0.922648338694719,44.179601403732676],[-0.9222413172156,44.17829572205416],[-0.922565454694147,44.17307254877018],[-0.945274973765373,44.17652566809033],[-0.949262902149831,44.177222000101075],[-0.951813953087979,44.17760320434358],[-0.952047658570678,44.177560533810436],[-0.952669607965284,44.17764445360067],[-0.95656412368152,44.17823755192069],[-0.95790607346127,44.17851805424341],[-0.96514753118298,44.179533402302845],[-0.972184642422748,44.18225989346668],[-0.977602194261353,44.18470586786027],[-0.978160274497382,44.18475231081716],[-1.027123049214139,44.20513843609495],[-1.050201332814707,44.21448657263754]]]]}},{"type":"Feature","properties":{"fid":2363,"ID":"COMMUNE_0000000009757384","NOM":"Ychoux","NOM_M":"YCHOUX","INSEE_COM":"40332","STATUT":"Commune simple","POPULATION":2342,"INSEE_CAN":"07","INSEE_ARR":"2","INSEE_DEP":"40","INSEE_REG":"75","SIREN_EPCI":"244000873"},"geometry":{"type":"MultiPolygon","coordinates":[[[[-1.029204005642681,44.42275596881375],[-0.978920139614496,44.428328059772674],[-0.975588032897732,44.42870170223246],[-0.975197790090654,44.428858202731206],[-0.968436173054327,44.4295816273756],[-0.966599525983275,44.42997318856006],[-0.966446629676247,44.43010668486175],[-0.966020085448565,44.43024823557918],[-0.948659892808591,44.43542563466002],[-0.945561209696246,44.427274365311234],[-0.944123630738774,44.42375938769868],[-0.9366221858258,44.409570978082215],[-0.902182805750778,44.34551313059103],[-0.902280073571876,44.34544839312251],[-0.902158577803248,44.34516160038307],[-0.900256460874921,44.334687170853314],[-0.899418765017539,44.32894080320738],[-0.899584570515734,44.32810307195147],[-0.900493088213338,44.325944799235955],[-0.901139006948441,44.322617915015684],[-0.901412682250226,44.32190703315169],[-0.901523617682892,44.32127582995104],[-0.901473766189982,44.320880151672085],[-0.901629931440871,44.31890088720589],[-0.90222589798336,44.31386702447631],[-0.902384729176938,44.313366603348385],[-0.902689679042662,44.3132016612185],[-0.903031691786891,44.312609115259974],[-0.91726438199474,44.28280329965443],[-0.919513698466955,44.27808529379316],[-0.921425072358308,44.27363706094171],[-0.921511038756371,44.27377368212985],[-0.933039424620018,44.277890112483014],[-0.934625013985106,44.27843173956332],[-0.935003595982401,44.27850018807687],[-0.957000072349972,44.2862167709701],[-0.980435761820982,44.294306962897565],[-0.980599292908831,44.294401979943906],[-0.980849929784861,44.294772334505744],[-0.989917286054621,44.31132443231374],[-0.993559663598399,44.31837090405174],[-0.994569951533916,44.32000428419428],[-0.997554042040625,44.325339615577995],[-0.997138471695036,44.333042826209905],[-0.995832778444358,44.33578699567692],[-0.995855478054636,44.33630441974982],[-0.995804855324786,44.33649463226181],[-0.995678155211048,44.33656773678785],[-0.995118374970843,44.33856554204066],[-0.994276827712463,44.34308551868439],[-0.994518841463811,44.34348952338932],[-1.00273808213857,44.363230398420015],[-1.003106447664789,44.363944354887394],[-1.003314071613859,44.364090922865415],[-1.003337551889566,44.364316299286834],[-1.006527824426309,44.37147199364301],[-1.006786566402035,44.37196731009272],[-1.00706972532174,44.372150779635255],[-1.009877005619741,44.37892560418496],[-1.023272990431939,44.40876396823031],[-1.024822941620733,44.41234424984557],[-1.024924584281556,44.41272991703016],[-1.024836581337521,44.412853916193185],[-1.029204005642681,44.42275596881375]]]]}},{"type":"Feature","properties":{"fid":2819,"ID":"COMMUNE_0000000009757385","NOM":"Parentis-en-Born","NOM_M":"PARENTIS-EN-BORN","INSEE_COM":"40217","STATUT":"Commune simple","POPULATION":7463,"INSEE_CAN":"07","INSEE_ARR":"2","INSEE_DEP":"40","INSEE_REG":"75","SIREN_EPCI":"244000873"},"geometry":{"type":"MultiPolygon","coordinates":[[[[-1.029303530098779,44.42274060849898],[-1.029204005642681,44.42275596881375],[-1.024836581337521,44.412853916193185],[-1.024924584281556,44.41272991703016],[-1.024822941620733,44.41234424984557],[-1.023272990431939,44.40876396823031],[-1.009877005619741,44.37892560418496],[-1.00706972532174,44.372150779635255],[-1.006786566402035,44.37196731009272],[-1.006527824426309,44.37147199364301],[-1.003337551889566,44.364316299286834],[-1.003314071613859,44.364090922865415],[-1.003106447664789,44.363944354887394],[-1.00273808213857,44.363230398420015],[-0.994518841463811,44.34348952338932],[-0.994276827712463,44.34308551868439],[-0.995118374970843,44.33856554204066],[-0.995678155211048,44.33656773678785],[-0.995804855324786,44.33649463226181],[-0.995855478054636,44.33630441974982],[-0.995832778444358,44.33578699567692],[-0.997138471695036,44.333042826209905],[-0.997554042040625,44.325339615577995],[-0.994569951533916,44.32000428419428],[-0.993559663598399,44.31837090405174],[-0.989917286054621,44.31132443231374],[-0.980849929784861,44.294772334505744],[-0.980599292908831,44.294401979943906],[-0.980435761820982,44.294306962897565],[-0.98594017346031,44.29356659760523],[-1.010956714249972,44.289930455244594],[-1.031557354765812,44.28680220258886],[-1.03615589194879,44.290289903975655],[-1.036472552694953,44.29033144430122],[-1.03664514817838,44.29044677774558],[-1.040464483085884,44.29322298380547],[-1.050603144894474,44.3007433113427],[-1.053316169393853,44.302860494008684],[-1.059679439002906,44.30750080964855],[-1.060063561265479,44.30806166283744],[-1.06193022304328,44.30927165362768],[-1.070649405700041,44.311423124060326],[-1.076154690912721,44.312253762750686],[-1.083559050884473,44.313478663636246],[-1.085639747692579,44.3109280245483],[-1.086926337439888,44.309517341205876],[-1.094341416627489,44.30158251676703],[-1.095760202372569,44.29995768102535],[-1.102892144375059,44.29239241909274],[-1.109395352379717,44.28533600562086],[-1.109565755894263,44.285038494040336],[-1.133836445014695,44.28274851145657],[-1.134730058714838,44.28271757381634],[-1.136235284338022,44.28290065273522],[-1.125333796102821,44.31697212969508],[-1.123591755663016,44.320273437770624],[-1.119771970835415,44.326912885736526],[-1.118566726586643,44.32935029928453],[-1.118045223023213,44.329932296711874],[-1.117969948610735,44.33015775600467],[-1.119391822456067,44.33261389655328],[-1.123518273789951,44.333094634382],[-1.1712994306368,44.33807201065861],[-1.195306278468872,44.34051164484115],[-1.190630596530223,44.342165621208586],[-1.141112889079949,44.35841126846346],[-1.135619558031219,44.36014317109058],[-1.13336159080833,44.36163784863753],[-1.12864243884216,44.36556672469649],[-1.118706815542251,44.37305844915841],[-1.108415392876945,44.38127639274908],[-1.106272561179968,44.38245609364242],[-1.103806937556362,44.38358830059113],[-1.101713267669607,44.38477238295194],[-1.099235193824199,44.38596083160457],[-1.098906869331699,44.386269620292424],[-1.089208030675069,44.39143490329604],[-1.052013909357518,44.41086616068391],[-1.048819673520367,44.41254938247548],[-1.048707539776277,44.412686909397785],[-1.048275093049122,44.412811880891326],[-1.03589150658926,44.41921562338085],[-1.029303530098779,44.42274060849898]]]]}},{"type":"Feature","properties":{"fid":3945,"ID":"COMMUNE_0000000009757012","NOM":"Sanguinet","NOM_M":"SANGUINET","INSEE_COM":"40287","STATUT":"Commune simple","POPULATION":4662,"INSEE_CAN":"07","INSEE_ARR":"2","INSEE_DEP":"40","INSEE_REG":"75","SIREN_EPCI":"244000873"},"geometry":{"type":"MultiPolygon","coordinates":[[[[-1.085074477060527,44.53236835097485],[-1.053013481151683,44.51842004516887],[-1.046291186201721,44.51566704720354],[-1.026493977839142,44.50714708084666],[-1.019533004903611,44.50850438766426],[-1.01117728692008,44.510251816685106],[-0.991167493410212,44.51192621532103],[-0.987909477919863,44.50854949430888],[-0.987551669480894,44.50808471092781],[-0.981743273616061,44.48752277901349],[-0.980912061243317,44.48435840184685],[-0.980623029906171,44.48279417574766],[-0.992423882672064,44.461275540765136],[-0.994414357967076,44.45804504416081],[-0.994504929555907,44.45775963656581],[-1.003877126213279,44.44264797623383],[-1.007072483394217,44.4407083179004],[-1.007345119825618,44.43662158122611],[-1.029204005642681,44.42275596881375],[-1.029303530098779,44.42274060849898],[-1.07102202131866,44.43865385473021],[-1.071430158730301,44.43859099125929],[-1.072354330220163,44.43898497711338],[-1.074612064088084,44.44012825159524],[-1.076829792196635,44.441378427955286],[-1.079434895897078,44.44262503129311],[-1.080512088563518,44.44321970513492],[-1.080679030718224,44.44323154707643],[-1.103224808453134,44.45459079470648],[-1.106131152144408,44.45622492400018],[-1.106959671629136,44.45678446338195],[-1.107565397178098,44.45699714688352],[-1.107660458894365,44.457162167112486],[-1.109527292613533,44.45822291363682],[-1.112136625490252,44.4587799649692],[-1.120643594049501,44.460937374836156],[-1.130938166764867,44.46346703437577],[-1.147128893935979,44.46716579782893],[-1.162733613742921,44.47092768280155],[-1.178632532968339,44.47465375004523],[-1.199953435068369,44.479537718961495],[-1.197603854832784,44.480062667585656],[-1.197239664237071,44.48007563934397],[-1.192483856281146,44.481212260323204],[-1.107418620393927,44.50248682974343],[-1.10696321212668,44.50268498616982],[-1.10581912168514,44.50439435889534],[-1.090331853213451,44.52415793506478],[-1.085438819569573,44.531917660122296],[-1.085074477060527,44.53236835097485]]]]}}]}