{"type":"FeatureCollection","name":"COM_79134","crs":{"type":"name","properties":{"name":"urn:ogc:def:crs:OGC:1.3:CRS84"}},"features":[{"type":"Feature","properties":{"fid":4055,"ID":"COMMUNE_0000000009747794","NOM":"Glénay","NOM_M":"GLENAY","INSEE_COM":"79134","STATUT":"Commune simple","POPULATION":539,"INSEE_CAN":"17","INSEE_ARR":"1","INSEE_DEP":"79","INSEE_REG":"75","SIREN_EPCI":"247900798"},"geometry":{"type":"MultiPolygon","coordinates":[[[[-0.191193987801456,46.868465175940756],[-0.190989606668595,46.86787340728977],[-0.190753240733,46.86613721313788],[-0.190441376234996,46.865393432837934],[-0.190628902525115,46.86380498023022],[-0.190884097991555,46.85946445419986],[-0.190719103270146,46.858960802422445],[-0.189993035202257,46.858454686414305],[-0.190456629606256,46.858274224385106],[-0.190684460896962,46.85826159834917],[-0.191911001051013,46.85760851087026],[-0.193125042658842,46.85643220868953],[-0.194381818833912,46.85575842882023],[-0.195064285230289,46.85550338469224],[-0.196589454686742,46.855060019665466],[-0.197483460754547,46.85493965677587],[-0.198196058737115,46.85495048660228],[-0.20030953285723,46.85454928712681],[-0.201280169057108,46.85443667478591],[-0.201998238249618,46.85409589212626],[-0.20236326813336,46.853760427232594],[-0.203023585317738,46.85288778223054],[-0.203951129774691,46.85242490908687],[-0.20406352245045,46.85228210499814],[-0.20246301288977,46.8507388984349],[-0.202068596752245,46.85053270813274],[-0.203143772163849,46.85032345124978],[-0.20784203895919,46.849769000793955],[-0.209922084144364,46.849362240975445],[-0.211007119898472,46.84894357296373],[-0.211087072461073,46.84869713622667],[-0.210860482119127,46.84833129684884],[-0.210772300017763,46.847951681352384],[-0.21133126292974,46.846325766346176],[-0.212399180265412,46.84508843695501],[-0.212792026084375,46.844891832420274],[-0.212844387365707,46.84440195912975],[-0.213169933386204,46.84400087487848],[-0.213162004244579,46.84333606456018],[-0.212904976275193,46.84294404541041],[-0.212947946605189,46.84260582345319],[-0.213098751026163,46.84242498965833],[-0.213490832370654,46.842370781506375],[-0.213475849532964,46.84198551748878],[-0.213576864858096,46.84174029170881],[-0.214240440824071,46.8412819982909],[-0.217862461067723,46.84088514595736],[-0.222118151911305,46.84056684807764],[-0.223460297933379,46.839838971049716],[-0.223790947743333,46.83983420879005],[-0.224741543645873,46.83958858338126],[-0.224791035570183,46.839493477761856],[-0.22464070114411,46.83917418605872],[-0.225218098886917,46.83896875705905],[-0.227616031402475,46.84073168980355],[-0.227878350378729,46.840726130134314],[-0.228132512113678,46.84053967071794],[-0.228455073059348,46.84044320643144],[-0.228805835806131,46.84092988505715],[-0.230815775404519,46.84043458722968],[-0.232453865481072,46.840398471303004],[-0.234949786611833,46.840476981626914],[-0.235339198344561,46.8403786173109],[-0.235553476193834,46.84073394571572],[-0.236024646985858,46.84099283322771],[-0.236547974625459,46.84098171185119],[-0.236937333309479,46.84088244251504],[-0.239305462156567,46.83974611428858],[-0.239724638188769,46.84018938295136],[-0.240052505148917,46.84018194895554],[-0.240626466711878,46.83985398300233],[-0.241019936774223,46.839845598785296],[-0.242216538931249,46.84017863592889],[-0.242686408152803,46.840393377712275],[-0.243107215532297,46.84068790049732],[-0.243653801383,46.84128436170508],[-0.245168398398774,46.842211264920195],[-0.248039690180642,46.84261232538921],[-0.251360785613097,46.84348271330343],[-0.254293893707305,46.84445139772884],[-0.255955231475915,46.84490902217199],[-0.256692973085295,46.84525219914281],[-0.257688962245373,46.845499745134674],[-0.258893998245517,46.84601260549783],[-0.26085589569704,46.84722852284878],[-0.262081295674742,46.84768580413599],[-0.262777574967781,46.84760117278112],[-0.263809157388083,46.8472177542353],[-0.26439348766286,46.84675780624902],[-0.265463762727694,46.84640661645224],[-0.266223047983467,46.84569026999612],[-0.266873627337905,46.84545822058783],[-0.26788279138772,46.84537908842735],[-0.26842990440126,46.84510851649496],[-0.26848093880543,46.84493134147521],[-0.268888824279092,46.844573707049165],[-0.268926768117028,46.844179725892786],[-0.269356122352549,46.84411255186206],[-0.269285987717604,46.84392980899537],[-0.269663290341037,46.84382716599094],[-0.270009146591557,46.84398675035048],[-0.270220079240266,46.84395642198187],[-0.270854951859295,46.843182300613655],[-0.271143004074532,46.84318942802682],[-0.27183120144292,46.843037382998645],[-0.271983854129879,46.84278161811391],[-0.271989115268746,46.84254266237312],[-0.272400394803277,46.84239398555841],[-0.272544112392569,46.84222949067598],[-0.272926241841494,46.84238082492612],[-0.273118316256025,46.842364544993195],[-0.273321476346858,46.84216231115615],[-0.273555243612334,46.84209708258843],[-0.27351280447588,46.841873001554525],[-0.273995833531289,46.84180338059309],[-0.274032408118884,46.841691497215876],[-0.273841235237232,46.84161403285669],[-0.273812644179522,46.84148868485952],[-0.273988881855998,46.84123224545399],[-0.274460731501741,46.84084753580147],[-0.275025871043851,46.84070257866076],[-0.275497134145466,46.84043863612893],[-0.275899953231895,46.84038931426553],[-0.276079620672368,46.84012466308547],[-0.276493713392648,46.84021830199574],[-0.276610244119597,46.84014739520916],[-0.277182992496484,46.84012837242473],[-0.277505026972173,46.84030663634783],[-0.278297408132604,46.84037957498537],[-0.278448147702859,46.84022298224167],[-0.278761588389144,46.84021584905108],[-0.278871397684533,46.84014242803593],[-0.27892906568017,46.83959828621057],[-0.279143491520155,46.83945249285654],[-0.279434320915113,46.83939733981196],[-0.279605928159919,46.83919509231134],[-0.280108029224149,46.83922402842359],[-0.280331309752873,46.8390076896935],[-0.280674362741615,46.83890418347253],[-0.280718520910622,46.838744319615316],[-0.281059876134936,46.83865618032553],[-0.281304177745222,46.83846176877335],[-0.282272384556217,46.83840259893731],[-0.282701912150787,46.83816594998978],[-0.283233397792216,46.838138161466745],[-0.283555340522644,46.83820646969642],[-0.283658624506231,46.83830715427012],[-0.283664550317397,46.83864311832478],[-0.283899261583763,46.83872382911932],[-0.285301403390283,46.83860898633996],[-0.28610152936644,46.83861496358104],[-0.28786264584931,46.83902692489035],[-0.288483886210202,46.83933087796724],[-0.28902112318472,46.8397868234783],[-0.289393249161115,46.840789088677155],[-0.289758213866049,46.841132806969824],[-0.289991360686497,46.84120904478181],[-0.290498730067337,46.841237785524015],[-0.290970694482299,46.84111614154981],[-0.29195155768882,46.841070046679576],[-0.292980619760457,46.84125506400591],[-0.293995825523552,46.841039450415046],[-0.29454318537897,46.841099469932395],[-0.294731388667059,46.84123556157443],[-0.295479283533145,46.84128893052214],[-0.295504985727973,46.84149546232919],[-0.29537861083131,46.841727979686546],[-0.2955900263102,46.842202243465316],[-0.295807702723608,46.84249879772406],[-0.29638893872232,46.84285612427527],[-0.296700317835847,46.842858013350394],[-0.297358482072737,46.84258051096308],[-0.297464395588438,46.842206193533556],[-0.297851847216488,46.842098659374024],[-0.297753758544119,46.84191132564543],[-0.298647031502746,46.84169916707152],[-0.298768611957234,46.84188402399201],[-0.298704244430768,46.84207781894036],[-0.299055103365856,46.84229665180337],[-0.299106977205651,46.84245827519989],[-0.30004532949331,46.842533186670295],[-0.299652497901176,46.84302658252362],[-0.2982891601581,46.844275955507044],[-0.297682970782951,46.84445825110637],[-0.297213606527503,46.8448601103199],[-0.296446143034513,46.8450686502327],[-0.296154114801558,46.84523382239657],[-0.295429036055636,46.84585838014005],[-0.293965253598479,46.846862753654726],[-0.290506567013704,46.84953637214287],[-0.289183173706175,46.85067093533576],[-0.288220820174965,46.85186815549376],[-0.287404576643254,46.85337389302429],[-0.287366098258103,46.85421126864462],[-0.287122673359197,46.85455075239747],[-0.286214008514473,46.8547515380434],[-0.285976413851726,46.85525215986887],[-0.283069167355279,46.85752407529353],[-0.281908807143988,46.85866650593315],[-0.278914947912959,46.86109757555567],[-0.275360854220215,46.863676075735064],[-0.275040150699647,46.863999706515294],[-0.274115369155378,46.86550120915151],[-0.273703106123741,46.8664402227581],[-0.272167719727711,46.866819123455905],[-0.270423746738512,46.867399480839964],[-0.269865979382016,46.86767125837037],[-0.269175145609283,46.86819823373129],[-0.267412281803327,46.869098085560196],[-0.266069135487429,46.870073407589594],[-0.265563734450058,46.87034277521833],[-0.262016412161305,46.87059027358897],[-0.259229993290399,46.870403390249976],[-0.258164757361542,46.870693985998095],[-0.257298493524836,46.87073202698331],[-0.255863537907161,46.87057798976711],[-0.255095550804384,46.870786252404244],[-0.252707192679634,46.870116655309175],[-0.251430518876673,46.870890767607435],[-0.250197485667459,46.87118873252599],[-0.249513847020441,46.87118280742631],[-0.248810993162432,46.8712945685526],[-0.247463811922423,46.87115777385029],[-0.24630951925345,46.870950640496],[-0.245339680903328,46.87090500399486],[-0.244794640185381,46.87071221174108],[-0.244590443431597,46.871054092721714],[-0.244007621104125,46.871348974762824],[-0.243581521731757,46.87114561467032],[-0.243318823314527,46.8711034565557],[-0.242979553992483,46.87171317344041],[-0.242177510497728,46.87242874477054],[-0.241342103768274,46.87282895183059],[-0.240404998909256,46.87306710884563],[-0.238458667425076,46.87312910608933],[-0.231174147086882,46.87274182723905],[-0.22880929912347,46.872704573016506],[-0.22829377220161,46.87289565699841],[-0.227530661667931,46.87340817565338],[-0.22681560967221,46.87355889087874],[-0.224989144146852,46.87378040211092],[-0.222692526697715,46.87378616524636],[-0.22239775683803,46.8736907902042],[-0.220906112833786,46.87457059244985],[-0.220757897688599,46.874464803534195],[-0.219927935663065,46.87434114511952],[-0.210274169950248,46.87319969206306],[-0.209435556694333,46.87341682311489],[-0.209091141630511,46.873835535211306],[-0.20846364181336,46.87417833477033],[-0.207917173613834,46.8742034810163],[-0.207097957279814,46.87386136126917],[-0.207418851254617,46.872402520846904],[-0.205511361873022,46.8708570884938],[-0.202061614139993,46.86911485589889],[-0.202116519750396,46.868888049140956],[-0.202924129262402,46.8679257087217],[-0.204304770893768,46.8665896621809],[-0.204905175803819,46.865879080364756],[-0.204394946120989,46.865671615681066],[-0.203157609544338,46.86496624991489],[-0.202170663286966,46.865872309109584],[-0.201344426892158,46.86643056246343],[-0.199545928469986,46.86727807228066],[-0.197726113838747,46.86832168630076],[-0.196149233751943,46.868941306820496],[-0.195091054377914,46.8695564160121],[-0.194130355896428,46.87064369479932],[-0.191193987801456,46.868465175940756]]]]}}]}