{"type":"FeatureCollection","name":"COM_40143","crs":{"type":"name","properties":{"name":"urn:ogc:def:crs:OGC:1.3:CRS84"}},"features":[{"type":"Feature","properties":{"fid":4091,"ID":"COMMUNE_0000000009759357","NOM":"Lamothe","NOM_M":"LAMOTHE","INSEE_COM":"40143","STATUT":"Commune simple","POPULATION":305,"INSEE_CAN":"13","INSEE_ARR":"1","INSEE_DEP":"40","INSEE_REG":"75","SIREN_EPCI":"244000766"},"geometry":{"type":"MultiPolygon","coordinates":[[[[-0.632854328261025,43.80562157135996],[-0.632511566757844,43.80533662366386],[-0.632513944888793,43.80421950488488],[-0.631309608728355,43.80407768270979],[-0.629688372649543,43.80240480371221],[-0.628383202983514,43.80202578735366],[-0.628998251100161,43.801467503619456],[-0.626769701023483,43.79886534010859],[-0.625596728924754,43.79811795774231],[-0.625437237220671,43.79793679366029],[-0.625365785575118,43.79755541768551],[-0.625619761032657,43.79755957698525],[-0.625682702708341,43.79745388667131],[-0.625231919548194,43.79638609097098],[-0.624602213398741,43.79590888615272],[-0.624452992893045,43.79563459406297],[-0.624421448495761,43.79501947677104],[-0.624851492950592,43.793956603331694],[-0.624848281126829,43.793200014762846],[-0.625484197555343,43.79289328929862],[-0.625653289857682,43.79269668581814],[-0.626094630978548,43.791714506157646],[-0.625838254956144,43.790966345519806],[-0.625787264112,43.79055456333819],[-0.62586468436351,43.790187151464494],[-0.626477362336896,43.789612746729354],[-0.626612426061001,43.78933079532741],[-0.62636035210061,43.788924807800534],[-0.625642516587125,43.78846856424414],[-0.62553073101171,43.78831373989009],[-0.625516001169147,43.78788543741634],[-0.625731175944017,43.787298143680836],[-0.625162822476583,43.78682611228824],[-0.624207510596962,43.7866245904747],[-0.624213374971124,43.78636405733906],[-0.623402559296482,43.785872159893465],[-0.626229266763145,43.7858195237046],[-0.627205815901885,43.7854347842037],[-0.629033302848332,43.784861339089986],[-0.629582563602136,43.78505202796742],[-0.629696540005531,43.7853391963674],[-0.63042799669268,43.785324726758475],[-0.631426494665398,43.786225597394036],[-0.631654238378634,43.78650266539707],[-0.631834957904696,43.786939846735095],[-0.632104653314748,43.7868398699613],[-0.633556843762197,43.78689593032491],[-0.634217258873856,43.78709369901668],[-0.634836164242219,43.787088360846695],[-0.636491683681837,43.78738892844567],[-0.636833043520088,43.786109161888795],[-0.637166248823777,43.78608902709108],[-0.637449693761037,43.78624441334552],[-0.638236799636651,43.78632262037858],[-0.638527933560607,43.786618276797434],[-0.639122755417362,43.786742537536966],[-0.640371192250643,43.7881484561522],[-0.644783001247317,43.78853691133062],[-0.645893770218345,43.78842496714072],[-0.645914012299386,43.7879819791446],[-0.646288787987209,43.78752171813006],[-0.650346898492013,43.78731732554409],[-0.652868366182845,43.78674813958158],[-0.656422059482554,43.786784743582785],[-0.658033818183557,43.7865549599802],[-0.65839313177856,43.78639875703158],[-0.658435776576121,43.786132477255556],[-0.658173243544805,43.785605294832756],[-0.658180983191452,43.78543477595613],[-0.658502752168585,43.78511948386127],[-0.65826515075046,43.78418518570047],[-0.658270531446528,43.78397781174893],[-0.658541845920218,43.78341828495912],[-0.658492936708064,43.78313976674119],[-0.658752049179317,43.7829725146306],[-0.658743235344782,43.78260166481011],[-0.658971351662648,43.7820084555476],[-0.65967952300908,43.78124236937261],[-0.659806277810881,43.78122189477479],[-0.659976051794102,43.781368431282914],[-0.660104431611366,43.781295653042264],[-0.660113085719893,43.78113951697957],[-0.659816507188136,43.78097382024001],[-0.660086658480312,43.78062962929845],[-0.660023905546912,43.780290320303266],[-0.660106840192634,43.78005151329228],[-0.659661238419778,43.77928636228486],[-0.659547504393841,43.77881093845307],[-0.659794337613342,43.77845221775787],[-0.660938002058169,43.7785272831046],[-0.660982183286791,43.77828527405096],[-0.663659462278625,43.77875826310371],[-0.666864271819722,43.779488183704345],[-0.668046628709923,43.77954565753619],[-0.672211632569643,43.779485469239496],[-0.674768623094477,43.77986405451107],[-0.675500380231928,43.78173113966638],[-0.677913719052368,43.78171092329448],[-0.678032243503044,43.78229697688146],[-0.678016153992128,43.78299387709679],[-0.67739529521029,43.78358688208434],[-0.676807964771554,43.7845273804088],[-0.676433977484424,43.78553724652923],[-0.676197994948329,43.78762978118444],[-0.676243907235963,43.78871105559717],[-0.677145273827549,43.788688736906614],[-0.679193813549642,43.78832858320324],[-0.679328287703793,43.78958703808374],[-0.679814160162635,43.791802943861114],[-0.68078810706051,43.79184480799136],[-0.682148445898801,43.79246006065643],[-0.682567519039764,43.79253688021182],[-0.686898390343992,43.79241109711315],[-0.687570074915677,43.793164902028494],[-0.688156267097942,43.79319099984759],[-0.689876766042788,43.79289130145687],[-0.690954649463279,43.79290523150836],[-0.693131528009925,43.79318278402919],[-0.693978848426792,43.79309279408027],[-0.695094152504125,43.79412789623471],[-0.695786398727006,43.79417828272438],[-0.696429024183341,43.79432674139138],[-0.696987276839399,43.79486273005463],[-0.69779978295642,43.79536846497472],[-0.697779786222538,43.79573219344321],[-0.697928641024911,43.7960145172287],[-0.698349387864954,43.79652003441613],[-0.699086578553089,43.79714903490369],[-0.698546023734231,43.79786736444923],[-0.697641017110888,43.798643105750564],[-0.697614720635507,43.79875570612019],[-0.697140517042994,43.79917358838217],[-0.696611607936465,43.79945729351537],[-0.695368485195754,43.79971747923373],[-0.693882834606572,43.79980479972145],[-0.690237794422247,43.799600417510106],[-0.690184409851807,43.80077695540915],[-0.688810953760141,43.801600917151454],[-0.685403085806247,43.80413057238363],[-0.684145720984855,43.80519467963033],[-0.683049145424447,43.806245228474715],[-0.682854265101531,43.80684999105686],[-0.682158416566178,43.80776897077002],[-0.678633963324745,43.81112573320395],[-0.67805255088316,43.81208496412923],[-0.677613299543473,43.813919541084466],[-0.67617827681414,43.813040071195424],[-0.672909841934811,43.81305479830066],[-0.670723562979173,43.81320234036501],[-0.668019301161403,43.81254839257581],[-0.66823129713174,43.81214938132723],[-0.666982167412326,43.811352724633686],[-0.666036942419081,43.810444934385714],[-0.664615274022795,43.81035132303761],[-0.66349527586783,43.810519609964196],[-0.660125817675626,43.8101004400006],[-0.659411149353083,43.81007129385499],[-0.658896392801585,43.810172360171414],[-0.65767024572957,43.810023446973545],[-0.656181478537994,43.80971667489346],[-0.655565044189979,43.80949232573237],[-0.654939540365797,43.809087206134855],[-0.654680347017561,43.80853557016801],[-0.654495565161315,43.8074940774558],[-0.654769727363492,43.80687950927986],[-0.65467750885105,43.80652676644268],[-0.654348861593149,43.80625041848184],[-0.653030350529026,43.80572529684317],[-0.652906975873316,43.805546560900844],[-0.652899150646103,43.80507387735926],[-0.652715991876758,43.80510794443464],[-0.649254522681683,43.80464379314807],[-0.6478079212182,43.80460485465083],[-0.64510710387478,43.80407186326684],[-0.644095509937104,43.80402732974871],[-0.643676300091561,43.80486562268925],[-0.642173786106992,43.80500324287746],[-0.641059101554272,43.80484411646344],[-0.639927761570438,43.80442339027271],[-0.638795724636689,43.80377656517178],[-0.638550196835053,43.80347577684624],[-0.636619218782821,43.80479601926552],[-0.633944195969266,43.805253717271924],[-0.632854328261025,43.80562157135996]]]]}}]}