{"type":"FeatureCollection","name":"COM_24498","crs":{"type":"name","properties":{"name":"urn:ogc:def:crs:OGC:1.3:CRS84"}},"features":[{"type":"Feature","properties":{"fid":4068,"ID":"COMMUNE_0000000009753162","NOM":"Saint-Saud-Lacoussière","NOM_M":"SAINT-SAUD-LACOUSSIERE","INSEE_COM":"24498","STATUT":"Commune simple","POPULATION":823,"INSEE_CAN":"13","INSEE_ARR":"2","INSEE_DEP":"24","INSEE_REG":"75","SIREN_EPCI":"200071819"},"geometry":{"type":"MultiPolygon","coordinates":[[[[0.883249381181088,45.53334337428186],[0.882203493062006,45.53280660371671],[0.880870406664203,45.53140054269406],[0.88011752816534,45.530911616859704],[0.880535552563886,45.53060422743942],[0.880869216937787,45.53015652257619],[0.880642043330166,45.52892355217769],[0.880364500021873,45.52843909191526],[0.880558802151941,45.52784823417977],[0.880330475864073,45.527887163435295],[0.878291615011914,45.52724693499206],[0.8772124336545,45.526244675863616],[0.875687272831441,45.525076331721735],[0.876605417072548,45.52432441527687],[0.876760654595576,45.52401837743741],[0.877256190997842,45.52345934307502],[0.87720634829343,45.52325482125961],[0.877349167566774,45.522837750244],[0.878964837122966,45.52230798202527],[0.879527514628508,45.52220420684908],[0.879656315672416,45.52215349189738],[0.879706258472522,45.52202021649452],[0.879916289914335,45.52198995155037],[0.880063912973582,45.52178195250845],[0.880141545681748,45.52152759244943],[0.880039545504478,45.5213464089831],[0.879782466333658,45.51972372960838],[0.879915193149474,45.518765088411904],[0.879812483141299,45.51820015313903],[0.879890368742038,45.51743594899182],[0.880185984483125,45.517076708468046],[0.880090844327278,45.5166155077157],[0.879519299018661,45.51658399804424],[0.879113448746146,45.51627366665576],[0.879027847069373,45.51586489105018],[0.878522888970561,45.515197772600246],[0.878753724418755,45.51468958191713],[0.878647035442778,45.51419573303399],[0.878325703584102,45.514021213458086],[0.878132316787536,45.51375092425247],[0.877640691239836,45.51384162105642],[0.877419294905978,45.51329876135629],[0.877650395702335,45.51238161765851],[0.877627847168641,45.51210014379842],[0.877268028928448,45.511625829927674],[0.877006783293574,45.51162269225475],[0.876569619143115,45.51179728680153],[0.87600884365286,45.511117390189725],[0.876118968749989,45.51085103671698],[0.875937757429948,45.5108322952931],[0.87593949703393,45.510686399557656],[0.876167157657026,45.510395245677664],[0.876128244598046,45.510273803210296],[0.875847417505239,45.51004599459326],[0.875376163832159,45.50990646298434],[0.875023746866085,45.50964126574155],[0.874544654766429,45.50957274495186],[0.874414293370872,45.50943065395029],[0.874432768777664,45.509182384463955],[0.874274435075456,45.50916857732407],[0.87412078081486,45.508965691724015],[0.873791842227049,45.50875678422919],[0.874087621427141,45.50862726595098],[0.873901908825207,45.50852556277464],[0.873037188006796,45.50855782760886],[0.872057044517478,45.508292437503215],[0.872009819373686,45.50798707372409],[0.872398023076191,45.50761879941861],[0.872482251797872,45.50742672465522],[0.872361641194234,45.50713077997795],[0.872405661397413,45.50658393098121],[0.872351421132602,45.5063613075926],[0.87191768169633,45.50591259829695],[0.871746734681573,45.5055931788836],[0.871827336351158,45.50476057088297],[0.871925081878117,45.50448317739244],[0.87240823798942,45.50417705673421],[0.872338141598945,45.50383342641732],[0.87146602460708,45.50315841380497],[0.871104573992358,45.5025291110097],[0.871057497070717,45.502220146497784],[0.870785654729732,45.50196006607242],[0.869676461367493,45.501756161741135],[0.868934748973823,45.50148986159885],[0.868831020873828,45.50125548730885],[0.868860940123466,45.50034264904431],[0.868717953057621,45.50019670804375],[0.868222024827387,45.49986841000319],[0.867235035288695,45.499619059072664],[0.866826678565007,45.49921224756166],[0.866754926659778,45.498679414686926],[0.866604096011111,45.498371178586936],[0.866817639668979,45.49791402950436],[0.866767234660486,45.49755905904391],[0.866520135022182,45.49745617624549],[0.86606790257386,45.49679180104845],[0.866120588853215,45.49648743295058],[0.865596421180691,45.49556225906856],[0.865441913357657,45.49471707722065],[0.865058278396913,45.493935097005526],[0.865066172461116,45.49362987749232],[0.864889427163048,45.493130177312175],[0.8648555960263,45.49194498785629],[0.86447221578359,45.49158998724764],[0.863587783022723,45.4911759054554],[0.863431770804187,45.49080360956179],[0.863479346708184,45.490499145497914],[0.864044033206586,45.48993608651105],[0.864042906077707,45.489599167622515],[0.863922066018645,45.48934464519903],[0.86336804713299,45.4890980913886],[0.862133474874481,45.48896468503381],[0.861813034130612,45.48877211608051],[0.861651803379809,45.48856906768371],[0.861627045960045,45.48808126543102],[0.861935044891517,45.48766556085628],[0.862482171744136,45.48725891408073],[0.862603690870065,45.48702972397981],[0.862609878688812,45.486569535387375],[0.862488698253326,45.48642400103023],[0.862155914401512,45.486352805167336],[0.861413587828219,45.48637469420057],[0.860860127957645,45.486480349166584],[0.860718019654696,45.48641278316062],[0.860820143024051,45.48582290686636],[0.860611517670113,45.48552076668649],[0.860633015375417,45.48532840618439],[0.860957081940801,45.48462835946686],[0.860879522045466,45.48448095225964],[0.86115258769879,45.48430689843589],[0.861155329770658,45.4842024584156],[0.860961042440175,45.484093362375575],[0.860439861784857,45.483328560642214],[0.859953976915609,45.48281124739659],[0.85936516993102,45.48237304035091],[0.858942529308844,45.48257396239022],[0.858768957471021,45.48279134578121],[0.858558626240537,45.48346383037675],[0.858272824910244,45.48366916276845],[0.857169460239443,45.483955272172345],[0.856589734163371,45.48424416678598],[0.85602724796062,45.4847829086931],[0.854342380088769,45.48563439115711],[0.853351002112474,45.486268511688664],[0.853032963502818,45.48677678388283],[0.853059122597646,45.4871601235985],[0.852718815016492,45.48817782111168],[0.852831930937809,45.4883988792637],[0.85252888113973,45.48865161040791],[0.852400840146018,45.48891579687303],[0.852290147000927,45.4889632226672],[0.851899598450483,45.488895395025736],[0.851215225325838,45.48870934112308],[0.850456734020207,45.48828765563522],[0.848949350533133,45.48782549094909],[0.848373373190747,45.48781715274468],[0.847755478055037,45.487700812539885],[0.847188763053362,45.487816956286466],[0.847030426741818,45.48631859064032],[0.846532599115836,45.48591358812663],[0.845978608378345,45.48514087961069],[0.845660837520584,45.4850465016464],[0.845160716503389,45.4846351430796],[0.844200775505132,45.484622112169056],[0.843756291413193,45.4845261953535],[0.84350600529142,45.484343027644684],[0.843422967883584,45.48417298220846],[0.842867999587213,45.48421816600442],[0.842565728360197,45.48405471531335],[0.842277263451678,45.4828438973575],[0.841515309524317,45.48152668584862],[0.840543933649788,45.48108462114046],[0.840313228943296,45.4807937265159],[0.839677894410345,45.48053557863247],[0.838745635321826,45.480635632846926],[0.838229735082411,45.48076351850069],[0.83747129701846,45.48110202003325],[0.836480864411192,45.48131443581177],[0.835760790359675,45.48116092650903],[0.83559992973005,45.48131276220447],[0.834727238289828,45.48080408845493],[0.83308921447453,45.4804166531465],[0.832606742987759,45.48037670832684],[0.832244042061582,45.479138303468076],[0.83157789147237,45.478424607365646],[0.829630159683633,45.477183477608584],[0.827860841246887,45.476293477132934],[0.825848320216055,45.47880468182267],[0.82567663052993,45.47969045068833],[0.826027362162343,45.480642191429794],[0.826158848252499,45.48130683101867],[0.826658499966457,45.48218398495384],[0.827541707134327,45.48320818704057],[0.827657075375335,45.483859901343344],[0.827322499031099,45.4862252470115],[0.826847131886182,45.48760598772274],[0.826734201001292,45.48761190824421],[0.826336427914819,45.488122168966775],[0.824715722558182,45.4911787366278],[0.824339753164841,45.4912948600946],[0.822805849001873,45.49249201731247],[0.820501956543818,45.49385616995817],[0.820428400393916,45.49400067278578],[0.820083126865438,45.494149807776225],[0.821221207283875,45.49546997082149],[0.82242778768222,45.49733103504861],[0.822335598899776,45.498375086183884],[0.823290316208812,45.49833144732626],[0.824273454771579,45.499490930958444],[0.822890464609323,45.5002964653581],[0.822891305516374,45.50050366782442],[0.821510272157821,45.50080116737859],[0.82191389997149,45.50174494083022],[0.82209632508979,45.50196017041235],[0.822087777250219,45.5027004702871],[0.822578089132544,45.50277393885585],[0.822733726771082,45.502921087020056],[0.822679674906925,45.50315605086212],[0.821361066940407,45.50352592469634],[0.821031126303643,45.50435997734157],[0.819990952165209,45.50527212292477],[0.819437651449295,45.506018959690586],[0.819094096674006,45.50625280301825],[0.817608917378605,45.50802196303172],[0.815255673735508,45.509611170535536],[0.816436101152443,45.510316048972584],[0.81630418355641,45.51041257276012],[0.816206041897309,45.51046471271343],[0.812529893532053,45.51014903113145],[0.810291459138491,45.51047833505745],[0.80963694063044,45.512746431567685],[0.80783894444209,45.51317796493193],[0.806546991703175,45.51361034856466],[0.805013364638201,45.51396502751978],[0.80313779553691,45.51493005618174],[0.800516963093565,45.51471750302996],[0.798944106706838,45.51389486299879],[0.798394105186344,45.51348321591466],[0.79813335006553,45.513499722483424],[0.797587654619511,45.51333498009038],[0.797374591916232,45.51334431298554],[0.796201890930111,45.51277180253897],[0.795628122846381,45.512733514931],[0.794203345202902,45.513088382407645],[0.792850227164863,45.51392838139525],[0.791240477978031,45.51387510757782],[0.790627847942443,45.51413690438349],[0.789452677755325,45.514335377034406],[0.788960326003288,45.51466529285453],[0.788475085772238,45.51603849863867],[0.788235747591775,45.51609594133223],[0.788007539675897,45.516259899811985],[0.787852433311895,45.51658294192988],[0.7875922377974,45.516777798252],[0.787328353379854,45.516840160404755],[0.786410922630756,45.51687162393326],[0.786129445891339,45.51698948752706],[0.785977044530393,45.51718015968394],[0.785925624859857,45.51817996030521],[0.785362729313894,45.51931290599028],[0.784641076626893,45.51999230576944],[0.784073378697676,45.52076302011578],[0.783463039184456,45.52131759332411],[0.783827501843071,45.52159323205853],[0.784473938544916,45.52270229021087],[0.78614133468975,45.52372607884742],[0.78755294830249,45.524802455668436],[0.788536188772391,45.52514882017012],[0.789015019445415,45.52545011459639],[0.789201680070833,45.52594383690669],[0.789010034687663,45.526443624281335],[0.788953999771694,45.5270136430057],[0.789292750760998,45.527357219299645],[0.790028457696317,45.52748430125262],[0.791656128729272,45.526678552681204],[0.792695085952394,45.52652782069587],[0.793271456509927,45.52653644460872],[0.794300184911642,45.52690076679723],[0.796937918580489,45.527573204587696],[0.797516781059838,45.52784219250781],[0.798031066153136,45.52822071218962],[0.798489694440492,45.529000805149444],[0.79816395066173,45.52919980674696],[0.798078747720739,45.529441357928114],[0.79855328501201,45.530014573714354],[0.79853361617673,45.53021957526335],[0.798254249598375,45.530670815240576],[0.798194438034657,45.53117680478552],[0.799205274391256,45.53235056679391],[0.799259503294194,45.5330191373331],[0.798959024225262,45.534002350771935],[0.799189397957628,45.53514189893247],[0.799202389141617,45.535848397008124],[0.799608368691541,45.53637432239298],[0.799672120146568,45.5366737428721],[0.800052153182073,45.537078448279225],[0.800735305976745,45.53733865025994],[0.801694138395319,45.53753217766201],[0.801790633861116,45.53784665064267],[0.801630757923256,45.538031793401046],[0.801590350929675,45.538275124943794],[0.802170679368509,45.53876932035532],[0.802331508887206,45.53907784493623],[0.802686383592282,45.539082985338865],[0.802807277680638,45.53917002709574],[0.802760577179329,45.539863645991346],[0.802941187230768,45.540287861487045],[0.802158444085519,45.5406959357221],[0.802027564689484,45.540828498131276],[0.801989151628093,45.54105385250546],[0.802097471541078,45.54132892045158],[0.80283098180492,45.5422612050146],[0.802911766395396,45.54255194831915],[0.802831257115467,45.542836834665444],[0.802961080911534,45.54305466974149],[0.803598872516128,45.54345899774545],[0.803613118684646,45.54381149701063],[0.803367082118785,45.544035494999335],[0.802264791972392,45.543965292649254],[0.801933499327029,45.54410834754263],[0.801155048521946,45.544729994776965],[0.801173596894356,45.544973579533945],[0.801854048174923,45.54553099102731],[0.801743829998142,45.54640353183846],[0.801560046502464,45.546641355843626],[0.801504155803795,45.547210482077794],[0.801326685550255,45.547612378837755],[0.800925500732548,45.548191862831835],[0.800600077488167,45.54841249997949],[0.800233811456488,45.54853144453897],[0.800441888696292,45.54878054181447],[0.800071680313417,45.54909578792296],[0.800262924171106,45.550221956573424],[0.800181676146614,45.55052484374058],[0.800353876673558,45.5505795619243],[0.80038930843932,45.550688354219666],[0.800387595023051,45.55102252567539],[0.800210509384806,45.55131723093421],[0.800095527480252,45.551856373927194],[0.800112361200806,45.55269266663931],[0.800209901293268,45.55304589701079],[0.80045292921129,45.55341638849949],[0.801249619046332,45.55418146508091],[0.800842705900714,45.55432213759652],[0.801433762129353,45.55519669151036],[0.801691758299832,45.5559016779641],[0.801873147576062,45.556080886718554],[0.801212690142519,45.557376860141424],[0.801156095849958,45.557736982583215],[0.800937066377436,45.55802186058844],[0.800580012098142,45.55916792594313],[0.800296641044039,45.55929660204649],[0.800157563984631,45.55969924996495],[0.800254428921897,45.560716373758105],[0.800088331752771,45.561121195297666],[0.799635539085787,45.56164111395973],[0.799513953485798,45.56211977304648],[0.799551038949198,45.56318887595574],[0.799851070928539,45.56509728964355],[0.800283517698514,45.566674989437715],[0.800384039265974,45.56672740293914],[0.79966047096402,45.567314989934786],[0.798323395824951,45.56804279556805],[0.796743573224577,45.570844031461164],[0.795882114107099,45.571897322534994],[0.795589779859953,45.57247532475201],[0.796115519062877,45.5727693943214],[0.796419856587974,45.57324469121401],[0.798855558628546,45.573989653214255],[0.801459444567883,45.575411667334876],[0.802282778392173,45.57573945264874],[0.805823680207442,45.57627525169455],[0.80916377486956,45.57592151655918],[0.811081992254954,45.57590753906669],[0.816881232796857,45.57597077136867],[0.817872472518068,45.57614135557787],[0.818984562661847,45.576500745259914],[0.822207399072578,45.57700733231359],[0.823627940690293,45.57748345103773],[0.82619485142195,45.57901766438249],[0.829070589392026,45.58040013802986],[0.832662057878126,45.58136214333355],[0.833996937517522,45.581441919134505],[0.834817151898867,45.58123251553835],[0.839799426416954,45.58133737000905],[0.840969372864439,45.58163369172491],[0.841534031111578,45.581858927745024],[0.841993949777371,45.58210557148342],[0.843680090255065,45.583313484318296],[0.844321686127595,45.5839032085332],[0.844515791505817,45.584223115016584],[0.8449340609457,45.585904841180415],[0.848876455543107,45.591162703196936],[0.849067262704606,45.59166810500792],[0.849233358092154,45.59320716465968],[0.852117734123935,45.59264524294729],[0.852771462923694,45.59289374058836],[0.854102092967593,45.5928921179691],[0.855212278230574,45.59298356240236],[0.855889132020562,45.59290008421299],[0.857068066867796,45.59260727515513],[0.858003348577981,45.592543122078574],[0.859476765899635,45.59259820442352],[0.860845250256976,45.593078253856525],[0.861833410796522,45.593073627268055],[0.862243962734181,45.59280848875894],[0.863728652103652,45.59217191020152],[0.864705908763184,45.59125093183971],[0.865581388785301,45.590906330939326],[0.866668231292982,45.59070355703436],[0.867037471525399,45.590310604522706],[0.867094954854963,45.590083791263844],[0.86758415334223,45.5899075041757],[0.868094025911204,45.58942713501392],[0.868420242274869,45.58891805960312],[0.867988319153616,45.588639628968245],[0.867869561516162,45.58819147870372],[0.869299021801296,45.587217783194355],[0.869543874506656,45.58698911481685],[0.869637338370847,45.586660290720566],[0.868578705061316,45.58469719211053],[0.868832739221208,45.58386245846457],[0.869209582315754,45.58360386414934],[0.869684928960026,45.58345252922462],[0.87008627800346,45.5834574310966],[0.870543802626296,45.58363634982384],[0.871149191292476,45.584073894733635],[0.871753077660138,45.584283504594275],[0.872401570044738,45.58426695292886],[0.872670788489674,45.5840378386004],[0.872712149085509,45.58366208564858],[0.872573796947599,45.58328923777649],[0.872070303197993,45.5825365466831],[0.871684937092413,45.582215772508434],[0.871113633894997,45.58192660743314],[0.869940059305597,45.58168728439728],[0.868566334424749,45.581115361019904],[0.868145518316765,45.58068310319659],[0.867472077444273,45.580182094756786],[0.86722387459561,45.57966482869504],[0.867235334898085,45.579200231231106],[0.86801388601846,45.577768308318056],[0.868042731508306,45.577351783308124],[0.868667319046018,45.57672045344372],[0.868474340285197,45.57620153488381],[0.869116157614405,45.57548855657353],[0.869215658915462,45.5750022074722],[0.870151522712484,45.57431371416801],[0.870173921363767,45.57359709969226],[0.870383195849206,45.57325785899614],[0.871061814140135,45.5729878620334],[0.872424126420116,45.57311724802694],[0.872781600659884,45.57329426515826],[0.873400453088337,45.57384645585909],[0.874600847008827,45.57421867032386],[0.874859355061112,45.57410014812812],[0.874987541152853,45.57329905692405],[0.874970111736658,45.57281679886498],[0.874703144789954,45.572386573384414],[0.874733480476984,45.572097089025014],[0.874333831611179,45.57178235876271],[0.873703277862205,45.57170287237989],[0.871617990347543,45.571797625498455],[0.870655889142871,45.571501055767506],[0.870055974073619,45.57155905115187],[0.868850863338261,45.571411897859505],[0.868544679807768,45.571235840431214],[0.868339086092636,45.570945486273246],[0.866430441924739,45.57008323621922],[0.865514750667326,45.56938214078853],[0.86493269695152,45.5692431716584],[0.864047023816818,45.568795759850076],[0.86354906338374,45.56830526623029],[0.863479931294243,45.56756979680207],[0.863810260668977,45.56688515902914],[0.86417184938319,45.56642091063682],[0.864478318306601,45.56618892203596],[0.865043860297914,45.565989779171424],[0.865354371283364,45.565985768322534],[0.865945157184185,45.56583033903451],[0.866216216946064,45.56585170000927],[0.867355136836038,45.56528239060559],[0.868469147395881,45.56516029643128],[0.868586142809056,45.56508594707357],[0.868582358297271,45.564850765926835],[0.86925286134281,45.56485627341592],[0.870108571457938,45.56401312855167],[0.871856307064397,45.56331658816369],[0.872441349716763,45.563008781571924],[0.872763956011985,45.56292300669502],[0.877118490231507,45.562935083185536],[0.877687299484984,45.5635196353117],[0.878247586294281,45.56338878898423],[0.878476735997966,45.562159020359765],[0.878872148721801,45.56201334830234],[0.879387682817978,45.562079827665066],[0.879685658209601,45.562034104394435],[0.879310568774778,45.56154780216855],[0.878372333985286,45.56079864480256],[0.876330571638647,45.558127043667255],[0.875468309501768,45.55737208983137],[0.874976943571651,45.556743049000815],[0.873909635199463,45.55591934721914],[0.87265659691143,45.55469036197255],[0.871800920026469,45.554000360621274],[0.875412062385817,45.552213050958805],[0.87913083931546,45.55015291854185],[0.87943258034497,45.550342376399556],[0.879881638477746,45.5495959825449],[0.879584100006865,45.54624480748658],[0.879330234533684,45.545776105548114],[0.879141611694694,45.54564643346319],[0.879304325773981,45.54558194516633],[0.880443525954771,45.54569532394208],[0.88116169615718,45.545621493117835],[0.883796013701181,45.54565943308419],[0.88361531404182,45.542196974924835],[0.884173116285772,45.54215883878868],[0.883979196464423,45.53995004025769],[0.883825681112883,45.53947152881955],[0.883812408488486,45.53733279202126],[0.883154631574507,45.535154888069044],[0.883119779787039,45.53448944487303],[0.883249381181088,45.53334337428186]]]]}}]}