{"type":"FeatureCollection","name":"COM_47314","crs":{"type":"name","properties":{"name":"urn:ogc:def:crs:OGC:1.3:CRS84"}},"features":[{"type":"Feature","properties":{"fid":4212,"ID":"COMMUNE_0000000009757337","NOM":"Trémons","NOM_M":"TREMONS","INSEE_COM":"47314","STATUT":"Commune simple","POPULATION":404,"INSEE_CAN":"16","INSEE_ARR":"3","INSEE_DEP":"47","INSEE_REG":"75","SIREN_EPCI":"200068930"},"geometry":{"type":"MultiPolygon","coordinates":[[[[0.854408952430543,44.42641405849655],[0.856053609532315,44.42698548925177],[0.856661133876219,44.42726926754578],[0.857911638596944,44.42802931374116],[0.861495150386161,44.429838734790934],[0.863638692886311,44.430681783291426],[0.867363366974642,44.431622945638985],[0.869099423760502,44.4318438446261],[0.871896913320318,44.43194564366214],[0.874005445639065,44.432188067152495],[0.875659966988028,44.43210471559447],[0.877559922646907,44.431877482876835],[0.879252565800172,44.43158139033087],[0.880650346955027,44.43157406818515],[0.88209144546867,44.43171884717534],[0.884355653438496,44.43233597597859],[0.8857744899366,44.43260635048522],[0.886761304072768,44.43273424462782],[0.889094544471683,44.43268261834281],[0.889663941642853,44.43305102907376],[0.891366839249068,44.43382745534887],[0.892872226420425,44.434880136384955],[0.894280628609636,44.43573733300859],[0.896412506451909,44.4365407876722],[0.898680153695325,44.43704061619097],[0.900052610202042,44.437549454906396],[0.901032040094083,44.43828582298036],[0.901360800130484,44.43877475829067],[0.902130506765597,44.43869396151944],[0.902591150975808,44.438745054772454],[0.903084283690665,44.438903024451776],[0.903182476607511,44.43883105130571],[0.903240746945792,44.43854759926519],[0.903422859383201,44.43838176886633],[0.903421140280751,44.43808907076667],[0.90358964832516,44.43767984396343],[0.903452536192399,44.43751334257969],[0.903328369103633,44.43689593260612],[0.903488653080381,44.43616596884782],[0.903234315805843,44.43550015625201],[0.903625052788893,44.434893445163254],[0.904325581742489,44.43443940855122],[0.904732527528579,44.433937461271086],[0.904696391450202,44.433555859726134],[0.904948634994274,44.43332832581115],[0.90516530303519,44.43324689750587],[0.905641629263923,44.432771480755626],[0.905656117125717,44.43217652175587],[0.905920074185969,44.43119098301652],[0.905832039654629,44.43071744494596],[0.905906497835027,44.43026770721365],[0.906960996128632,44.429687109170935],[0.907559798683321,44.429534591980236],[0.907671825819815,44.429427758643975],[0.907844435222997,44.429042018983665],[0.907621101718833,44.42865866543584],[0.907984124198349,44.42815317304639],[0.908399814209793,44.42792243261739],[0.908508496398895,44.42715816787788],[0.908736911559035,44.42703013019488],[0.909015331758489,44.42701110151739],[0.909181380821091,44.42676841587382],[0.909690976243349,44.426376462294776],[0.911294364735725,44.4253911084189],[0.911397035262548,44.42523096480384],[0.911327022726089,44.424676729672775],[0.911438941018491,44.42402778947436],[0.912451243381826,44.42339411476032],[0.912589720730187,44.42308066335028],[0.913155410318194,44.42263122593245],[0.913585230602348,44.4218793462514],[0.913441345839492,44.42176045648419],[0.913509692350467,44.42167890515564],[0.913778100581706,44.421692093345165],[0.913865288110937,44.42178109296281],[0.914591229529792,44.42168767917254],[0.91493973266145,44.42147095265062],[0.91510013234717,44.42090307260553],[0.915034734465449,44.420700123154276],[0.916194709620757,44.419704510399065],[0.915303105288086,44.41941839089536],[0.91500735025475,44.41864737008076],[0.914915521768143,44.41721834372356],[0.91473702609689,44.41681154202369],[0.913931160563681,44.41600744726937],[0.913509400593764,44.41541773767067],[0.912852078763147,44.415219781434175],[0.912640010139254,44.41439541019227],[0.911276363788828,44.41270724174513],[0.910874858848246,44.41299949192776],[0.910018321888805,44.411903546386284],[0.912119136692577,44.41087450393509],[0.913816233512637,44.410298829790136],[0.914076228814923,44.410095740203104],[0.914967772600853,44.409936125624355],[0.915465293222156,44.40973032553437],[0.915672844448269,44.40958657281169],[0.915819457115919,44.409323701872026],[0.917053694634035,44.408863487457666],[0.91741747782198,44.40857050314372],[0.917618219212642,44.4083725886773],[0.918075298618033,44.40752396177525],[0.917450901829758,44.4071843769276],[0.917055770910807,44.406861731916734],[0.91598857126791,44.40643722066849],[0.914295827600886,44.406421383300625],[0.914110157767963,44.406312509047474],[0.914138462091244,44.40523785708828],[0.915469648485362,44.404735374893754],[0.915368934766656,44.404434505195546],[0.914919607694864,44.40401537427028],[0.914908470682488,44.40380624936443],[0.91591985159199,44.4033913580103],[0.915911092912471,44.403151661652814],[0.915557761098124,44.402752360016365],[0.914381117776644,44.4018575052959],[0.913665600376231,44.40112986182682],[0.911715935433077,44.39885608555326],[0.911561022707074,44.39852716998245],[0.911792222533666,44.398047991610625],[0.912057440616293,44.3977360486229],[0.912095702270432,44.39748193553951],[0.911998023325706,44.39665703580775],[0.91126887337705,44.3965396500059],[0.910017814985689,44.39610078454242],[0.909478050733453,44.39602480193877],[0.907733669463733,44.39523975921686],[0.906079389881629,44.39483820972197],[0.904454171085994,44.3953484849788],[0.90384456115902,44.39519190193304],[0.903400650651176,44.39612266268325],[0.902474198594586,44.39726305078627],[0.901718485599077,44.397828569565704],[0.900561407018703,44.398412545949014],[0.899811538622464,44.39922579991418],[0.899653558501601,44.39921828414751],[0.89904130401694,44.40011340196711],[0.897762420844959,44.40110024987231],[0.896901023792012,44.402140983754705],[0.896669464337041,44.403673708781035],[0.895746709974122,44.4052481597181],[0.894953382125739,44.40570575940451],[0.894831503078126,44.405470200540954],[0.890323105715422,44.40415654339264],[0.890193575534326,44.404227902736764],[0.889950023547878,44.40462846095944],[0.888238774343167,44.4026523805154],[0.888135425235046,44.402257780938776],[0.887598683298986,44.402268197332155],[0.88725348192737,44.40192568855823],[0.887415968979872,44.401812641603186],[0.885686963801543,44.40008111571993],[0.884778679311551,44.39860666475555],[0.88361596880109,44.39903367194503],[0.883102195241617,44.399068820776414],[0.882611362702894,44.397718540300524],[0.882575794984467,44.39836711605787],[0.882316062319085,44.39862866883817],[0.881229547299103,44.398764454182945],[0.881140839223541,44.398886115669654],[0.878923594449671,44.399800659150074],[0.87884856461327,44.40029448933392],[0.879445575779356,44.40192689018222],[0.879204980981878,44.40204562542385],[0.878922764623228,44.40233645480025],[0.878283938819757,44.4024898402972],[0.876741669858726,44.40355512487293],[0.876652400855211,44.4038586741499],[0.876205012517234,44.404332716473995],[0.875828782787683,44.40495221045334],[0.875703808944035,44.40500202896444],[0.875201816437378,44.40569203598367],[0.873099669021348,44.40924987647685],[0.871604339021656,44.41096346917081],[0.87044641087957,44.4110869677569],[0.8694902982972,44.41198969633177],[0.86906760003402,44.41270552784221],[0.868974284059055,44.413281849241336],[0.869195750445916,44.4133059453045],[0.869193313929354,44.413437372524605],[0.867708168765496,44.416474867850226],[0.867393510286854,44.418289610119544],[0.867150038173801,44.41841547013045],[0.866264809124574,44.418633359111546],[0.865777519324394,44.41862752054466],[0.862602271076978,44.41799952843362],[0.861871941916358,44.41774221536761],[0.861773446066117,44.41758901711029],[0.860273439926621,44.4174842446333],[0.859863829061195,44.41751771028004],[0.859149963420587,44.41815400880309],[0.859348068604877,44.41896201845948],[0.85991463372239,44.41982851663877],[0.86074660906563,44.420488545753],[0.861067857138103,44.42099817202179],[0.861671524812216,44.4214826626177],[0.862048000332022,44.42199425856723],[0.862652471130649,44.42242472832352],[0.862673844331306,44.42252419967772],[0.861707054876006,44.42353472623289],[0.861064859700323,44.42363662406271],[0.859129168627921,44.423651251555896],[0.857409761383919,44.42405997599714],[0.857052141099457,44.42421241124112],[0.85638552650965,44.424328215384136],[0.855625646510027,44.42481591506473],[0.85540495533732,44.425665310271825],[0.854775697909226,44.42588899414199],[0.854408952430543,44.42641405849655]]]]}}]}