{"type":"FeatureCollection","name":"COM_33130","crs":{"type":"name","properties":{"name":"urn:ogc:def:crs:OGC:1.3:CRS84"}},"features":[{"type":"Feature","properties":{"fid":4037,"ID":"COMMUNE_0000000009756999","NOM":"Coimères","NOM_M":"COIMERES","INSEE_COM":"33130","STATUT":"Commune simple","POPULATION":1077,"INSEE_CAN":"27","INSEE_ARR":"3","INSEE_DEP":"33","INSEE_REG":"75","SIREN_EPCI":"200043974"},"geometry":{"type":"MultiPolygon","coordinates":[[[[-0.21079791885059,44.52347241944192],[-0.206106350123335,44.52197992446196],[-0.199637901206419,44.520682947368535],[-0.197330804034855,44.52019304884196],[-0.195338057676062,44.51940478938179],[-0.19308981925971,44.51888517027664],[-0.191800417994463,44.518508046879674],[-0.190681490736439,44.51809444440799],[-0.189387751929257,44.51746154754746],[-0.189798966221377,44.51627030367149],[-0.191037548531511,44.51396676903496],[-0.191182243992839,44.51343011733022],[-0.191215285101267,44.51261109297423],[-0.191000334961365,44.5113028175082],[-0.190824548723498,44.510888058072545],[-0.190455346233637,44.510414926011705],[-0.187674981108638,44.50989618716808],[-0.188420981431734,44.50823488749098],[-0.189612216621084,44.50685621901025],[-0.190310461573123,44.50528728336159],[-0.189980444304485,44.503835484981586],[-0.19021743475689,44.50194654053178],[-0.190237496132502,44.50067471769191],[-0.190095153315445,44.49842195424627],[-0.190307332959813,44.496785095969905],[-0.190817998392831,44.49590901145983],[-0.191110671609326,44.49476174132474],[-0.192308543684358,44.493462132988675],[-0.193776183463111,44.49123572832146],[-0.195787511818072,44.48858811714863],[-0.196083862462219,44.488086707161685],[-0.196393118468698,44.487791239489205],[-0.197247859500792,44.48721597440874],[-0.197830799043667,44.48695310766459],[-0.20040922319065,44.4864800656916],[-0.201440657103922,44.48633659813785],[-0.202650629608216,44.486278930325106],[-0.203775652090851,44.48578855823276],[-0.205683821832647,44.484395173646526],[-0.207395725109514,44.48382462867858],[-0.208765210505032,44.48267660256554],[-0.209182109210366,44.482150923476205],[-0.209518633691296,44.482049228791645],[-0.210434716331362,44.481472070526415],[-0.211452842483688,44.48005584686105],[-0.214017903035927,44.48110277498624],[-0.216137461322271,44.48064453490072],[-0.216278210957353,44.48048636489608],[-0.217642395506473,44.47997895680293],[-0.217904597008866,44.48018573032753],[-0.218954698770262,44.479842438404205],[-0.219066314980338,44.47961484076489],[-0.220508088769148,44.479056478495544],[-0.222459941506598,44.47740293806206],[-0.224178180426143,44.477787854293005],[-0.224403304673929,44.478579518111886],[-0.224813998575242,44.47918285847187],[-0.22483305575653,44.47969314469703],[-0.22516105751859,44.479685350241894],[-0.228757167978983,44.480316159537495],[-0.229837389790519,44.480346679904436],[-0.237560820139524,44.49845031633726],[-0.237731658544597,44.499234552052336],[-0.23830925716862,44.504829757889716],[-0.236214143580646,44.504453388034335],[-0.234814358493756,44.504390845853],[-0.233149828306415,44.50355220233836],[-0.232243938270737,44.505343762850075],[-0.230287079456145,44.51229264250161],[-0.230388662464371,44.51287980544135],[-0.231072597208777,44.51400581159375],[-0.229319776513519,44.51393911867677],[-0.228659873324052,44.51384942015259],[-0.22792828538154,44.51369514367991],[-0.226724905704989,44.51319517786221],[-0.225609243412676,44.513150328219105],[-0.224260033748554,44.512786143269096],[-0.22336187670355,44.512713289205195],[-0.222932395782021,44.51257898192683],[-0.221019908969143,44.51161044877729],[-0.220504195161716,44.51142098887232],[-0.219181116829736,44.511248788491386],[-0.217639473143159,44.51117394698927],[-0.216904667316104,44.511006178869465],[-0.216128329127636,44.510595455061456],[-0.215944552503547,44.510839570248834],[-0.215894155835023,44.51125908846597],[-0.21513499867601,44.51238851015391],[-0.214837792766288,44.51333868437655],[-0.214294393634802,44.5138572616957],[-0.214180716687291,44.51407230181444],[-0.213682145487779,44.514427395428186],[-0.213309618517783,44.51491756361178],[-0.212973525648573,44.514985917427076],[-0.212490527324855,44.51523874242202],[-0.211711128132071,44.515793010546915],[-0.211761668829259,44.51610597635347],[-0.211601953229524,44.51630883966626],[-0.211264366551949,44.51635110347024],[-0.211139000662266,44.51656017374064],[-0.211154245896414,44.51667325174562],[-0.211310913797379,44.516748876667],[-0.21129231858255,44.5168647418362],[-0.210864232118854,44.517087129577455],[-0.2109539732304,44.51753590171129],[-0.211556141997587,44.51760666543824],[-0.211597029049305,44.5176613349533],[-0.211355902835549,44.51829272590767],[-0.211007918109275,44.51830736134437],[-0.210940993920747,44.51837057531834],[-0.211068886512008,44.51869300257859],[-0.210982579940498,44.51910185146167],[-0.211055696116418,44.51956822635303],[-0.211452256493811,44.520008967684234],[-0.211553927734462,44.52066731851536],[-0.211458361454314,44.5209133623688],[-0.21148568267099,44.52123871765584],[-0.2112853163811,44.52154637538735],[-0.211134809831521,44.522243601872525],[-0.210643384162101,44.52259306650531],[-0.210711220163201,44.522900124497625],[-0.211014653125697,44.52323095791473],[-0.21079791885059,44.52347241944192]]]]}}]}