{"type":"FeatureCollection","name":"COM_33173","crs":{"type":"name","properties":{"name":"urn:ogc:def:crs:OGC:1.3:CRS84"}},"features":[{"type":"Feature","properties":{"fid":4220,"ID":"COMMUNE_0000000009755396","NOM":"Francs","NOM_M":"FRANCS","INSEE_COM":"33173","STATUT":"Commune simple","POPULATION":178,"INSEE_CAN":"21","INSEE_ARR":"5","INSEE_DEP":"33","INSEE_REG":"75","SIREN_EPCI":"200035533"},"geometry":{"type":"MultiPolygon","coordinates":[[[[0.009100271008417,44.962974956083436],[0.009898350746604,44.96212244418086],[0.010168600360721,44.961624245862666],[0.009745260124776,44.96049650718189],[0.009327189414006,44.9563694465047],[0.009676203937274,44.956273418129165],[0.009959902796561,44.95604588642973],[0.010025444486986,44.95393748667011],[0.008144076554098,44.95397696292877],[0.007382927075957,44.95202470820132],[0.005876820264425,44.95102637319703],[0.005583731993451,44.95026613433953],[0.005216343818353,44.949780502581156],[0.005201003741939,44.949592679249974],[0.004611161243908,44.94901996010257],[0.004350568295299,44.948554322613866],[0.003707760579379,44.94816577870382],[0.003306130473249,44.947656691717974],[0.003232901875506,44.947317739523484],[0.004111466610972,44.946499883207764],[0.005478615484393,44.945726722010605],[0.006271725588524,44.94486870561408],[0.006198461047012,44.94443514925525],[0.006306425191688,44.94429029238217],[0.007521700584134,44.94400767034049],[0.00793472842789,44.943804351624976],[0.011898574854526,44.941510724867214],[0.012045907552581,44.940127139864174],[0.012102573547778,44.940016037998966],[0.012551148897122,44.93978753029609],[0.012510244470794,44.938674592161235],[0.012880558554757,44.937819584292676],[0.013058052182376,44.93777389933948],[0.013249245850411,44.93785201974787],[0.013340704513016,44.937754466664025],[0.013367293382218,44.93751731656625],[0.013153973787526,44.937092616531324],[0.013083411670288,44.93667896156826],[0.01324906020021,44.936069831447846],[0.013202299729583,44.93551896308815],[0.013323447009506,44.93472122854598],[0.013910976974944,44.93412163521952],[0.014008418591614,44.93391161748309],[0.014256330989667,44.93385340738417],[0.014587206787319,44.93352352149865],[0.015067135050865,44.93339585926096],[0.015538891480639,44.933016596332585],[0.016111925184089,44.932378761409026],[0.016125167628853,44.93162948494689],[0.016648361591109,44.93090291262282],[0.017061333631177,44.93067433479795],[0.017300782510552,44.9304410973643],[0.017281129921136,44.9296422845931],[0.017597033045533,44.929235404456605],[0.017961362890162,44.928943349201596],[0.018062544460916,44.928543318612746],[0.018324451127362,44.92817373051771],[0.016514895092717,44.92854862157122],[0.015376992173834,44.928862240908394],[0.013361202244349,44.92784580292111],[0.012499710421921,44.92785147278106],[0.011151878712387,44.92772512131337],[0.010107274825005,44.92747807090308],[0.008667055039606,44.92784745674956],[0.007028031174049,44.92790152403897],[0.006310561177627,44.92782272740122],[0.005916554134273,44.92757694800979],[0.005254156794896,44.927464489431934],[0.004845387315023,44.927542669491224],[0.003960808562906,44.928099065256404],[0.003341696129304,44.928173369516266],[0.002549308784351,44.928594387603475],[0.002026367072851,44.928482969214315],[0.00163791511712,44.92851303177626],[0.000573633933905,44.928302301171556],[0.000184589878242,44.92831972857097],[-5.3713841377e-05,44.92815111285005],[-0.000370436458297,44.928144361970226],[-0.000678539783114,44.92797656285106],[-0.001017827422188,44.92810705463264],[-0.001377541094813,44.92781352051734],[-0.002203978794589,44.927709199578],[-0.002969231349378,44.92785970926089],[-0.003245319932017,44.927781066843686],[-0.004612204836926,44.92775041602459],[-0.005068728535748,44.927914666367904],[-0.007376719232191,44.92795493032495],[-0.008647700600713,44.92821695105563],[-0.010002626392022,44.928364958073104],[-0.010774917750331,44.92852783830815],[-0.01115347110435,44.92882212084111],[-0.012313383905598,44.92930605675485],[-0.012615174646438,44.92937536095925],[-0.013126782155897,44.9292894063072],[-0.014094908930352,44.929602828031165],[-0.014748998887413,44.9300436970289],[-0.014677775706725,44.93058263336055],[-0.016104943028986,44.93122326447539],[-0.017118634149459,44.931934573911775],[-0.017129965878491,44.932734367186164],[-0.016877127589006,44.93319804706634],[-0.016844102137162,44.9334800603804],[-0.01684365400709,44.93380173485001],[-0.017051427228409,44.93424479879004],[-0.017112143298748,44.934642299866205],[-0.016899071745463,44.93518509037752],[-0.016921677293229,44.935770136600965],[-0.016785114404208,44.936084694701506],[-0.01690377564991,44.937158186733626],[-0.016808646669069,44.93739413258403],[-0.016482652769255,44.93758318581831],[-0.01598742235706,44.93856431929673],[-0.014128011643723,44.93821652235309],[-0.011741230367422,44.9382289791764],[-0.010707443392186,44.938348896913126],[-0.010185571969,44.938316182620824],[-0.010189388308548,44.939143209465875],[-0.010043569077788,44.9395697347677],[-0.00921784673971,44.94061204547356],[-0.009213427182104,44.940789664797485],[-0.009470873060706,44.941000738291564],[-0.009478601743514,44.94114469116758],[-0.00854111627889,44.942303550748726],[-0.009037803191448,44.94250454427304],[-0.009046203093227,44.94256648678303],[-0.010419109209728,44.94261760337133],[-0.010957117469835,44.94283188545722],[-0.010776016271469,44.943262972067544],[-0.011915830546527,44.943579877866235],[-0.013093758508801,44.94377950793413],[-0.013138909522294,44.94369899434308],[-0.014533177313786,44.94417025656633],[-0.014272039779405,44.944740475207574],[-0.014384487590917,44.94489690518112],[-0.016182527940978,44.94624559893721],[-0.016250093743194,44.94658164695938],[-0.016701415173458,44.94683429651475],[-0.01773117698498,44.94772087401426],[-0.016072391580639,44.94811279446926],[-0.015072946783945,44.94819036965851],[-0.014287948647901,44.94815039367302],[-0.012446519161111,44.94788316310742],[-0.011617400030433,44.949052627510234],[-0.011253388000411,44.94929134882204],[-0.007191820805615,44.9498338048514],[-0.007321528306482,44.95014655157564],[-0.007172719230929,44.95108583169879],[-0.007711364136097,44.951334353256065],[-0.00809148609817,44.95189170612977],[-0.00718021569245,44.95264438570029],[-0.005687771350954,44.95469852379783],[-0.004903289570636,44.95552163796098],[-0.004654952958295,44.955670711559904],[-0.003533298612757,44.956051520535645],[-0.003340128158639,44.95644868156122],[-0.002805286619279,44.957147902556876],[-0.002845637299324,44.9574036018064],[-0.002677573113936,44.95760636511154],[-0.002620213397555,44.95793318097777],[-0.002416548779203,44.95808734965298],[-0.001622571187728,44.95930353792797],[-0.001378101727685,44.9593831211109],[-0.00094356429636,44.959918342430534],[-0.000949028342289,44.960067763403806],[-0.001517850188512,44.960641670089394],[-0.001872938007587,44.960684340788546],[-0.002935586726829,44.96171072989546],[-0.003037814126778,44.96243418759251],[-0.004259953022339,44.96380675334295],[-0.004414369648426,44.964153977112744],[-0.004448290405191,44.96495226305286],[-0.004368846512454,44.96555358684034],[-0.004389077918256,44.96730371830522],[-0.002937144482318,44.96699695423391],[-0.00205594235927,44.96699011785924],[-0.000411097631336,44.96637497665095],[-0.000158483322263,44.966255651656724],[0.000794980891323,44.96532539992556],[0.001695144285371,44.964845112131215],[0.002617300573413,44.9646888747382],[0.003658159031209,44.964211464131324],[0.006809772761321,44.963421479808304],[0.00841451880316,44.96376741505945],[0.009100271008417,44.962974956083436]]]]}}]}