{"type":"FeatureCollection","name":"COM_86099","crs":{"type":"name","properties":{"name":"urn:ogc:def:crs:OGC:1.3:CRS84"}},"features":[{"type":"Feature","properties":{"fid":4231,"ID":"COMMUNE_0000000009749000","NOM":"Fleuré","NOM_M":"FLEURE","INSEE_COM":"86099","STATUT":"Commune simple","POPULATION":1108,"INSEE_CAN":"18","INSEE_ARR":"3","INSEE_DEP":"86","INSEE_REG":"75","SIREN_EPCI":"200043628"},"geometry":{"type":"MultiPolygon","coordinates":[[[[0.501127532714387,46.49733184244968],[0.503147492119587,46.50036787476305],[0.50348702049167,46.50064556055418],[0.50571386796066,46.5032716448065],[0.506526223947696,46.503909185070775],[0.506883834655146,46.50402058798605],[0.507667874442315,46.50724668186364],[0.507436694807616,46.50813623297439],[0.507425212135209,46.50881525923495],[0.507691429956619,46.510440875981956],[0.509013767093504,46.51422643115075],[0.509346519942794,46.514426471705676],[0.509610884455543,46.51309620165564],[0.510197729701071,46.51279006528437],[0.510483916791293,46.512495397860306],[0.51120801278267,46.511240899286285],[0.511301685882225,46.510789787851294],[0.511243917170961,46.51059754048942],[0.511678158066165,46.51031780472688],[0.511980220970305,46.50978924658554],[0.51333430744866,46.508280877916704],[0.514140291290174,46.50757408607453],[0.525836539421459,46.50078644048094],[0.528467556645772,46.500018140061826],[0.532587711141218,46.500416154406324],[0.533289187573938,46.50074210056467],[0.533831665929766,46.501208754344574],[0.53396839494929,46.501185578272526],[0.534181825119589,46.499264982474266],[0.534334142162994,46.49895475868233],[0.5399778750886,46.49452777620433],[0.539993464754217,46.492823631696965],[0.540120447776911,46.491917368615695],[0.543144636302599,46.49146981226706],[0.544501681141851,46.49114042277562],[0.545718695949479,46.49093683733196],[0.549745591225709,46.48953677959285],[0.5518765720442,46.489223894466406],[0.552668546394296,46.489218334321535],[0.554580613536406,46.48939439553191],[0.555767092299397,46.48928824756955],[0.55743033564027,46.48893372460413],[0.558019633399353,46.488735511250646],[0.558705433564606,46.488362783500975],[0.559461309432746,46.48817262555802],[0.561204848733822,46.48800444420973],[0.563027873352823,46.487633431521466],[0.564463241305247,46.48750187151009],[0.566364584771074,46.48695320042001],[0.56594033706782,46.486347782890384],[0.565594906675392,46.48508730088886],[0.565259061466957,46.48431349691622],[0.563310267076411,46.48195669520399],[0.561285872666082,46.48039011801494],[0.559556376040437,46.47844332186316],[0.559439861373989,46.478453445674],[0.559683534189024,46.47804964895925],[0.559804275940041,46.47602163629978],[0.558528968958142,46.47593403374126],[0.55690724335316,46.47618585083121],[0.554459700945712,46.47618394108007],[0.55249431052552,46.47598600495579],[0.550541197611368,46.47568920036827],[0.54975880102753,46.475485941145024],[0.548861590267882,46.475081117263315],[0.54780375904837,46.47546471938888],[0.545118073028332,46.4757421784988],[0.53717010691017,46.4769558074347],[0.536785702744698,46.47686283736211],[0.535248281196977,46.47590987254828],[0.5353309531146,46.47560985697181],[0.535612733460288,46.47520332628056],[0.536903624607036,46.473559106481474],[0.536534640576182,46.4729232293952],[0.537848107441925,46.47060381779048],[0.537505353861182,46.47057120560042],[0.537084311537869,46.47039546455843],[0.5361022160294,46.46947790010822],[0.535569484578135,46.46917722286928],[0.538399722037427,46.46756888699315],[0.538240360938443,46.46665104716172],[0.538110067829574,46.466649140272146],[0.537718345104101,46.46628664698665],[0.537746971788584,46.46594132115142],[0.537558821239158,46.465690420976166],[0.537497885834716,46.46565397263925],[0.537251884274841,46.46576038028845],[0.536903914542171,46.465179910072166],[0.535782543642015,46.46581788298013],[0.535844955683779,46.466110217865555],[0.535582426553856,46.46629374236895],[0.534509781147365,46.46694897070357],[0.53410664837385,46.466954683995155],[0.53364209488301,46.46719420322634],[0.531979014980149,46.46660513709971],[0.53042583267364,46.4659508545839],[0.530639477786269,46.46437079775242],[0.530346685592083,46.46401311884761],[0.529394558311098,46.463273615347774],[0.527712561937017,46.46301920769404],[0.525978702335955,46.46296004733799],[0.525323204135842,46.463011614176835],[0.523130218929667,46.463502822050145],[0.522117386622003,46.46358536078985],[0.52068731432501,46.46298045836263],[0.520347483018138,46.463228937476835],[0.517233640128722,46.461952293241865],[0.516198496915786,46.46120816779686],[0.513341136964796,46.459400051507295],[0.51174921889481,46.46043295412754],[0.511295135463342,46.46064198105199],[0.50954571077194,46.45886961196713],[0.508663758331334,46.4581143399364],[0.508334954167815,46.45849185390336],[0.506793773004208,46.45949696692689],[0.507114489973446,46.4598102745329],[0.501148401673144,46.46483219547846],[0.498802789593376,46.46665474782116],[0.498085017156442,46.467351647598804],[0.493318716663812,46.47111386169412],[0.490708279425997,46.47326738697258],[0.491615759109308,46.47369452475385],[0.492525500903926,46.47432801254296],[0.493146236848321,46.47455424802939],[0.494049787010996,46.47484073775927],[0.495889470553316,46.47501710946016],[0.496058290835974,46.47520279243716],[0.495965446146215,46.47577643692467],[0.495802242968759,46.476064753779696],[0.496138389719449,46.47666761969019],[0.496115154667715,46.477429277151785],[0.495901052054684,46.47820116625498],[0.495797450537699,46.4802016097512],[0.49549625009096,46.48102384182741],[0.49589744581301,46.48234074933635],[0.496447273163814,46.48505100749543],[0.496930023020449,46.48663816549136],[0.497206406324142,46.48857305471131],[0.498312183613807,46.491848626064744],[0.500099000496324,46.49535259335047],[0.500433114059059,46.49643017182909],[0.501127532714387,46.49733184244968]]]]}}]}