{"type":"FeatureCollection","name":"COM_86014","crs":{"type":"name","properties":{"name":"urn:ogc:def:crs:OGC:1.3:CRS84"}},"features":[{"type":"Feature","properties":{"fid":4148,"ID":"COMMUNE_0000000009748197","NOM":"Availles-en-Châtellerault","NOM_M":"AVAILLES-EN-CHATELLERAULT","INSEE_COM":"86014","STATUT":"Commune simple","POPULATION":1738,"INSEE_CAN":"05","INSEE_ARR":"1","INSEE_DEP":"86","INSEE_REG":"75","SIREN_EPCI":"248600413"},"geometry":{"type":"MultiPolygon","coordinates":[[[[0.546794087246536,46.776243621325065],[0.548765844804533,46.77677305307172],[0.54930539248911,46.776788165642486],[0.549525927271956,46.776956820408394],[0.550183854008774,46.77719605772064],[0.557760487556289,46.7792869224739],[0.558789060865315,46.77971234993929],[0.560937298596434,46.78023000238178],[0.562240533637138,46.7798847160094],[0.56596714880112,46.778514289289625],[0.569317584348323,46.77660970686361],[0.570193686138582,46.77634177530492],[0.572216585631674,46.77593862876295],[0.573693787264127,46.77554013979121],[0.580491031679698,46.77292426290205],[0.58132817863371,46.77358597582692],[0.581421222810376,46.773587033671376],[0.581876384594024,46.77296513916632],[0.582535501679727,46.77247364947363],[0.583067738595008,46.77165158857132],[0.583942432465519,46.77091149569278],[0.584863164358593,46.77087410297824],[0.585239860243897,46.77065861783875],[0.585712911986927,46.77057577524515],[0.586079724525247,46.770346567466454],[0.58844061126279,46.76941065257632],[0.590239543859901,46.76849173085009],[0.59084042740644,46.767862049804805],[0.591083007950748,46.767123060685904],[0.591860622552322,46.765494469483876],[0.592553045855337,46.76433701774361],[0.59239061117455,46.76389131149834],[0.593530348041642,46.76290357424155],[0.594028322858558,46.76281851860253],[0.595637701211334,46.76232433635025],[0.595883669495328,46.7621871552521],[0.596694219450649,46.76202935778064],[0.597356633147773,46.76178287866004],[0.598152660308726,46.76177520380607],[0.598597041904798,46.7616863056441],[0.59931652312869,46.761364439059776],[0.599749202432817,46.76068075288391],[0.59955223495793,46.76048115961763],[0.599697576797368,46.759862633110735],[0.599232154552494,46.7593610601423],[0.598646901338642,46.75928666989289],[0.598508972719976,46.759204514314014],[0.598470592990613,46.75900553200527],[0.598567372793902,46.75883279678132],[0.598480490630002,46.75845624011925],[0.600013702298704,46.75689473996792],[0.600312256461189,46.75645687483839],[0.599913018373996,46.755881918586795],[0.59989723335243,46.75555729428376],[0.600064069110906,46.755459888862255],[0.600467994784306,46.75483235086316],[0.600839291133233,46.7545275235792],[0.599946301293154,46.75406296156806],[0.599267137531508,46.75400913119903],[0.598844722121912,46.75386968207687],[0.598438919395703,46.75427287164921],[0.597262470237926,46.75384650088172],[0.597609387999217,46.753470909816464],[0.596879621531982,46.75293226654228],[0.59514648748232,46.750754739252606],[0.594742441908856,46.74978780440292],[0.594626051454305,46.74969348293517],[0.594034001652697,46.74761729889043],[0.594086405406334,46.74702655685541],[0.593954554485407,46.746601308924326],[0.594027902293828,46.74633620236216],[0.593721769805778,46.74573344375079],[0.592521616079176,46.74433993919914],[0.591262372288376,46.7433343366781],[0.590693460482563,46.74260084142531],[0.590354814051004,46.74175777059331],[0.589906301838396,46.74111687959783],[0.589332473455715,46.74061298350301],[0.587710336760258,46.73955017317212],[0.588005676609929,46.738801485668475],[0.588571856053885,46.73797290752982],[0.588830423215024,46.737166693696715],[0.588881981684962,46.73538684335559],[0.588717007938554,46.735384279531104],[0.587812542794383,46.73501035473846],[0.586839256717257,46.734770100091495],[0.580048848965845,46.73358581543556],[0.574137907083056,46.73679684984596],[0.573661564361555,46.736812908579374],[0.572659069050729,46.7366403791587],[0.572557955500967,46.736762556199906],[0.572491902792457,46.73768271036489],[0.572241558974758,46.73797739410597],[0.572071356614577,46.73765219826055],[0.571648312562066,46.73750182114952],[0.571182334335915,46.737139739512905],[0.570640905896135,46.73638509816175],[0.568720923557638,46.73598592542714],[0.56838361766809,46.73649586041472],[0.568369141515463,46.736818952921276],[0.568465078859854,46.73690025801951],[0.567771465024634,46.7374080499485],[0.567270150123188,46.73760101748521],[0.56648486482659,46.73807803296096],[0.564987433664332,46.73944528065802],[0.564796347068934,46.739790751588664],[0.562649830783696,46.73903624993316],[0.562157343778933,46.73935279753687],[0.561881335703052,46.73966313005493],[0.561537764797554,46.74048550295179],[0.561239510135549,46.740036858675985],[0.560811263447263,46.73976922242874],[0.559722845910805,46.73850564488558],[0.559461122499439,46.738090201735154],[0.55896244730235,46.73659232016407],[0.558761777015546,46.73653850757077],[0.557006956906178,46.73666333286211],[0.556631260611476,46.736917481891204],[0.556431792867563,46.737186190536434],[0.556439932373524,46.73747102831708],[0.556233174778262,46.73772696977926],[0.555862416873296,46.73778393820831],[0.555468091958529,46.73813137417546],[0.553813382405342,46.738330350283306],[0.553379371355915,46.73859856097917],[0.552452711616053,46.738778797470786],[0.552217751003147,46.738468404439715],[0.552059233718895,46.73846772744365],[0.550269718167987,46.738691704815864],[0.548403139602969,46.73914192162781],[0.548109581956705,46.739287895181235],[0.548606119593515,46.740130872959064],[0.548753870215866,46.74066011739944],[0.548635995608095,46.74161609375438],[0.548333503068427,46.742336612612306],[0.548308643498667,46.74282884071599],[0.547571928983642,46.74286355563498],[0.54806925649667,46.74545868234999],[0.548775019141437,46.74622594951281],[0.548893951174066,46.74663927020729],[0.548905591407887,46.74713588026587],[0.548586571356581,46.74767047407472],[0.548565371540128,46.748951913376466],[0.548288918947907,46.74944327403554],[0.547651671628677,46.74997197209267],[0.546363783416957,46.75129572000383],[0.545059583741633,46.75222543956226],[0.543059924988161,46.75337448735654],[0.542075944667034,46.754350661529124],[0.541751459344802,46.75491665014025],[0.541503939399913,46.75656078723695],[0.541755904224212,46.75898402911697],[0.542094572701525,46.759667805625185],[0.542779100126372,46.76058779266361],[0.54317877357381,46.76151699692126],[0.54313667565768,46.762041284179645],[0.542831922239031,46.76283650998097],[0.543660629855196,46.763034400985546],[0.547599047508246,46.763546447276816],[0.548511202876427,46.764219022051655],[0.549339704086414,46.76468351349769],[0.549391618356388,46.76666825612824],[0.549221580320968,46.77048956477143],[0.54902516667555,46.770832195145005],[0.548745113151219,46.77256122314251],[0.548424722162407,46.772832744126156],[0.547724750074792,46.773872680417625],[0.546794087246536,46.776243621325065]]]]}}]}