{"type":"FeatureCollection","name":"COM_47183","crs":{"type":"name","properties":{"name":"urn:ogc:def:crs:OGC:1.3:CRS84"}},"features":[{"type":"Feature","properties":{"fid":4287,"ID":"COMMUNE_0000000009756508","NOM":"Montauriol","NOM_M":"MONTAURIOL","INSEE_COM":"47183","STATUT":"Commune simple","POPULATION":222,"INSEE_CAN":"19","INSEE_ARR":"3","INSEE_DEP":"47","INSEE_REG":"75","SIREN_EPCI":"200036523"},"geometry":{"type":"MultiPolygon","coordinates":[[[[0.567230046689955,44.59667537264408],[0.567064559579261,44.596741981439706],[0.567530506828414,44.597103506176104],[0.568264597647144,44.59741508906537],[0.568556300628178,44.59766649385486],[0.568768710768502,44.598178250554014],[0.568891358514072,44.599134768640674],[0.569466902569852,44.60034713636965],[0.570515734908317,44.60099167281536],[0.567902269644787,44.6012863410885],[0.565928261781418,44.60122305600712],[0.564279758877077,44.601533489320374],[0.562220879657351,44.60145025344248],[0.559191526644706,44.601914776508295],[0.558492289047904,44.602108286165446],[0.557496450167887,44.60251320085566],[0.55789251696491,44.60358566412061],[0.557938251310364,44.60448015437706],[0.558079485536174,44.6048579607489],[0.558447989303554,44.6049660800649],[0.559259181271111,44.60480836806064],[0.559503867724616,44.6053595876774],[0.558423146778549,44.60548162373446],[0.558514341382622,44.60582139576715],[0.558393862739387,44.60601238102418],[0.558173695482019,44.60605975562],[0.558593304025804,44.60714264481453],[0.559007781922466,44.60755801092095],[0.559191767056919,44.60790973979873],[0.559240536904607,44.608676400130136],[0.559161116541489,44.608880002320866],[0.559330278151391,44.609341287334814],[0.559789926186129,44.610170162402774],[0.560483489846566,44.61066374016957],[0.556392839000916,44.61232970138234],[0.556808224229333,44.613073847458],[0.557889229100057,44.614520828977525],[0.56057934920289,44.61538455647746],[0.561367110328306,44.615713580067684],[0.56016769050544,44.61755423467704],[0.559902645408365,44.61820048213045],[0.55994542427623,44.618581517493006],[0.559673488192882,44.61924112302957],[0.560006873487454,44.619725849179986],[0.56058520194266,44.62014572698222],[0.560852041336437,44.62050738858287],[0.562035269603306,44.62087935937628],[0.56290629260385,44.621326396285944],[0.563286325528719,44.62216250878899],[0.564163140977837,44.62256372791109],[0.565592221817001,44.62276364158674],[0.56725488367831,44.62362978325212],[0.568527290666213,44.62401265227224],[0.571996101719906,44.62429245981698],[0.573855289274462,44.62463951734298],[0.575240546023852,44.62477529460834],[0.576465053033297,44.624719286611416],[0.577193675431377,44.624815420868686],[0.578424434761431,44.62484869606284],[0.579682107721887,44.62466638253781],[0.580677952182781,44.62441347510286],[0.581726555317571,44.624900273942714],[0.581804524695693,44.62522892802566],[0.581730707234601,44.62533269311186],[0.581247377665869,44.62551576492683],[0.581190093626239,44.62561628874317],[0.581481859632883,44.6258415392832],[0.581757798631679,44.62693560331514],[0.581856017161699,44.626998097876374],[0.582105150444841,44.626953109341514],[0.582163496995565,44.62703364583339],[0.581912213015161,44.627187570305274],[0.581463293254067,44.62724439968892],[0.581029553407264,44.62797617264469],[0.580908034473172,44.62848600334156],[0.580642431259892,44.62885577642983],[0.580708942948901,44.62918688310005],[0.581083029381484,44.62946347396416],[0.581086836838606,44.62972745822557],[0.58085191953309,44.62988173891101],[0.58047130408303,44.62999229937745],[0.579795367791405,44.6296955878787],[0.57972340117888,44.63004978335907],[0.579347586443465,44.63040092848698],[0.579450982042112,44.63057792577316],[0.579826884184018,44.63066541652628],[0.580032033540164,44.63102838097795],[0.580135504420391,44.63214389497327],[0.58000405409811,44.63470617558302],[0.580068512070826,44.63502643010802],[0.584494406106243,44.63382983551516],[0.585899107877887,44.63322283353143],[0.587678485635996,44.63270235063136],[0.589260615085209,44.63245765136821],[0.590031115353221,44.632019605801716],[0.590358467892453,44.63162053348978],[0.591894273679652,44.63083527894727],[0.593391210496163,44.62971860789257],[0.594818047473064,44.63077553790249],[0.595133265887411,44.63065990312738],[0.595637198923711,44.6302007093304],[0.596429178223638,44.63058811199431],[0.596141063148128,44.62820495130925],[0.59713610161285,44.62412399233444],[0.597289427351598,44.62419577691414],[0.597735944159924,44.623691195014466],[0.598349676597911,44.623701829928784],[0.598427491354585,44.62347384786099],[0.599469653224655,44.62275252716936],[0.600361123232216,44.62177843857391],[0.600766822751479,44.62092800083531],[0.600693481535721,44.61942137969833],[0.600827424284498,44.619029791527744],[0.600946879101609,44.61877118872621],[0.60146243979026,44.61845002948476],[0.601927118288545,44.61834662790876],[0.60142891432136,44.61683709448501],[0.601291501070817,44.61662875841287],[0.600985444275937,44.616560869436945],[0.601341654228318,44.61574628568217],[0.601326525961838,44.61550908011075],[0.600468261670934,44.61395750192139],[0.600494715761116,44.61309883387203],[0.600055109690631,44.612732621328],[0.600479214648785,44.6110926987351],[0.600778037559061,44.61047051755043],[0.603025368593748,44.6080568521002],[0.602408626628203,44.60776516495839],[0.601365170511688,44.606894087797144],[0.601068734276538,44.606304918644106],[0.601096898167903,44.605405760273776],[0.600985002882652,44.60495389649044],[0.600621119374012,44.60449836239763],[0.600453266390909,44.60382101615065],[0.599900424962616,44.603362276599846],[0.599294206000472,44.60258804060318],[0.598985218915617,44.601998593203085],[0.598034553699905,44.602208502223796],[0.59715392314484,44.602194758656545],[0.596593398664103,44.602006036030474],[0.595992593261982,44.601904699822235],[0.595922809065837,44.601974334458326],[0.595358951550854,44.60204132351114],[0.593989001922791,44.60241590188304],[0.593641341274156,44.6017886686648],[0.593411074031457,44.60092171077236],[0.59289804218608,44.5999161938173],[0.592125481215597,44.5994093945315],[0.591362417427452,44.5987100530239],[0.589741853551882,44.597782145879385],[0.588938543576143,44.598320332651355],[0.588300313948843,44.59909539177912],[0.587214228612567,44.60008403546281],[0.58491106907034,44.59934740185435],[0.581579194264464,44.59870169094663],[0.580189061484419,44.59857668211183],[0.579523441314732,44.59840088077238],[0.578870265655355,44.59837576086824],[0.578481454804679,44.59733146294013],[0.574976468260545,44.59819489146903],[0.573256465014865,44.598324651029145],[0.572337770117956,44.59831797830333],[0.571327176548381,44.59819128898339],[0.570619214691069,44.59797487270639],[0.570351060043699,44.597820364013025],[0.570016380748938,44.597220357079465],[0.568738958562062,44.59661671956644],[0.567906401874204,44.596484008571736],[0.567230046689955,44.59667537264408]]]]}}]}