{"type":"FeatureCollection","name":"COM_86153","crs":{"type":"name","properties":{"name":"urn:ogc:def:crs:OGC:1.3:CRS84"}},"features":[{"type":"Feature","properties":{"fid":4093,"ID":"COMMUNE_0000000009749445","NOM":"Mazerolles","NOM_M":"MAZEROLLES","INSEE_COM":"86153","STATUT":"Commune simple","POPULATION":853,"INSEE_CAN":"10","INSEE_ARR":"2","INSEE_DEP":"86","INSEE_REG":"75","SIREN_EPCI":"200070043"},"geometry":{"type":"MultiPolygon","coordinates":[[[[0.625697903107003,46.37600282638316],[0.625933111297285,46.37682031085689],[0.627349583648298,46.37915061667044],[0.628296233335313,46.38016216590062],[0.623061312966488,46.38778088921237],[0.622879116334841,46.388706794088485],[0.622923301067871,46.391580599335796],[0.623287832278913,46.391580987248524],[0.623217496674188,46.39209031683138],[0.623410668479894,46.39231865843034],[0.62426450674513,46.39274363649418],[0.625890867673309,46.39336846425359],[0.626202716869458,46.39410195665997],[0.628137822930541,46.39373500947541],[0.628198729652491,46.39449120548346],[0.628889849079559,46.39443710483968],[0.628990337407518,46.3954815003932],[0.631548170716088,46.395437333596014],[0.631589315414665,46.39586970421762],[0.630751483602371,46.39834501513781],[0.631770380396808,46.400131871271135],[0.632694537595976,46.40107173642407],[0.63301192128482,46.4018008171107],[0.63423795874248,46.40304781999405],[0.63451554485181,46.40343374086928],[0.63461969207524,46.40388543267354],[0.635061485412449,46.404328807775116],[0.633943452393778,46.40711003146816],[0.634456885250805,46.40734318984141],[0.634940820058969,46.40771626970032],[0.63463065222213,46.40856296209395],[0.634649243583134,46.40876514160757],[0.635050553855707,46.40915182280399],[0.635781565928751,46.41073717929736],[0.637001431472626,46.412042573862905],[0.636930151998889,46.41236540961351],[0.637029815082496,46.412620616356364],[0.638107025531743,46.4138230476313],[0.638127309936707,46.41684676961458],[0.638749857144906,46.4168785686187],[0.639592348801624,46.4167941971827],[0.641781238299972,46.417021417820564],[0.642600204706527,46.41696896924888],[0.644776456916593,46.41754990990755],[0.645745049600121,46.41795456046458],[0.654051810238712,46.414977991681134],[0.655378634967686,46.41523047077947],[0.656995655618575,46.41524656092412],[0.657635978262425,46.41531916062071],[0.65906219042217,46.41568444153485],[0.662517434232284,46.41633090416963],[0.664897788719821,46.417473266754854],[0.666230691594786,46.41843921879436],[0.666921711470943,46.41866774890917],[0.667797078436108,46.418727978357595],[0.66849512625939,46.41867017074772],[0.669644505199769,46.41838374894612],[0.670278701167405,46.418051668299924],[0.672008741418645,46.4176185234499],[0.673411472798343,46.417774145106996],[0.674292794078055,46.41796957410698],[0.677678423964262,46.419096107874594],[0.678343891101387,46.418946591368716],[0.678885598086007,46.41849096778975],[0.679644961519656,46.41879828269473],[0.68012936922175,46.41877119414001],[0.680396399134576,46.418832473741766],[0.680398509726061,46.41896674328574],[0.679975020666647,46.41961395526318],[0.679286167969935,46.42009902302282],[0.678855302375219,46.420306466257465],[0.678136765584665,46.420202668370315],[0.677994673543034,46.42026644089403],[0.677899663160347,46.42054016840592],[0.677885610293553,46.421207412819754],[0.678122866589165,46.421877066725216],[0.6781171978277,46.42329669148808],[0.678076503485689,46.42376340499296],[0.677803016092089,46.42428213662397],[0.678394816529004,46.42454911443753],[0.678425903936974,46.42525781468277],[0.678984742499425,46.42731140418999],[0.678995657080235,46.42757557495848],[0.678828894404244,46.42788207657144],[0.67825279063141,46.42819466740773],[0.67833985021427,46.42838381461838],[0.678177675716468,46.428582306738235],[0.678049764204854,46.42904724611735],[0.678136671355423,46.42920936486303],[0.678148768045901,46.430058210973634],[0.678363093693451,46.43050218402356],[0.67845555736368,46.43111574080899],[0.679840477480849,46.43160693007264],[0.680593626714241,46.43172763238908],[0.681748458599381,46.432575363192285],[0.683875655613158,46.43080513074785],[0.684604129494688,46.43012535388458],[0.685559051319026,46.428928573253394],[0.686305818609333,46.427478032234205],[0.686890219033261,46.425984559736705],[0.686965530602428,46.42555998511479],[0.687560659317246,46.42479641290961],[0.688396147658388,46.42303236042007],[0.6892672667356,46.42168701661917],[0.690353743892429,46.420361338957875],[0.693710535555007,46.416908706732364],[0.698501726731628,46.412725504653736],[0.699059058752964,46.41189355161883],[0.701418800030061,46.406948623192676],[0.701885276883335,46.404931117910145],[0.702567052265791,46.399745170117484],[0.703003405913923,46.39844142396708],[0.703115852116413,46.39740861656633],[0.703109859464385,46.396684216361635],[0.702713594966921,46.39536370654195],[0.702497882606755,46.39210370605405],[0.702357663583204,46.39141353660658],[0.701833995772382,46.390306658806416],[0.701822385521707,46.390087519219314],[0.697010911980393,46.391192222469584],[0.695489693949787,46.391391220384854],[0.693771552086335,46.39107363450415],[0.6916167289267,46.39083096634636],[0.690140716111933,46.3908227114147],[0.687720542715834,46.39048270943827],[0.685773178085686,46.390045947176176],[0.679688926923762,46.389261134983876],[0.678267092394002,46.38905113524699],[0.678191266697452,46.38896671341106],[0.677800733549106,46.38948666522504],[0.677550030707007,46.38959597024629],[0.677387818738684,46.38958365928398],[0.676629718979655,46.389164639288886],[0.676442344971464,46.388856334011166],[0.675390476622594,46.387937652645704],[0.673753737701918,46.38718090071456],[0.672839568221256,46.38608753321809],[0.672130642059993,46.385585704900365],[0.671104408708236,46.384496341076115],[0.670338113187662,46.38390594626019],[0.670083678265398,46.383462031762704],[0.670014580289746,46.38303721710813],[0.669126517745349,46.382006508824404],[0.666810571178244,46.38146278623026],[0.666598568501283,46.38115395900787],[0.665135524294586,46.38096997283282],[0.66460944199471,46.381005146542535],[0.66387628552823,46.380525289098614],[0.664110182632892,46.38041296752915],[0.661993629793531,46.37977503408653],[0.660587008418898,46.38009842923951],[0.659278188025427,46.38017427569135],[0.658475329686734,46.37998573210918],[0.657271388087168,46.38007451889052],[0.65580849400751,46.37985798385941],[0.654701303681203,46.379997378604216],[0.654266764399407,46.37993168837875],[0.653847036673059,46.37976360266226],[0.653635483893677,46.37956736689635],[0.652960978342892,46.379391333762776],[0.649839945944873,46.378778441083625],[0.649501587137341,46.37877687386465],[0.64820769467658,46.37844570923464],[0.647258265884817,46.378095510578426],[0.646388809439634,46.37758119460507],[0.64579959740562,46.37736003309676],[0.645041863115455,46.377394838696915],[0.64339418970982,46.378024745598196],[0.64211070160134,46.37754418152364],[0.641179342870226,46.376686214830286],[0.640931315965533,46.3765522606882],[0.640873959545586,46.37658440644995],[0.639445875805727,46.37577650720422],[0.638532099321149,46.37550714899129],[0.63753341826056,46.374883784381815],[0.635879601690658,46.376467477737876],[0.635394969195123,46.37620698901739],[0.633472417362505,46.376540073629144],[0.630572547844203,46.377708655388275],[0.625697903107003,46.37600282638316]]]]}}]}