{"type":"FeatureCollection","name":"COM_64284","crs":{"type":"name","properties":{"name":"urn:ogc:def:crs:OGC:1.3:CRS84"}},"features":[{"type":"Feature","properties":{"fid":4110,"ID":"COMMUNE_0000000009761591","NOM":"Jurançon","NOM_M":"JURANCON","INSEE_COM":"64284","STATUT":"Commune simple","POPULATION":7063,"INSEE_CAN":"08","INSEE_ARR":"3","INSEE_DEP":"64","INSEE_REG":"75","SIREN_EPCI":"200067254"},"geometry":{"type":"MultiPolygon","coordinates":[[[[-0.378982490530138,43.285757267238985],[-0.37846916365055,43.28530512556029],[-0.380333887817241,43.28349734924489],[-0.379691503106261,43.28317710702338],[-0.380502307189525,43.2825232703576],[-0.380107664516175,43.28226640730589],[-0.380178334349944,43.28206341139085],[-0.381100537310494,43.28108194774209],[-0.380911838361952,43.28097440672159],[-0.381317327685918,43.280491716331255],[-0.379813223879249,43.27987161248219],[-0.38008819514141,43.279600998227224],[-0.380261722830632,43.27913457483772],[-0.379833801355261,43.278498795050965],[-0.380092851177073,43.2775362902945],[-0.379703958185118,43.27590527655337],[-0.379799356644675,43.275850969940635],[-0.380176991247977,43.274662363349435],[-0.380781460172157,43.27383310730757],[-0.380852825498667,43.27336898200098],[-0.381500024784601,43.272071091150465],[-0.381719500932238,43.27142225364205],[-0.381933350942348,43.27008930994563],[-0.382005212452892,43.26858344084172],[-0.381958444021411,43.26761790860167],[-0.381764150662258,43.26691000072383],[-0.381014247931519,43.26548839198151],[-0.380340312869699,43.2646055227044],[-0.380209249541253,43.264198158156994],[-0.380089640337429,43.26280903697658],[-0.379219847515277,43.26140017987395],[-0.379058484670749,43.26087491574721],[-0.379073206894617,43.259486095980805],[-0.379864299024327,43.25724014359728],[-0.379364077549794,43.25639775780263],[-0.379337149347956,43.256022250215025],[-0.380118837847394,43.2554035435052],[-0.380315897613526,43.255024625102166],[-0.382274162638744,43.255291927651136],[-0.384753466408166,43.255075574299994],[-0.389647216058923,43.254210756266836],[-0.395842063674496,43.252809594746],[-0.400389756132941,43.25195156343461],[-0.402887477077664,43.25113186154829],[-0.407849788259661,43.25026944362586],[-0.410375335674325,43.249610752309906],[-0.410519520333369,43.24954947400371],[-0.411622088766139,43.2481361689483],[-0.413190683305301,43.24848004747607],[-0.414073852585955,43.24854305798744],[-0.417484290097359,43.2493094100426],[-0.418212423308296,43.249312468180854],[-0.420564986759376,43.24902096195225],[-0.421453066074201,43.2492287175616],[-0.422049594174353,43.249255729024604],[-0.422626318474305,43.2494679422168],[-0.423166882763701,43.2495066260291],[-0.423619176971175,43.24928249538662],[-0.425071697574896,43.249329159879295],[-0.426544398790369,43.24903121994158],[-0.426657653889302,43.24917528707819],[-0.430259999577319,43.24835948621487],[-0.430794252541806,43.24802287395435],[-0.431725485214844,43.247941052619545],[-0.432320230201938,43.2475034677167],[-0.43288883543654,43.24726839574201],[-0.43523325501353,43.247400903943735],[-0.436324822639512,43.24730223516945],[-0.437772493304747,43.2473506826972],[-0.438087792946004,43.247288419071744],[-0.439623893944371,43.248551344129694],[-0.441371022345659,43.24940685218518],[-0.442927611272949,43.25063937057783],[-0.444155030692289,43.251144053188796],[-0.445026444657157,43.25135935386627],[-0.442701887958937,43.25333782910686],[-0.441403156751066,43.254198589469446],[-0.4411388591424,43.254476230175996],[-0.44071907676481,43.256814415434015],[-0.440488241558052,43.25748806057162],[-0.440233151100397,43.25796169101628],[-0.439365470826147,43.258987868143635],[-0.439239403776675,43.259332231842414],[-0.437486405971759,43.2604910351797],[-0.437330379648719,43.26078772922741],[-0.436927517599115,43.26115980969808],[-0.436507577793543,43.2613487522284],[-0.435684552528882,43.26198901027736],[-0.435358882076862,43.26245767159444],[-0.435405563148864,43.26253812206747],[-0.430702965909517,43.267778450322666],[-0.428070992125375,43.27144469981613],[-0.428370330049911,43.27156755549182],[-0.427909536363592,43.271817185837946],[-0.427239462870109,43.27256777262406],[-0.426722676559191,43.27343054288223],[-0.426313672759543,43.27507053471724],[-0.426427784508021,43.27854605067403],[-0.426154847976583,43.27888875697925],[-0.42436883097028,43.2797548554577],[-0.423586106232744,43.28249167093984],[-0.423613652795264,43.28330836144616],[-0.422753465837811,43.28629884314976],[-0.419932216174947,43.28947748047384],[-0.417048373366495,43.29073205917043],[-0.41615346074933,43.292000216899034],[-0.414870619501606,43.29329593696713],[-0.413824547342415,43.29457335504106],[-0.41310508334912,43.29599621515063],[-0.411249740383338,43.29409913734005],[-0.410550232179053,43.293693531496494],[-0.408901828535487,43.29310447233333],[-0.407356353531313,43.29283808757607],[-0.405509333678379,43.293100717182035],[-0.403906310397792,43.29352940409142],[-0.402630939562213,43.29401707814686],[-0.400154483820752,43.294706416584695],[-0.399449322879036,43.294788933870514],[-0.398797954793931,43.294717587190014],[-0.394432433899413,43.292551629607296],[-0.393168143582404,43.29228611368418],[-0.391601835551444,43.29258560690965],[-0.389832367097366,43.293077832781925],[-0.388402874931599,43.29386009696939],[-0.387720553718498,43.294079580909354],[-0.386992306119668,43.29418885183215],[-0.385543587221102,43.2943720198409],[-0.385218278772667,43.28979833813163],[-0.385135821515227,43.289632549770424],[-0.384537646492076,43.28922721061649],[-0.385722648902298,43.288081702557974],[-0.384643483420312,43.28758699443642],[-0.382635688517405,43.287019615953454],[-0.381567834670913,43.28654883509456],[-0.380672345391842,43.28716751466004],[-0.380515190630203,43.28711480833515],[-0.379046090266052,43.28581200175415],[-0.378982490530138,43.285757267238985]]]]}}]}