{"type":"FeatureCollection","name":"COM_64272","crs":{"type":"name","properties":{"name":"urn:ogc:def:crs:OGC:1.3:CRS84"}},"features":[{"type":"Feature","properties":{"fid":4154,"ID":"COMMUNE_0000000009760837","NOM":"Ilharre","NOM_M":"ILHARRE","INSEE_COM":"64272","STATUT":"Commune simple","POPULATION":150,"INSEE_CAN":"22","INSEE_ARR":"1","INSEE_DEP":"64","INSEE_REG":"75","SIREN_EPCI":"200067106"},"geometry":{"type":"MultiPolygon","coordinates":[[[[-1.017598847629954,43.422978090441624],[-1.016136885257422,43.420006510610506],[-1.014409963048368,43.41695467029214],[-1.013380344414002,43.4153930191097],[-1.013325039072027,43.415114017837936],[-1.013116713584422,43.41483798843183],[-1.01300961125114,43.41406456300711],[-1.010296642168844,43.40914674782086],[-1.011030087398984,43.409157398772315],[-1.011259126284419,43.40909305939546],[-1.012525183779338,43.408272332614935],[-1.01266473000644,43.40798790928448],[-1.01289791719221,43.40784143936307],[-1.012408511501134,43.40730829586669],[-1.012390335013939,43.406994589864375],[-1.012854271225563,43.40636574189275],[-1.012645039487246,43.40607623621518],[-1.011895654549857,43.406049073412845],[-1.011220545407445,43.4058822304525],[-1.010881056341237,43.40526605581995],[-1.0104662282779,43.405093163949076],[-1.010477823318652,43.40494049906624],[-1.011132537983959,43.40458473729145],[-1.011207792937313,43.4044414228875],[-1.011085717390351,43.40378926535301],[-1.010842773851727,43.40342353838898],[-1.011192158768768,43.403012434100845],[-1.011295587817456,43.40261765327844],[-1.010544836998598,43.402109507445815],[-1.010439514590397,43.40192784685706],[-1.010459695781784,43.401632538083554],[-1.010656754683042,43.40132256609632],[-1.011026281265905,43.40102331563282],[-1.010990488433782,43.400598565428616],[-1.010809020678009,43.40042333133371],[-1.010497481875667,43.400296156480806],[-1.010166592314697,43.399838205019265],[-1.009714898706587,43.39977387352281],[-1.009528446019818,43.39959792157029],[-1.008881597050254,43.39933904035348],[-1.008531167522408,43.39907908287619],[-1.008027548646216,43.398907672299075],[-1.008102325626022,43.398385144124084],[-1.008592570665814,43.39822285499972],[-1.008731560581096,43.39810780855828],[-1.008542549500408,43.397895017684654],[-1.008802964154457,43.397661071596666],[-1.009140492494242,43.39713331107646],[-1.009158889730529,43.39667052233116],[-1.00943880632352,43.39630884012405],[-1.009339385917679,43.396158488811814],[-1.009849474434283,43.3958026883453],[-1.010402944917188,43.395785777137476],[-1.011516713623515,43.39584987959433],[-1.012766335294761,43.39612602365458],[-1.012948082483185,43.39607514367751],[-1.013520881831054,43.395113466419886],[-1.014257319489792,43.395045608606736],[-1.014515828348735,43.39418296379391],[-1.014854368704008,43.39363532910534],[-1.016822300363247,43.39461080751359],[-1.018395449838986,43.39515051805474],[-1.018170309703644,43.39551739741498],[-1.018126908548051,43.395833387747814],[-1.018919911070617,43.39567331771419],[-1.019324942367586,43.395211475480345],[-1.019635996577519,43.39506660105171],[-1.020008951647313,43.395100486143086],[-1.021450368756114,43.39550452400664],[-1.021589747646665,43.39408779079869],[-1.022106917334201,43.39402893007082],[-1.024329215494818,43.39217531660905],[-1.02540404431292,43.39187770029542],[-1.02510788221627,43.391634694360874],[-1.025145031326863,43.39154773625558],[-1.025749586161122,43.39166126180641],[-1.026541101146868,43.39146335529378],[-1.02895906477862,43.39016716009427],[-1.029141405777263,43.39046033564393],[-1.029607586914148,43.39060871940758],[-1.030618957758665,43.39079894536697],[-1.031040685806951,43.3907535054036],[-1.031508526639573,43.390608157897525],[-1.033769955751414,43.38912491230513],[-1.03453413706238,43.38881986829783],[-1.035512819147845,43.38872030737313],[-1.036574697447119,43.38883833005346],[-1.037087948570656,43.38879485556532],[-1.038236206203413,43.38857724151914],[-1.038693029229789,43.38834579589346],[-1.039393053028627,43.388306146771825],[-1.039618029758611,43.38793922528096],[-1.039581329696786,43.38731093314829],[-1.039087345612623,43.3872239847443],[-1.038825056334076,43.385827623323046],[-1.038761583446153,43.38414909548933],[-1.03832128417862,43.38266209682768],[-1.03841154883719,43.382452443454426],[-1.038759196619218,43.3822322792167],[-1.04096634900379,43.38156612523934],[-1.041824431863631,43.381509742727516],[-1.043288607030622,43.38157212480079],[-1.04539953299802,43.3819625148894],[-1.046901844580483,43.38195225875281],[-1.04821155116322,43.38187262188561],[-1.048838115273123,43.38175548623594],[-1.049452202065394,43.381654127712835],[-1.049883560584163,43.381834353597874],[-1.050250472614592,43.38220435905074],[-1.050533652824724,43.38289368270912],[-1.051413621866408,43.38400745659938],[-1.052037544195122,43.385010108678955],[-1.053239735855475,43.38619107259399],[-1.055546722394895,43.387799936248584],[-1.056464734890227,43.3885573320644],[-1.056639144199489,43.38878860713792],[-1.056634747688272,43.3890941485483],[-1.056115650674746,43.390824263188236],[-1.056115510939254,43.39110262082368],[-1.05636826779651,43.39167417085341],[-1.058105961649627,43.39303589789497],[-1.058367641892451,43.39340082267611],[-1.058127091662036,43.393755760995106],[-1.056732206161394,43.39480348057974],[-1.05501740327405,43.39527403647726],[-1.054690454425851,43.39543762792347],[-1.054152703600912,43.39590548728667],[-1.053757852177742,43.39649050106641],[-1.053515456560685,43.39729320480056],[-1.053070958169059,43.397892687592595],[-1.052882538402136,43.3989356888152],[-1.052598730034977,43.39918593777338],[-1.051621147982843,43.39975943846209],[-1.051669878195562,43.400188205757395],[-1.052303179297466,43.401233763415675],[-1.052492951997098,43.401893264010376],[-1.052354395079892,43.404573897292266],[-1.052467756271131,43.40532364155867],[-1.051800663957336,43.40581615055718],[-1.051179166513589,43.40574573481546],[-1.050485792829099,43.40653198697326],[-1.048992534467455,43.40699594522807],[-1.049139127971284,43.40716521968089],[-1.048330606182001,43.40747472605211],[-1.046901795248895,43.407748872034325],[-1.04616397107194,43.4080449077772],[-1.044777508695257,43.408376895723016],[-1.043386371016817,43.40904684812554],[-1.043449605024609,43.41049120558572],[-1.043264394413394,43.411266527457165],[-1.042247714348802,43.412254876008944],[-1.040925739787657,43.41459684115435],[-1.040510569771778,43.41505464662118],[-1.040097803621117,43.41510698996262],[-1.038455364239351,43.41675914444486],[-1.036654416286356,43.41789740920982],[-1.035043051727154,43.41872679880956],[-1.03327014284355,43.41910366456758],[-1.032450076742358,43.41904053560557],[-1.031992586214795,43.419090009067254],[-1.031063306412642,43.41935523375514],[-1.030399307785065,43.41963219170719],[-1.030194209846802,43.419562358341125],[-1.029985061124877,43.41962869936692],[-1.029615738456406,43.419578491875356],[-1.029449468585475,43.4196747641407],[-1.029407983314644,43.41996457117457],[-1.02923178806885,43.42006031176459],[-1.027546697898666,43.42052749732193],[-1.025968628072973,43.420723131806525],[-1.0249584439217,43.42073367758461],[-1.024444369719289,43.42084017256332],[-1.022748479484562,43.42152478010231],[-1.022441346673237,43.42179833251373],[-1.022118273030448,43.421861685005496],[-1.02067020258966,43.422432554445315],[-1.01945440154803,43.422755161458255],[-1.018023948854094,43.42287132853322],[-1.017598847629954,43.422978090441624]]]]}}]}