{"type":"FeatureCollection","name":"COM_17319","crs":{"type":"name","properties":{"name":"urn:ogc:def:crs:OGC:1.3:CRS84"}},"features":[{"type":"Feature","properties":{"fid":3961,"ID":"COMMUNE_0000000009754154","NOM":"Sainte-Colombe","NOM_M":"SAINTE-COLOMBE","INSEE_COM":"17319","STATUT":"Commune simple","POPULATION":110,"INSEE_CAN":"27","INSEE_ARR":"1","INSEE_DEP":"17","INSEE_REG":"75","SIREN_EPCI":"200041523"},"geometry":{"type":"MultiPolygon","coordinates":[[[[-0.286046227897438,45.27573946684354],[-0.286539910100828,45.27653514360276],[-0.287004096007097,45.276873869023476],[-0.287112718822126,45.277200519295704],[-0.287409562163424,45.27747206719642],[-0.287388800281095,45.27761777343074],[-0.287852257115579,45.27794390024794],[-0.287878216386689,45.278621751858786],[-0.288304358299862,45.27892103708273],[-0.286246729616421,45.28108678699244],[-0.285674965431972,45.28249597148519],[-0.284889119733119,45.28311116467289],[-0.284164685331293,45.28383719959201],[-0.284262287797787,45.28527627581168],[-0.284917423928705,45.28577792954846],[-0.284241092814377,45.28612944783976],[-0.283915877132075,45.28773775688874],[-0.284403037209785,45.28794514504068],[-0.284887685673208,45.28847794386198],[-0.284557786930957,45.288685903956605],[-0.284772986240939,45.289239236386976],[-0.284662557289528,45.29044109795325],[-0.28351716722078,45.29160847181966],[-0.283518255450455,45.29193017385885],[-0.283874495066712,45.292710077585916],[-0.283968732268681,45.29381039828769],[-0.283848072876244,45.29509907658166],[-0.282856389216898,45.295084938983656],[-0.280978694852356,45.29520313836952],[-0.279624868681102,45.295392457987276],[-0.279075760389149,45.295348181429965],[-0.278204549939351,45.295515218200975],[-0.278019688764335,45.29541159107318],[-0.277252743857804,45.29524571943066],[-0.277131342724275,45.29465808180536],[-0.275473182222697,45.29373245886363],[-0.27554200391045,45.293534879648625],[-0.274655223549414,45.29293721659898],[-0.273338457535263,45.292691893099295],[-0.273077513964218,45.2925751652256],[-0.271919198993659,45.29191874099836],[-0.271850104420326,45.29174232336682],[-0.27160645077081,45.29155028590405],[-0.271059262387732,45.29145094135449],[-0.270495946944228,45.29096815072793],[-0.269438644786055,45.29048718731697],[-0.26749639280436,45.29017717568647],[-0.267630512592138,45.28996057082407],[-0.266086011088886,45.28974885706286],[-0.264212517360335,45.28932593272827],[-0.264068224468866,45.28921659353612],[-0.264011658665727,45.28899204227942],[-0.263422636272828,45.28883169970079],[-0.262441400967276,45.288753995217895],[-0.261794803514206,45.288853068962894],[-0.261369698169107,45.28874470925705],[-0.259752454915892,45.2877906373952],[-0.258605438085454,45.287541097790104],[-0.257814503394462,45.2845388117271],[-0.257340730847621,45.28388122182253],[-0.25719747388356,45.28396380049718],[-0.256757907607463,45.28349806901719],[-0.257744078367439,45.28213375343018],[-0.258706075029025,45.28120811702391],[-0.260390476610662,45.28006313889269],[-0.261372698090468,45.27909182754192],[-0.262566553495506,45.277702479929935],[-0.263278731558133,45.27645875751154],[-0.263249829273951,45.27579090843182],[-0.264077087514838,45.27413737760415],[-0.264824460038804,45.27347389237669],[-0.26631902800012,45.27273269349906],[-0.266771383183618,45.272371608039485],[-0.267081052768036,45.27194980485958],[-0.268193696763756,45.271182793319866],[-0.268410164838675,45.27080426561745],[-0.268517895356113,45.27000805489012],[-0.269436755087086,45.27007220060874],[-0.271405958571336,45.270439946660126],[-0.272430415064681,45.27051990247938],[-0.272583570508072,45.27071548589042],[-0.273705155385793,45.27090613827979],[-0.274526087298092,45.27119300587102],[-0.276910954698865,45.27148719600952],[-0.277022826352346,45.27141452282809],[-0.277380720322788,45.27155362930185],[-0.277780255218394,45.27159778770098],[-0.278142511717525,45.2717025179261],[-0.278075888277404,45.271980242138525],[-0.278318386334788,45.272045226240856],[-0.280386801868417,45.27227472632783],[-0.280285608062895,45.27194334718971],[-0.280595355383896,45.27174139669811],[-0.2807152586186,45.271523389008486],[-0.280419024004029,45.27039385527249],[-0.280645498886126,45.2703601713296],[-0.280871272471624,45.27081316127555],[-0.281403810380396,45.2711219630924],[-0.281555959957352,45.27112650798395],[-0.281941905711444,45.271633371930186],[-0.282033038448658,45.27181544416356],[-0.281991399162585,45.27197528012141],[-0.282700576639386,45.27233566558305],[-0.282808675119541,45.27224236937809],[-0.282963054058483,45.27228469787159],[-0.283051324867177,45.2724614462198],[-0.283675403424011,45.272936977126115],[-0.283815601658365,45.27308516300916],[-0.283737072295513,45.273203726634854],[-0.283899505386785,45.27349094714558],[-0.283802061490742,45.27378670421896],[-0.283922677306967,45.27386246716516],[-0.283843194400745,45.27394320794094],[-0.283900618461788,45.274202872480416],[-0.284381868150672,45.27448523103136],[-0.284801160441255,45.274842406803984],[-0.284850420785521,45.2749851532402],[-0.285524768741056,45.275446580991364],[-0.285863173055089,45.27555739585606],[-0.286046227897438,45.27573946684354]]]]}}]}