{"type":"FeatureCollection","name":"COM_19082","crs":{"type":"name","properties":{"name":"urn:ogc:def:crs:OGC:1.3:CRS84"}},"features":[{"type":"Feature","properties":{"fid":4152,"ID":"COMMUNE_0000000009754091","NOM":"Favars","NOM_M":"FAVARS","INSEE_COM":"19082","STATUT":"Commune simple","POPULATION":1121,"INSEE_CAN":"11","INSEE_ARR":"2","INSEE_DEP":"19","INSEE_REG":"75","SIREN_EPCI":"241927201"},"geometry":{"type":"MultiPolygon","coordinates":[[[[1.664595486063121,45.239182132947654],[1.660800725486135,45.241202600643625],[1.660152441447939,45.24218814502795],[1.659572492638862,45.24276925481876],[1.658418774370159,45.243302050204335],[1.658032845433006,45.243659441219634],[1.657858777855866,45.244165265780616],[1.658296299341568,45.244736970013996],[1.657009014275569,45.24552030460502],[1.656203465561234,45.245197227833614],[1.65555922858173,45.24516336395227],[1.655239533645991,45.24520454582027],[1.654876242126525,45.24546764015564],[1.654378455338051,45.24544003473297],[1.653820087973208,45.24565124617963],[1.653416044125569,45.245648180070525],[1.652582870515379,45.246997083185406],[1.65314062788318,45.24707585047088],[1.65334540734526,45.247517791009216],[1.653304700003524,45.24772532982821],[1.6531053671841,45.247955272372714],[1.652603030829411,45.24800955540962],[1.651768177107508,45.2484236520343],[1.652149913415396,45.24887583433806],[1.652798162371363,45.24879809632072],[1.652607091827678,45.25037447515525],[1.652801960718595,45.2506992245849],[1.652721554769233,45.25096662245237],[1.652813986379141,45.25141531503561],[1.652098861116413,45.25214875586626],[1.652698383565075,45.252770165973956],[1.653177284349548,45.25268498051251],[1.653101971508671,45.25242471160688],[1.653290512268216,45.25237835299202],[1.653782904435408,45.25279043691871],[1.653277677545625,45.25338502515506],[1.652101245050715,45.25347441019057],[1.652552505841451,45.254005778254054],[1.652517691806104,45.25523552506959],[1.652416099958762,45.255535087889484],[1.653132540735146,45.25548788744431],[1.65268086299931,45.25634518221509],[1.65035648816082,45.25634235950366],[1.649653995304491,45.25686610812705],[1.64956460305272,45.25760889263501],[1.650026716675831,45.25763968975138],[1.65125705917047,45.259384520145495],[1.650977791197453,45.25964861757802],[1.649975226528848,45.259292500344024],[1.649273922525612,45.258765305195766],[1.648245735080928,45.25904646099018],[1.647941775243181,45.25959212859227],[1.647382690234784,45.25993118177755],[1.647226602039908,45.26011030634213],[1.645878790756639,45.25942667174868],[1.64557575257361,45.25820093646197],[1.64525696592148,45.25825380920897],[1.644999990317807,45.258386679830934],[1.64506082962949,45.258611657482255],[1.643032267452094,45.25792423790798],[1.642146998687147,45.2573101110104],[1.64200797318533,45.25778301932804],[1.641554337951073,45.25845112962956],[1.640536718962571,45.25897729680299],[1.63996568663295,45.259490877544124],[1.640071636321181,45.26000909043243],[1.640490587564443,45.26039872697615],[1.640874191484219,45.26051235946321],[1.641097443672254,45.26076993308142],[1.64113998843545,45.26111716753488],[1.64160668820268,45.26137949998577],[1.641549238861514,45.26190563219052],[1.64189063651038,45.26286257726586],[1.641748560778218,45.2637217912481],[1.641849849320081,45.26417060246823],[1.641968152072344,45.264235079045235],[1.643219970927239,45.264044948555956],[1.644774089085516,45.26416646189847],[1.645353139364664,45.26432027130152],[1.645952476294657,45.26426899473276],[1.646403875618984,45.2644806898406],[1.64670107626011,45.264793181069614],[1.647072322473566,45.2654703954158],[1.647008029362716,45.26607029373992],[1.647775350583021,45.267559203566215],[1.647152653467752,45.26773088335085],[1.647307273349262,45.268296507465365],[1.64723483896293,45.26870628862205],[1.646876123244618,45.26924588928525],[1.646162536463874,45.26964070463372],[1.645703155484098,45.269388386723655],[1.645875659027527,45.2699524286004],[1.646504526953533,45.27063096366069],[1.648779951267017,45.27199402125057],[1.649599974572658,45.27262891937912],[1.650107351174147,45.27290251330772],[1.650321018131564,45.27313833876334],[1.650309422388664,45.27340656714745],[1.650585418906843,45.27364944833664],[1.650775231953322,45.27355357715947],[1.651726584944481,45.27387574673042],[1.652426144587892,45.27422008986643],[1.653039376590038,45.27412571435529],[1.655178202036019,45.27354988006094],[1.655719752334502,45.27330693543792],[1.657150650539825,45.27336645442718],[1.658783297158018,45.2714021080505],[1.659711697229526,45.26970847496325],[1.660589887186868,45.269943238073495],[1.66111258199765,45.26936773491311],[1.668618986789567,45.272533682132085],[1.668045078426933,45.27311941689442],[1.668881817546191,45.27418573898441],[1.668563733849606,45.27543463342793],[1.668620786515771,45.27592972112347],[1.67033276105906,45.27661470459928],[1.671161542916737,45.27657412444847],[1.67154500448222,45.27648682311656],[1.671670599030014,45.2766224986729],[1.671897062887121,45.27771756944704],[1.672916344119655,45.27814122628539],[1.67282898653117,45.278488706884424],[1.671620344430463,45.278677883792966],[1.671585704089338,45.27932857851565],[1.670491922319859,45.27940743811987],[1.670351101266879,45.280070378819204],[1.670498804740731,45.28029547424464],[1.67021669874198,45.28089189476846],[1.670219493471901,45.281362922162685],[1.669764204600196,45.28183930876914],[1.6697439821507,45.282205597258915],[1.669930908476318,45.28249780165179],[1.670712260455219,45.28321943624312],[1.671197115842509,45.283857392897986],[1.670804680121637,45.28437235448648],[1.669790410814942,45.2849105400702],[1.671671674580352,45.28573079737872],[1.672472055795942,45.2862455158416],[1.673321572409891,45.2871084285465],[1.674623183605293,45.28650427261417],[1.674975427760484,45.28623017225434],[1.675748728107391,45.28514784920136],[1.676942397798818,45.28468107579353],[1.67727638281991,45.28474536376306],[1.678028386476771,45.285203634963764],[1.678402680614582,45.285235975734686],[1.678746178935878,45.28500678861475],[1.678977541922543,45.28509507484536],[1.680070696494768,45.28477747486481],[1.680313613116909,45.28502439343276],[1.68086745317257,45.284747250162624],[1.681236966020127,45.28514335172449],[1.682183673585511,45.28492216551932],[1.682779274465562,45.28449691244055],[1.68343204684872,45.28381116681606],[1.684052133355821,45.28413095888382],[1.684849796186309,45.28281831907339],[1.686082999762721,45.28407828782202],[1.687062042984646,45.28426989704991],[1.687699582996095,45.28422874906609],[1.689367213263127,45.283293710553025],[1.689551605563103,45.28396948950008],[1.690311841336886,45.28424405936344],[1.690820984097762,45.2842923464932],[1.691335807010909,45.28388141268974],[1.691216455730455,45.28320549751742],[1.690900298462719,45.28297935935058],[1.690330124889427,45.28276015216303],[1.68944466571191,45.28216981987567],[1.689445507240914,45.28207977384032],[1.691967019346349,45.28258748931229],[1.69264331216295,45.28203524949125],[1.691765557494727,45.28176832635346],[1.692276009430261,45.28132491755135],[1.692527900221467,45.281625947399],[1.692828043419839,45.28166457763013],[1.692982617581075,45.281328674856695],[1.692726984005046,45.281295968650376],[1.692678419676854,45.28048399809527],[1.693344194180348,45.280270241448285],[1.695027336516199,45.27997109657903],[1.694762181746225,45.27958256364518],[1.695422202619251,45.27917780957965],[1.694901668120846,45.27869173912369],[1.69577906371678,45.278318337556115],[1.695490441281978,45.2778971126998],[1.695870754743107,45.27783400659876],[1.696336259222938,45.27761879768112],[1.696859854165219,45.27753754620416],[1.6973069106567,45.27734733394635],[1.697736908433129,45.277286601438064],[1.698900125808119,45.276797630577036],[1.697999624563108,45.275104010299955],[1.698599644070142,45.273824100388396],[1.697579476872049,45.272942286110535],[1.695805411198723,45.27212191527093],[1.694918988132874,45.27157754338169],[1.692829130097517,45.27057602878032],[1.691880066040574,45.26998587221401],[1.691299243800102,45.26973682607945],[1.692772480351357,45.269510909104454],[1.692511028760577,45.268586583333274],[1.693439524494044,45.268148960057324],[1.694038884698542,45.26776962379416],[1.695629448016031,45.26655983303331],[1.69411726931253,45.26632875011065],[1.69334040175237,45.266011683980246],[1.692175879324994,45.26493271147916],[1.690586453795853,45.26430082990709],[1.689396733678008,45.263646594936596],[1.689136635677772,45.26337337896043],[1.688926711310666,45.2629188385057],[1.687585748040259,45.262082699014044],[1.686849646427577,45.261392334823874],[1.686681109490507,45.26080589446035],[1.686861176954676,45.25998220016311],[1.686249852780402,45.25940946910517],[1.685708646611985,45.258621425663804],[1.685255596745489,45.25750211142551],[1.684698786248406,45.25667425506319],[1.683814629819819,45.255994736052074],[1.681450322597602,45.25520140156014],[1.681457652928493,45.25472959689007],[1.680954242487974,45.253642090686995],[1.681166800232974,45.25220190910989],[1.680189202589901,45.25121957221092],[1.679859227942945,45.25045560706173],[1.679804901084527,45.2494652554898],[1.680013177228976,45.2489607029161],[1.679731995609996,45.248667403336796],[1.678801559082073,45.24833491107604],[1.678203392339379,45.24786135146418],[1.676598906821697,45.246333035301184],[1.675795528223685,45.24500060478151],[1.673840745282683,45.24453975768036],[1.672937155328449,45.243458272307365],[1.671726555257792,45.243065658026595],[1.671489480000207,45.242101047223784],[1.671144380637869,45.241818672914334],[1.67043360291363,45.24163641216294],[1.669732711454826,45.24168120446956],[1.669034175772857,45.24141352769435],[1.66831888398514,45.24131405072024],[1.667692703108561,45.24132639984135],[1.667066970088291,45.24105327461032],[1.666377246665045,45.24105765399822],[1.666196414254429,45.240996959829005],[1.665543676279358,45.240467745757186],[1.664595486063121,45.239182132947654]]]]}}]}