{"type":"FeatureCollection","name":"COM_86197","crs":{"type":"name","properties":{"name":"urn:ogc:def:crs:OGC:1.3:CRS84"}},"features":[{"type":"Feature","properties":{"fid":4107,"ID":"COMMUNE_0000000009747105","NOM":"Pouant","NOM_M":"POUANT","INSEE_COM":"86197","STATUT":"Commune simple","POPULATION":412,"INSEE_CAN":"08","INSEE_ARR":"1","INSEE_DEP":"86","INSEE_REG":"75","SIREN_EPCI":"248600447"},"geometry":{"type":"MultiPolygon","coordinates":[[[[0.30811425854547,46.999959486514975],[0.308052427015995,46.99993191884369],[0.309823322700217,46.9992219052929],[0.310217471385188,46.99897525024723],[0.312041433539202,46.99844120817784],[0.312974855880016,46.99807377952694],[0.311596176327856,46.996249846536074],[0.309761126545873,46.996082750337465],[0.30637995132855,46.99507776572972],[0.305004073620678,46.99491861023103],[0.304700990823206,46.994237682115475],[0.304131354414514,46.99193346908554],[0.304050491654892,46.99067847368856],[0.301225812855812,46.99040162013662],[0.298081322013716,46.990307289631424],[0.296508248321015,46.99014521181408],[0.293969917538449,46.99025055301739],[0.292994111587551,46.990150182787445],[0.291569356862556,46.99044375542584],[0.291346648788696,46.99036915900499],[0.290003104858138,46.99009346638347],[0.289047722104644,46.99003227988113],[0.286838896853156,46.98952720836886],[0.286486634728771,46.9896468464264],[0.285655885201188,46.990354306512],[0.285310200397376,46.99055247196723],[0.283846458635788,46.98926399732679],[0.283063067512607,46.988977087242034],[0.282437591256054,46.989529003995514],[0.28094422468192,46.99053072039113],[0.280513749204659,46.9912881189891],[0.279860288568744,46.99189791982417],[0.279878796200828,46.99210555771779],[0.281169303179966,46.993591795209156],[0.281210584995714,46.993870237633885],[0.280534491192817,46.99492904552498],[0.278953238044647,46.99626018907633],[0.27866109938173,46.9970406630885],[0.276580136429611,46.99710326604993],[0.274982716306608,46.99687275783232],[0.2685809823128,46.99666010789554],[0.266909522178703,46.99635836602569],[0.264462500807649,46.99608325591831],[0.262799109126284,46.995778942170716],[0.26057514940759,46.99554597698721],[0.259816403855205,46.99529282680928],[0.259167677105967,46.99531074859805],[0.255758826172645,46.994972056292966],[0.255286611670956,46.99496262399787],[0.252877494970655,46.995445811995694],[0.25169037244654,46.99556438147581],[0.248851039699458,46.994488611610635],[0.248069611535849,46.99429430011362],[0.246117401960104,46.9940017707162],[0.245718081357566,46.99375079911855],[0.245205966343183,46.99323317194742],[0.244345298864489,46.99268289240894],[0.243646651045297,46.99336979599145],[0.242997192308297,46.99453714465199],[0.242379465091787,46.99534038802496],[0.241304079252716,46.99729213055031],[0.240682512421031,46.99981867529132],[0.240613906851179,47.0006458524778],[0.240090645363234,47.000732434283385],[0.235643142589785,47.00231152430565],[0.235920143336518,47.002637075918024],[0.23642798236474,47.0039330091506],[0.237357702445022,47.0057867814138],[0.238504946343804,47.0075088145988],[0.24151294852556,47.01312931923812],[0.241710276309695,47.013675467711636],[0.241724090283539,47.01451362062842],[0.243088204806873,47.01405883808165],[0.244317210820446,47.01496024704428],[0.246386115106596,47.01742129218191],[0.247356676025889,47.01709039861191],[0.247841160410234,47.01675961813509],[0.251122852969464,47.01990622612421],[0.253673010366656,47.02278307927794],[0.254260476778548,47.0231213715509],[0.256168606776621,47.02482075563911],[0.25622656613381,47.02500230852882],[0.255303307234893,47.0250749503836],[0.255689250801217,47.025749874121665],[0.252399049219596,47.027235524868146],[0.252956064564083,47.02747400111302],[0.254707355623812,47.02904715280024],[0.25592483007703,47.02971932469489],[0.261847970927829,47.03113200308942],[0.26191056696244,47.03122267408306],[0.261020000303123,47.03220692060201],[0.258868232666111,47.03327292973043],[0.260250119975713,47.03481018819192],[0.262978574371732,47.03731265914573],[0.263198158438978,47.03742596882742],[0.261310191399272,47.03775686258515],[0.256736427615738,47.03801403222],[0.255883570073012,47.037967639573715],[0.255021744368682,47.038304798947976],[0.254690334999941,47.03831763924537],[0.254465397464033,47.03823211282504],[0.254085420183922,47.03906989646048],[0.253788964564745,47.04026010475035],[0.25353389680767,47.04074050864615],[0.253259812620992,47.04218979774531],[0.252447072064281,47.04373527521958],[0.252034750442717,47.04569837174037],[0.252419742509949,47.04621292158776],[0.25415836127198,47.04750288307219],[0.256221128275505,47.04946986331554],[0.260596146085216,47.04777289654597],[0.263951647502545,47.04629304966399],[0.265836670262619,47.045583673701366],[0.266911167907772,47.04497760413067],[0.267130917606045,47.044698131717524],[0.267564494221761,47.043527357856895],[0.268168154862943,47.042432675813274],[0.269441878246008,47.04340871250615],[0.27137795529629,47.045334583152076],[0.271559939035606,47.04561905185791],[0.271650070454895,47.04649501885677],[0.273306477772914,47.04649991062249],[0.278719223845515,47.0459258241427],[0.279509267560397,47.04593993553507],[0.284505349521192,47.04782861883454],[0.286196595718928,47.04800620770583],[0.287925111212103,47.04964493441337],[0.288761475047456,47.0501546385861],[0.291039374074526,47.05114498360179],[0.29250742843978,47.052646900719814],[0.292688912839497,47.053101581728484],[0.295502624496897,47.05169010932369],[0.297392178472218,47.05338470332538],[0.298332251383879,47.05403729361795],[0.298829830423962,47.05370841089249],[0.299362030960188,47.053583027007456],[0.300745759136144,47.05356222568782],[0.301276637222051,47.053436802206555],[0.302411940965097,47.05300659535085],[0.303804217959431,47.05276164615289],[0.305344161154632,47.05270029560194],[0.305754369212328,47.05126940996743],[0.307102004794439,47.04864333978312],[0.308943063318932,47.04571345749779],[0.309058052799751,47.04486123165159],[0.30933337751109,47.04420282090329],[0.307230645503323,47.0413656726934],[0.307491703478574,47.04125735254893],[0.305733177059008,47.038366036992855],[0.306606994508449,47.035194704728184],[0.307612382022731,47.033820932884495],[0.308464461598803,47.03219133983612],[0.30957632630321,47.03063535954246],[0.309873851042487,47.02974144007977],[0.309937965029054,47.02803221347259],[0.310295900000186,47.027273927624236],[0.310387430851684,47.02660041995518],[0.310287822394017,47.02574408931394],[0.309698663152851,47.02564387744729],[0.307886141306709,47.02484670250464],[0.307899217470639,47.0245317080613],[0.306451357078571,47.02421596282905],[0.306150493300559,47.02282702775982],[0.305663085028766,47.02287961208481],[0.305198047418103,47.02166611139372],[0.303340877628807,47.02218847504978],[0.302261807903446,47.0226136884793],[0.302124308801868,47.02236003606766],[0.301614103695237,47.02194632652176],[0.300966895411165,47.02166453971326],[0.300004671159824,47.0210177392132],[0.29860242838609,47.01966156438166],[0.300308818238378,47.01830786015315],[0.300919465597109,47.016764554936486],[0.301623050710241,47.015890957288974],[0.303364284922563,47.014574059909755],[0.304684139401527,47.01409770868143],[0.304980997814835,47.01279479117278],[0.305384827458134,47.011802464768564],[0.305651871863667,47.0115186230191],[0.306232574983407,47.01101959043498],[0.30706600433043,47.01107777929723],[0.306620003544424,47.0096160848001],[0.306038754857108,47.00822600135287],[0.305194885992716,47.0066099704277],[0.303819050092344,47.005811196758195],[0.305020688548568,47.003002452296705],[0.305938135340145,47.00245633416968],[0.30811425854547,46.999959486514975]]]]}}]}