{"type":"FeatureCollection","name":"COM_33478","crs":{"type":"name","properties":{"name":"urn:ogc:def:crs:OGC:1.3:CRS84"}},"features":[{"type":"Feature","properties":{"fid":4050,"ID":"COMMUNE_0000000009754980","NOM":"Saint-Seurin-sur-l'Isle","NOM_M":"SAINT-SEURIN-SUR-L'ISLE","INSEE_COM":"33478","STATUT":"Commune simple","POPULATION":3161,"INSEE_CAN":"21","INSEE_ARR":"5","INSEE_DEP":"33","INSEE_REG":"75","SIREN_EPCI":"200070092"},"geometry":{"type":"MultiPolygon","coordinates":[[[[0.01648363389314,45.0265499407691],[0.017776692581272,45.02562680893905],[0.018684068552931,45.025193399931105],[0.019886903740427,45.02448407406944],[0.020081834137433,45.024282959655],[0.020173283558597,45.02399708122639],[0.020083215288629,45.02287289722713],[0.01977084727348,45.02189142895246],[0.01875453762001,45.02072171141163],[0.018586042684819,45.020450494838016],[0.018482983175532,45.01988099092978],[0.017180938022419,45.01856754747486],[0.016961745041659,45.01822288747958],[0.016694750719742,45.01767872063538],[0.016572025053786,45.01702579346927],[0.016256641809121,45.016269488990254],[0.0161640033948,45.015433559760964],[0.016345317378335,45.01477256677911],[0.016905173268098,45.014182992390886],[0.017291302043852,45.014016743600536],[0.017486116644619,45.0137219257777],[0.017973131546802,45.013354748340234],[0.018079242463141,45.01310350438165],[0.018050728725804,45.01251797810834],[0.018429601231444,45.012177634533],[0.018277181621158,45.0112950557166],[0.017730629916239,45.00982345853705],[0.017977976586661,45.009591318046255],[0.01803562096063,45.009319854152224],[0.019193771087327,45.00879946506362],[0.019267913805328,45.0086951312359],[0.0190443529996,45.00814672835458],[0.018720315225414,45.00664686013318],[0.019469582596161,45.006219129658064],[0.019653560655922,45.00476711272617],[0.019446981579684,45.004711121432344],[0.019953157022133,45.003934489189795],[0.016354416207665,45.00168369619095],[0.014925440268907,45.000092005164426],[0.014561268355941,44.999895721517305],[0.013760190053741,44.99970032309797],[0.013410529547392,44.99947018636723],[0.012619315171537,44.99870920432428],[0.012427421930117,44.99828327487537],[0.012607269046517,44.99774479058904],[0.011951546217572,44.99746768504724],[0.011568982731958,44.99711682271063],[0.011490798620652,44.99682098999599],[0.011560456221205,44.99637235195828],[0.011430745885459,44.996161632718106],[0.010880121338717,44.99579544006957],[0.010167320275293,44.99551769048508],[0.008673717288743,44.99466661596766],[0.008301978273828,44.994137630800914],[0.008179110787718,44.99379914668359],[0.007486406991966,44.99093599335097],[0.006643428313105,44.991171001141204],[0.005970048324422,44.99153490903798],[0.005297885608004,44.99204210816438],[0.004418725184528,44.992454527842796],[0.003995007653653,44.99275576973337],[0.002847480781942,44.993199692612365],[0.001781092850823,44.99416748339355],[0.001711702743923,44.9943250939533],[0.002083039922008,44.99972322147232],[0.001720952447908,45.000390131773734],[0.001546245791302,45.00142340288124],[0.001057534288392,45.00151384699754],[-0.004438496952441,45.00195391857425],[-0.005621968796948,45.00242382220702],[-0.00534173803156,45.00290533371168],[-0.005402510496434,45.003091105725076],[-0.006502700005237,45.003286635132845],[-0.007014128408601,45.002309612881895],[-0.007486042020508,45.00033711909222],[-0.007805014019123,45.0000572855237],[-0.007782584038701,44.9999470655299],[-0.008898348642812,44.9983536069694],[-0.009422113513125,44.99730055258082],[-0.010041573149852,44.99736668630933],[-0.011658208409171,44.99732022524316],[-0.012254506983585,44.997380666599014],[-0.013292437350559,44.997175952793455],[-0.015149052671691,44.99783655598169],[-0.016381846923993,44.99884472572601],[-0.017089991792408,44.99982566674151],[-0.017433642081039,45.00014612348194],[-0.018029654038508,45.00045973290036],[-0.018551198079571,45.00092312947364],[-0.021756839905629,45.0028796451727],[-0.021693571790196,45.00349586960233],[-0.022392133221789,45.00439054315019],[-0.022765902958094,45.005291335343436],[-0.022936290937989,45.0065652761286],[-0.022707572888389,45.007386928529364],[-0.022790881632362,45.007847797897796],[-0.022848501530598,45.00823277713966],[-0.022689575968641,45.00886511771855],[-0.023624142238866,45.01038860662219],[-0.024104224740594,45.01031699138016],[-0.02448750465551,45.01082827409087],[-0.024721707061334,45.011354421045525],[-0.024678519629143,45.01243594030749],[-0.024754463128745,45.01276005181582],[-0.025655978456154,45.01371677218075],[-0.025699653541331,45.01475988937795],[-0.026716426015143,45.015262948685844],[-0.027814499061213,45.01538985508058],[-0.027976309148271,45.01586840981527],[-0.028199088467543,45.01611193557461],[-0.027874196914696,45.01658751610386],[-0.027941932627676,45.01753446933155],[-0.027830375765376,45.018079030768256],[-0.027006932564692,45.017628387229294],[-0.026613457868846,45.01758773090274],[-0.025288676034664,45.01770935520951],[-0.024948886241825,45.01783933210394],[-0.024130820190401,45.01842832178077],[-0.023510610013102,45.01910563746702],[-0.022508993560471,45.020601542198506],[-0.01972944504805,45.02286562634739],[-0.018535500783068,45.023578301840764],[-0.017963223772979,45.023803764762235],[-0.01698819384742,45.024029331466586],[-0.014752542877473,45.02427372868032],[-0.013832208240917,45.0240761002745],[-0.013459370172136,45.023829401200366],[-0.0130473184586,45.02318460360629],[-0.012561982894936,45.02160290946795],[-0.012156589558532,45.02143547818442],[-0.011851594413127,45.02107971501443],[-0.011630566947357,45.02039550408111],[-0.011558566931763,45.019104467753486],[-0.011654887880556,45.01850988123901],[-0.010805617171597,45.018049007778046],[-0.0060203156703,45.0161366430438],[-0.005335162075773,45.01610469256393],[-0.004228778574401,45.01624809899136],[-0.003114253431517,45.01628719450088],[-0.002900526879145,45.01651822004157],[-0.002213990436533,45.016673701810234],[-0.002034427578582,45.01744712489487],[-0.002045310651247,45.0185028386537],[-0.001779570336363,45.02001472822612],[-0.001306967035534,45.02131775137621],[-0.000677306068179,45.02241686927973],[0.000162844412188,45.02361896870492],[0.000653737580063,45.02403676269231],[0.001233550683143,45.024170422774446],[0.003319464740177,45.02381934469622],[0.004049000619879,45.023909266976645],[0.008503948875819,45.02625194232989],[0.010448951777868,45.02706467270457],[0.012364629113924,45.02764231370646],[0.013991013718938,45.02771299142647],[0.015389418930244,45.02746037102675],[0.015793982039572,45.02728380630772],[0.01648363389314,45.0265499407691]]]]}}]}