{"type":"FeatureCollection","name":"COM_64186","crs":{"type":"name","properties":{"name":"urn:ogc:def:crs:OGC:1.3:CRS84"}},"features":[{"type":"Feature","properties":{"fid":4103,"ID":"COMMUNE_0000000009761370","NOM":"Charre","NOM_M":"CHARRE","INSEE_COM":"64186","STATUT":"Commune simple","POPULATION":220,"INSEE_CAN":"09","INSEE_ARR":"2","INSEE_DEP":"64","INSEE_REG":"75","SIREN_EPCI":"200067288"},"geometry":{"type":"MultiPolygon","coordinates":[[[[-0.832539178301028,43.31684324516646],[-0.830840502305477,43.3166549033847],[-0.830128340277882,43.316481107628476],[-0.829467606520403,43.31600467223005],[-0.828868020238172,43.315353144634074],[-0.827698285575375,43.3144182990626],[-0.826971568360291,43.31346775308009],[-0.826586311486233,43.31314546127678],[-0.825680123458223,43.31281639606996],[-0.824544767007808,43.312732301584845],[-0.82444900246081,43.31166123854698],[-0.825104407516569,43.31137145149346],[-0.826400505496475,43.31021778353746],[-0.827478134074107,43.30965634800007],[-0.828722333504005,43.30820547985731],[-0.828853813700246,43.30782705888112],[-0.828789136879664,43.30750332280379],[-0.828614958487218,43.307183467223155],[-0.827931120184597,43.30645026896059],[-0.827885902963042,43.30627084465844],[-0.827965036725515,43.30601406361353],[-0.828523926728757,43.305349409859176],[-0.829512990072618,43.30503426039958],[-0.830431868500938,43.3049620579769],[-0.831644095289607,43.30438679974609],[-0.832376598511446,43.30427525816309],[-0.834346379188858,43.304262105322316],[-0.834758694341557,43.30393495189432],[-0.836732052404196,43.3039756660971],[-0.838363326820606,43.303731289962585],[-0.837974032860152,43.303663162964135],[-0.837604984306509,43.30349164337728],[-0.836398873277494,43.302360958061016],[-0.837351441549385,43.30161022433981],[-0.838187964264704,43.30113559531452],[-0.839015352423763,43.300301932430166],[-0.839790041325714,43.300158217999936],[-0.840879362044741,43.299314328836594],[-0.841807140541105,43.29871123804065],[-0.842198739350439,43.2985739240341],[-0.8449159473434,43.298787963238375],[-0.844925476644964,43.298967750655024],[-0.845113060445006,43.29900700616086],[-0.845663821362088,43.29894507094782],[-0.846746928120283,43.29850842717463],[-0.84740351395116,43.29812929381544],[-0.847769740927855,43.298073919779505],[-0.849432248249543,43.2980786341119],[-0.849532635309692,43.29766166538857],[-0.850221185955363,43.29765063536734],[-0.850277920215791,43.297558549690834],[-0.850179197992956,43.29711445292418],[-0.851786889587356,43.29707425077656],[-0.852467250416161,43.29625832998898],[-0.854830428482821,43.29604703328865],[-0.855679007257639,43.29590326705816],[-0.856646031647869,43.29531845618169],[-0.858241738024385,43.29552355758471],[-0.859227381887628,43.29554869039251],[-0.859408947246248,43.295498072092904],[-0.859791507836227,43.2943982328662],[-0.860452749579264,43.294108914185045],[-0.861101855502756,43.2925159013071],[-0.862102279983889,43.29167676605405],[-0.862771415306352,43.290218122876546],[-0.863563455684047,43.29006010216018],[-0.863336317508393,43.28930178493875],[-0.863508334179918,43.28907227405064],[-0.864223187580519,43.28864591740472],[-0.8645277809934,43.28859178873752],[-0.864679140764474,43.28777850196268],[-0.868024287397201,43.28704902042259],[-0.869601834412228,43.286417002827086],[-0.870659336680005,43.285531607804536],[-0.872219421286278,43.28513614335751],[-0.872718847021153,43.28587207069844],[-0.874075653985358,43.286817716508764],[-0.875968621370935,43.288622234326276],[-0.876415578632372,43.289383449010316],[-0.876416046690004,43.28992201736864],[-0.876220288678404,43.290402781878086],[-0.874712930461367,43.29129086369422],[-0.873300517901295,43.291849485621356],[-0.872427103570185,43.292411281833196],[-0.872266174546686,43.292988960147895],[-0.872315352519067,43.29373923517247],[-0.872880740442642,43.29519872513862],[-0.873285339006233,43.29580656450317],[-0.873327013046907,43.29637157703484],[-0.873137649066227,43.29661793911882],[-0.872489996362036,43.29703564256257],[-0.871469186780893,43.297313606473836],[-0.871047179779204,43.297676379877586],[-0.870498091944073,43.2983319119319],[-0.869229477109438,43.300980229223],[-0.866854179836687,43.304358047314494],[-0.865844030438087,43.30549569224929],[-0.865554915286145,43.306039221579965],[-0.866208942225403,43.30714793592129],[-0.866641420302951,43.30761971091253],[-0.868223972701664,43.30819261728842],[-0.868981088514896,43.30824566549908],[-0.870236366309926,43.3080034632235],[-0.870760065284155,43.30740918438182],[-0.871319956444954,43.30707839810018],[-0.87166861107562,43.306742569721266],[-0.871848231151619,43.30664426604322],[-0.872130155203732,43.30663686409633],[-0.873058203006513,43.306884602562874],[-0.873458406384714,43.30733409210191],[-0.874439160985158,43.307906867774086],[-0.874870273454091,43.3084489129094],[-0.875040814917907,43.309040832356054],[-0.875017043870887,43.30982435595073],[-0.874630886596816,43.31084964329966],[-0.874338658522291,43.31121768368714],[-0.872920182381897,43.31244569780889],[-0.872732062871015,43.31278478347303],[-0.872835922868064,43.313265615046014],[-0.873186489217736,43.313691669995805],[-0.873422371709703,43.31422811319971],[-0.873521944019229,43.31504864749257],[-0.873429244878209,43.31563289647107],[-0.87299093124897,43.31604850109077],[-0.872308491457613,43.31611709183748],[-0.871943123778197,43.31629680681338],[-0.87122485081649,43.317153851490424],[-0.870953806255267,43.31780122911302],[-0.871023083815789,43.318281501584124],[-0.871135726508343,43.31843418133559],[-0.871731097508077,43.31897846654957],[-0.87250673511434,43.31948836864293],[-0.873576064698542,43.3200913149362],[-0.873907703253798,43.32043699017466],[-0.87404057363164,43.32076187000054],[-0.873999125683695,43.32104436321504],[-0.873660135319555,43.32161672859813],[-0.873380825357689,43.32243463674526],[-0.87338768793469,43.32325219504816],[-0.873545537964495,43.32358158498566],[-0.874270205640152,43.32452472544275],[-0.874725616071297,43.32669161780156],[-0.875060453513176,43.32763432208906],[-0.875148816556534,43.328195873873845],[-0.874975253345647,43.32933874310454],[-0.873989393236957,43.33111688323389],[-0.873156974859078,43.332186992029534],[-0.872463196556846,43.331282358557566],[-0.872243706123795,43.33126590431892],[-0.871355968688754,43.33153187976485],[-0.870912604696614,43.33189271617379],[-0.870536082751301,43.33190800166398],[-0.869853266808921,43.33155146830078],[-0.867819051070129,43.33124420117249],[-0.867634520579999,43.33127061929364],[-0.866542732530214,43.330739560021804],[-0.865863036176084,43.33064948887994],[-0.864330570977929,43.329875678972336],[-0.863758572235204,43.3297907510886],[-0.863261858986466,43.32955902290187],[-0.862682006935688,43.32950409214354],[-0.861609287213346,43.32958745820763],[-0.860536541788316,43.32956003289665],[-0.860242007967725,43.329528221903345],[-0.859500941289764,43.32925836988479],[-0.859112339430608,43.32929566334605],[-0.858760374585297,43.329235276537325],[-0.857699187392215,43.32877239145508],[-0.857136656636337,43.328625846508686],[-0.856944653275565,43.32843005007618],[-0.855148006024328,43.32781685602063],[-0.85341096789632,43.327743704286775],[-0.849910118595616,43.32865474087549],[-0.848612431864672,43.32758684784649],[-0.848442015475281,43.32723355500255],[-0.847492590953409,43.32661348382693],[-0.847485568957001,43.32650835733795],[-0.846778045735418,43.326111136710345],[-0.845841369893239,43.32579231753252],[-0.846347096483824,43.32483043644236],[-0.846125803740287,43.32423217373605],[-0.846260084396278,43.32393378244501],[-0.846668484575579,43.32349143723718],[-0.846786256118604,43.322188506919176],[-0.845096019063851,43.321556961332774],[-0.843448694708238,43.32110579552851],[-0.842959589195277,43.32080075823357],[-0.839440104748793,43.31955868057423],[-0.838693095004525,43.31886290284284],[-0.838003138609055,43.31780123506763],[-0.837646206939469,43.31751669992767],[-0.837238549046159,43.31741499408108],[-0.835311766269118,43.31722851681005],[-0.832539178301028,43.31684324516646]]]]}}]}