{"type":"FeatureCollection","name":"COM_19110","crs":{"type":"name","properties":{"name":"urn:ogc:def:crs:OGC:1.3:CRS84"}},"features":[{"type":"Feature","properties":{"fid":3979,"ID":"COMMUNE_0000000009754076","NOM":"Latronche","NOM_M":"LATRONCHE","INSEE_COM":"19110","STATUT":"Commune simple","POPULATION":114,"INSEE_CAN":"08","INSEE_ARR":"3","INSEE_DEP":"19","INSEE_REG":"75","SIREN_EPCI":"200066744"},"geometry":{"type":"MultiPolygon","coordinates":[[[[2.21267304881265,45.307257485233535],[2.213564435771141,45.3079337137429],[2.213665922293641,45.30869983844625],[2.21337735771078,45.30952445485123],[2.212200957496774,45.31068230654671],[2.212108462871354,45.31090587603788],[2.211313016346796,45.310932690098426],[2.210924709409774,45.310866918741716],[2.210440992474296,45.31104990720896],[2.211094777831861,45.31147414414966],[2.210817430879028,45.31258428761499],[2.210033278126941,45.312712927238444],[2.208365908391335,45.312666025752385],[2.209202312017765,45.31353190292548],[2.209782450167253,45.31357111985503],[2.210445449311113,45.31532814427144],[2.210407585526439,45.315568306807606],[2.210158871958047,45.3157367435623],[2.210149529417922,45.31594559032443],[2.21003839912456,45.31604205841704],[2.209724687397546,45.31611368344031],[2.209623573896057,45.316223729152284],[2.209696940064592,45.31636022063399],[2.209954448476455,45.316471898049855],[2.209898419708512,45.31691274062065],[2.210119252191511,45.31718084327953],[2.210210091439508,45.31752547002298],[2.210087697386889,45.318416087501596],[2.209801190929795,45.318818383337245],[2.211040353357637,45.31928277148814],[2.210892604250881,45.31962121319601],[2.210854524098883,45.320056780099094],[2.212143421525381,45.32052690946507],[2.211663638092132,45.32096747091523],[2.211194392789615,45.32075345096564],[2.210985836646663,45.32096899817538],[2.212338131983604,45.322012281540275],[2.212070533545394,45.32225082796035],[2.211051332126259,45.32391495207517],[2.212052542745333,45.324154330352954],[2.212793676822214,45.32382906654037],[2.214904941550468,45.32319824641694],[2.215488567894464,45.32227213624385],[2.216191306162105,45.32258592640055],[2.21741524289018,45.32278089136024],[2.217202688340761,45.322101338995],[2.218609608682167,45.32171765765742],[2.219951247039285,45.32070766640377],[2.220619748773917,45.32109683079206],[2.221442686665658,45.32093957040983],[2.222444877657599,45.32055932865208],[2.223113839102996,45.31981837246932],[2.224000354383023,45.319951490919955],[2.224080682666809,45.32078229496051],[2.224422014851201,45.32129433527167],[2.224476024002093,45.32163239141984],[2.225107131840422,45.32186818720611],[2.22537601652557,45.3224508613329],[2.225617867533059,45.32268305906804],[2.225679918842461,45.3229941557457],[2.225607127471187,45.32345560108392],[2.225374753506129,45.323734944564535],[2.225418522302144,45.32407563093932],[2.225249508473368,45.324755228227964],[2.225575385268522,45.325004216389466],[2.226014563612119,45.32518374923019],[2.226275525095083,45.32541967964432],[2.226668219631929,45.325545759927394],[2.226620731454516,45.32565619154787],[2.226258834951639,45.32588601580354],[2.226570807336615,45.326125900070984],[2.226766181084737,45.326581094628416],[2.227492584822168,45.32676170486286],[2.227555035487335,45.32695303879326],[2.227389353845036,45.32711758470447],[2.227439829506454,45.32734395499973],[2.227601915613088,45.32743872407468],[2.227893971905638,45.3274587486812],[2.228002410874225,45.327555848574605],[2.227970741541373,45.32799866913815],[2.227865575971864,45.3281258127521],[2.228142397018579,45.32823217823124],[2.228201970405782,45.32835505506376],[2.227948401847476,45.32896563686744],[2.22800450806937,45.329062375813514],[2.22822977170988,45.32911255535645],[2.228368113972902,45.32953943892061],[2.228038104722142,45.330230537893975],[2.228168262509191,45.33032688692234],[2.228583594597018,45.33038828141184],[2.228699330126653,45.33060429508186],[2.228266431680879,45.33098131670567],[2.227781473452529,45.331245416822924],[2.227663691676732,45.33154536672089],[2.227752409455567,45.331868352902745],[2.228236597170621,45.332489425666104],[2.228872501409737,45.33275765030861],[2.229160581874756,45.33279025085774],[2.229423834018062,45.33304870185446],[2.229599988765567,45.333050814733255],[2.229773484721717,45.333152863032694],[2.229593418412913,45.33361807598863],[2.229726887191602,45.333660416785854],[2.229823933329556,45.33384388323465],[2.229810259406888,45.334278724168456],[2.230025426919326,45.334414376755404],[2.230579829719731,45.33448482445053],[2.230881419579392,45.3350190843695],[2.232551738240244,45.33555012779018],[2.232941989191281,45.33576711809118],[2.23409696831793,45.33533828968492],[2.235208493904015,45.33472545351666],[2.235385278901357,45.334868037385796],[2.235760377838393,45.33479405731587],[2.23620177623753,45.33454043116171],[2.236846536241377,45.33491222648452],[2.237279329680649,45.33537982663863],[2.237582390704031,45.33543862155665],[2.237960988824815,45.335855422748175],[2.238246397631704,45.33599153748616],[2.238793742765065,45.33573952238803],[2.23905299122676,45.33517397876668],[2.240307348711753,45.33513026950825],[2.241654451812632,45.33483864052154],[2.242547651806631,45.33515805624954],[2.243746540081282,45.33590816116464],[2.246695306632669,45.33632605573609],[2.247098918671953,45.33810902994344],[2.247571314956213,45.3386777105012],[2.25008642907711,45.33812547863053],[2.250471000026762,45.337727338093174],[2.250704766550664,45.337718997524625],[2.251006588588785,45.337302291684615],[2.251631711100536,45.336959785426124],[2.251756855706572,45.337243374059746],[2.253988941178438,45.336556792231946],[2.255109449533603,45.33592580983761],[2.255385636515389,45.33560887576753],[2.255684259160741,45.33542806329469],[2.255844636614823,45.33479608927508],[2.255649095528748,45.33462009545943],[2.255558838693865,45.33430432598577],[2.255705910059195,45.33399913939991],[2.255831403754323,45.333206647582514],[2.255730156745052,45.33218482621865],[2.255369369022173,45.33147824894859],[2.254625137902506,45.33090148910346],[2.254399328506584,45.33060372632018],[2.25406501803602,45.32963798205735],[2.253307106697611,45.328751356026366],[2.253507818338714,45.32863473140577],[2.254292153620281,45.32859673597359],[2.255370289967014,45.32778087172096],[2.256172644213747,45.328017630283995],[2.256645958273898,45.32756152831453],[2.257932883426385,45.32678394601973],[2.257687785731843,45.32630506529333],[2.257378263035631,45.32625438618114],[2.257338914343755,45.32604611371788],[2.258423677759894,45.326067713343726],[2.259199485898509,45.326379914837595],[2.260534012461902,45.32662736666076],[2.260763673759888,45.32615523011137],[2.261929928338346,45.32638534518102],[2.261811905507191,45.32527337246016],[2.261664871482751,45.32490590666863],[2.261848242770073,45.32484318189321],[2.260180862081842,45.323325667970245],[2.259494215494547,45.32312662331518],[2.258522212259237,45.32230975504128],[2.258098236951561,45.322228603656676],[2.257017172067984,45.32183962845001],[2.256906702450314,45.32160476987264],[2.25496317573159,45.32118753330175],[2.254569134554024,45.32115969615197],[2.254587810963587,45.321004037200616],[2.255546760879382,45.31973533786247],[2.255405814029765,45.31920311625828],[2.255414769720165,45.318819570812714],[2.255512918624533,45.31854287552264],[2.256278018604895,45.31754482647314],[2.256331661676104,45.317255228077975],[2.256057893853296,45.31682477970449],[2.256027212003493,45.316541824768244],[2.256742909285388,45.315800081693425],[2.257112631758937,45.315543198129994],[2.256987468390544,45.31478416266362],[2.25706019264189,45.31430739088376],[2.257763102112243,45.31289379885158],[2.257894374194206,45.312428220825865],[2.257949584259864,45.311732516009016],[2.257753418373408,45.311034243728876],[2.258214212942456,45.311027393884025],[2.261558119193298,45.3115825935357],[2.261554104312833,45.31111521826372],[2.260519987309988,45.31047265105161],[2.259892793811665,45.30994082379485],[2.258803591863281,45.309604939697344],[2.258142686433825,45.309594256796075],[2.258857940164841,45.308301405747855],[2.259782007539473,45.30780955743192],[2.259587936670259,45.30752912499741],[2.260086319056971,45.30738024069207],[2.260307382260761,45.307165587329386],[2.260040194048647,45.307009838896654],[2.261678958171929,45.30564203129792],[2.262120687410754,45.305433332730956],[2.264709774141673,45.30495241212345],[2.265459092568221,45.305124822559826],[2.266169048734745,45.30508895943655],[2.266770340421479,45.30526219110701],[2.268495074373023,45.30510509058237],[2.269439328906106,45.305106757313006],[2.270347425062471,45.3048488428211],[2.270606141824309,45.30438588336033],[2.270765827986156,45.30388445795503],[2.270388168494036,45.30339393737672],[2.270450040136911,45.303053960499035],[2.270331247347428,45.30286858808776],[2.270302134695346,45.30226597916578],[2.270534883560932,45.301738916961945],[2.270301694857882,45.301227726563575],[2.270596681457185,45.3006245297462],[2.270156881628768,45.30000933764717],[2.27022266104859,45.29917592555576],[2.269501120315569,45.29893349100036],[2.269693204273854,45.2984908101719],[2.269633025895627,45.298214871595476],[2.269152348950055,45.29770296353721],[2.269093283814265,45.297245135777686],[2.26875910607626,45.297043046352755],[2.268599992197361,45.29682048912258],[2.268656763678449,45.29667498312702],[2.269047366029616,45.296465923974694],[2.269217404588364,45.29624461724489],[2.269168571365528,45.29607680972418],[2.268622122714805,45.29562029927362],[2.268833656967681,45.29505618315294],[2.26834554955193,45.29452981553602],[2.268350273497214,45.29339254568214],[2.268143911444039,45.29239707090348],[2.268721263143541,45.29156520548707],[2.269420390652892,45.29029830284179],[2.268846618610829,45.28988663892968],[2.268452559977606,45.28929335108058],[2.26803854711232,45.287305996529945],[2.26762782930301,45.286623449910394],[2.267111790278596,45.286190543664084],[2.26647623335248,45.285922538602364],[2.263526263016981,45.28540068943829],[2.262969324073737,45.28517010139738],[2.262467138523424,45.28475437382268],[2.261567034567383,45.283564310915054],[2.259961536500949,45.28478104711822],[2.257314350141596,45.28499852552067],[2.252916280301312,45.28517634598607],[2.252947403404357,45.285328734264155],[2.252693505418833,45.28542789152362],[2.251860080794557,45.285461941163426],[2.251301620201067,45.28601289771938],[2.25105044865147,45.28609856241026],[2.24854668941878,45.285037217409986],[2.248315765165814,45.28466196814309],[2.247918706064265,45.28440446430414],[2.247263298464266,45.283631048821896],[2.246740100508679,45.28355278702361],[2.246049900907914,45.28327889432127],[2.245222206556118,45.2822323615077],[2.244229833887072,45.2815746160443],[2.243628237699209,45.281071685538684],[2.243114061216758,45.28136446379687],[2.242365079336423,45.28194650329505],[2.242166798700492,45.2822702319728],[2.242257397248888,45.282549093016165],[2.242697613430442,45.282913165563706],[2.242554869160728,45.283467793012456],[2.242880071773034,45.28384819497651],[2.242340425746186,45.28441724399682],[2.242359452878411,45.28461277634682],[2.242639835687542,45.28500638261275],[2.242437933717983,45.28634672606802],[2.242249729308921,45.286584978183605],[2.241573494344718,45.287064851876764],[2.241282102586598,45.287479796802636],[2.241390053234039,45.28826484486542],[2.241299417422419,45.28845693235695],[2.241320589876048,45.28877584504141],[2.241155504322107,45.28900164562605],[2.241024160286707,45.28955995123505],[2.241455236608507,45.29088027439478],[2.241186538592203,45.291126083517966],[2.240454015765008,45.29123817436094],[2.239025555077024,45.29167870541809],[2.238732763307524,45.29163258986021],[2.238125516796063,45.29135200889928],[2.237936749626489,45.29134892215851],[2.237838790370931,45.29123569497529],[2.237230413053951,45.291131595199396],[2.236568557454332,45.29074077496786],[2.23586977644012,45.289973298544545],[2.235151342599865,45.28980270058748],[2.234415150591514,45.28943927404593],[2.232727659606318,45.28766007263514],[2.232011366462176,45.287151789589856],[2.230723400791781,45.28656573253417],[2.230281404140624,45.28614937226415],[2.228586783064287,45.28573158222935],[2.22723368354005,45.28552413695186],[2.224986629837591,45.285483376697876],[2.221542018314987,45.28569988453564],[2.220129939399393,45.28642754087518],[2.218576611879761,45.28594484871393],[2.217684591496491,45.28551628843175],[2.216455458837343,45.28538612022083],[2.214510584543846,45.284722332700724],[2.214094308127127,45.28448168188138],[2.213675300247473,45.28371152811258],[2.213520199507427,45.28358437043915],[2.212837536870534,45.2842333166332],[2.212569488166896,45.28424583757435],[2.212292361025729,45.28472024025767],[2.211812224904454,45.2852076196689],[2.211781898712934,45.28590888019654],[2.211496890942499,45.285947393055395],[2.210502873774655,45.28560900458957],[2.209931989016602,45.28601739379587],[2.210942351963466,45.28664315597348],[2.211117354926024,45.28689652494146],[2.211226556198617,45.287202558010584],[2.211121705167434,45.28794111334811],[2.210917026657659,45.28870237706022],[2.210185361711143,45.29037210851946],[2.209857510031513,45.29154131973684],[2.209626966305346,45.291605426257355],[2.208668900752974,45.29151400776891],[2.208291145221324,45.291343845286754],[2.208061121282243,45.291461080692564],[2.207968680335863,45.29168194477127],[2.208282257508748,45.29259815369293],[2.210069218242781,45.292626094422815],[2.210375500570122,45.29270930011573],[2.209916035809517,45.294432280022626],[2.211060311709861,45.295342638617775],[2.211844460883879,45.29573807452627],[2.212114628310187,45.29603083327597],[2.212072242047361,45.29623134229024],[2.213205920185918,45.29654188296412],[2.213323694540403,45.29651389575359],[2.21357677548786,45.29675250185821],[2.213901154985146,45.2969114654776],[2.217031908097221,45.2974728085339],[2.217492806855197,45.29772366566778],[2.217652224800787,45.2979102798343],[2.219419964208587,45.29877628410633],[2.219860903060177,45.29908732441885],[2.219454384726902,45.29932491770922],[2.21906653452085,45.2996869063802],[2.218788072215364,45.300164018843915],[2.218464170563891,45.301242335474676],[2.217797430466239,45.30183649703864],[2.217482914554124,45.30169922541152],[2.216995420553079,45.30188581669987],[2.216058291959476,45.30265096829708],[2.214163348069948,45.30356157102834],[2.213466610255345,45.30501005571112],[2.212635093362359,45.305789429381335],[2.212583159125622,45.30603309503773],[2.21267584760252,45.30642725870963],[2.213135758686839,45.30702301222539],[2.21267304881265,45.307257485233535]]]]}}]}