{"type":"FeatureCollection","name":"COM_79023","crs":{"type":"name","properties":{"name":"urn:ogc:def:crs:OGC:1.3:CRS84"}},"features":[{"type":"Feature","properties":{"fid":4040,"ID":"COMMUNE_0000000009749455","NOM":"Avon","NOM_M":"AVON","INSEE_COM":"79023","STATUT":"Commune simple","POPULATION":63,"INSEE_CAN":"03","INSEE_ARR":"2","INSEE_DEP":"79","INSEE_REG":"75","SIREN_EPCI":"200041994"},"geometry":{"type":"MultiPolygon","coordinates":[[[[0.034298719139801,46.373725024175585],[0.031310739640653,46.37121338947828],[0.027344705137956,46.36754258112581],[0.025842746366092,46.36598414462648],[0.025504018639679,46.36618076023801],[0.021748293616516,46.36284412714275],[0.02013569806681,46.36241270844134],[0.01388661537496,46.3570317508979],[0.012392220854698,46.3557517599827],[0.011545039147745,46.35520330156973],[0.004125568905613,46.35135721003799],[0.003475031330976,46.35182941635276],[0.002567940101804,46.352091219920915],[-0.000455659457163,46.35202968798274],[-0.005311504947896,46.352676721923466],[-0.006179161977902,46.352670061518],[-0.007681156430246,46.35248445550017],[-0.008475698110304,46.35266263490025],[-0.008776743045191,46.35283581437996],[-0.009679951578962,46.35269482259574],[-0.010125936673048,46.35245145654264],[-0.01017592984676,46.35350084693106],[-0.010378221228572,46.35367663036758],[-0.012337777075058,46.35390601109982],[-0.012670079381035,46.3540792558364],[-0.012211301888852,46.355483618472114],[-0.012585994741585,46.36114719622168],[-0.013387885463645,46.363155334440364],[-0.013721336784081,46.36485865626255],[-0.014571291799006,46.36497585911969],[-0.015090735983466,46.36488282376174],[-0.015482075821342,46.36444984579653],[-0.017377616905244,46.36523323372956],[-0.017914848809866,46.36562722385192],[-0.019040823745547,46.366098438778344],[-0.0204869479699,46.366473752411004],[-0.020697385090856,46.366960192436586],[-0.02033152733264,46.3691488097514],[-0.020056045186361,46.36953458024134],[-0.020239264355151,46.36976401988474],[-0.021293046387529,46.37005780316718],[-0.0219443855411,46.37008920258744],[-0.022459518037175,46.369988138820304],[-0.024082400344113,46.36990906130526],[-0.024604940411828,46.36998891803817],[-0.025658700409338,46.37028176117559],[-0.027053485439677,46.37097285201212],[-0.028929311368892,46.37223868570466],[-0.030078370991879,46.373168760710186],[-0.029832751763057,46.37341138372685],[-0.029671709014515,46.373840996288195],[-0.030103725004672,46.37463512717148],[-0.030423901821844,46.37489155076755],[-0.03087333470048,46.37571765696198],[-0.030114168153878,46.375715304784364],[-0.029204979995204,46.37587192734124],[-0.028503132564741,46.37610503871405],[-0.027616994252115,46.37653678159891],[-0.026684415149644,46.376812052382874],[-0.025385459043521,46.376819488857045],[-0.0222747433423,46.37716690867032],[-0.018527938453307,46.37804382213528],[-0.018729330742081,46.37843678820617],[-0.015260903818576,46.38093905609805],[-0.014651886516659,46.3815823385202],[-0.015097305291546,46.381820174172944],[-0.014854727386455,46.3820725938142],[-0.013138225049967,46.38296321108487],[-0.012625266019735,46.38315338252376],[-0.011783655614709,46.3832161619681],[-0.01130009510887,46.38408139160314],[-0.010925814100514,46.38444901846019],[-0.010290197208259,46.38477668389551],[-0.008973439693061,46.385929721523496],[-0.007592101776127,46.386123852456926],[-0.007409990844874,46.38820843699668],[-0.007786404590557,46.38856436539229],[-0.007942679967975,46.38899007785255],[-0.006768378746316,46.389256232593546],[-0.006766658493099,46.389769014250334],[-0.004187295073374,46.39062906283712],[-0.003596450607735,46.39092036496049],[0.000322867715732,46.39197418165962],[0.000371899404188,46.39283603576291],[0.001668949616878,46.392197005034184],[0.004535005715116,46.391348666021216],[0.005677303980404,46.39068029647593],[0.006284797804146,46.390502503510575],[0.007240769977707,46.39145123036361],[0.008164177218111,46.39116457126083],[0.009138019405643,46.39195425302963],[0.010116369497925,46.391520335563385],[0.01022563511868,46.39161781625639],[0.012063376033095,46.391233438600786],[0.012666213305075,46.39197372078669],[0.013470705235334,46.39178933460468],[0.014350773270025,46.391723164186246],[0.015533967680814,46.391853250353556],[0.01587354491403,46.391501691528596],[0.015964198117869,46.39089130955769],[0.016084146668282,46.39074576466808],[0.018283934338743,46.38935791472456],[0.020691642160083,46.38799978626849],[0.019384567730949,46.387301520149904],[0.018699498987003,46.387041217117385],[0.020382654409221,46.38569118882366],[0.019583433638361,46.38508909193454],[0.02324471983359,46.38232370007405],[0.02394199047882,46.38073432483153],[0.023215849766847,46.379843101845736],[0.024189828076374,46.3795071780483],[0.022994693412315,46.3775223855588],[0.022365664506648,46.377716821319645],[0.022278358222939,46.37747935260396],[0.02338670075182,46.377137933969465],[0.023909740788631,46.37733541139136],[0.025119650553762,46.37818879012468],[0.026737788264782,46.377116324196436],[0.028206605249689,46.3762985625184],[0.027966595667671,46.375995843850006],[0.028403415142494,46.375959469424046],[0.031251045039068,46.37461170013421],[0.03288693203216,46.37423887045616],[0.034298719139801,46.373725024175585]]]]}}]}