{"type":"FeatureCollection","name":"COM_16390","crs":{"type":"name","properties":{"name":"urn:ogc:def:crs:OGC:1.3:CRS84"}},"features":[{"type":"Feature","properties":{"fid":3964,"ID":"COMMUNE_0000000009751364","NOM":"Tusson","NOM_M":"TUSSON","INSEE_COM":"16390","STATUT":"Commune simple","POPULATION":240,"INSEE_CAN":"08","INSEE_ARR":"3","INSEE_DEP":"16","INSEE_REG":"75","SIREN_EPCI":"200072023"},"geometry":{"type":"MultiPolygon","coordinates":[[[[0.056774087218911,45.952587099686816],[0.058130368971561,45.95232500103738],[0.059673617336285,45.952335376969295],[0.060665664641259,45.95248280237774],[0.061587811363704,45.95142270974666],[0.062365704820487,45.94933699954222],[0.062368313354474,45.94904600670988],[0.06521679263065,45.94812419466219],[0.066612983006967,45.94800721176022],[0.068595533241767,45.94796487868961],[0.071218630028548,45.94799856713228],[0.073390144270729,45.947852006958875],[0.074929077074869,45.94752775429503],[0.074493995210526,45.946866804175414],[0.082223480178319,45.946312174305895],[0.08387245680047,45.94610327878072],[0.084630999068435,45.94441432864688],[0.08116587549085,45.94357706426918],[0.082402316133388,45.94123093367001],[0.083812452099198,45.94199268326513],[0.085289671108348,45.9425615035757],[0.086150415090004,45.943210846103185],[0.086732964267616,45.9434547294765],[0.087691277814087,45.94401826352515],[0.089161342155128,45.94443095554327],[0.091011734068229,45.945273322041466],[0.091649263551039,45.94567538469496],[0.09291810004299,45.94667127364845],[0.094164425167659,45.946283376166306],[0.095019018791151,45.94590162784549],[0.098755455732827,45.94485670888952],[0.098410762166108,45.94328445887732],[0.098093967498504,45.94314387166248],[0.097518112873919,45.94304169264954],[0.096548374806813,45.94149304641436],[0.096693600356651,45.94109037654928],[0.096709349002848,45.940252756042014],[0.094627054600339,45.93922971108182],[0.097019183803426,45.93736456635255],[0.099571453260011,45.93699209959877],[0.101255864209896,45.936569406426415],[0.101544491417858,45.936385769019054],[0.102004201304002,45.93584697523739],[0.103383912427824,45.93515152213615],[0.107236088096377,45.93407416685764],[0.107088784707839,45.93304314862699],[0.106820863083939,45.93180089141871],[0.106564791708282,45.93178352813322],[0.10577559546821,45.93188498565636],[0.10510980425095,45.93214458504573],[0.103386420438706,45.93213290472419],[0.101450926169569,45.93256901610577],[0.100543402410756,45.932906196985506],[0.099319925616242,45.9331857085328],[0.097863176227909,45.93340695855273],[0.097263762513066,45.93338617141473],[0.097447288357812,45.93316290222],[0.097974451537374,45.93286374608173],[0.098571056766713,45.931834674875574],[0.098485066284196,45.93130983048496],[0.098609116254086,45.931210287046255],[0.09836037876857,45.930269464554804],[0.098425796786942,45.929983691508426],[0.09834611657323,45.929706811587884],[0.098063139176177,45.92924449559184],[0.096629300724282,45.929547414163245],[0.09624297081839,45.92864540570184],[0.094909080153766,45.92800831499452],[0.094665387820597,45.92780561504762],[0.094343504560697,45.92727380548633],[0.0921818701695,45.9272011300531],[0.091407889695244,45.925278997957236],[0.091095766147129,45.925003342546134],[0.090531204966621,45.9230289183723],[0.090430515340344,45.92256406138989],[0.090510357120736,45.92234804823004],[0.090210282073731,45.921062561670105],[0.090349646918173,45.92035517606039],[0.088778214324945,45.92016244664088],[0.088883189700051,45.9193487478246],[0.088826056164726,45.91837768799221],[0.088645948453666,45.918218962246186],[0.087638624310508,45.91824889244732],[0.087418378411689,45.917188926366975],[0.086752986468004,45.91624635036443],[0.088887692743625,45.91484153639195],[0.089407316947986,45.91387631296975],[0.089486392356197,45.913894568274024],[0.088527424087208,45.91281558745013],[0.087165230367967,45.91150183527326],[0.086993625507278,45.91147578780016],[0.086274526654839,45.90957304649319],[0.085826971103993,45.90871176874962],[0.08559561803868,45.9084976498924],[0.08130711246545,45.908162648373036],[0.079821633741803,45.913539954985986],[0.076440735505306,45.9141698744298],[0.075881453614196,45.91434554700605],[0.074662994429876,45.91453570428172],[0.073684651306621,45.91482307520814],[0.072365036399526,45.915070063717],[0.063817372440306,45.916715545027415],[0.059565777368924,45.91766207978877],[0.049011780029982,45.91953182136272],[0.039583048419788,45.921303001195376],[0.044843162362699,45.93097987428794],[0.045017317648858,45.932451453658906],[0.045717195220776,45.932476944571675],[0.046380989460634,45.93375314890716],[0.046914588393015,45.93435100861758],[0.046002114817222,45.934604728932],[0.047094802791345,45.93631295205969],[0.049021106642519,45.94006052428904],[0.047008090159154,45.94084423744078],[0.045224153027217,45.94142574017894],[0.043579117976888,45.94213790430846],[0.043642793296095,45.942226977361905],[0.045344005235359,45.942778753563616],[0.047392133243822,45.94360629014892],[0.049469050338043,45.94430748070703],[0.052733626268591,45.94608487674542],[0.05220526909117,45.946833459854325],[0.0517550404156,45.94720830938916],[0.051070472077417,45.947448189394365],[0.049270330521091,45.947798650810824],[0.047100866723623,45.948989204705136],[0.04779611468846,45.95076723965376],[0.047027109283122,45.95135182597959],[0.046941583157833,45.95152531284344],[0.047289210236469,45.95193268113184],[0.047473160436111,45.95194739357946],[0.047835977582798,45.951830703107554],[0.047833258525485,45.95164049532673],[0.048140897330203,45.951685467433876],[0.04887610734768,45.95158659818119],[0.050336819832318,45.95178688815019],[0.050963590035257,45.951734740152034],[0.052152254895952,45.951490872231915],[0.05264098293678,45.95165228865911],[0.053062531154758,45.952151675592404],[0.055483306387986,45.95259046348879],[0.056774087218911,45.952587099686816]]]]}}]}