{"type":"FeatureCollection","name":"COM_23064","crs":{"type":"name","properties":{"name":"urn:ogc:def:crs:OGC:1.3:CRS84"}},"features":[{"type":"Feature","properties":{"fid":4088,"ID":"COMMUNE_0000000009749850","NOM":"Clugnat","NOM_M":"CLUGNAT","INSEE_COM":"23064","STATUT":"Commune simple","POPULATION":653,"INSEE_CAN":"06","INSEE_ARR":"1","INSEE_DEP":"23","INSEE_REG":"75","SIREN_EPCI":"200067544"},"geometry":{"type":"MultiPolygon","coordinates":[[[[2.095222657206679,46.246736002076126],[2.094740058569047,46.24719143930264],[2.094481217429889,46.2471452537457],[2.093834664962846,46.246604286914646],[2.093250193032977,46.246783341753726],[2.093054563507553,46.24691776437399],[2.093827543612925,46.248133345544986],[2.09395564421042,46.24862876129962],[2.093822471456617,46.24930310525872],[2.093692474485755,46.24939302459626],[2.092785150025478,46.24939119919123],[2.092653287455252,46.24975036365543],[2.093496068005569,46.24988765738562],[2.093818910485748,46.25006763440772],[2.09387967167492,46.251102837224515],[2.091801206695214,46.25181840956523],[2.091411984037475,46.25172705036784],[2.090633093730084,46.25204052144063],[2.090309319921974,46.25199470831359],[2.090179706078729,46.25190451894509],[2.089854987211581,46.251993777841335],[2.088034709113018,46.2530247339612],[2.086672436214914,46.25297688891427],[2.08568463667258,46.25382627209315],[2.088421003576654,46.254852320817875],[2.088020125529853,46.256083748832154],[2.087952328834197,46.256802736345584],[2.087561706271742,46.25702744225768],[2.088269384897989,46.2584235447047],[2.088268998276335,46.258602748837525],[2.087682476675572,46.259051921300525],[2.087679031143439,46.25972639727974],[2.08696647584352,46.25963513320859],[2.086190175387615,46.259318218207184],[2.085608072042932,46.25895693041027],[2.085166602791741,46.25895968717186],[2.085094562068155,46.25930851740548],[2.085539883964862,46.25954173309969],[2.086249300351037,46.260443466011104],[2.087352500005685,46.26031093120494],[2.087479633262717,46.26094052642884],[2.089031474626176,46.26123392325571],[2.08873575665948,46.26168362681131],[2.088534613999379,46.26269152017899],[2.088118841128408,46.26325462928816],[2.087356215213265,46.262892805417835],[2.087056303015844,46.26296964811852],[2.085964076477474,46.26259706631069],[2.085303510310293,46.26257825265118],[2.085604301669921,46.262993115820606],[2.085726187133405,46.26346957921373],[2.084872777171269,46.26372387861058],[2.084089851187885,46.264576696569335],[2.083959178237014,46.26493676129649],[2.084733435620615,46.26561298931623],[2.08453730398992,46.26592750146298],[2.083756601133913,46.266645254308784],[2.083496155246516,46.266689986021404],[2.081815355683949,46.265561575803346],[2.081491297339241,46.26560578985607],[2.08109866442383,46.266099719099124],[2.081419109745222,46.267045169391764],[2.08031082538218,46.2681672992038],[2.078878629371111,46.26924357253833],[2.078876589441782,46.269828005916175],[2.07906995735914,46.27014385825285],[2.079587105001463,46.27027951866398],[2.079782549101268,46.270935790209066],[2.079237928093216,46.27150683162715],[2.078602442465417,46.27246076480935],[2.079047235571328,46.2721896989357],[2.080483629511364,46.272801066582566],[2.080935558735091,46.273342336774725],[2.080616015181387,46.27396563137725],[2.081058660034726,46.27413220199689],[2.08199695497472,46.27463506653288],[2.079991227580426,46.27806974155336],[2.079983428072424,46.27830201738821],[2.079842251806156,46.27851070210746],[2.079266491855408,46.27915263472676],[2.078431266256807,46.279544817034875],[2.077668175869476,46.28035722841005],[2.07755089721109,46.28199886019651],[2.07761093984002,46.28236676607635],[2.077476127033356,46.283198671815924],[2.077758063514207,46.28404205773863],[2.078095487084407,46.284522074710274],[2.079523640406546,46.28386542745169],[2.079717721674677,46.283910221733535],[2.080169520809758,46.28454154637315],[2.078527745852107,46.28515594937012],[2.079140967000892,46.28576607052138],[2.079947050913818,46.2856447089055],[2.080659338483492,46.285307356070994],[2.081393912420795,46.28611836365461],[2.082622762609638,46.28720080806802],[2.082231146435693,46.287470515770586],[2.081842229921062,46.28742415541045],[2.081582227056022,46.2875139138854],[2.081589078430124,46.288499156652996],[2.082492704085291,46.28876039089903],[2.083356817304972,46.289132065926374],[2.083623133099375,46.28936384575482],[2.083889251581341,46.28991801544063],[2.084684412837157,46.29021978421554],[2.08565463692465,46.290851648550586],[2.086303527533602,46.291123414373246],[2.086949435613338,46.291574359195174],[2.088571530155507,46.291757551671395],[2.089025044226871,46.29198361199702],[2.090257832895797,46.29198626057857],[2.090668449394903,46.29119796870069],[2.091517334217414,46.29092737764195],[2.091520805960015,46.29134435323629],[2.091038222817438,46.29153862096491],[2.090906247251671,46.29189778188632],[2.090969477661081,46.29239268046342],[2.092007601996731,46.29230550387114],[2.091752410455989,46.2939838680149],[2.09324392019142,46.29421277973464],[2.094789903136296,46.294290814892214],[2.095355579823464,46.294257486352215],[2.095404502445202,46.29279090386604],[2.095870244603681,46.292672128941874],[2.096156750983347,46.29325884972572],[2.096352163246232,46.29330452633938],[2.097197126115396,46.29303566293271],[2.096802376616171,46.29239495503708],[2.097353493371669,46.292061623271955],[2.097654196410526,46.292181975854874],[2.098040954242159,46.29299281846763],[2.098884406780315,46.29281488464576],[2.099013207487546,46.293040136558886],[2.099006965886096,46.29452416754339],[2.099979624149357,46.29470656045825],[2.101020523733844,46.295084899433334],[2.100940090769193,46.294603379557856],[2.099826352503916,46.29233514353908],[2.101615487981335,46.291605427670724],[2.10213453461495,46.291561792042444],[2.102588280441616,46.29169774637453],[2.102911592013231,46.29210373236668],[2.103431394538705,46.29201416953221],[2.103432083721184,46.29165486196702],[2.103561989291483,46.29165498388544],[2.10485795330436,46.29224241800689],[2.104855800900875,46.29269176734035],[2.107698529711603,46.2956218930473],[2.107892661036635,46.29566753967601],[2.108282727707344,46.295488686209794],[2.109321464162361,46.29544548250821],[2.109840957034952,46.29553599439678],[2.1101646749116,46.295761855700356],[2.110368316091274,46.29666127717591],[2.111280243096624,46.29634780587284],[2.11191299259269,46.29666522534772],[2.112106822289714,46.29689006829182],[2.111325619745092,46.297473825255175],[2.111259042064165,46.29765341230131],[2.111387905085286,46.297878650101985],[2.111320022925133,46.2987786527254],[2.111643049911261,46.2990486302322],[2.111835507587939,46.29967870221613],[2.110730678175468,46.29994654654909],[2.110665558751789,46.30003609141448],[2.110987920996169,46.30066717884906],[2.110071744749978,46.30099772515532],[2.10772755008311,46.29934041991612],[2.107097236930667,46.29966957884571],[2.1070963324136,46.29980465164129],[2.107612984117429,46.30039044393661],[2.107935496527762,46.300930587652815],[2.107870371359847,46.301020130910786],[2.107091383774108,46.30106355728872],[2.107026242374548,46.30115400048012],[2.107605733285607,46.30218965077168],[2.109619219975452,46.302058618186564],[2.10968271290419,46.30214916759712],[2.109291053346473,46.302822405679755],[2.109484713367554,46.303138205246064],[2.110261770282767,46.30345495994409],[2.110259002659951,46.30426451637598],[2.110452449576211,46.30435427905074],[2.110268556930899,46.305674823540684],[2.109012551451093,46.305084165146994],[2.10792641099113,46.30475597709919],[2.107348561240422,46.30449389892716],[2.106621891446255,46.304752059020444],[2.106672945264785,46.306400432983246],[2.103967033795598,46.30706629066733],[2.09957931377177,46.307036202130114],[2.100309548891664,46.3083828638849],[2.100307539682011,46.30874216051452],[2.099723165965907,46.30887622667341],[2.098035191233568,46.30887278271905],[2.097321621366297,46.30896078715737],[2.097255155098269,46.30905121438836],[2.097830480048454,46.311121593336985],[2.097051897105916,46.31120998206279],[2.096531729253029,46.311388666973464],[2.096852523957711,46.312108934666526],[2.095747925587242,46.31242166436697],[2.095556163530524,46.31183659715924],[2.095361430105391,46.31174589853827],[2.09373872028524,46.31156280315041],[2.091857821088512,46.311198420931554],[2.089198539891135,46.31083319134796],[2.087834826777221,46.31078536050783],[2.086591158015843,46.31094199642391],[2.083477247016079,46.308705278631805],[2.080860977490572,46.309812573764866],[2.080053134908722,46.309012682741375],[2.079793998597995,46.308967364489625],[2.078367721163849,46.3095510904337],[2.078184627093185,46.31193422665673],[2.07793572370036,46.31313172553206],[2.077549088943995,46.315791478130414],[2.077125104172622,46.31727302709856],[2.075675610564207,46.32121642770205],[2.075724165184054,46.3224199355223],[2.075581470112394,46.32340306222496],[2.07485711511364,46.32534504029067],[2.074732978341696,46.32546020149655],[2.074866254105717,46.32549640421626],[2.074406674575563,46.32669128384144],[2.076272009864816,46.32784829367261],[2.076480389627179,46.328518178260126],[2.077153605081335,46.32968351810334],[2.078196088852621,46.33046100906426],[2.078615536019198,46.331028134140894],[2.078899646361258,46.33121774122124],[2.07889106973956,46.33134104493957],[2.078386451864746,46.33166205850494],[2.077591573314921,46.33169525239275],[2.077196213562178,46.33178120515288],[2.07690247760479,46.33193101689684],[2.07655884372085,46.332264132452124],[2.075673531667515,46.332493797187816],[2.074091347223646,46.3325719102571],[2.074161107069767,46.33275168305017],[2.074743250111857,46.33338318106599],[2.075713681503514,46.3341952300248],[2.075265374343326,46.33472020709111],[2.07604846075631,46.33484902943555],[2.076714476036319,46.33567481120351],[2.077383578706185,46.33577928712559],[2.077604348668238,46.335717135878205],[2.078320251677806,46.33535911118227],[2.078633372478951,46.33483122869233],[2.078957085113649,46.334832043613964],[2.07969457505174,46.335044221934],[2.080174070763012,46.33451767839672],[2.081578683301282,46.3342552419412],[2.082721111928519,46.33419870175973],[2.085957430937743,46.334408406470075],[2.087310865486959,46.334172505195866],[2.087867212129595,46.33402206685236],[2.088306614926037,46.33378964273488],[2.088566333147873,46.33349544478016],[2.088701429299936,46.333111997928924],[2.088839282775174,46.333031151553094],[2.089384959676404,46.33289592965562],[2.089931791777717,46.33292551163461],[2.090373163056697,46.333120847761975],[2.090715159194776,46.33342885642995],[2.090992788349921,46.33385522087615],[2.091877079249488,46.33438907971456],[2.09299012250223,46.33555512337327],[2.093373409322612,46.33619754911523],[2.09433196712943,46.33680402132928],[2.094519495048067,46.336864045484376],[2.094986828686493,46.33682903373171],[2.096378918577656,46.3363006592706],[2.097680609061154,46.33604891573761],[2.098500388904035,46.33616436574571],[2.098524387193439,46.33644371979479],[2.099087441054306,46.336832697187575],[2.099903916114237,46.33714982949855],[2.10146407783854,46.33849672185344],[2.102258881595841,46.33807703324672],[2.102908960763595,46.33807764804234],[2.103686651730847,46.33830439478868],[2.103946107365174,46.33826050743877],[2.105470110331031,46.33562582145942],[2.105926943917978,46.33543669213396],[2.10629491172554,46.335116287628274],[2.107240070199506,46.33455996254595],[2.107644670988118,46.33454331889907],[2.107937237180523,46.335257927082004],[2.109264529897844,46.33766010972967],[2.11002122371724,46.3381396974867],[2.116018259268232,46.34035392649269],[2.118442391175881,46.34153257562775],[2.124072355698779,46.34032423851314],[2.125646352028609,46.339872550079136],[2.126058325740094,46.33964067166394],[2.126246712240333,46.338673149637486],[2.126230599855007,46.33724028900548],[2.126429777521299,46.33624763445777],[2.126647755080529,46.335868381996725],[2.127007373484917,46.335574863393205],[2.130848420727247,46.334888295804916],[2.132512944428671,46.334945100608145],[2.133468237824573,46.33463448076428],[2.133133781180319,46.33449145587178],[2.134170046046857,46.33423907957867],[2.134915686554108,46.334195211729664],[2.136826852468857,46.33427453724051],[2.137549155820055,46.33414402504847],[2.139794860824964,46.3341141662742],[2.140860009958625,46.333924083615045],[2.141245867257611,46.333112916705716],[2.143205635313518,46.32992179578076],[2.143924822229974,46.32857371057402],[2.144250938441215,46.32816912218274],[2.150556190582748,46.32629096582274],[2.150363292154126,46.32557090950963],[2.149976338787527,46.32554461063379],[2.150181408291373,46.32506255817635],[2.150094862030816,46.32486019532365],[2.150885907334542,46.32489670927394],[2.15120946468223,46.32498737074648],[2.153485596330367,46.32422624601782],[2.153099189985684,46.32332555260099],[2.152321971371334,46.32264978427316],[2.152452141405894,46.32246974694338],[2.154144406595913,46.32121348032142],[2.155044838543645,46.320728473457606],[2.155086774974224,46.32053787319441],[2.154962980549463,46.32039016984791],[2.154176596672107,46.3201402939819],[2.154231055160347,46.319223964074304],[2.154408621478802,46.31900375267919],[2.155930025500342,46.31904024601894],[2.15641354540552,46.31718424309348],[2.157188489350857,46.31640291861952],[2.155659884354319,46.314648186684764],[2.155465041346861,46.314557590831946],[2.155333856367891,46.315141959750264],[2.155006235581057,46.315906778096085],[2.154876890304474,46.31595084515216],[2.153579827956226,46.31536398175319],[2.152735779471383,46.31531808612025],[2.151697218942955,46.31549586773192],[2.150398909839293,46.31549430010061],[2.149881256792344,46.3146835685022],[2.148582879283863,46.31477113158431],[2.146508278556631,46.31404779836221],[2.146186222018123,46.31328263997389],[2.145536344355937,46.31337142336671],[2.145342915097058,46.31319166852344],[2.145343725419572,46.313056595641015],[2.145733211157062,46.312831683088945],[2.14567005825882,46.31238184693526],[2.146060823201687,46.312157843409736],[2.146190392016354,46.3119327822222],[2.146127833201007,46.31152797707199],[2.145480712637192,46.310942286268364],[2.145999204953264,46.31094347191877],[2.1468430757042,46.31107946932979],[2.14639391237999,46.309549712829735],[2.146557816997949,46.30670617660043],[2.147220264037681,46.30672284363872],[2.147251686411062,46.30545693803632],[2.147772642492086,46.30496284465221],[2.148033203883854,46.30491886652389],[2.14822801428427,46.305008574759235],[2.148681488767871,46.30500926252305],[2.149137049334395,46.3048757855742],[2.149915073712839,46.30514634819315],[2.150174434128179,46.3050123035524],[2.149982016778721,46.304517379518586],[2.150827267250055,46.30388881138174],[2.151865840438817,46.30411537559124],[2.152710873201757,46.303666897330366],[2.152777701445643,46.3031270784325],[2.154921489258557,46.30254595158184],[2.154986553149824,46.302455481035516],[2.154015137669735,46.302004312199],[2.154016111983393,46.301689135170335],[2.154275538322552,46.30146502918195],[2.154600445543033,46.30137558698918],[2.154925077850294,46.30155629975721],[2.155184241165534,46.301601447159996],[2.155249289600534,46.30151187687752],[2.155639861504105,46.30137699177438],[2.156157906392711,46.3017383390492],[2.157000273411008,46.30196430371249],[2.157193613722421,46.3022340909481],[2.156867307296421,46.303088977308605],[2.158489284222554,46.30331619500137],[2.158881132602409,46.30250681439927],[2.159660099465774,46.302463033922756],[2.159985929928511,46.302059299741835],[2.160504960734904,46.30210454973443],[2.160764049571574,46.30223973640092],[2.160631405829585,46.303094258506775],[2.16115027109649,46.30332050987658],[2.161407598161595,46.303995096739534],[2.161618541965169,46.304050680738236],[2.161809777641206,46.30496882254294],[2.162702172934855,46.30498709117649],[2.163285197066113,46.30543803479577],[2.163671427818627,46.30660795083644],[2.1643831201562,46.307058932439595],[2.164772796686909,46.307239193042655],[2.165031368985556,46.307240187722414],[2.165292163779486,46.30692511397068],[2.166265045152085,46.30737709633554],[2.166524317593733,46.30733216600109],[2.166915932764983,46.30670286196743],[2.167889718096638,46.30683965351579],[2.168603091426093,46.306840358658235],[2.169834264801225,46.30774175524917],[2.169832765213783,46.30801190150863],[2.170416011937997,46.30828270467795],[2.170676584575764,46.30823777435988],[2.171196724567615,46.30769944378768],[2.171650839385155,46.30774507081287],[2.171621858811624,46.308028525092034],[2.171941886694921,46.308777385478514],[2.171689820828882,46.30963375229859],[2.171809565741699,46.31013621432959],[2.17242302676,46.31012986532466],[2.172944480511948,46.30959063590097],[2.173657815701751,46.30968226171337],[2.174371727600616,46.30990806517919],[2.174566024133654,46.3098635462077],[2.174766839418777,46.30774967164288],[2.175027522371721,46.30752462754393],[2.174769228159657,46.30707429638758],[2.174900748255161,46.306624987174985],[2.175815685709074,46.306528949643685],[2.176845657115182,46.306646259426074],[2.177234604310455,46.306013299408434],[2.176426483642218,46.30566075927427],[2.17675176241683,46.305286691336484],[2.17606876189087,46.30490983790204],[2.175277052381754,46.30493562799994],[2.175486895759021,46.30411676979723],[2.174714001974269,46.30401571822315],[2.173094700945897,46.30257394467581],[2.172511564154888,46.30221310308075],[2.172317481111691,46.301987462684174],[2.172643104716202,46.30176289580755],[2.17244900911121,46.30153815604927],[2.171995071523825,46.30131242822495],[2.171541947106499,46.30086157336394],[2.171326784890489,46.300312489591654],[2.170215039565681,46.299427286238284],[2.167589303588493,46.297630493710706],[2.168427504633645,46.29693240484506],[2.168455374683498,46.296637236020544],[2.168053382082004,46.29581842493614],[2.167663649119123,46.29581737895699],[2.167470491768499,46.29527745321154],[2.168249963696271,46.295278644732846],[2.168319151758219,46.29397428853881],[2.169230478992689,46.2930759106843],[2.169231297803218,46.29285078528306],[2.167935509262576,46.29194980672994],[2.167483180549402,46.29145391397992],[2.167548267299499,46.29127428450805],[2.167873846739533,46.29104973100268],[2.168132970986845,46.29109484900055],[2.168456903036117,46.29132054470082],[2.168976645177646,46.29114153114014],[2.168912779227191,46.29055662396191],[2.16865605162236,46.289926183427724],[2.169565055340147,46.28943302269614],[2.1676874885373,46.28844044613662],[2.167687558804566,46.288350394038545],[2.168924423407966,46.287137411990415],[2.168277485882701,46.2863717448847],[2.165486816736412,46.28632251450898],[2.164514000283773,46.28623163337044],[2.16438639629847,46.285826360724904],[2.165099644795689,46.2856469835607],[2.166140761804226,46.28474958164861],[2.166596196964348,46.284525082043395],[2.167231032224231,46.283863336134324],[2.16628549111634,46.28343407119102],[2.165817710905273,46.28429875362515],[2.164749641747058,46.28440889451235],[2.163897163329109,46.28358496081593],[2.163362164949755,46.283490979155395],[2.16290636933224,46.28195493252802],[2.161833484270659,46.28187319806043],[2.161421706909172,46.28145232192923],[2.161028427110736,46.28135036728774],[2.161036212235607,46.28024907934475],[2.161743909924202,46.2794951460161],[2.161483131201948,46.27939236703068],[2.161168290462158,46.279088371536986],[2.160536771080966,46.27877033426658],[2.160255771585455,46.27837743336142],[2.159271763250266,46.27826391053359],[2.159114531583006,46.27767740632414],[2.158778290141324,46.277246271486895],[2.158956201601903,46.27690898702157],[2.158927124635777,46.276772792494555],[2.158525558867919,46.27645193929288],[2.158058776531367,46.27623416321961],[2.156545222104638,46.274837949192204],[2.156442464073493,46.274342797699],[2.15624915076185,46.2741621601912],[2.156509042473182,46.27398307938916],[2.156549234079221,46.27365018144479],[2.157614076987857,46.27339961242104],[2.157874739435103,46.27308545494178],[2.157874998590974,46.2728152982365],[2.157486369516568,46.2724999398318],[2.157226488040997,46.27267902289128],[2.156968065227001,46.2726789109222],[2.156791809519518,46.27189684723347],[2.155544152526514,46.27137249821472],[2.1545084545,46.27083079834253],[2.153600866474804,46.270739405487575],[2.153926752507774,46.27015468235192],[2.153119809173077,46.26968581097127],[2.1533862162188,46.26933658566353],[2.152892945415836,46.269073564205826],[2.152763093329924,46.26907349854631],[2.151593077961151,46.26974648722317],[2.151069728369949,46.27100512909466],[2.150537942705625,46.27138298756089],[2.14952209645588,46.27065317930907],[2.148196287143727,46.27006692913808],[2.147958436544299,46.27041455518979],[2.148605090661931,46.2710011348759],[2.148925431674585,46.27194638465767],[2.147046227802341,46.271537890679355],[2.146915355237513,46.27185299631843],[2.146137515713239,46.2718516685496],[2.14600808064482,46.27149138623921],[2.145878925108375,46.271446291478775],[2.145229436292007,46.27162512575436],[2.144256819898114,46.271623223271305],[2.143541697255588,46.2718465812059],[2.141722363166644,46.27292342463226],[2.140944965476596,46.27256185250121],[2.140428104728021,46.2720662619342],[2.140103565352854,46.27197645995352],[2.139781743759754,46.271300431833744],[2.139652593801662,46.271255330010206],[2.138548474008942,46.27152344489464],[2.138366925805194,46.271177167714335],[2.138454490331825,46.27015122459467],[2.136085487776665,46.270754641031424],[2.135827088307595,46.270753580659324],[2.13568124554718,46.269956403618686],[2.134186432892198,46.268735631953206],[2.133311426575835,46.27003564669097],[2.13193819201632,46.26966767407612],[2.131224733692018,46.26962080787759],[2.131096946939057,46.26908131438574],[2.130902890530931,46.26903570717676],[2.13038394878167,46.26916952623703],[2.1292806749692,46.269302477905484],[2.12915068875859,46.269392437557464],[2.12901901655711,46.26975164341692],[2.131028463175133,46.27020555664005],[2.130767267550601,46.27078980942756],[2.130958678167975,46.27132978881628],[2.129791141712349,46.27141812913928],[2.128947403052577,46.271641313336694],[2.1281026699288,46.272089616843004],[2.127712389449975,46.27213345531486],[2.127518719617014,46.27181858613077],[2.126416822038102,46.271861467749],[2.125963181441318,46.271725608063356],[2.125316607029972,46.271229852498905],[2.124732412297966,46.27113801149169],[2.12498912505717,46.27181358324784],[2.12476487412586,46.27268177448743],[2.124229449232816,46.27278752260684],[2.123418656408145,46.27257235994877],[2.123484786553498,46.27225408033155],[2.122667339181757,46.27213071538728],[2.122323435336553,46.272521598040484],[2.123292159837392,46.27276770224895],[2.123324551272031,46.272934550257446],[2.122840136995642,46.27317936670902],[2.122130897771116,46.274486878124506],[2.120973334008398,46.27556669249748],[2.120630499960531,46.27499941115961],[2.120111050074793,46.27499810003775],[2.118552202373439,46.27567044919446],[2.11796442751143,46.27652410616807],[2.117834572318411,46.27652310025363],[2.117707053846967,46.27589353995223],[2.117968109128667,46.27548942177489],[2.117582020390935,46.27494881195589],[2.116741156002185,46.2741822421604],[2.116546367050446,46.274181631561525],[2.115571783971546,46.274539682698915],[2.115506546612476,46.274719282745274],[2.116152763387149,46.27539519817507],[2.115568057134765,46.27557436711419],[2.115175604670137,46.27647365309424],[2.114267418659669,46.27633691566111],[2.113425067454309,46.27606470290814],[2.112842752262914,46.27561440325295],[2.112453894072106,46.27556814736475],[2.112323865343537,46.2756580877481],[2.112257563191549,46.27606281124649],[2.112451321369556,46.27628765409129],[2.112449539520134,46.27655780043194],[2.11214550320839,46.27656623668769],[2.111802373095915,46.27610248729446],[2.111787233354514,46.275834910538585],[2.112049235170491,46.27553527494467],[2.111554228491393,46.27322694630338],[2.111062085894428,46.27298446356873],[2.110795929468726,46.27298058430794],[2.110564164024624,46.2725384126844],[2.110560410211126,46.27228983578306],[2.110748387490926,46.27206977247475],[2.110696558272881,46.271902768758764],[2.110485010405441,46.27165527030533],[2.110032395673992,46.271378871405744],[2.109880741281674,46.27112193402292],[2.109754315700188,46.27107051564797],[2.109049809677745,46.27111183293212],[2.108797669689874,46.27088562644445],[2.1089152615841,46.27020304066628],[2.108915900104157,46.268408279014515],[2.108137545428485,46.268361660470475],[2.107932102014905,46.267342445912625],[2.107196516618721,46.267620348718076],[2.105474886373952,46.26752938908858],[2.105098766935296,46.26615131501699],[2.104001770761669,46.264709933893805],[2.103028364775822,46.26484275250754],[2.102835614976603,46.26448191969824],[2.102837045284832,46.26407759011196],[2.103551846817537,46.263719404180556],[2.103704577371029,46.26343153454464],[2.102874058206079,46.26324488554157],[2.101660853826348,46.26272111218779],[2.100680404461138,46.26028012033374],[2.10043033167193,46.25851039000837],[2.100861531003977,46.25502061236651],[2.103527628149279,46.25488764928245],[2.103398581414812,46.25404733218066],[2.103853667973626,46.25400318753305],[2.104049434098994,46.25346350578655],[2.104958124382266,46.25346525160318],[2.105671443886819,46.25279095303516],[2.105165542053769,46.252529423291755],[2.103791563895753,46.25216560251049],[2.103732661765537,46.251798619992705],[2.104835644987455,46.25166591565738],[2.104319482538762,46.25108010786071],[2.10470891059108,46.25108047013741],[2.105680816437082,46.25126281516914],[2.105488096949762,46.25090198637794],[2.104712493384952,46.250225888354215],[2.104648665947581,46.250001152447986],[2.102709426073269,46.24864768153941],[2.102120879379837,46.2485214673758],[2.102383491253876,46.24905125400317],[2.102747124124444,46.25038781761832],[2.102201742086654,46.25047807336661],[2.100952753745468,46.24985855024738],[2.099129313589725,46.24873106681123],[2.098564441885801,46.2482709218633],[2.095222657206679,46.246736002076126]]]]}}]}