{"type":"FeatureCollection","name":"COM_17468","crs":{"type":"name","properties":{"name":"urn:ogc:def:crs:OGC:1.3:CRS84"}},"features":[{"type":"Feature","properties":{"fid":4286,"ID":"COMMUNE_0000000009753915","NOM":"Vibrac","NOM_M":"VIBRAC","INSEE_COM":"17468","STATUT":"Commune simple","POPULATION":159,"INSEE_CAN":"07","INSEE_ARR":"1","INSEE_DEP":"17","INSEE_REG":"75","SIREN_EPCI":"200041523"},"geometry":{"type":"MultiPolygon","coordinates":[[[[-0.347866393014006,45.36448419920989],[-0.347195650131264,45.36381209005279],[-0.346267023034839,45.36354964730938],[-0.345026881523746,45.36306037663006],[-0.343727777392082,45.36239801043348],[-0.34248582104981,45.361579809123775],[-0.344413443598876,45.36010816422718],[-0.343360290982387,45.35945286777392],[-0.341526641534881,45.358892063512386],[-0.33767371636925,45.35889345679693],[-0.33601361808391,45.358368847120374],[-0.335460178624257,45.35839164866236],[-0.333313832060819,45.35677024673655],[-0.333709589210086,45.35639886159854],[-0.332292374933539,45.35574439613152],[-0.330698070756937,45.35471485668923],[-0.330182803458786,45.35447783895788],[-0.330449562318186,45.354150859829495],[-0.329103848599716,45.354006138250554],[-0.328842139813085,45.35390487111412],[-0.328721469237255,45.35400309093458],[-0.326332675319602,45.35353696543234],[-0.325586050282829,45.352893131088855],[-0.324091715771055,45.35239947832247],[-0.322394500933877,45.35081952115956],[-0.322091554691507,45.35009129629279],[-0.321519046214209,45.34983611296808],[-0.321215194363857,45.3494350645266],[-0.321031414286362,45.347276633661984],[-0.320843878876682,45.34693972635665],[-0.320695349923766,45.34612129915856],[-0.320234852603321,45.345514907644755],[-0.319599181179198,45.34514262638904],[-0.318306505260717,45.344811454874446],[-0.318589282411874,45.34447411662166],[-0.318772076197704,45.34396039574813],[-0.32149754234293,45.34463657876226],[-0.322898366009242,45.345237579462385],[-0.324932834576976,45.343758593743786],[-0.327078432206612,45.34255835392313],[-0.327524606501533,45.34185563509417],[-0.328412160513896,45.34077658477829],[-0.327948136011267,45.34064618668454],[-0.32767070798171,45.340323680219655],[-0.328247352498096,45.33992260008684],[-0.329401535904975,45.33928533158381],[-0.330617228383026,45.33890758102258],[-0.331623776575522,45.33883615920423],[-0.332754964206331,45.33909627997554],[-0.333300378709075,45.33911338014144],[-0.335792920993973,45.33854792166375],[-0.336137716258585,45.33854395099829],[-0.337124716225113,45.33874343690429],[-0.338065505957587,45.33855585425693],[-0.340980350815449,45.337575721240796],[-0.343017155667362,45.33648836101719],[-0.343764715321084,45.3361695115596],[-0.344114372591101,45.33662951546691],[-0.344370256115359,45.33680482181636],[-0.34449587233517,45.337194013264885],[-0.344945601199472,45.33768166645674],[-0.346406214310557,45.338659113833074],[-0.346716435971217,45.339036473687734],[-0.346916660853086,45.339135931699005],[-0.346670719876315,45.3394875667036],[-0.347002815492304,45.339633550737595],[-0.347374306452827,45.33943587872025],[-0.347504011261571,45.33944641863642],[-0.347817089770709,45.33984982676603],[-0.347976074107701,45.340347068948084],[-0.348228609546383,45.340742373835816],[-0.348902178807619,45.340934913750395],[-0.349043313418416,45.34128398194774],[-0.349537352637517,45.34144493978581],[-0.350034860119034,45.34185453834259],[-0.350047123077512,45.34207948521879],[-0.350324665844237,45.34257137319961],[-0.350463874534022,45.343801025269435],[-0.35123659124274,45.34485398823438],[-0.351669905904023,45.34585222189946],[-0.351638671605129,45.34601267991046],[-0.351376465742176,45.34617915377568],[-0.351340835616849,45.346542526220766],[-0.351925515781215,45.346891827493856],[-0.352453737478992,45.34755555376923],[-0.352434661392679,45.34802387814456],[-0.352558624843074,45.34838427301333],[-0.352333150716224,45.34869384989078],[-0.352608953734285,45.34892261905014],[-0.352812236200445,45.34932660184159],[-0.351892797680331,45.349658767884904],[-0.351666310021796,45.35020630570613],[-0.351758799466176,45.35042614661503],[-0.351730026627674,45.35088214368308],[-0.352021023708927,45.351511519603655],[-0.352005892636202,45.35185445099671],[-0.351736955611492,45.35201571912972],[-0.352397422012791,45.35224288307099],[-0.352424224158218,45.352433147130306],[-0.35198170149352,45.352874498952154],[-0.351862708887544,45.35389107731907],[-0.351581484726697,45.35410318327615],[-0.351692819772332,45.354572108927854],[-0.352222178934392,45.354638270447694],[-0.352552135943176,45.354959149898676],[-0.352580962284044,45.35528904862889],[-0.353143795641162,45.35605898844065],[-0.353156795902085,45.35672012365941],[-0.352974852639352,45.35717980894961],[-0.35322274943101,45.35787806940934],[-0.353157851154627,45.35798906602192],[-0.352903120146625,45.35808952636228],[-0.353129155153458,45.358276526341726],[-0.352977297895406,45.3586415792989],[-0.35329997004573,45.35875628723165],[-0.353339040342227,45.35906515030814],[-0.35319899615237,45.359392898032176],[-0.352848431676775,45.35962150399518],[-0.353332302112529,45.359759322623844],[-0.353406796585117,45.35984992078021],[-0.353219610710985,45.36024397151791],[-0.352576902866599,45.360652566930106],[-0.352693793065198,45.360895110059445],[-0.352580847835947,45.36112110408026],[-0.352985922345966,45.36111798408408],[-0.353189607195486,45.36118849000232],[-0.352954005329919,45.36156416276162],[-0.35307985349055,45.36187042681883],[-0.35296943088,45.362711005437795],[-0.353162976720499,45.362973783831556],[-0.352580292505268,45.363169685580075],[-0.352979148197273,45.363338893102934],[-0.352859639700701,45.363731817208944],[-0.353033044446527,45.363957346244135],[-0.352227993397292,45.36440955518284],[-0.352407332068007,45.36475477518296],[-0.352372521911853,45.36528035135739],[-0.352253885678537,45.36556059097827],[-0.352428995873412,45.3656022128312],[-0.352742689539476,45.36546123442537],[-0.352873561643609,45.365553749812506],[-0.352685660257635,45.36580902658876],[-0.352277285510088,45.36588524542879],[-0.352208660187589,45.365955796176195],[-0.352349738131097,45.36609036585126],[-0.352880009107003,45.36629709713472],[-0.352686407903697,45.36650027143197],[-0.351984313374726,45.36670965890923],[-0.352012225468256,45.36698190521323],[-0.35238067697282,45.367049282323514],[-0.352543642295458,45.36720753051299],[-0.351921007832264,45.36752629414559],[-0.352002187636068,45.36764283000563],[-0.352436088277863,45.36769292599791],[-0.352342109808441,45.36791564785584],[-0.35239260597994,45.36803220100613],[-0.352636973014104,45.368034797202014],[-0.353025796494494,45.36782487508104],[-0.353155376849568,45.36785343947435],[-0.35331003459717,45.36804347968623],[-0.353362315446364,45.36827443924719],[-0.353177303750139,45.36832324128698],[-0.352504134607467,45.36827039932133],[-0.352265870849022,45.36858125895361],[-0.352727883349207,45.36892792858545],[-0.353295752856674,45.368654962888066],[-0.353461191463014,45.36887532299245],[-0.353493497127007,45.3689870130564],[-0.353080457789593,45.36904985499638],[-0.352849252578851,45.36966873599107],[-0.353230420824606,45.369861906728275],[-0.353692454558739,45.36980570814324],[-0.354109389519815,45.370019434911036],[-0.354074271537891,45.370094390503766],[-0.35372536677822,45.37016072080202],[-0.353633269050788,45.37030858276902],[-0.353283187252951,45.37046146804616],[-0.353671591892526,45.370922996929245],[-0.352304662478043,45.3705403409536],[-0.35176730521454,45.36998322717894],[-0.351551014589845,45.36923714924715],[-0.351102300177828,45.36855931417139],[-0.34918237892375,45.36716663901016],[-0.347866393014006,45.36448419920989]]]]}}]}