{"type":"FeatureCollection","features":[{"type":"Feature","properties":{"fid":32,"ID":"COMMUNE_0000000009754793","NOM":"Lamarque","NOM_M":"LAMARQUE","INSEE_COM":"33220","STATUT":"Commune simple","POPULATION":1335,"INSEE_CAN":"30","INSEE_ARR":"4","INSEE_DEP":"33","INSEE_REG":"75","SIREN_EPCI":"243301447"},"geometry":{"type":"MultiPolygon","coordinates":[[[[-0.697897124443746,45.10691454092662],[-0.694640727914678,45.10024775105089],[-0.692083242254009,45.09496029155643],[-0.689400093933807,45.088899067982176],[-0.688818504480859,45.08789526454021],[-0.690109807433293,45.08754512187802],[-0.690243029310425,45.08761642415467],[-0.690465084339507,45.08756850506039],[-0.693432751084633,45.08664988229039],[-0.693686895632183,45.08639447615835],[-0.694041115927474,45.085689566577955],[-0.694345671503653,45.08554245537296],[-0.695861911798026,45.085343425488674],[-0.697360682178371,45.08524590945922],[-0.699173531722387,45.085299290034676],[-0.701293889835416,45.085500165220466],[-0.702861780214538,45.085562527571334],[-0.704911019227114,45.08536187762372],[-0.70676844461088,45.08480160979766],[-0.707100457814616,45.08466616812194],[-0.707473936987004,45.08433103971429],[-0.708441044127753,45.084083411233074],[-0.708937618646627,45.08385865527396],[-0.709959241663216,45.083608296332415],[-0.711230055268542,45.083412721885004],[-0.711942055549779,45.08334753066147],[-0.71574835505158,45.08377947226815],[-0.715442823834205,45.082570982653145],[-0.718942190235532,45.08246320268042],[-0.718983822529848,45.08196063748],[-0.721048510987741,45.08187995572235],[-0.722085195144164,45.082048128454005],[-0.723525677027703,45.08245247918454],[-0.725764643513622,45.08250469893569],[-0.727029781098421,45.08293109646541],[-0.727013056586719,45.08300466940538],[-0.727234401100025,45.083061261465865],[-0.729504866481667,45.083527898219195],[-0.730042765604435,45.08354233531538],[-0.731542434011291,45.083097286658166],[-0.733960600014833,45.08202199456021],[-0.734463835430631,45.08191768552934],[-0.736581703094958,45.08230907021649],[-0.736202592101969,45.083490007601014],[-0.735626387938866,45.083416490974976],[-0.73556458768084,45.08346273255233],[-0.735555739532632,45.08445367151916],[-0.73577889281418,45.08503209912095],[-0.736288630294639,45.08506277506275],[-0.736522421559459,45.0846961732748],[-0.738122047679117,45.08481376399538],[-0.737722881943685,45.086684054309956],[-0.7385353547761,45.086846081632885],[-0.740111586320452,45.0869743467791],[-0.739723509775449,45.087963600451],[-0.739604336565639,45.08914934558081],[-0.739130663568827,45.09095183523333],[-0.738683318448543,45.0918547363827],[-0.739948083323093,45.091947490417745],[-0.745758680855182,45.091075289547256],[-0.75002979503963,45.090190619169825],[-0.750491670236647,45.09049326723296],[-0.750616949126135,45.0904448797355],[-0.750598365069986,45.09013001098558],[-0.751304702409518,45.090245042863565],[-0.752337199634826,45.09063122600005],[-0.75216291179562,45.09108690259596],[-0.751807485743147,45.09147927119197],[-0.751888346947368,45.09184973296755],[-0.7508380104299,45.09237367169191],[-0.74984214914183,45.09276145558943],[-0.749228642723406,45.09313906594999],[-0.746148420519702,45.09466872844466],[-0.743020989475685,45.09595199920601],[-0.742284160641607,45.096370670264136],[-0.741388406824846,45.096601772114894],[-0.741129633524632,45.096519420380126],[-0.741009931880327,45.09665144031023],[-0.739235743194759,45.096764189185336],[-0.73743458620129,45.097368179921595],[-0.736764656249678,45.0973987660193],[-0.73529720088503,45.097169444556066],[-0.733934577416327,45.097156533425114],[-0.731620879714245,45.0967184558121],[-0.731021241558078,45.09669617434707],[-0.73053028528148,45.09700557236098],[-0.728996101523149,45.097511244132015],[-0.728418594399806,45.09759186890817],[-0.72832693908737,45.09791583566341],[-0.727777093732342,45.09816319202596],[-0.727540199389147,45.098465877178334],[-0.727245861389418,45.09842254242891],[-0.727032853561566,45.09849186550975],[-0.726663085144117,45.098386151788034],[-0.726235547541305,45.09854016999103],[-0.726048150639664,45.09876457696774],[-0.724481009866088,45.099120752188774],[-0.723204559415681,45.09952307712167],[-0.722541161468203,45.099594822735206],[-0.721128310055909,45.100395592108626],[-0.72041103362064,45.10099644255043],[-0.720037788543033,45.10120180533351],[-0.719792818950683,45.10165167005681],[-0.71949841495398,45.101779582404724],[-0.71935526167277,45.10198086639853],[-0.7190772915401,45.102126256900405],[-0.718641877005454,45.1021434948733],[-0.718343756225905,45.10204347434431],[-0.717543618858998,45.10216482247502],[-0.716278038527715,45.102177298192615],[-0.714759879920151,45.10200888815172],[-0.713365260366252,45.102090533771076],[-0.711192683323731,45.10235942805417],[-0.710644350232254,45.10253543570306],[-0.709012295245651,45.10331630243874],[-0.707907424107189,45.10346845633973],[-0.706132009770107,45.10395028064226],[-0.705334916062457,45.10425261789103],[-0.700810007622343,45.1064040922177],[-0.699433258450689,45.106565189404364],[-0.698095257175319,45.10685027627857],[-0.697897124443746,45.10691454092662]]]]}},{"type":"Feature","properties":{"fid":33,"ID":"COMMUNE_0000000009754794","NOM":"Arcins","NOM_M":"ARCINS","INSEE_COM":"33010","STATUT":"Commune simple","POPULATION":544,"INSEE_CAN":"30","INSEE_ARR":"4","INSEE_DEP":"33","INSEE_REG":"75","SIREN_EPCI":"243301447"},"geometry":{"type":"MultiPolygon","coordinates":[[[[-0.680749809692471,45.07685806034267],[-0.680931201561256,45.07677274418625],[-0.681917689158012,45.07554491321872],[-0.683424416602371,45.07441343879172],[-0.683969156833422,45.07420522940499],[-0.684544501408863,45.07421053154825],[-0.685089482820488,45.074372773197894],[-0.685480589194652,45.07499890443532],[-0.685847039588351,45.07515443183212],[-0.686745405352526,45.07525449194112],[-0.686938242683702,45.075188616904356],[-0.687251063727607,45.07487810162917],[-0.687493605668914,45.0747943550384],[-0.687889433580752,45.07495160719413],[-0.688118259259794,45.07545060220544],[-0.688413776948565,45.07559134452685],[-0.689148566195493,45.075564301013586],[-0.690484386356918,45.07535328566872],[-0.690653288052357,45.07523321328086],[-0.690848284069183,45.074872509439054],[-0.69144837009325,45.07455876993407],[-0.691525421597828,45.0744156008561],[-0.690992952001068,45.07326777030418],[-0.69112677727633,45.072443081586144],[-0.69237513678264,45.07237285082574],[-0.692859838407689,45.07208456174749],[-0.69310806188195,45.072298969931154],[-0.693509521428998,45.07244519865148],[-0.693890454869196,45.07283908454477],[-0.694035788188839,45.07286310758249],[-0.697838802275842,45.07291265364302],[-0.698213485961743,45.07284612793126],[-0.699227234566649,45.073921154958036],[-0.699745517421372,45.07392917548463],[-0.700345207145753,45.07430225242732],[-0.700526255546772,45.074577467470824],[-0.703466481896867,45.07308438137755],[-0.703778251427058,45.0728171178265],[-0.70379035083439,45.07261570685087],[-0.704099943072527,45.07202762214201],[-0.704617570139688,45.0716228074699],[-0.70624480182509,45.07147311233123],[-0.707183247406548,45.07093078804118],[-0.708331987760753,45.07047159058273],[-0.709988897734956,45.06940864810304],[-0.710085538074852,45.069120590110415],[-0.709411531336398,45.06885460232124],[-0.709228912028048,45.068690324035295],[-0.709308849781739,45.068572283745745],[-0.710233068950693,45.06846847909233],[-0.711413593526953,45.06814429790722],[-0.712568169039708,45.0677551677417],[-0.712797831472766,45.06759337269363],[-0.713074242617086,45.06761840814622],[-0.713340783571276,45.06743735435333],[-0.713897529970195,45.067335857816474],[-0.715280872622173,45.06679123997084],[-0.715782431077994,45.0668547265333],[-0.715901688554184,45.06658213275011],[-0.715872105865054,45.06588814944664],[-0.716164265102417,45.065690909817114],[-0.716653976822597,45.06507874595393],[-0.719545225773644,45.064220520418274],[-0.720399815908417,45.06418024920187],[-0.721457424231077,45.0639988784461],[-0.721811331752692,45.06386986767212],[-0.722702417491414,45.06372830409993],[-0.723150338107602,45.063521329904255],[-0.723403927395457,45.063585862214865],[-0.72817124829012,45.06315050082256],[-0.728329851633163,45.06320197759442],[-0.728804567723492,45.063015716019095],[-0.729796301238224,45.06569930317055],[-0.73025013409611,45.065867082728936],[-0.730439315343299,45.066319555186],[-0.731284145531839,45.06626600732493],[-0.733192197960635,45.0652005952808],[-0.734022231269385,45.0650781145049],[-0.735020044554674,45.06504915298245],[-0.735387070268227,45.06515492324361],[-0.736109368877992,45.065932933443406],[-0.736237715932377,45.06596918957855],[-0.736947308133943,45.06585253150603],[-0.737062837318718,45.06590634350812],[-0.737313024335281,45.06660464358672],[-0.737479781138707,45.067234533350025],[-0.737428119571905,45.06754634922607],[-0.736811012204894,45.06788615733801],[-0.736255242142783,45.06805894741993],[-0.737466418386773,45.069984254199355],[-0.736964604600798,45.07014622219989],[-0.73669341171862,45.069838030295784],[-0.736198034732505,45.07007729923219],[-0.736413186151193,45.07074613029003],[-0.736063717760048,45.071893621126065],[-0.73592942441498,45.071882803003085],[-0.735811892304708,45.07229417930487],[-0.735263444681776,45.07293905127389],[-0.735283611746217,45.07329803363936],[-0.73445180204633,45.07318621559206],[-0.733373157636384,45.07320706044741],[-0.733916089331866,45.07497453001245],[-0.735235033804637,45.07616972381742],[-0.735910345425579,45.076261548662046],[-0.735047927667583,45.07731086380442],[-0.735052667134852,45.0774008449937],[-0.735975537083228,45.077446507864394],[-0.735977525508484,45.078256801641174],[-0.736148098853853,45.0790767638337],[-0.73531854908813,45.07991404975043],[-0.735060154363487,45.08122614369637],[-0.73476763362771,45.08168485195748],[-0.734463835430631,45.08191768552934],[-0.733960600014833,45.08202199456021],[-0.731542434011291,45.083097286658166],[-0.730042765604435,45.08354233531538],[-0.729504866481667,45.083527898219195],[-0.727234401100025,45.083061261465865],[-0.727013056586719,45.08300466940538],[-0.727029781098421,45.08293109646541],[-0.725764643513622,45.08250469893569],[-0.723525677027703,45.08245247918454],[-0.722085195144164,45.082048128454005],[-0.721048510987741,45.08187995572235],[-0.718983822529848,45.08196063748],[-0.718942190235532,45.08246320268042],[-0.715442823834205,45.082570982653145],[-0.71574835505158,45.08377947226815],[-0.711942055549779,45.08334753066147],[-0.711230055268542,45.083412721885004],[-0.709959241663216,45.083608296332415],[-0.708937618646627,45.08385865527396],[-0.708441044127753,45.084083411233074],[-0.707473936987004,45.08433103971429],[-0.707100457814616,45.08466616812194],[-0.70676844461088,45.08480160979766],[-0.704911019227114,45.08536187762372],[-0.702861780214538,45.085562527571334],[-0.701293889835416,45.085500165220466],[-0.699173531722387,45.085299290034676],[-0.697360682178371,45.08524590945922],[-0.695861911798026,45.085343425488674],[-0.694345671503653,45.08554245537296],[-0.694041115927474,45.085689566577955],[-0.693686895632183,45.08639447615835],[-0.693432751084633,45.08664988229039],[-0.690465084339507,45.08756850506039],[-0.690243029310425,45.08761642415467],[-0.690109807433293,45.08754512187802],[-0.688818504480859,45.08789526454021],[-0.687770307777679,45.08608665455018],[-0.686368709212443,45.08389583336562],[-0.685207246750199,45.0822387807525],[-0.682711059533698,45.07868610539778],[-0.68172556222252,45.07763073207384],[-0.680992778433871,45.077051035677094],[-0.680749809692471,45.07685806034267]]]]}},{"type":"Feature","properties":{"fid":75,"ID":"COMMUNE_0000000009755007","NOM":"Macau","NOM_M":"MACAU","INSEE_COM":"33262","STATUT":"Commune simple","POPULATION":4575,"INSEE_CAN":"30","INSEE_ARR":"2","INSEE_DEP":"33","INSEE_REG":"75","SIREN_EPCI":"243301447"},"geometry":{"type":"MultiPolygon","coordinates":[[[[-0.571276099025825,45.00732722294153],[-0.569576678018847,45.00647867217851],[-0.557929468858224,44.99981185766084],[-0.55584780766234,44.99539812986883],[-0.557405582275524,44.994465949828914],[-0.559172116055095,44.99282225798657],[-0.560169853185751,44.992492895256696],[-0.561794069537469,44.992487751814544],[-0.561979686913273,44.992410604608516],[-0.562153693707907,44.991611896091385],[-0.561829747699978,44.99077235688648],[-0.561860758560835,44.99048114852318],[-0.56210427917812,44.99025613739448],[-0.562791636472237,44.99061896757147],[-0.563576571438531,44.99077858050995],[-0.564653926505591,44.9911820773296],[-0.565255582764088,44.991235793755486],[-0.565769226288627,44.991383359601535],[-0.567672393403294,44.99202893018451],[-0.573802854881269,44.993850081947826],[-0.578537150728595,44.99508583664496],[-0.580864709526906,44.995391263456185],[-0.583946403413133,44.99610676903282],[-0.585865954227596,44.99706156147113],[-0.587760732491003,44.99786660451472],[-0.588830111803372,44.99857657904441],[-0.590039130880147,44.99912611097568],[-0.590900648392997,44.99819879456758],[-0.591332625156895,44.99796222341292],[-0.591388680344086,44.997826118644824],[-0.593071962434842,44.997016453021956],[-0.593572116943801,44.99655594841201],[-0.593514757479374,44.996335179056565],[-0.593625886951549,44.994761511821004],[-0.593411366959288,44.994724279716884],[-0.593442434894432,44.99433751670389],[-0.59359881924277,44.99439915999791],[-0.594543940273757,44.994004486878005],[-0.596764215932222,44.99376595615628],[-0.598216652741642,44.993498149321134],[-0.598240288964103,44.99271955529999],[-0.598399328969497,44.99197263228744],[-0.598494617846443,44.99193349644911],[-0.600480392389626,44.99207922408037],[-0.600332692433627,44.990295808933034],[-0.600851352715999,44.98967063119107],[-0.600647849918057,44.988698399630756],[-0.6011390976465,44.98863472196658],[-0.601990685925882,44.98890096626651],[-0.603008454872217,44.98942049580505],[-0.603297401926537,44.989667105046784],[-0.603712120868594,44.98971675722817],[-0.604550926977443,44.9900996663093],[-0.605265042584818,44.99093276145494],[-0.606245065449091,44.99173289444444],[-0.606548722241202,44.992444096518135],[-0.608694123137452,44.99226723926741],[-0.609574071682034,44.992341429804156],[-0.6104692407287,44.99229704706535],[-0.611106510693046,44.992370091351354],[-0.620176561098265,44.992362706502014],[-0.622236643905505,44.99173139456106],[-0.624106570051347,44.99087099575954],[-0.624467509662214,44.990501407032106],[-0.628086518725549,44.990584382505965],[-0.627853200815816,44.987395002364856],[-0.629244973056924,44.9873126300449],[-0.631008975672294,44.98709460403593],[-0.630931272541379,44.98660141325158],[-0.631041518861441,44.98628415235142],[-0.634228394505,44.98538776977386],[-0.637107421270471,44.984680727596434],[-0.638182742360207,44.984615802798785],[-0.63851647659019,44.98375132502136],[-0.639527827224427,44.98367946675252],[-0.639503727713017,44.98323049313935],[-0.639677225972065,44.982910250317],[-0.640114336672533,44.98271837860263],[-0.641609191050989,44.98279741549742],[-0.641613657621837,44.982358322211184],[-0.642040229796665,44.98235606679996],[-0.642071521355871,44.98213421623148],[-0.64319660314771,44.98211267761836],[-0.643404542682555,44.98163897504801],[-0.644125301968834,44.98135667158246],[-0.64425939368522,44.981231498211635],[-0.645847548882561,44.98110552073068],[-0.646512934765122,44.98147487651166],[-0.647274667273739,44.98149045015639],[-0.647889420799996,44.98137474013617],[-0.650265202431035,44.981194011194326],[-0.650893805512973,44.98347267224056],[-0.652632292118991,44.98323620677535],[-0.655672165035408,44.9829551289532],[-0.65820434471325,44.98287364439416],[-0.66011312090972,44.98267832685753],[-0.660867098367664,44.98752884762734],[-0.661002660199878,44.98783444525783],[-0.661347425914967,44.98819264275026],[-0.660006699020051,44.98860903564256],[-0.658212878380204,44.98992543418633],[-0.65793498668911,44.99018244442061],[-0.657429993567618,44.99091021207204],[-0.657112003843782,44.99117574961898],[-0.65661205797702,44.99203944928687],[-0.655026583169215,44.99374823328378],[-0.653740319330885,44.99490455646412],[-0.65438715697342,44.9949085396875],[-0.654327846446366,44.99522595715592],[-0.653859932169238,44.99595879753854],[-0.653502611942044,44.99758843961411],[-0.653129681469048,44.99773318728734],[-0.652000131196686,44.997944243958216],[-0.651255921094917,44.99827874022644],[-0.650533928780317,44.998447557243125],[-0.650344798954329,44.99899546892116],[-0.649665074611196,44.99915027386515],[-0.649005095102095,44.99954959028555],[-0.64647262050595,44.99920902542164],[-0.644955019430488,44.99929482731382],[-0.644014350240218,44.99950051176558],[-0.643146547236396,45.000142750682016],[-0.643127324346911,45.00045253787227],[-0.642978127271544,45.00056107841116],[-0.641487637814187,45.0029587649575],[-0.64129918245875,45.003713943220035],[-0.641140592142743,45.00377591916533],[-0.64050890925085,45.00525675718645],[-0.636988779555461,45.00854911376822],[-0.635846911841156,45.0098852633909],[-0.63467445842199,45.01063382958081],[-0.63390211456513,45.010734775131745],[-0.631409630593299,45.01140834577129],[-0.629040695350361,45.012204915685665],[-0.628322116258067,45.01256725561313],[-0.627926430364064,45.01287309280798],[-0.627139524763317,45.01314211211719],[-0.626921797881801,45.013664771007235],[-0.626700186379853,45.01367650274785],[-0.625783857082119,45.013438678283975],[-0.624813589413493,45.01329003289285],[-0.624120419414955,45.014045396507086],[-0.622843041100805,45.01513975333828],[-0.622271285796667,45.01582805733864],[-0.621665956940566,45.01631194859684],[-0.620650969449114,45.01700475727941],[-0.618492532513561,45.01795738033179],[-0.6181643281169,45.01818797809616],[-0.620843280848154,45.01921125498634],[-0.624635072853409,45.021109464831234],[-0.625126177496944,45.02147112129078],[-0.625851042214578,45.02232179092778],[-0.626568236804318,45.02297531532807],[-0.62763895401745,45.023239652113055],[-0.628153653469154,45.02349417023155],[-0.628383207219533,45.02380034796722],[-0.628787895090785,45.02478853011633],[-0.629376625372968,45.025028010211905],[-0.629915657676897,45.02548092200189],[-0.632020232936733,45.02624237187309],[-0.634261320433549,45.02740222243357],[-0.636342508611273,45.029014320180906],[-0.636310893457019,45.02925150373733],[-0.636454762800411,45.02947033382468],[-0.63745545283578,45.03059043803617],[-0.638272021885856,45.03120459441468],[-0.638671686778736,45.03187744553345],[-0.639526170261632,45.03237047602407],[-0.639811629599188,45.03279197990109],[-0.639933484078536,45.03318007714421],[-0.640329771463077,45.03372233986921],[-0.640615765356671,45.034386285474845],[-0.640611155808077,45.034569408486504],[-0.640222429601419,45.03476870242561],[-0.639593867198388,45.03475951739562],[-0.639465941939891,45.03484482181628],[-0.639496245022367,45.03493937285973],[-0.640606903589292,45.035363629067476],[-0.641974910849331,45.036069685147474],[-0.643266620704342,45.03656009851385],[-0.645288933300353,45.03770798505218],[-0.647355455490316,45.03865519170456],[-0.648235693188658,45.03938437214432],[-0.647965894544499,45.039925911499694],[-0.648538336605363,45.04034069426792],[-0.64868406402596,45.04060632082014],[-0.648441712303359,45.04104240542874],[-0.647939848437951,45.041261659075815],[-0.646420982771732,45.04122850848403],[-0.645658583757095,45.04135173111703],[-0.644597633727542,45.041302653735876],[-0.644338629266727,45.041112839187676],[-0.643041554801423,45.040619905480234],[-0.64134035022947,45.039562419962856],[-0.640292302626267,45.03939841024742],[-0.638211346940583,45.03732847693919],[-0.632937112483981,45.0332194231788],[-0.627711424099581,45.03002341972291],[-0.624797733675752,45.02719174899962],[-0.62362173670734,45.026048409062284],[-0.616862565852728,45.02160216302473],[-0.61560466686828,45.02005221052007],[-0.608542955408796,45.01540533574105],[-0.600499106196462,45.01220220996723],[-0.598369450183375,45.01123280620965],[-0.592192965519225,45.008421155164534],[-0.585329466393608,45.0052672035701],[-0.575503112080555,45.00273269944282],[-0.574077051611219,45.00204577811293],[-0.573531430154781,45.00259327321966],[-0.573370725547555,45.00276247264937],[-0.572684526950653,45.0035758559216],[-0.57182513848997,45.005020296872516],[-0.571331927708547,45.00654941288314],[-0.571276099025825,45.00732722294153]]]]}},{"type":"Feature","properties":{"fid":78,"ID":"COMMUNE_0000000009754790","NOM":"Soussans","NOM_M":"SOUSSANS","INSEE_COM":"33517","STATUT":"Commune simple","POPULATION":1710,"INSEE_CAN":"30","INSEE_ARR":"4","INSEE_DEP":"33","INSEE_REG":"75","SIREN_EPCI":"243301447"},"geometry":{"type":"MultiPolygon","coordinates":[[[[-0.656392046975491,45.05731410929561],[-0.656970893228622,45.056986832976314],[-0.660482464994095,45.058955363259294],[-0.661643502569382,45.05986721424837],[-0.662378060549761,45.059684413576925],[-0.664648943729316,45.0605696353331],[-0.666595288424575,45.060887729430824],[-0.66678246686522,45.06075537431656],[-0.666372476995967,45.059817039677554],[-0.669391127953617,45.058762144792766],[-0.670127298818164,45.05860447675514],[-0.671716751792947,45.05803919120808],[-0.67112052113212,45.05742249188321],[-0.672008262074415,45.057113791627096],[-0.672604791065418,45.057018399478864],[-0.672560721149466,45.05679270978998],[-0.674346663469658,45.05618034080167],[-0.67419711605616,45.05593650019729],[-0.675896060738203,45.05545226601814],[-0.676069253942006,45.05489491184334],[-0.678898200633793,45.05393975236296],[-0.680692058205393,45.053430672395415],[-0.681060249268826,45.05317062185541],[-0.681679059980545,45.052371376187985],[-0.68211591808384,45.0520342372533],[-0.682503515777388,45.05193398295763],[-0.6838976221959,45.05178600030286],[-0.685390893834785,45.05119394755407],[-0.686620064961895,45.050878327670034],[-0.687557476667227,45.050168545945354],[-0.688184591669917,45.049979212857636],[-0.689268530331867,45.04927447565378],[-0.692530861641253,45.04612777700863],[-0.693137448617388,45.045821015529846],[-0.694190768493577,45.0454633692703],[-0.694941428117677,45.0443351722563],[-0.695030226304903,45.042926985316406],[-0.695956890014587,45.042269762868884],[-0.696157103432227,45.042028757149474],[-0.696442841712714,45.0414081369099],[-0.696490069654714,45.04108387705077],[-0.697506535425913,45.04045881124172],[-0.697271955553788,45.04019889690147],[-0.697351242880722,45.040109731087945],[-0.69751295646257,45.03857472967714],[-0.697463314867091,45.03720809637189],[-0.698069265572681,45.03475876510362],[-0.698030703803553,45.03415612772196],[-0.698289902111611,45.033673392448414],[-0.699488683778822,45.03298185337287],[-0.701784030187733,45.032937067690256],[-0.702550857425712,45.03322974045395],[-0.703269799543278,45.03339420396451],[-0.703951516278992,45.033457145370825],[-0.703888853520256,45.033931551276574],[-0.704561246472906,45.03421834049487],[-0.705905571413562,45.03459271882999],[-0.706151550739875,45.03416088027413],[-0.707234324393635,45.03450158873448],[-0.707813809854463,45.03455619493387],[-0.70830896404599,45.03448921842036],[-0.710182556981054,45.03370025642005],[-0.711420399216399,45.03329301858147],[-0.711249261427084,45.03266776166045],[-0.710923445987035,45.032048564536176],[-0.711104535752942,45.03173154988991],[-0.711564085104473,45.03174146118726],[-0.711946221798643,45.03165750551137],[-0.714186057540521,45.030987855185586],[-0.715718622689082,45.0310385451064],[-0.717229856593774,45.030940297402495],[-0.71893655238319,45.031067151614934],[-0.720732957841549,45.03135773610047],[-0.723850302690115,45.03105875648724],[-0.723748275647947,45.0314930326339],[-0.723443207632893,45.03170334856061],[-0.722769546110173,45.03258310479209],[-0.722675781860696,45.03340920551801],[-0.72301132062322,45.03405779347704],[-0.723545784011556,45.03477273695638],[-0.724565957055795,45.03680637572114],[-0.724941218291797,45.03829913112724],[-0.724891963002487,45.03876228981649],[-0.723969447548089,45.03890313239403],[-0.723757088375194,45.040984328689916],[-0.723752169273646,45.04133062582689],[-0.72389958011739,45.04180703418317],[-0.723859898031978,45.04291075847322],[-0.723580676881322,45.04423612609059],[-0.722563857176813,45.04666782991491],[-0.722517283300486,45.04743917257928],[-0.722111525820446,45.04804855926125],[-0.721785509790304,45.04903476217596],[-0.721940812347784,45.04983991693447],[-0.722556568889149,45.05072341831318],[-0.723579348469124,45.051359842604064],[-0.725191023394875,45.05299061630838],[-0.725961987384946,45.05318655543818],[-0.726242800230147,45.05354582471301],[-0.726587810587517,45.05429595098688],[-0.72653665248363,45.05448244884591],[-0.726953230006868,45.05519953137836],[-0.727183440524355,45.05586786787701],[-0.72719521058458,45.05892589880159],[-0.727058480909655,45.05901160172821],[-0.726740054575938,45.059863261137124],[-0.727436467720877,45.060103153412804],[-0.728407807632085,45.06015535869477],[-0.729195950374835,45.060054145452824],[-0.729488601555865,45.060170537377985],[-0.730074710982311,45.06073951230355],[-0.730285569366796,45.06081177017935],[-0.730988692417436,45.06084679962256],[-0.731121007679347,45.06115244538473],[-0.731658237371282,45.06123629732492],[-0.732353494535132,45.06117242842927],[-0.733170922136394,45.06128113233664],[-0.733138189980789,45.061514790259785],[-0.733224290090975,45.061680464364066],[-0.733002906566971,45.061755492372804],[-0.733021808079155,45.06192432119248],[-0.732305369899772,45.062985848616016],[-0.732407547355526,45.06314467466803],[-0.732389010747576,45.063381462038194],[-0.731903499330965,45.06340584967149],[-0.731324932926552,45.06354152141424],[-0.730877818560368,45.06351233670376],[-0.73075038965436,45.063470635581446],[-0.730635915807604,45.063127434021986],[-0.730443160441221,45.06296443032834],[-0.729468757763927,45.06277172601861],[-0.729108798061267,45.06284778231737],[-0.728804567723492,45.063015716019095],[-0.728329851633163,45.06320197759442],[-0.72817124829012,45.06315050082256],[-0.723403927395457,45.063585862214865],[-0.723150338107602,45.063521329904255],[-0.722702417491414,45.06372830409993],[-0.721811331752692,45.06386986767212],[-0.721457424231077,45.0639988784461],[-0.720399815908417,45.06418024920187],[-0.719545225773644,45.064220520418274],[-0.716653976822597,45.06507874595393],[-0.716164265102417,45.065690909817114],[-0.715872105865054,45.06588814944664],[-0.715901688554184,45.06658213275011],[-0.715782431077994,45.0668547265333],[-0.715280872622173,45.06679123997084],[-0.713897529970195,45.067335857816474],[-0.713340783571276,45.06743735435333],[-0.713074242617086,45.06761840814622],[-0.712797831472766,45.06759337269363],[-0.712568169039708,45.0677551677417],[-0.711413593526953,45.06814429790722],[-0.710233068950693,45.06846847909233],[-0.709308849781739,45.068572283745745],[-0.709228912028048,45.068690324035295],[-0.709411531336398,45.06885460232124],[-0.710085538074852,45.069120590110415],[-0.709988897734956,45.06940864810304],[-0.708331987760753,45.07047159058273],[-0.707183247406548,45.07093078804118],[-0.70624480182509,45.07147311233123],[-0.704617570139688,45.0716228074699],[-0.704099943072527,45.07202762214201],[-0.70379035083439,45.07261570685087],[-0.703778251427058,45.0728171178265],[-0.703466481896867,45.07308438137755],[-0.700526255546772,45.074577467470824],[-0.700345207145753,45.07430225242732],[-0.699745517421372,45.07392917548463],[-0.699227234566649,45.073921154958036],[-0.698213485961743,45.07284612793126],[-0.697838802275842,45.07291265364302],[-0.694035788188839,45.07286310758249],[-0.693890454869196,45.07283908454477],[-0.693509521428998,45.07244519865148],[-0.69310806188195,45.072298969931154],[-0.692859838407689,45.07208456174749],[-0.69237513678264,45.07237285082574],[-0.69112677727633,45.072443081586144],[-0.690992952001068,45.07326777030418],[-0.691525421597828,45.0744156008561],[-0.69144837009325,45.07455876993407],[-0.690848284069183,45.074872509439054],[-0.690653288052357,45.07523321328086],[-0.690484386356918,45.07535328566872],[-0.689148566195493,45.075564301013586],[-0.688413776948565,45.07559134452685],[-0.688118259259794,45.07545060220544],[-0.687889433580752,45.07495160719413],[-0.687493605668914,45.0747943550384],[-0.687251063727607,45.07487810162917],[-0.686938242683702,45.075188616904356],[-0.686745405352526,45.07525449194112],[-0.685847039588351,45.07515443183212],[-0.685480589194652,45.07499890443532],[-0.685089482820488,45.074372773197894],[-0.684544501408863,45.07421053154825],[-0.683969156833422,45.07420522940499],[-0.683424416602371,45.07441343879172],[-0.681917689158012,45.07554491321872],[-0.680931201561256,45.07677274418625],[-0.680749809692471,45.07685806034267],[-0.679324450942073,45.07572887158683],[-0.674468809196394,45.07294352005767],[-0.670465804129962,45.07071846444477],[-0.666865061340378,45.067232544434496],[-0.662355676850338,45.06322658892064],[-0.657552356101935,45.059188671010844],[-0.656757577535259,45.05790601120232],[-0.656392046975491,45.05731410929561]]]]}},{"type":"Feature","properties":{"fid":97,"ID":"COMMUNE_0000000009755013","NOM":"Arsac","NOM_M":"ARSAC","INSEE_COM":"33012","STATUT":"Commune simple","POPULATION":4040,"INSEE_CAN":"30","INSEE_ARR":"4","INSEE_DEP":"33","INSEE_REG":"75","SIREN_EPCI":"243301447"},"geometry":{"type":"MultiPolygon","coordinates":[[[[-0.725799768671996,44.95648935005779],[-0.726110435569642,44.95652219939388],[-0.728701177001367,44.95745294602261],[-0.729104985829918,44.9574736483309],[-0.73721745630391,44.9606380614753],[-0.745299962906008,44.96349195057142],[-0.750144239172555,44.965112432239515],[-0.750859113294145,44.96541641213011],[-0.754600175735114,44.966655693758234],[-0.745084222401444,44.98662417238177],[-0.740942286947033,44.98791828038078],[-0.738935233667175,44.98833462477653],[-0.737672796274684,44.98845098271919],[-0.736625998579203,44.98901978381003],[-0.736189971057353,44.98916693892239],[-0.735708771441174,44.98985553685749],[-0.734921993638152,44.990552594313385],[-0.733007753183493,44.991505636196884],[-0.732908859030669,44.992003813572985],[-0.73260427190179,44.99223667902121],[-0.731798573569519,44.99257469724082],[-0.730290733040633,44.992841621121315],[-0.72954300334405,44.993077624697634],[-0.728989563229898,44.99340806215941],[-0.728428000451376,44.99355939487907],[-0.727671630278188,44.99389482655033],[-0.727373058576098,44.99421851417563],[-0.72694467919473,44.99450058129771],[-0.726533385210123,44.99509665464266],[-0.725802146068923,44.99565747605628],[-0.724818857575927,44.99607710650502],[-0.723747286355258,44.99633473225967],[-0.723712010616587,44.99708405543783],[-0.723262587719512,44.998158219913904],[-0.723084746733898,44.998387715108585],[-0.721978946499788,44.99904848162864],[-0.720416195253955,45.00032754374515],[-0.720241022491976,45.00069305227549],[-0.71978198350342,45.00084000747678],[-0.718310029810735,45.00256939174047],[-0.718273420311125,45.002783340057576],[-0.718445856764928,45.0030840423324],[-0.718498627225727,45.00359155472418],[-0.718833544181346,45.004023833153994],[-0.718936402352185,45.00438635219453],[-0.718922521141912,45.00543962274367],[-0.718625062059319,45.005475708250906],[-0.717237542232353,45.00668035630426],[-0.716089607962504,45.007264947980815],[-0.715510549720073,45.00765295484472],[-0.714988653230955,45.00844286487969],[-0.714945432478622,45.008595739268976],[-0.715321784140557,45.00892478976669],[-0.716022310955247,45.010768136107174],[-0.71590254783546,45.0110695908342],[-0.715378818667356,45.011449438108755],[-0.714438121005836,45.0119225280846],[-0.713714499820372,45.01327351239364],[-0.713741595070062,45.01383506563137],[-0.71472670466394,45.01479639043382],[-0.711294480235661,45.015335497760255],[-0.710019490022802,45.01594318781866],[-0.707279754016333,45.01663574000912],[-0.705784681214488,45.01643497235732],[-0.703378506012098,45.01646552509763],[-0.701801847810889,45.0163566560853],[-0.700936224031204,45.016372838097084],[-0.700911955499301,45.016428628946876],[-0.699144306776383,45.01627559962522],[-0.69604639990737,45.01649214061912],[-0.694435119765056,45.0164167671481],[-0.692534336693612,45.016537562607155],[-0.692352933225684,45.01650392368308],[-0.690987513336986,45.01572448751543],[-0.690791334907347,45.01567871731009],[-0.688659779308801,45.01586479047238],[-0.686543770943241,45.015920511196306],[-0.684076706860685,45.01616448438309],[-0.683002824158813,45.01591250905077],[-0.682900677619533,45.01567342527058],[-0.679891202982047,45.015186233549414],[-0.678089546349008,45.01553875754027],[-0.675260572819929,45.01642544819065],[-0.674913512946226,45.017120140402476],[-0.674741445657658,45.01718982045289],[-0.674448113288201,45.01723195817886],[-0.673909294158997,45.017096523459514],[-0.673695240968347,45.01730098883376],[-0.673389195897676,45.01732371373985],[-0.67223689792298,45.01711568682243],[-0.670767006831276,45.01710290542854],[-0.669955329194609,45.01697284949332],[-0.668906285798564,45.0171958339349],[-0.66826423434544,45.01713318090324],[-0.668016939958896,45.01692771461454],[-0.667681144686167,45.01682611694399],[-0.666195706900457,45.017021999919386],[-0.666209535262432,45.01575875279825],[-0.663567502072803,45.01461184627228],[-0.663302669060027,45.014584513748204],[-0.662113969154874,45.01492560327556],[-0.661069049732865,45.01503661118911],[-0.65975098184163,45.01268059812027],[-0.656833810254108,45.01169401944101],[-0.654857052622743,45.011077570495324],[-0.653016276622265,45.010246609804675],[-0.655356353213541,45.00656256413272],[-0.656358279530269,45.00707945157188],[-0.656501867900581,45.00696296491539],[-0.654393751826056,45.004234483640396],[-0.65236365270872,45.00250389566361],[-0.652263612849778,45.00206101795381],[-0.652472688103589,45.000494835600925],[-0.651694679438094,45.00023375797245],[-0.649005095102095,44.99954959028555],[-0.649665074611196,44.99915027386515],[-0.650344798954329,44.99899546892116],[-0.650533928780317,44.998447557243125],[-0.651255921094917,44.99827874022644],[-0.652000131196686,44.997944243958216],[-0.653129681469048,44.99773318728734],[-0.653502611942044,44.99758843961411],[-0.653859932169238,44.99595879753854],[-0.654327846446366,44.99522595715592],[-0.65438715697342,44.9949085396875],[-0.653740319330885,44.99490455646412],[-0.655026583169215,44.99374823328378],[-0.65661205797702,44.99203944928687],[-0.657112003843782,44.99117574961898],[-0.657429993567618,44.99091021207204],[-0.65793498668911,44.99018244442061],[-0.658212878380204,44.98992543418633],[-0.660006699020051,44.98860903564256],[-0.661347425914967,44.98819264275026],[-0.661002660199878,44.98783444525783],[-0.660867098367664,44.98752884762734],[-0.66011312090972,44.98267832685753],[-0.661548180346349,44.981356581838654],[-0.662716591678239,44.98042486810706],[-0.664861662473116,44.979145480922945],[-0.672936079495297,44.97579731869387],[-0.68930547266538,44.972337593672684],[-0.692881180642901,44.97141215010184],[-0.694352985417832,44.97118297334152],[-0.696934535597162,44.97008762711028],[-0.705292737570042,44.96618135570474],[-0.7088178835429,44.96436742323943],[-0.717683967508066,44.96048648625051],[-0.719844841731813,44.959436199657546],[-0.72267016356035,44.95778313372152],[-0.725799768671996,44.95648935005779]]]]}},{"type":"Feature","properties":{"fid":106,"ID":"COMMUNE_0000000009755212","NOM":"Le Pian-Médoc","NOM_M":"LE PIAN-MEDOC","INSEE_COM":"33322","STATUT":"Commune simple","POPULATION":7198,"INSEE_CAN":"25","INSEE_ARR":"2","INSEE_DEP":"33","INSEE_REG":"75","SIREN_EPCI":"243301447"},"geometry":{"type":"MultiPolygon","coordinates":[[[[-0.628334176699337,44.96423972550625],[-0.628385549642005,44.96401362056532],[-0.628183227826564,44.961575855304616],[-0.629267390904366,44.9590870749218],[-0.628683673792544,44.958541911675745],[-0.628294567284392,44.95788493851635],[-0.625926745897942,44.95611452454826],[-0.625301110040925,44.95539135253391],[-0.623960671668077,44.95242829648915],[-0.623108864143474,44.95113114545595],[-0.623080665919921,44.950263201556666],[-0.621629595034595,44.94731275011557],[-0.622525216380782,44.94740433018995],[-0.62415941607677,44.94741593449505],[-0.626531618300783,44.9480055064292],[-0.629090786267291,44.948188740294455],[-0.630819157169075,44.948223309886956],[-0.63144077679982,44.94565317908949],[-0.633121129001984,44.94563339827022],[-0.633865723400149,44.944746490594824],[-0.636476094818066,44.944644862370836],[-0.637973293580319,44.944814870109674],[-0.638823469338961,44.944832095754066],[-0.653929681028345,44.94116547328235],[-0.657691561857707,44.940179117737486],[-0.661080162515789,44.93938609939228],[-0.666012969632061,44.93830047199348],[-0.666573871825668,44.93831981718184],[-0.66926703187333,44.93280038105678],[-0.669822703172352,44.93134530469223],[-0.670522239072852,44.92997560437163],[-0.672427182049939,44.93005955694823],[-0.675549756766079,44.93038801371065],[-0.681366467024662,44.930837139187055],[-0.68137616458351,44.9308881939422],[-0.681893410468481,44.93086203687341],[-0.687249746840772,44.931158467558134],[-0.697110137297086,44.92756064019023],[-0.698856339737383,44.93021915600559],[-0.699439315242402,44.93068917207374],[-0.704876861501971,44.93745283874256],[-0.708594905479462,44.94084405551085],[-0.711086709553383,44.94294122472671],[-0.711732813351174,44.94370922870241],[-0.712598035066305,44.94445097950938],[-0.714005132022059,44.94586144651109],[-0.715512918531999,44.946990011837414],[-0.71624551089676,44.94764423472901],[-0.717327367544925,44.94887535717843],[-0.719312493442957,44.950404335590356],[-0.720260172576509,44.95152455123687],[-0.725799768671996,44.95648935005779],[-0.72267016356035,44.95778313372152],[-0.719844841731813,44.959436199657546],[-0.717683967508066,44.96048648625051],[-0.7088178835429,44.96436742323943],[-0.705292737570042,44.96618135570474],[-0.696934535597162,44.97008762711028],[-0.694352985417832,44.97118297334152],[-0.692881180642901,44.97141215010184],[-0.68930547266538,44.972337593672684],[-0.672936079495297,44.97579731869387],[-0.664861662473116,44.979145480922945],[-0.662716591678239,44.98042486810706],[-0.661548180346349,44.981356581838654],[-0.66011312090972,44.98267832685753],[-0.65820434471325,44.98287364439416],[-0.655672165035408,44.9829551289532],[-0.652632292118991,44.98323620677535],[-0.650893805512973,44.98347267224056],[-0.650265202431035,44.981194011194326],[-0.647889420799996,44.98137474013617],[-0.647274667273739,44.98149045015639],[-0.646512934765122,44.98147487651166],[-0.645847548882561,44.98110552073068],[-0.64425939368522,44.981231498211635],[-0.644125301968834,44.98135667158246],[-0.643404542682555,44.98163897504801],[-0.64319660314771,44.98211267761836],[-0.642071521355871,44.98213421623148],[-0.642040229796665,44.98235606679996],[-0.641613657621837,44.982358322211184],[-0.641609191050989,44.98279741549742],[-0.640114336672533,44.98271837860263],[-0.639514852513182,44.9820142382757],[-0.637808592753862,44.98040082364858],[-0.637334453382006,44.9807849790237],[-0.634237418869145,44.98081054760692],[-0.634079067168868,44.980405621291254],[-0.633813484949661,44.98016824067023],[-0.633741336132469,44.9795847384209],[-0.633237144981933,44.979251503063416],[-0.63298771703237,44.97924343030733],[-0.631084411754284,44.97868009246791],[-0.630389049557729,44.978551379536576],[-0.627068237439445,44.97810005092814],[-0.625631851290935,44.97798016004631],[-0.626068779757101,44.9765301087775],[-0.626003748172903,44.97603560329977],[-0.625647177768289,44.97499990104083],[-0.626053950821605,44.973045194442264],[-0.625959739060952,44.97290405664395],[-0.625981884359618,44.970559007461226],[-0.626275420692781,44.96987614798516],[-0.626972517847172,44.96985700979783],[-0.627585948202612,44.96709518457953],[-0.628619731292899,44.964826173877576],[-0.628722475535175,44.96437396364613],[-0.628334176699337,44.96423972550625]]]]}},{"type":"Feature","properties":{"fid":108,"ID":"COMMUNE_0000000009755211","NOM":"Ludon-Médoc","NOM_M":"LUDON-MEDOC","INSEE_COM":"33256","STATUT":"Commune simple","POPULATION":5466,"INSEE_CAN":"25","INSEE_ARR":"2","INSEE_DEP":"33","INSEE_REG":"75","SIREN_EPCI":"243301447"},"geometry":{"type":"MultiPolygon","coordinates":[[[[-0.542703610926099,44.98439841781362],[-0.543007309672316,44.98227344276636],[-0.542490952815423,44.98005292700025],[-0.541176908390515,44.97670328889924],[-0.540545305962584,44.97406374505792],[-0.545235987733862,44.97354653547989],[-0.545289965299178,44.97345648902473],[-0.54543130396109,44.9734627967828],[-0.545490617018485,44.97355734167986],[-0.546442914913746,44.97357743745083],[-0.547083306051698,44.97370481556143],[-0.547533745538346,44.97424112283908],[-0.548656282973005,44.9745631032362],[-0.549080783065215,44.97499027710972],[-0.550011838418374,44.975295825464734],[-0.55179930220664,44.97549018952193],[-0.553040194785742,44.97543521585218],[-0.553887499286644,44.97530088036708],[-0.557324409483816,44.97435546811758],[-0.55782011119364,44.973883555928815],[-0.558527501190684,44.97358602314552],[-0.561701668807942,44.971945878890324],[-0.565244818898596,44.97107882500666],[-0.574291904702624,44.96925700254202],[-0.581766149860651,44.9676653780724],[-0.584940882117697,44.9670411831332],[-0.588067979403476,44.966625731272636],[-0.598730368332769,44.96441623842014],[-0.602401952326785,44.96364655902064],[-0.606585680917252,44.96438514619789],[-0.606988386595569,44.96436937433332],[-0.608049298579665,44.964145666040686],[-0.609599262122316,44.96455680966383],[-0.610889540013194,44.96460232644628],[-0.611915479914868,44.964879943148574],[-0.612049787067127,44.96477733596566],[-0.612725629692682,44.964626483520775],[-0.613118325395043,44.964632646236495],[-0.613577837629338,44.96478895654219],[-0.613939935149598,44.96475374963906],[-0.614344343840261,44.96480369138664],[-0.616207698900533,44.96442401880729],[-0.617447534992861,44.964474705954416],[-0.617979678986079,44.96422214305244],[-0.618331670592985,44.96414849421313],[-0.621461731121381,44.963784270278175],[-0.621578353772881,44.964076101029605],[-0.621501516858642,44.96414440050397],[-0.621967636358276,44.964245481350765],[-0.626623224770539,44.96420723664143],[-0.628181115497322,44.96432674184122],[-0.628334176699337,44.96423972550625],[-0.628722475535175,44.96437396364613],[-0.628619731292899,44.964826173877576],[-0.627585948202612,44.96709518457953],[-0.626972517847172,44.96985700979783],[-0.626275420692781,44.96987614798516],[-0.625981884359618,44.970559007461226],[-0.625959739060952,44.97290405664395],[-0.626053950821605,44.973045194442264],[-0.625647177768289,44.97499990104083],[-0.626003748172903,44.97603560329977],[-0.626068779757101,44.9765301087775],[-0.625631851290935,44.97798016004631],[-0.627068237439445,44.97810005092814],[-0.630389049557729,44.978551379536576],[-0.631084411754284,44.97868009246791],[-0.63298771703237,44.97924343030733],[-0.633237144981933,44.979251503063416],[-0.633741336132469,44.9795847384209],[-0.633813484949661,44.98016824067023],[-0.634079067168868,44.980405621291254],[-0.634237418869145,44.98081054760692],[-0.637334453382006,44.9807849790237],[-0.637808592753862,44.98040082364858],[-0.639514852513182,44.9820142382757],[-0.640114336672533,44.98271837860263],[-0.639677225972065,44.982910250317],[-0.639503727713017,44.98323049313935],[-0.639527827224427,44.98367946675252],[-0.63851647659019,44.98375132502136],[-0.638182742360207,44.984615802798785],[-0.637107421270471,44.984680727596434],[-0.634228394505,44.98538776977386],[-0.631041518861441,44.98628415235142],[-0.630931272541379,44.98660141325158],[-0.631008975672294,44.98709460403593],[-0.629244973056924,44.9873126300449],[-0.627853200815816,44.987395002364856],[-0.628086518725549,44.990584382505965],[-0.624467509662214,44.990501407032106],[-0.624106570051347,44.99087099575954],[-0.622236643905505,44.99173139456106],[-0.620176561098265,44.992362706502014],[-0.611106510693046,44.992370091351354],[-0.6104692407287,44.99229704706535],[-0.609574071682034,44.992341429804156],[-0.608694123137452,44.99226723926741],[-0.606548722241202,44.992444096518135],[-0.606245065449091,44.99173289444444],[-0.605265042584818,44.99093276145494],[-0.604550926977443,44.9900996663093],[-0.603712120868594,44.98971675722817],[-0.603297401926537,44.989667105046784],[-0.603008454872217,44.98942049580505],[-0.601990685925882,44.98890096626651],[-0.6011390976465,44.98863472196658],[-0.600647849918057,44.988698399630756],[-0.600851352715999,44.98967063119107],[-0.600332692433627,44.990295808933034],[-0.600480392389626,44.99207922408037],[-0.598494617846443,44.99193349644911],[-0.598399328969497,44.99197263228744],[-0.598240288964103,44.99271955529999],[-0.598216652741642,44.993498149321134],[-0.596764215932222,44.99376595615628],[-0.594543940273757,44.994004486878005],[-0.59359881924277,44.99439915999791],[-0.593442434894432,44.99433751670389],[-0.593411366959288,44.994724279716884],[-0.593625886951549,44.994761511821004],[-0.593514757479374,44.996335179056565],[-0.593572116943801,44.99655594841201],[-0.593071962434842,44.997016453021956],[-0.591388680344086,44.997826118644824],[-0.591332625156895,44.99796222341292],[-0.590900648392997,44.99819879456758],[-0.590039130880147,44.99912611097568],[-0.588830111803372,44.99857657904441],[-0.587760732491003,44.99786660451472],[-0.585865954227596,44.99706156147113],[-0.583946403413133,44.99610676903282],[-0.580864709526906,44.995391263456185],[-0.578537150728595,44.99508583664496],[-0.573802854881269,44.993850081947826],[-0.567672393403294,44.99202893018451],[-0.565769226288627,44.991383359601535],[-0.565255582764088,44.991235793755486],[-0.564653926505591,44.9911820773296],[-0.563576571438531,44.99077858050995],[-0.562791636472237,44.99061896757147],[-0.56210427917812,44.99025613739448],[-0.561860758560835,44.99048114852318],[-0.561829747699978,44.99077235688648],[-0.562153693707907,44.991611896091385],[-0.561979686913273,44.992410604608516],[-0.561794069537469,44.992487751814544],[-0.560169853185751,44.992492895256696],[-0.559172116055095,44.99282225798657],[-0.557405582275524,44.994465949828914],[-0.554190302062009,44.99185858921715],[-0.549956788340478,44.98879155811843],[-0.542703610926099,44.98439841781362]]]]}},{"type":"Feature","properties":{"fid":1060,"ID":"COMMUNE_0000000009754586","NOM":"Cussac-Fort-Médoc","NOM_M":"CUSSAC-FORT-MEDOC","INSEE_COM":"33146","STATUT":"Commune simple","POPULATION":2326,"INSEE_CAN":"30","INSEE_ARR":"4","INSEE_DEP":"33","INSEE_REG":"75","SIREN_EPCI":"243301447"},"geometry":{"type":"MultiPolygon","coordinates":[[[[-0.697897124443746,45.10691454092662],[-0.698095257175319,45.10685027627857],[-0.699433258450689,45.106565189404364],[-0.700810007622343,45.1064040922177],[-0.705334916062457,45.10425261789103],[-0.706132009770107,45.10395028064226],[-0.707907424107189,45.10346845633973],[-0.709012295245651,45.10331630243874],[-0.710644350232254,45.10253543570306],[-0.711192683323731,45.10235942805417],[-0.713365260366252,45.102090533771076],[-0.714759879920151,45.10200888815172],[-0.716278038527715,45.102177298192615],[-0.717543618858998,45.10216482247502],[-0.718343756225905,45.10204347434431],[-0.718641877005454,45.1021434948733],[-0.7190772915401,45.102126256900405],[-0.71935526167277,45.10198086639853],[-0.71949841495398,45.101779582404724],[-0.719792818950683,45.10165167005681],[-0.720037788543033,45.10120180533351],[-0.72041103362064,45.10099644255043],[-0.721128310055909,45.100395592108626],[-0.722541161468203,45.099594822735206],[-0.723204559415681,45.09952307712167],[-0.724481009866088,45.099120752188774],[-0.726048150639664,45.09876457696774],[-0.726235547541305,45.09854016999103],[-0.726663085144117,45.098386151788034],[-0.727032853561566,45.09849186550975],[-0.727245861389418,45.09842254242891],[-0.727540199389147,45.098465877178334],[-0.727777093732342,45.09816319202596],[-0.72832693908737,45.09791583566341],[-0.728418594399806,45.09759186890817],[-0.728996101523149,45.097511244132015],[-0.73053028528148,45.09700557236098],[-0.731021241558078,45.09669617434707],[-0.731620879714245,45.0967184558121],[-0.733934577416327,45.097156533425114],[-0.73529720088503,45.097169444556066],[-0.736764656249678,45.0973987660193],[-0.73743458620129,45.097368179921595],[-0.739235743194759,45.096764189185336],[-0.741009931880327,45.09665144031023],[-0.741129633524632,45.096519420380126],[-0.741388406824846,45.096601772114894],[-0.742284160641607,45.096370670264136],[-0.742841272740673,45.09623296759076],[-0.743673441980191,45.096344723669205],[-0.745206824582653,45.09626614040572],[-0.746095880068992,45.0964670086732],[-0.746954815266666,45.09707271592182],[-0.74812013694676,45.09744546031341],[-0.748974405805668,45.09796207043113],[-0.749687350962792,45.09821210575494],[-0.749824415778869,45.0983390987395],[-0.751337842942733,45.098701896349226],[-0.752519430755747,45.09910740169306],[-0.753911870172708,45.09990421673786],[-0.754446885964985,45.10038467147887],[-0.754772273131856,45.10051072086691],[-0.756652551226947,45.10068711131222],[-0.759214850924876,45.10305524868674],[-0.759815914377521,45.10341897160459],[-0.760700079066652,45.10498194233249],[-0.761860634451464,45.10752984616716],[-0.763375950233629,45.110013479163946],[-0.764344044663368,45.11219557915938],[-0.764689993693516,45.11298435762994],[-0.764674991112886,45.11342295735988],[-0.764417792436642,45.11423481660427],[-0.763842351069279,45.11491499928745],[-0.763425009750899,45.115050787015676],[-0.763320109684452,45.11545906965678],[-0.763724967656333,45.11666863128254],[-0.76410717481456,45.11701268678828],[-0.764024674044064,45.119567411627706],[-0.763874435584769,45.11975637683538],[-0.764001308496798,45.119938687183364],[-0.763970928911485,45.12033814388104],[-0.763854897277464,45.120789170368525],[-0.763526258836555,45.12095711708558],[-0.763683106759088,45.1213953223286],[-0.763353239126562,45.121979769130654],[-0.763401203548346,45.12246492004842],[-0.763309904226822,45.122905195057044],[-0.76335101791491,45.12325085623012],[-0.763718525131728,45.12375406265515],[-0.76386544099886,45.124536047599754],[-0.763895836743549,45.12578079443647],[-0.763183477633735,45.12985496476078],[-0.762218888527308,45.13126400692128],[-0.762204524202627,45.13235522009872],[-0.762057773560062,45.13276671719917],[-0.761781347150821,45.13306810884199],[-0.762052817962423,45.13354391590422],[-0.760446654328563,45.1364529331896],[-0.758021486639495,45.13656265810724],[-0.755987327843357,45.13654016841322],[-0.754217514553619,45.13694502950246],[-0.751168026062003,45.137070218781815],[-0.749010502946333,45.137240149619096],[-0.747610977854231,45.137451264689524],[-0.746561783952737,45.13743605055625],[-0.744396420208325,45.13710947235475],[-0.739841817636452,45.13685852394047],[-0.732304145302288,45.14020298502582],[-0.731655347526362,45.13987134914497],[-0.729973257732083,45.13949586250218],[-0.729860345169002,45.13812949334888],[-0.729728472716596,45.13804286267446],[-0.728892707755776,45.13788603121516],[-0.728678362211828,45.13744159333526],[-0.726031519548977,45.13751296287844],[-0.725950773916144,45.13744805584346],[-0.725884172297004,45.13751878894454],[-0.725566364147287,45.13752760727842],[-0.725319822289185,45.13766925471605],[-0.725562062164421,45.13828403392009],[-0.725537239488291,45.138732864203995],[-0.725343831068597,45.13896467977077],[-0.723960087532726,45.1386692758781],[-0.722981139678455,45.138542422505616],[-0.72213946470403,45.13856421699681],[-0.721140509428948,45.1387868604213],[-0.720109050942677,45.13882759359144],[-0.718453359162099,45.13867460485473],[-0.717156420705815,45.13864934856612],[-0.716279994456792,45.13835946987319],[-0.715422635555851,45.13871976321662],[-0.714753961700443,45.138738440320466],[-0.714722730432433,45.138747593603014],[-0.71177763997024,45.13312538901298],[-0.711142550170008,45.130141263858675],[-0.701895804394747,45.11410916953867],[-0.701209700896684,45.112918686647],[-0.698720156350205,45.10859896054772],[-0.697897124443746,45.10691454092662]]]]}},{"type":"Feature","properties":{"fid":2060,"ID":"COMMUNE_0000000009754792","NOM":"Margaux-Cantenac","NOM_M":"MARGAUX-CANTENAC","INSEE_COM":"33268","STATUT":"Commune simple","POPULATION":2844,"INSEE_CAN":"30","INSEE_ARR":"4","INSEE_DEP":"33","INSEE_REG":"75","SIREN_EPCI":"243301447"},"geometry":{"type":"MultiPolygon","coordinates":[[[[-0.656392046975491,45.05731410929561],[-0.655877349076413,45.05648283817401],[-0.655015560616008,45.05358984887955],[-0.653175728199168,45.049971825110056],[-0.649356278334756,45.04674048622195],[-0.645450050112332,45.0451361011409],[-0.643924444470478,45.04301021074055],[-0.640292302626267,45.03939841024742],[-0.64134035022947,45.039562419962856],[-0.643041554801423,45.040619905480234],[-0.644338629266727,45.041112839187676],[-0.644597633727542,45.041302653735876],[-0.645658583757095,45.04135173111703],[-0.646420982771732,45.04122850848403],[-0.647939848437951,45.041261659075815],[-0.648441712303359,45.04104240542874],[-0.64868406402596,45.04060632082014],[-0.648538336605363,45.04034069426792],[-0.647965894544499,45.039925911499694],[-0.648235693188658,45.03938437214432],[-0.647355455490316,45.03865519170456],[-0.645288933300353,45.03770798505218],[-0.643266620704342,45.03656009851385],[-0.641974910849331,45.036069685147474],[-0.640606903589292,45.035363629067476],[-0.639496245022367,45.03493937285973],[-0.639465941939891,45.03484482181628],[-0.639593867198388,45.03475951739562],[-0.640222429601419,45.03476870242561],[-0.640611155808077,45.034569408486504],[-0.640615765356671,45.034386285474845],[-0.640329771463077,45.03372233986921],[-0.639933484078536,45.03318007714421],[-0.639811629599188,45.03279197990109],[-0.639526170261632,45.03237047602407],[-0.638671686778736,45.03187744553345],[-0.638272021885856,45.03120459441468],[-0.63745545283578,45.03059043803617],[-0.636454762800411,45.02947033382468],[-0.636310893457019,45.02925150373733],[-0.636342508611273,45.029014320180906],[-0.636537385578555,45.02902057024761],[-0.636867879773029,45.0292360045381],[-0.637543462000284,45.02903095004755],[-0.638001709715532,45.02929538369922],[-0.638456887409738,45.029414800496426],[-0.639077646803444,45.02934402599009],[-0.639480195501059,45.02910372288253],[-0.639627317702609,45.028786146095264],[-0.639163416536148,45.028337129517816],[-0.639313367673765,45.02802396737582],[-0.639530549824207,45.027904196475205],[-0.639994994276308,45.027834022377355],[-0.64046556702564,45.027662695811756],[-0.640601651679278,45.02750771973523],[-0.640631354745757,45.02728051173912],[-0.640433977508436,45.02682548398468],[-0.639949559377199,45.026373537155614],[-0.639731685286107,45.02587681617729],[-0.639163322431603,45.025404177685594],[-0.638424737115153,45.02512818672301],[-0.638413544712548,45.02436962661944],[-0.638852094603211,45.02419484672543],[-0.63903109184054,45.023820345438075],[-0.639467274522978,45.02364834438033],[-0.639802201138707,45.023209252716384],[-0.640343471132583,45.02273817128],[-0.641157470823906,45.02245465349739],[-0.641870982110995,45.02240426022009],[-0.641924772992279,45.022117676452496],[-0.642141790915852,45.02215203401507],[-0.642486212281463,45.02201547251011],[-0.642837571985312,45.02155600335353],[-0.642776128648091,45.02127589605824],[-0.64309063649374,45.021265598033985],[-0.643174371913742,45.02112675391385],[-0.643662444745302,45.021166653661865],[-0.64401558039897,45.02110551426377],[-0.6450888086041,45.020802659504035],[-0.651491418196239,45.019360570060435],[-0.652951454878534,45.01889081110528],[-0.654515843749207,45.01859877464053],[-0.654418881617646,45.018164807736724],[-0.654880088265904,45.01726814205371],[-0.65526439352212,45.01595307324498],[-0.655230971075594,45.01577209990625],[-0.656439114535248,45.015027545665085],[-0.656266946413211,45.014240021416306],[-0.656278101096006,45.013846668720475],[-0.656833810254108,45.01169401944101],[-0.65975098184163,45.01268059812027],[-0.661069049732865,45.01503661118911],[-0.662113969154874,45.01492560327556],[-0.663302669060027,45.014584513748204],[-0.663567502072803,45.01461184627228],[-0.666209535262432,45.01575875279825],[-0.666195706900457,45.017021999919386],[-0.667681144686167,45.01682611694399],[-0.668016939958896,45.01692771461454],[-0.66826423434544,45.01713318090324],[-0.668906285798564,45.0171958339349],[-0.669955329194609,45.01697284949332],[-0.670767006831276,45.01710290542854],[-0.67223689792298,45.01711568682243],[-0.673389195897676,45.01732371373985],[-0.673695240968347,45.01730098883376],[-0.673909294158997,45.017096523459514],[-0.674448113288201,45.01723195817886],[-0.674741445657658,45.01718982045289],[-0.674913512946226,45.017120140402476],[-0.675260572819929,45.01642544819065],[-0.678089546349008,45.01553875754027],[-0.679891202982047,45.015186233549414],[-0.682900677619533,45.01567342527058],[-0.683002824158813,45.01591250905077],[-0.684076706860685,45.01616448438309],[-0.686543770943241,45.015920511196306],[-0.688659779308801,45.01586479047238],[-0.690791334907347,45.01567871731009],[-0.690987513336986,45.01572448751543],[-0.692352933225684,45.01650392368308],[-0.692534336693612,45.016537562607155],[-0.694435119765056,45.0164167671481],[-0.69604639990737,45.01649214061912],[-0.699144306776383,45.01627559962522],[-0.700911955499301,45.016428628946876],[-0.700936224031204,45.016372838097084],[-0.701801847810889,45.0163566560853],[-0.703378506012098,45.01646552509763],[-0.705784681214488,45.01643497235732],[-0.707279754016333,45.01663574000912],[-0.710019490022802,45.01594318781866],[-0.711294480235661,45.015335497760255],[-0.71472670466394,45.01479639043382],[-0.715537163950191,45.01544265144991],[-0.715811398950771,45.01618523949499],[-0.715841390339371,45.01694319679389],[-0.716158673457231,45.018199934480236],[-0.716013390586078,45.018614914042345],[-0.715767365658433,45.01881422360027],[-0.715472864651504,45.01891509871624],[-0.714846901189554,45.01944077359737],[-0.716724530286967,45.01992699958065],[-0.718029335690201,45.0205711524841],[-0.71904984273858,45.02064701104938],[-0.721279186586247,45.0212034307112],[-0.721414968009588,45.02152518877286],[-0.721374887305071,45.021878067971784],[-0.721637029958692,45.022246076528525],[-0.721742954571257,45.02261570499531],[-0.720585009919803,45.02441122567849],[-0.719698977623847,45.02622558544924],[-0.719349082046684,45.02666003003188],[-0.719146203313625,45.02731760869996],[-0.718129081346304,45.02758145413635],[-0.716300289322432,45.028982902432894],[-0.715734713453124,45.02953901302367],[-0.71521962606162,45.02984104844125],[-0.713128377856528,45.03056525405163],[-0.711816703528227,45.03087402156148],[-0.711577192321805,45.03100009134124],[-0.711104535752942,45.03173154988991],[-0.710923445987035,45.032048564536176],[-0.711249261427084,45.03266776166045],[-0.711420399216399,45.03329301858147],[-0.710182556981054,45.03370025642005],[-0.70830896404599,45.03448921842036],[-0.707813809854463,45.03455619493387],[-0.707234324393635,45.03450158873448],[-0.706151550739875,45.03416088027413],[-0.705905571413562,45.03459271882999],[-0.704561246472906,45.03421834049487],[-0.703888853520256,45.033931551276574],[-0.703951516278992,45.033457145370825],[-0.703269799543278,45.03339420396451],[-0.702550857425712,45.03322974045395],[-0.701784030187733,45.032937067690256],[-0.699488683778822,45.03298185337287],[-0.698289902111611,45.033673392448414],[-0.698030703803553,45.03415612772196],[-0.698069265572681,45.03475876510362],[-0.697463314867091,45.03720809637189],[-0.69751295646257,45.03857472967714],[-0.697351242880722,45.040109731087945],[-0.697271955553788,45.04019889690147],[-0.697506535425913,45.04045881124172],[-0.696490069654714,45.04108387705077],[-0.696442841712714,45.0414081369099],[-0.696157103432227,45.042028757149474],[-0.695956890014587,45.042269762868884],[-0.695030226304903,45.042926985316406],[-0.694941428117677,45.0443351722563],[-0.694190768493577,45.0454633692703],[-0.693137448617388,45.045821015529846],[-0.692530861641253,45.04612777700863],[-0.689268530331867,45.04927447565378],[-0.688184591669917,45.049979212857636],[-0.687557476667227,45.050168545945354],[-0.686620064961895,45.050878327670034],[-0.685390893834785,45.05119394755407],[-0.6838976221959,45.05178600030286],[-0.682503515777388,45.05193398295763],[-0.68211591808384,45.0520342372533],[-0.681679059980545,45.052371376187985],[-0.681060249268826,45.05317062185541],[-0.680692058205393,45.053430672395415],[-0.678898200633793,45.05393975236296],[-0.676069253942006,45.05489491184334],[-0.675896060738203,45.05545226601814],[-0.67419711605616,45.05593650019729],[-0.674346663469658,45.05618034080167],[-0.672560721149466,45.05679270978998],[-0.672604791065418,45.057018399478864],[-0.672008262074415,45.057113791627096],[-0.67112052113212,45.05742249188321],[-0.671716751792947,45.05803919120808],[-0.670127298818164,45.05860447675514],[-0.669391127953617,45.058762144792766],[-0.666372476995967,45.059817039677554],[-0.66678246686522,45.06075537431656],[-0.666595288424575,45.060887729430824],[-0.664648943729316,45.0605696353331],[-0.662378060549761,45.059684413576925],[-0.661643502569382,45.05986721424837],[-0.660482464994095,45.058955363259294],[-0.656970893228622,45.056986832976314],[-0.656392046975491,45.05731410929561]]]]}},{"type":"Feature","properties":{"fid":2109,"ID":"COMMUNE_0000000009755011","NOM":"Labarde","NOM_M":"LABARDE","INSEE_COM":"33211","STATUT":"Commune simple","POPULATION":616,"INSEE_CAN":"30","INSEE_ARR":"4","INSEE_DEP":"33","INSEE_REG":"75","SIREN_EPCI":"243301447"},"geometry":{"type":"MultiPolygon","coordinates":[[[[-0.636342508611273,45.029014320180906],[-0.634261320433549,45.02740222243357],[-0.632020232936733,45.02624237187309],[-0.629915657676897,45.02548092200189],[-0.629376625372968,45.025028010211905],[-0.628787895090785,45.02478853011633],[-0.628383207219533,45.02380034796722],[-0.628153653469154,45.02349417023155],[-0.62763895401745,45.023239652113055],[-0.626568236804318,45.02297531532807],[-0.625851042214578,45.02232179092778],[-0.625126177496944,45.02147112129078],[-0.624635072853409,45.021109464831234],[-0.620843280848154,45.01921125498634],[-0.6181643281169,45.01818797809616],[-0.618492532513561,45.01795738033179],[-0.620650969449114,45.01700475727941],[-0.621665956940566,45.01631194859684],[-0.622271285796667,45.01582805733864],[-0.622843041100805,45.01513975333828],[-0.624120419414955,45.014045396507086],[-0.624813589413493,45.01329003289285],[-0.625783857082119,45.013438678283975],[-0.626700186379853,45.01367650274785],[-0.626921797881801,45.013664771007235],[-0.627139524763317,45.01314211211719],[-0.627926430364064,45.01287309280798],[-0.628322116258067,45.01256725561313],[-0.629040695350361,45.012204915685665],[-0.631409630593299,45.01140834577129],[-0.63390211456513,45.010734775131745],[-0.63467445842199,45.01063382958081],[-0.635846911841156,45.0098852633909],[-0.636988779555461,45.00854911376822],[-0.64050890925085,45.00525675718645],[-0.641140592142743,45.00377591916533],[-0.64129918245875,45.003713943220035],[-0.641487637814187,45.0029587649575],[-0.642978127271544,45.00056107841116],[-0.643127324346911,45.00045253787227],[-0.643146547236396,45.000142750682016],[-0.644014350240218,44.99950051176558],[-0.644955019430488,44.99929482731382],[-0.64647262050595,44.99920902542164],[-0.649005095102095,44.99954959028555],[-0.651694679438094,45.00023375797245],[-0.652472688103589,45.000494835600925],[-0.652263612849778,45.00206101795381],[-0.65236365270872,45.00250389566361],[-0.654393751826056,45.004234483640396],[-0.656501867900581,45.00696296491539],[-0.656358279530269,45.00707945157188],[-0.655356353213541,45.00656256413272],[-0.653016276622265,45.010246609804675],[-0.654857052622743,45.011077570495324],[-0.656833810254108,45.01169401944101],[-0.656278101096006,45.013846668720475],[-0.656266946413211,45.014240021416306],[-0.656439114535248,45.015027545665085],[-0.655230971075594,45.01577209990625],[-0.65526439352212,45.01595307324498],[-0.654880088265904,45.01726814205371],[-0.654418881617646,45.018164807736724],[-0.654515843749207,45.01859877464053],[-0.652951454878534,45.01889081110528],[-0.651491418196239,45.019360570060435],[-0.6450888086041,45.020802659504035],[-0.64401558039897,45.02110551426377],[-0.643662444745302,45.021166653661865],[-0.643174371913742,45.02112675391385],[-0.64309063649374,45.021265598033985],[-0.642776128648091,45.02127589605824],[-0.642837571985312,45.02155600335353],[-0.642486212281463,45.02201547251011],[-0.642141790915852,45.02215203401507],[-0.641924772992279,45.022117676452496],[-0.641870982110995,45.02240426022009],[-0.641157470823906,45.02245465349739],[-0.640343471132583,45.02273817128],[-0.639802201138707,45.023209252716384],[-0.639467274522978,45.02364834438033],[-0.63903109184054,45.023820345438075],[-0.638852094603211,45.02419484672543],[-0.638413544712548,45.02436962661944],[-0.638424737115153,45.02512818672301],[-0.639163322431603,45.025404177685594],[-0.639731685286107,45.02587681617729],[-0.639949559377199,45.026373537155614],[-0.640433977508436,45.02682548398468],[-0.640631354745757,45.02728051173912],[-0.640601651679278,45.02750771973523],[-0.64046556702564,45.027662695811756],[-0.639994994276308,45.027834022377355],[-0.639530549824207,45.027904196475205],[-0.639313367673765,45.02802396737582],[-0.639163416536148,45.028337129517816],[-0.639627317702609,45.028786146095264],[-0.639480195501059,45.02910372288253],[-0.639077646803444,45.02934402599009],[-0.638456887409738,45.029414800496426],[-0.638001709715532,45.02929538369922],[-0.637543462000284,45.02903095004755],[-0.636867879773029,45.0292360045381],[-0.636537385578555,45.02902057024761],[-0.636342508611273,45.029014320180906]]]]}}]}