{"type":"FeatureCollection","name":"COM_79034","crs":{"type":"name","properties":{"name":"urn:ogc:def:crs:OGC:1.3:CRS84"}},"features":[{"type":"Feature","properties":{"fid":4277,"ID":"COMMUNE_0000000009749693","NOM":"Bessines","NOM_M":"BESSINES","INSEE_COM":"79034","STATUT":"Commune simple","POPULATION":1882,"INSEE_CAN":"05","INSEE_ARR":"2","INSEE_DEP":"79","INSEE_REG":"75","SIREN_EPCI":"200041317"},"geometry":{"type":"MultiPolygon","coordinates":[[[[-0.522251645196764,46.28131189126524],[-0.521671883349835,46.282302413882604],[-0.521607620617467,46.28352576257929],[-0.522849878846807,46.28337464698997],[-0.522851268321387,46.282891467786925],[-0.524078523151078,46.28295172418103],[-0.524932954920494,46.28289551950612],[-0.525065152191556,46.28270754472627],[-0.525326905230639,46.28263363699615],[-0.525274234285211,46.282482034728474],[-0.526576766764216,46.2819756712653],[-0.528179552815084,46.28120669781118],[-0.530743349872443,46.27975799711972],[-0.530984155994018,46.27996415270945],[-0.53192021950113,46.2804281606782],[-0.533055329517309,46.28089409490072],[-0.53348880926829,46.280983394551555],[-0.535343009728432,46.281129523385935],[-0.537396578504865,46.28098098388655],[-0.5421382706452,46.28193139015738],[-0.543434279057451,46.28192890540735],[-0.543121266931457,46.28486454229961],[-0.545195703520956,46.28581851121536],[-0.545060363825729,46.285876809707574],[-0.545464284704614,46.286371707976066],[-0.545630436441713,46.28690916595691],[-0.545952393924865,46.28692167091338],[-0.54662490046906,46.28728741223633],[-0.546591427759382,46.288295302482894],[-0.54639993668686,46.28826972039801],[-0.546291693931141,46.28892659693721],[-0.549446445592011,46.28993426679693],[-0.547043552629045,46.29312255375113],[-0.54711745161515,46.293299626668784],[-0.547340296459588,46.29338732800093],[-0.546975318051098,46.29367452465627],[-0.5465362481019,46.293882002338],[-0.544471483065261,46.294567363923214],[-0.54292625045315,46.29464160609504],[-0.542536022225904,46.29482050606228],[-0.54182672290901,46.29493181334339],[-0.540062921940951,46.29542655020387],[-0.538717862113147,46.29604254871115],[-0.537488701194771,46.296380008218186],[-0.535258165151872,46.297481375682295],[-0.53450589485208,46.29775351411865],[-0.533193781310333,46.29845855839398],[-0.532453615896844,46.29857617139174],[-0.530588047515171,46.299511981341546],[-0.529061918098262,46.299501610196444],[-0.528474447372417,46.29968837605796],[-0.527904662293362,46.300431640134896],[-0.527716750064518,46.30088544585603],[-0.527899551020715,46.30178386003279],[-0.528109544593764,46.302196491999354],[-0.527913661494861,46.30309131679227],[-0.527529857696559,46.30377473212709],[-0.52720479720558,46.30468347220645],[-0.526347056424926,46.305560936751505],[-0.525698898048709,46.30640125785751],[-0.525381334674965,46.306055048380664],[-0.525190995743592,46.306007760460915],[-0.524787563919208,46.306104979004765],[-0.523786796065759,46.30545001088138],[-0.521720074319717,46.305287708936426],[-0.521678971383783,46.30561888193066],[-0.521346835899911,46.30569225012856],[-0.520941920923778,46.30564528153426],[-0.520565066611306,46.307569641590405],[-0.518736272116092,46.30680051633415],[-0.517289121150598,46.306463949344774],[-0.516150604134375,46.30645674847554],[-0.516039896779444,46.30647458898099],[-0.516043792538842,46.306838621253824],[-0.515492300856208,46.306939476671495],[-0.514642247114856,46.30723162150258],[-0.513323292979332,46.307837482104205],[-0.512815980683369,46.30767466344228],[-0.510999148693738,46.30733319665566],[-0.495342593125852,46.304412254804284],[-0.494985670249428,46.30440338136479],[-0.494638095325662,46.30539562760866],[-0.494736038583968,46.30546292737182],[-0.495751677647491,46.305481324959665],[-0.495971859713097,46.30630110979961],[-0.495913224656471,46.3064011580276],[-0.494875425719428,46.30607698011632],[-0.493685195756105,46.30585031000012],[-0.492886211223615,46.30582344519074],[-0.492255801406608,46.30568684737989],[-0.49186979742532,46.30587445003407],[-0.4914671118094,46.30588229174061],[-0.490778912756847,46.30647034457021],[-0.490369140919477,46.306713653088266],[-0.49032750756192,46.30683571081632],[-0.489220794084108,46.30659291377275],[-0.488888036747732,46.30708533447489],[-0.488069904528505,46.307492573143726],[-0.487162107228024,46.307656482163836],[-0.486003795476543,46.30768563972702],[-0.484894404622491,46.30793141542759],[-0.484640982266953,46.30787337235771],[-0.484594461530173,46.307571941816725],[-0.485014339898072,46.305241715699125],[-0.485428594912604,46.30427270083567],[-0.48618442079712,46.304173847824785],[-0.487504773410819,46.30154742982317],[-0.487795573438133,46.3002342626537],[-0.487783024428725,46.29869152878302],[-0.488580271059762,46.2974899329515],[-0.488668894973719,46.29682021465617],[-0.489000228122944,46.2962656423347],[-0.489285300883473,46.29551599125348],[-0.489413698064503,46.29453228245606],[-0.489216244423689,46.293883049246446],[-0.489631753394917,46.29318077584203],[-0.48976295344788,46.292506145176155],[-0.48974952623566,46.29156193585651],[-0.489552579987942,46.29043136362697],[-0.489793906669744,46.289016948516064],[-0.489783030526793,46.2880311982592],[-0.489738114503894,46.287816249821276],[-0.489149842187038,46.28725651466647],[-0.488866377651893,46.28676675372739],[-0.488779502307065,46.285975321988396],[-0.489042814316141,46.284171749381755],[-0.489592085349211,46.282428812528444],[-0.490237009195055,46.28080011473373],[-0.4906377676914,46.279399733559494],[-0.491076811735587,46.278721966042646],[-0.4911054954142,46.27843805980003],[-0.492282175251276,46.27833976432861],[-0.496121790047425,46.27739713120282],[-0.496956163030028,46.27745532229306],[-0.498069291949617,46.27721740506626],[-0.499828191298215,46.2771173572626],[-0.500828366267173,46.27718664542411],[-0.501632407779765,46.27699425500868],[-0.502339488361223,46.276465028703264],[-0.505272475291067,46.275801457511534],[-0.506369133730167,46.27532780644444],[-0.506633788256503,46.27527909016025],[-0.506874571436349,46.2752635580574],[-0.50707617516119,46.27542770339431],[-0.507133747602809,46.2761434165957],[-0.507038088710169,46.276963002245516],[-0.506602313130528,46.27756682522741],[-0.506439294457952,46.27839028814795],[-0.506471023795567,46.279514214758045],[-0.506777211738236,46.28011320237104],[-0.50737535882721,46.280034378707164],[-0.509984779195093,46.2803838835369],[-0.512209622654635,46.2805541082853],[-0.513607493534305,46.280559634859486],[-0.514780262393664,46.28070369628169],[-0.515123995790069,46.280671447418634],[-0.518398278504538,46.2811291213115],[-0.51935322436476,46.28132223453287],[-0.519689915179328,46.281503814879656],[-0.520062146527352,46.28151033023861],[-0.52034720144529,46.28133385819233],[-0.522251645196764,46.28131189126524]]]]}}]}