{"type":"FeatureCollection","name":"COM_64253","crs":{"type":"name","properties":{"name":"urn:ogc:def:crs:OGC:1.3:CRS84"}},"features":[{"type":"Feature","properties":{"fid":4269,"ID":"COMMUNE_0000000009761368","NOM":"Gurs","NOM_M":"GURS","INSEE_COM":"64253","STATUT":"Commune simple","POPULATION":418,"INSEE_CAN":"09","INSEE_ARR":"2","INSEE_DEP":"64","INSEE_REG":"75","SIREN_EPCI":"200067288"},"geometry":{"type":"MultiPolygon","coordinates":[[[[-0.743389292027523,43.26844460806309],[-0.744298831943414,43.268730067354326],[-0.745145847049274,43.2687358136616],[-0.746130494122305,43.26886825981255],[-0.746656995301792,43.26919490579219],[-0.747084183509384,43.26926383397312],[-0.7470656727042,43.26897899934699],[-0.746056327883884,43.26846648260258],[-0.745103945180655,43.268356331456346],[-0.743949301163842,43.268110897641364],[-0.743427259389133,43.26760577505002],[-0.743242613101053,43.26726726392457],[-0.743263097935678,43.266576728815714],[-0.743370098938715,43.26596604554057],[-0.743923913161933,43.26472118933392],[-0.744673610758417,43.263969343953455],[-0.745507170863226,43.263579308004935],[-0.746915174828662,43.263211657071196],[-0.747146283124327,43.263070354284686],[-0.747477935537637,43.26314889860356],[-0.749509456009369,43.26304684619685],[-0.749508102186975,43.26266595834227],[-0.7500808386014,43.26188509717789],[-0.75019937328671,43.26156668620904],[-0.749573349772741,43.26158482772924],[-0.749545755509181,43.26085723780178],[-0.74899064325584,43.26082878627677],[-0.749063431324654,43.259882478876825],[-0.748970138676764,43.25930035933674],[-0.74855391748812,43.25841335973307],[-0.749519843791065,43.258070926636314],[-0.752566634572604,43.25730855992453],[-0.75553203700663,43.25641385324666],[-0.755079417424939,43.25462849206725],[-0.753722471197516,43.25238828590205],[-0.755749065033491,43.25119480729256],[-0.756309477143224,43.25098439043199],[-0.758756843027871,43.25067225820795],[-0.759041961872228,43.250680340552144],[-0.759629122055127,43.25084270359006],[-0.76019640382766,43.251399297602326],[-0.761374518164815,43.25287748672854],[-0.761418003849447,43.25360091816592],[-0.761142342335254,43.25430485125014],[-0.761150794137499,43.25551130172892],[-0.761360342009936,43.2560416329768],[-0.761762547529578,43.256559847623045],[-0.762070886280943,43.25737671546435],[-0.762068934169508,43.25783786936814],[-0.762209932643406,43.25820488647428],[-0.762735699363016,43.2588790927088],[-0.762804952684374,43.259468346769935],[-0.763067186609877,43.26025800366255],[-0.763066816324824,43.261819589907745],[-0.763456981008387,43.26200141190735],[-0.763872245891805,43.26151053805472],[-0.764719279297825,43.26110276848709],[-0.765243061260101,43.260990843925],[-0.765860364122795,43.26106567338665],[-0.769038238669529,43.26204536126022],[-0.769678329828978,43.26211036832628],[-0.770776014819974,43.26242685867886],[-0.771183031722049,43.26269632082436],[-0.772269200700906,43.26300599454044],[-0.772967983790597,43.263553437720816],[-0.774830888647572,43.26432044683707],[-0.775619833983394,43.264550423297074],[-0.776679674376297,43.26473939874551],[-0.777509081993477,43.264947233422944],[-0.77907616075618,43.26580557513315],[-0.780903851592339,43.26627742967626],[-0.781677228515347,43.266400740756254],[-0.781679136538484,43.26731295700127],[-0.781968138398211,43.269765011746486],[-0.782386384905566,43.27084276305467],[-0.783177835166451,43.2716913001274],[-0.783133653943275,43.27227642389964],[-0.783020332341351,43.27250283741592],[-0.783268809208375,43.274505129664476],[-0.782695582252943,43.27476656718533],[-0.781218915192768,43.276174560065165],[-0.77993474023578,43.277173234067114],[-0.779632932987855,43.27751431129439],[-0.778143602503774,43.27863721879078],[-0.771687120707318,43.284532962807425],[-0.771775520204945,43.28554483271054],[-0.771892276037669,43.28565242761249],[-0.772411538515334,43.28560006980658],[-0.772590493670031,43.285697386226566],[-0.772683255597535,43.28587156108388],[-0.772525886914022,43.286122917393484],[-0.772211998156781,43.28629958819937],[-0.771345803948391,43.28653246867697],[-0.770834658294677,43.286520596260424],[-0.770679106945154,43.28606492827591],[-0.770394134122984,43.285929882972766],[-0.770077847183622,43.285617614704805],[-0.769071792519987,43.285860762313575],[-0.766204801832125,43.2876970942138],[-0.765876553998415,43.288786536210665],[-0.764617069390354,43.28971841560708],[-0.76416821813437,43.29018885277747],[-0.764634334935369,43.290530139409995],[-0.763822859052398,43.29167784346278],[-0.763848922788357,43.29217135561237],[-0.762988203529945,43.29332076935472],[-0.762015778955067,43.294931563357686],[-0.762113837562485,43.29560268637577],[-0.762521322296163,43.29631076382162],[-0.761205366302896,43.297023024087444],[-0.759860414368956,43.2971968262552],[-0.759860248661144,43.29742107771339],[-0.760187677454914,43.29777171642918],[-0.759781316257299,43.298233451219964],[-0.759788820602084,43.29836737731805],[-0.760045948781633,43.29858537565987],[-0.759930430399496,43.29872358365909],[-0.757497909722728,43.30063730889268],[-0.756483625952429,43.30125075823021],[-0.755182588042259,43.30223259845179],[-0.754837671460818,43.30269217802723],[-0.754807942954119,43.30327679118521],[-0.753535407332229,43.30358037908401],[-0.752579971349175,43.30273189639636],[-0.751908254181009,43.30232024372113],[-0.750830186105847,43.30146249801588],[-0.750158369924114,43.30112468702145],[-0.750061195752903,43.30097676233102],[-0.749080429495995,43.300533494009734],[-0.748316632547145,43.30035466505113],[-0.74775504464233,43.30034623058605],[-0.744834345415055,43.30078883265359],[-0.744273899824488,43.30011481261281],[-0.744159808085302,43.299725214082116],[-0.744292119894331,43.299332479118426],[-0.744637642818136,43.29907104274678],[-0.745933750060411,43.29839120025609],[-0.746337091542199,43.29807101685587],[-0.746982382599437,43.29735699252506],[-0.747411830673231,43.29639558847658],[-0.748089947937012,43.29387386123309],[-0.748250852889986,43.292802896614575],[-0.748086335417062,43.292282669220484],[-0.748118436663249,43.29190421438248],[-0.748238230350853,43.29149029599573],[-0.748972724976302,43.29014006076665],[-0.749165419599803,43.287738747736555],[-0.748890741454346,43.28637761129732],[-0.748164735602706,43.2854500043431],[-0.746810507608473,43.28475672404104],[-0.745265138672836,43.28438435494084],[-0.74221761793238,43.28411445489941],[-0.741443705688666,43.283890009571685],[-0.741474619774208,43.28328375861239],[-0.741656443122896,43.28295145498693],[-0.741790465412543,43.28287026372486],[-0.74315880046201,43.28292821418946],[-0.743545566668251,43.28271488310492],[-0.743471324669112,43.28214109436327],[-0.743253186704986,43.281819048275416],[-0.743400738984566,43.28122496443698],[-0.742456234754178,43.280422875442696],[-0.7422208327248,43.28010052582107],[-0.742192833891852,43.27989706812652],[-0.74165081581787,43.27929446000946],[-0.741022965195706,43.278869532223666],[-0.740783877244393,43.27858513163282],[-0.740496693628438,43.278566261010944],[-0.73970362738829,43.27804528537453],[-0.739660210750047,43.27792701428947],[-0.739757114143055,43.277786773385536],[-0.739317457006986,43.27771644452334],[-0.739256189047036,43.27756997353538],[-0.73934077827189,43.27710685842724],[-0.73895926445712,43.27707774189129],[-0.738476813760439,43.27680356399929],[-0.73815882441281,43.276822676886844],[-0.736923021908803,43.27616391306102],[-0.736425389535276,43.27597850678782],[-0.735857617645722,43.27560460677744],[-0.735520150462874,43.27511377036654],[-0.735753525607958,43.274435683348436],[-0.735774189037928,43.27367039668737],[-0.735880529779621,43.273352423911916],[-0.737821874305104,43.27246213460435],[-0.739387059779365,43.27194866065503],[-0.739745711224752,43.27175883044741],[-0.739718574921413,43.27126446442268],[-0.740095162151597,43.27138920642056],[-0.740341153574445,43.271381586376556],[-0.741363056220462,43.27094813784004],[-0.741575843281317,43.27008703740422],[-0.741962573281754,43.269266737916695],[-0.742829946186024,43.269377162215534],[-0.743389292027523,43.26844460806309]]]]}}]}