{"type":"FeatureCollection","name":"COM_47312","crs":{"type":"name","properties":{"name":"urn:ogc:def:crs:OGC:1.3:CRS84"}},"features":[{"type":"Feature","properties":{"fid":4073,"ID":"COMMUNE_0000000009757333","NOM":"Tournon-d'Agenais","NOM_M":"TOURNON-D'AGENAIS","INSEE_COM":"47312","STATUT":"Commune simple","POPULATION":742,"INSEE_CAN":"09","INSEE_ARR":"3","INSEE_DEP":"47","INSEE_REG":"75","SIREN_EPCI":"200068930"},"geometry":{"type":"MultiPolygon","coordinates":[[[[1.028269913113291,44.36425474733038],[1.027321316185172,44.363668668038365],[1.026573944044684,44.36346797643037],[1.024304427960999,44.36350829476841],[1.022488105297238,44.3637980298088],[1.020295052395328,44.36391257571812],[1.019785592889601,44.3637647412571],[1.019106928496986,44.3632869975638],[1.018621792185087,44.36352048333817],[1.017579069128257,44.36376193291439],[1.01702432975384,44.36383207793984],[1.015741671772273,44.363827867348036],[1.0150014728371,44.36417559710229],[1.014025214773532,44.364954878303415],[1.012700032832138,44.365231705126426],[1.012031990970988,44.36520343150689],[1.010459790017189,44.36493640125785],[1.008931647580366,44.36523742750177],[1.00796421936409,44.36526314172956],[1.007144247745625,44.365200572514425],[1.00543477481684,44.36526775201102],[1.004444784073876,44.36564870385206],[1.003866522788763,44.36602901182083],[1.00271055987644,44.36659513218029],[1.00134091721752,44.36755986214392],[1.000120837122014,44.368233746963774],[0.996663987619196,44.36914966871252],[0.994905898243456,44.36966422815839],[0.991493919051244,44.369911770708],[0.990762906811259,44.37010012969228],[0.98997344437727,44.370555752190036],[0.987344814245046,44.372602176387176],[0.981237848519556,44.37487565016203],[0.980440067340632,44.37527882865412],[0.980412608090877,44.37545031274278],[0.979987548442042,44.37596297898559],[0.978881992493682,44.376862955531735],[0.978679330012513,44.37715908777132],[0.978892193268345,44.377491664968325],[0.979906537890297,44.37809288378446],[0.98028599633034,44.378401501616764],[0.979562635028445,44.37925086917725],[0.97955053884707,44.38022314652338],[0.97762823690282,44.38025898305681],[0.975343223645092,44.37899144781733],[0.974043506341649,44.378646968982814],[0.973080290595631,44.378302368211],[0.971666828076633,44.380397825892906],[0.971380060247135,44.38051680563314],[0.970742866530876,44.38056899407389],[0.970068663269157,44.38039267860788],[0.969215362109485,44.3810090667256],[0.968044432652878,44.381553852108524],[0.967579067225917,44.38203061258985],[0.965398387061926,44.38320956253729],[0.9643886364926,44.3839139714582],[0.962010180329776,44.38594374660473],[0.961372244360474,44.38636326041117],[0.959702626535071,44.38697706713227],[0.95900712807212,44.38892270150024],[0.958751859313785,44.38914128601177],[0.958404047158798,44.38914023955593],[0.958164752379873,44.38992551637582],[0.958479822039176,44.390103349502006],[0.957765337046258,44.391493936416815],[0.958285529816784,44.39155581175035],[0.957079232299958,44.392688743414304],[0.956911352662215,44.39267752402022],[0.956314792152402,44.393165315306405],[0.955769998557698,44.39301922993546],[0.955265916860523,44.393936458609154],[0.955112535802369,44.394045269016345],[0.955309644294064,44.39422092042505],[0.956657373623645,44.3949122918935],[0.957018500024526,44.39524136327926],[0.956038695298951,44.39562929352931],[0.95541906363396,44.39564210213244],[0.953822025487491,44.39594110895585],[0.953577413989197,44.39593296104013],[0.95284112031296,44.39538619175404],[0.952451895892674,44.39527900145259],[0.95219305708373,44.395594757521906],[0.95198000789325,44.395686245508145],[0.95171399084231,44.395540822753674],[0.951465326798944,44.39658165087511],[0.951129878499765,44.39675820642725],[0.949423396737485,44.39657515915206],[0.948684927181449,44.39768340035595],[0.950999392835511,44.39783004860327],[0.950426339288635,44.39985086367194],[0.95313518703028,44.39951404465539],[0.954060099854448,44.39956995415207],[0.957801754772954,44.40075330142041],[0.960435867424492,44.401374824854294],[0.960484539689296,44.40110468280303],[0.960868418732645,44.40118743212045],[0.961438985931778,44.40121330439154],[0.961620489724575,44.4011608348077],[0.962809768544432,44.40151511881202],[0.96393977853271,44.402015971994906],[0.964308962133885,44.40208853219685],[0.965218684642712,44.40190453970065],[0.96529397836847,44.40218597891928],[0.965645293237463,44.40212673497309],[0.965982516880406,44.402214907641415],[0.966611080720776,44.402130165183685],[0.967127437174749,44.401882162751704],[0.967253088084649,44.40167106969146],[0.96740558989857,44.40183146784384],[0.967689324611999,44.40190514081041],[0.967883827485684,44.402085223403326],[0.968428887442748,44.402332105371045],[0.968766706141738,44.402858811718644],[0.968653638622755,44.40310435674191],[0.967813248639122,44.40412079642226],[0.967839995009391,44.40435541372869],[0.968351811568728,44.40447921775406],[0.969401016362449,44.40436439842988],[0.970628918732512,44.40494082549427],[0.970954114689131,44.4055753495471],[0.971945267645128,44.40690559970968],[0.972381207154849,44.4071846700215],[0.973410402164617,44.40703342416674],[0.97475906466463,44.406554868498894],[0.974856242519972,44.40640177388557],[0.975379103773015,44.40614754853304],[0.976969523931374,44.40582739205583],[0.978055866956638,44.40537639523544],[0.979058676550427,44.40508323890243],[0.980152887832723,44.405220375118105],[0.980985266033908,44.405760614404436],[0.981466062081698,44.40587478336377],[0.981777465811056,44.40577243400186],[0.982438148597467,44.40524515712017],[0.984275075639989,44.40505547837774],[0.985013434650028,44.40477993952204],[0.985676095836002,44.404760545958986],[0.986174556609904,44.40483719763103],[0.986852368657387,44.40509812041877],[0.987340759562763,44.4051754831298],[0.987839414786416,44.40492886184617],[0.988133487448498,44.40439485299969],[0.988623465176626,44.404392097243814],[0.988607633703065,44.40497891454876],[0.988453413362218,44.405642445716126],[0.988156946858666,44.406137691808276],[0.987297149274366,44.406613638610864],[0.988563581929454,44.407738052742204],[0.988860720355202,44.408178406952054],[0.989375927503964,44.40827966216038],[0.989492447032769,44.408394348255044],[0.989521595687247,44.40859928736499],[0.989332565023695,44.408934413699534],[0.989128338280516,44.40913149017037],[0.988449921628598,44.40945137532231],[0.988609900653709,44.410004485611424],[0.989116426044552,44.410350511691874],[0.990033066864644,44.410715726828755],[0.991773969309378,44.41203245758146],[0.992776570400807,44.41174637459688],[0.992645582924837,44.41292450609621],[0.993899042008011,44.413075210780015],[0.99376683677664,44.41329611977387],[0.994943019726781,44.414032512455975],[0.997108506224803,44.415179492196245],[0.998353740385418,44.41634572780133],[0.998712438315907,44.41689613072528],[0.998514065156593,44.41738958696707],[0.998612180903764,44.4175993788706],[0.998783825006885,44.41771955887704],[0.998933189577405,44.41814999686475],[0.998664251550273,44.41818743304023],[0.99840704429759,44.41849702450695],[0.999607612060624,44.41993437707658],[0.999607034914903,44.42009284985915],[1.000023893749388,44.42066951821306],[1.000036582468066,44.421128089509686],[1.00084891805503,44.42103838016011],[1.00125629247718,44.42117273928814],[1.002050216183416,44.42067927523973],[1.003268776064446,44.41936777111813],[1.003533324778534,44.41877825501247],[1.004888992446037,44.41860021174169],[1.00550634256262,44.418444804630354],[1.006109574451262,44.41922472763295],[1.00727515183547,44.41948534494271],[1.008445221498501,44.41986849495955],[1.009266152633044,44.419069309164286],[1.009155818648975,44.418848500906364],[1.009385831721547,44.41838171217713],[1.009720751535385,44.41821847596361],[1.010171860911387,44.41821672082428],[1.010784106664248,44.4180629932341],[1.011644056479485,44.418118140391435],[1.012260651868551,44.418376897873614],[1.012645292646133,44.41844326919111],[1.012851160884034,44.418663095765716],[1.013347445698135,44.418519868489945],[1.013513722294952,44.41865073379706],[1.014624699318824,44.41831958106995],[1.015111047969171,44.41806540936951],[1.015281259262665,44.41783345432498],[1.015501924581285,44.41770326044252],[1.015636488907308,44.418057767550856],[1.015212021067989,44.41858950022446],[1.015848217301912,44.41940057739205],[1.017177373770798,44.41879508410225],[1.017706673117433,44.41864162603372],[1.01846503813027,44.41862015274883],[1.018252262588769,44.417162070910194],[1.018332910992965,44.4164377459496],[1.018128789307776,44.415988342627486],[1.018134525725595,44.4156093496359],[1.017802177495777,44.414803755449064],[1.017218420227619,44.41439704344821],[1.017083358080168,44.41420011140886],[1.01737378648908,44.414229652194415],[1.017582671566,44.41404071238773],[1.018244306244187,44.414196693326254],[1.018998882368262,44.413887000486525],[1.018486866642711,44.41175449446308],[1.017409781797493,44.41029797025376],[1.018523331649946,44.41021085477802],[1.019755190495395,44.410224906338],[1.021888840631388,44.410459549586314],[1.023686075729317,44.41014783768044],[1.024167928511113,44.40965942816675],[1.025471236962759,44.409965546853385],[1.025732151985875,44.40940023221322],[1.025952541402906,44.4091682618626],[1.026589032734459,44.40903559477479],[1.026959467952044,44.40871536448385],[1.026165464523067,44.40734954567367],[1.027410472686349,44.40720076511423],[1.027322488801491,44.406373467570354],[1.025213486848746,44.40583231276067],[1.02515380140337,44.40556290541982],[1.025353536146607,44.404878535772724],[1.025280386024135,44.40470703725827],[1.024496602402468,44.404706486924695],[1.024037193963039,44.40462530755402],[1.023385048912167,44.40427232997419],[1.022011046923516,44.40322563747438],[1.021842185353133,44.40316947717547],[1.022879260401983,44.4021750847526],[1.022412355853137,44.40191367186216],[1.022719094438262,44.40161842667218],[1.02299685236917,44.401541471917255],[1.024924344451899,44.39990030751283],[1.02515769901958,44.39781993452873],[1.02563771225975,44.397020833019745],[1.026024300318848,44.39609128994929],[1.029273787926448,44.39705175283419],[1.027252681807522,44.39396211792552],[1.026134548532288,44.39148924117968],[1.026382539341297,44.3908597674994],[1.027405112657881,44.38904747259827],[1.026550322439297,44.38784805900798],[1.0260340470133,44.38695275854894],[1.025664822521555,44.38670211517985],[1.024693973879366,44.38627589481756],[1.024073601153362,44.385810033670744],[1.023627469389527,44.38488536532868],[1.022911647063184,44.38510392825571],[1.021211325031804,44.385431759004376],[1.019722072362445,44.386689026956205],[1.019084201852507,44.386688356795226],[1.018143379207914,44.386804691390616],[1.017917608239961,44.38604424543816],[1.016306798359311,44.38424584021997],[1.014688937096227,44.38336754742241],[1.014365464906986,44.383103283102805],[1.013456707445485,44.38259343902605],[1.010833310341909,44.38056866927551],[1.010978047318496,44.37987973634218],[1.010790929172039,44.37977370342901],[1.010806308394145,44.37894286306713],[1.011537866753889,44.37648794094108],[1.012019579224824,44.37571234885868],[1.013023833478567,44.37496419842252],[1.012982203082141,44.37486259642051],[1.012652370494607,44.374673850120566],[1.012607112147907,44.374532562640894],[1.013888016689732,44.373770490718414],[1.015003476615648,44.37342953283225],[1.015751022248229,44.37301890039481],[1.016725100896605,44.37226927441718],[1.017214482600441,44.37170180475536],[1.018580963719255,44.37082236409441],[1.019475033341717,44.37049178416628],[1.020563059861481,44.3703222638639],[1.020615334537491,44.37040694554696],[1.020812714289009,44.370326753619075],[1.021852912510606,44.36886692208704],[1.022049935309991,44.368437348869755],[1.022906721983267,44.367555000140484],[1.023674622859815,44.36691687069911],[1.024961439216049,44.366479844736226],[1.026375060465691,44.36521306899016],[1.028269913113291,44.36425474733038]]]]}}]}