{"type":"FeatureCollection","name":"COM_33128","crs":{"type":"name","properties":{"name":"urn:ogc:def:crs:OGC:1.3:CRS84"}},"features":[{"type":"Feature","properties":{"fid":4116,"ID":"COMMUNE_0000000009753706","NOM":"Civrac-en-Médoc","NOM_M":"CIVRAC-EN-MEDOC","INSEE_COM":"33128","STATUT":"Commune simple","POPULATION":636,"INSEE_CAN":"22","INSEE_ARR":"4","INSEE_DEP":"33","INSEE_REG":"75","SIREN_EPCI":"200069995"},"geometry":{"type":"MultiPolygon","coordinates":[[[[-0.935901491910424,45.336017510082776],[-0.938017881906604,45.33996671203155],[-0.938563244502676,45.33976088929849],[-0.944987093135993,45.33496449255097],[-0.966526392549228,45.349475599212916],[-0.959405555760734,45.35464682587789],[-0.954510137344625,45.36287913985255],[-0.954008820434128,45.36275350137354],[-0.944604200076761,45.36169694514944],[-0.937270590657455,45.36078675313639],[-0.937036962718361,45.36115379641984],[-0.929092117519411,45.36071175267585],[-0.927856291734679,45.36034311888048],[-0.926702037286192,45.360242078691925],[-0.925620438420165,45.36031879057665],[-0.925336203420396,45.36091207079316],[-0.924507959128842,45.36093660998143],[-0.923928572541632,45.36086316340178],[-0.923879930822173,45.361134435568424],[-0.923558982035672,45.36109880676675],[-0.923093985088889,45.36079775849455],[-0.922578449922978,45.36072296832282],[-0.920651147191328,45.3598691097905],[-0.920389300790324,45.35961953538759],[-0.918828491711954,45.359864429574614],[-0.917514466064136,45.35863833767034],[-0.915963341052672,45.35794884136868],[-0.914895165386059,45.357670669740166],[-0.914093878897918,45.35735069798005],[-0.913570346840379,45.35694347403064],[-0.910980640933074,45.35632178288061],[-0.910227010377954,45.35584234779817],[-0.907805024194672,45.35556813372143],[-0.907531204043783,45.35521977971438],[-0.906404922235955,45.35453155114676],[-0.905696188184906,45.35441745131487],[-0.905172540687926,45.35420763474143],[-0.906174997751121,45.35335133467872],[-0.902548611846697,45.35216521043012],[-0.899860223304534,45.351133808350234],[-0.899819989942946,45.35088818703773],[-0.900625806519452,45.34937885954444],[-0.90078217972993,45.34856381995327],[-0.901024177651039,45.34833179970537],[-0.901014116156652,45.34815184129943],[-0.899836735839657,45.347606879454],[-0.898330618622516,45.34733300489995],[-0.897114250978011,45.346942636793806],[-0.897440810359321,45.345964807323675],[-0.895313250953961,45.345652136479245],[-0.894001669600239,45.34638476624847],[-0.89354558315522,45.34675494422181],[-0.893525212539701,45.34699366005134],[-0.892874553722063,45.347780806877736],[-0.892439114714794,45.34780677425995],[-0.892013868234757,45.34817947862793],[-0.891452467702677,45.34808631235731],[-0.891045614495635,45.347497331096775],[-0.89044803043683,45.347179131893874],[-0.888213489845405,45.34652475634753],[-0.887778206415532,45.34671748503688],[-0.886074497505947,45.34595627173411],[-0.885896217119932,45.34618604485229],[-0.885444699498087,45.34610976856135],[-0.885133808905263,45.346253090132805],[-0.884942437266921,45.34625883353001],[-0.884501856120676,45.34591802358385],[-0.884365582332999,45.345980452982914],[-0.882860485499262,45.34753285008925],[-0.880834612531188,45.34587308984379],[-0.880507569259681,45.34574830130945],[-0.877709396731218,45.34529537880259],[-0.877174523720468,45.34660941672322],[-0.87634271143021,45.34657963805584],[-0.875022342837617,45.34693279602295],[-0.874701507235464,45.34689702731937],[-0.87339880490529,45.34643907810264],[-0.870496270254128,45.345937300264],[-0.870049693681549,45.345950043068186],[-0.869568648560239,45.346459816545675],[-0.866537119551083,45.34724707337158],[-0.86794781654815,45.3447903370872],[-0.866017023849802,45.344049301953746],[-0.863202103527174,45.34276269316413],[-0.865014157175156,45.341629999508925],[-0.865261257970851,45.341212170571616],[-0.865494127218636,45.340129507428585],[-0.865362388935453,45.33977885840501],[-0.864427030263229,45.33902955028877],[-0.863560874347917,45.33841127086673],[-0.862654521275819,45.33804229215283],[-0.862754004624454,45.337854946555865],[-0.864039477544517,45.335399880500816],[-0.86510767294987,45.33509973353858],[-0.864890206482964,45.33465558374489],[-0.865632413301008,45.33395018946734],[-0.869489729226573,45.335508991751254],[-0.87038685562588,45.33453225502683],[-0.870639408500804,45.334083571726886],[-0.87105843422989,45.3336210132945],[-0.871744245513366,45.333263713443124],[-0.87235684335734,45.33277281295499],[-0.872830098043199,45.33270414048029],[-0.873752158075773,45.33194017256249],[-0.874214136239461,45.33130572473488],[-0.874952138281318,45.329807965635226],[-0.87499307470498,45.329698364085175],[-0.874811257300055,45.329399946089254],[-0.878014801630619,45.32816201211183],[-0.879687576521742,45.32826898298875],[-0.880720815101417,45.32824035167975],[-0.881754382294648,45.328033196080746],[-0.882761908028762,45.327562785691384],[-0.883779904492854,45.32735254510542],[-0.885342360049347,45.326648275090946],[-0.886540447975598,45.32640019871673],[-0.886734808610161,45.3257245063504],[-0.888002082013222,45.32555244274329],[-0.888931112542118,45.325075686940544],[-0.889427309863827,45.324476942264866],[-0.897622234322214,45.32249405902263],[-0.901524421173402,45.321153539249295],[-0.902514135287485,45.32218282802143],[-0.904772015728082,45.32338150635223],[-0.905283036719032,45.323907294909205],[-0.903669248603207,45.325515189754356],[-0.905468595105634,45.32633318319412],[-0.90624702958314,45.32653499168726],[-0.906522291253674,45.326887799228224],[-0.90642429075514,45.32738526904969],[-0.906681287127589,45.327423173322764],[-0.907435215328194,45.32722103597079],[-0.907512198065203,45.327443733119615],[-0.907190659503272,45.32848903925774],[-0.907129146147257,45.32961541630171],[-0.907329140397425,45.32996995034356],[-0.907871394780024,45.32995641609519],[-0.908147090694121,45.330078409583294],[-0.908675821324429,45.330472843409126],[-0.908839301855768,45.33072587475987],[-0.907834537182925,45.33112430557469],[-0.907565733969558,45.33155562017148],[-0.907569350360333,45.33215321952493],[-0.909024082251619,45.332555870305946],[-0.90888872640175,45.333067270299104],[-0.908946538786824,45.333380791880664],[-0.909450639182578,45.334770492255196],[-0.909920998296656,45.335206630525],[-0.91143967730698,45.335662914508575],[-0.912741255073868,45.33552183209428],[-0.913236922029836,45.33624466716602],[-0.913871582249855,45.33618099273727],[-0.914384366901362,45.33560228566765],[-0.916243218661261,45.33458879200731],[-0.916487775489335,45.334594654820464],[-0.917316847581583,45.333915605030526],[-0.918551354595847,45.3342023352236],[-0.918574168128793,45.33381837576985],[-0.920254485451526,45.33357468184138],[-0.921195268565096,45.33361112708059],[-0.922102096194462,45.33374612302272],[-0.92268219107517,45.3338880621352],[-0.923210835196975,45.3342067047594],[-0.923414523945461,45.334049902459654],[-0.923644285465067,45.334063480962065],[-0.923876221224805,45.3338903605075],[-0.92583827899791,45.3344697380734],[-0.929543159647814,45.33530973121331],[-0.930301332141268,45.33505860705158],[-0.930719868624445,45.33510250248604],[-0.933460697584335,45.336226875316726],[-0.934098564234591,45.336606541572856],[-0.935901491910424,45.336017510082776]]]]}}]}