{"type":"FeatureCollection","features":[{"type":"Feature","properties":{"fid":138,"ID":"COMMUNE_0000000009756568","NOM":"Le Teich","NOM_M":"LE TEICH","INSEE_COM":"33527","STATUT":"Commune simple","POPULATION":9213,"INSEE_CAN":"14","INSEE_ARR":"6","INSEE_DEP":"33","INSEE_REG":"75","SIREN_EPCI":"243300563"},"geometry":{"type":"MultiPolygon","coordinates":[[[[-1.01117728692008,44.510251816685106],[-1.019533004903611,44.50850438766426],[-1.026493977839142,44.50714708084666],[-1.046291186201721,44.51566704720354],[-1.053013481151683,44.51842004516887],[-1.085074477060527,44.53236835097485],[-1.063819384316332,44.56657669791774],[-1.051902636619717,44.613799390204164],[-1.051003698800875,44.62013166099089],[-1.050116582576407,44.624541613656156],[-1.049745812141047,44.62691699799514],[-1.049112641632882,44.628698029339226],[-1.048188332748796,44.63062674492922],[-1.046790267160099,44.63409805549399],[-1.045172248172187,44.63726910386909],[-1.044042598024172,44.64121282482462],[-1.043243109856806,44.64300351209267],[-1.042783893530994,44.64367746959371],[-1.042921535703454,44.645260788467795],[-1.043998238926674,44.645993936429875],[-1.044153523912762,44.646380385141725],[-1.044137792717552,44.646530601701876],[-1.0433138970382,44.64726117567659],[-1.043299164625966,44.64740774973182],[-1.044163780576914,44.64791247715501],[-1.044561728050986,44.648407234489774],[-1.044561401304789,44.64857852234291],[-1.043384243927814,44.64924359770579],[-1.043623218554134,44.64940613025578],[-1.044055191763603,44.6494777653621],[-1.043985327910142,44.64978861839795],[-1.042734204213914,44.65063758419657],[-1.042446480101557,44.65069318101627],[-1.042078704448532,44.65060116242814],[-1.041798116371833,44.65066821542389],[-1.041606964816745,44.65059137078435],[-1.041486819014766,44.650676894881464],[-1.041486620051419,44.65074451098553],[-1.041426420635129,44.65075031811355],[-1.041381644367483,44.650935851445],[-1.041570143368775,44.651081303806336],[-1.041643792693083,44.6513156922656],[-1.041743652818517,44.65129942016242],[-1.04189930599519,44.65102239101757],[-1.041934532301018,44.65114370014482],[-1.041814832526579,44.65130583165117],[-1.042227642246505,44.651251070514995],[-1.042340476057635,44.65138035854802],[-1.042254553333173,44.65162599164733],[-1.042301956241703,44.65226879607266],[-1.041958386424368,44.65274290461668],[-1.041115872210022,44.65300448414359],[-1.040497764454297,44.65345437001598],[-1.039986396493269,44.65352624841473],[-1.039474221676621,44.65386858916548],[-1.039205216876263,44.65386850426318],[-1.039086319274842,44.6536898547972],[-1.038856496209363,44.653654983550574],[-1.038390018616438,44.653718903899744],[-1.037794331406436,44.653918252861544],[-1.0375901863415,44.653871623506056],[-1.037713806397691,44.65374631328737],[-1.03794453660443,44.65375861750525],[-1.038155906061603,44.65364181978051],[-1.03791659190634,44.65335128159585],[-1.038070321803801,44.65338172320202],[-1.038272017143838,44.653623154346555],[-1.038446778885827,44.65361226177262],[-1.038433165090141,44.65349286631214],[-1.038524208290386,44.65351207599023],[-1.038692268084833,44.653372520495786],[-1.037291404857656,44.65215265626296],[-1.037288288363964,44.65140456746697],[-1.03684772554875,44.64966283576422],[-1.035960391410231,44.6489109838732],[-1.03263314839448,44.64836717310103],[-1.028846834725269,44.64797161159657],[-1.02865828783465,44.64780721075708],[-1.028667130674547,44.64740123928793],[-1.02836652067382,44.64725895195426],[-1.028170637442547,44.64681537086954],[-1.027787463828589,44.64534195820278],[-1.027360133413897,44.644663422726175],[-1.02659958635186,44.64391589840288],[-1.025794985950248,44.64361167995851],[-1.025453024271537,44.64359709383044],[-1.022585578585242,44.64428744245654],[-1.02207796516447,44.64425183228397],[-1.021841642564865,44.64412521754641],[-1.021754276648101,44.643785850934904],[-1.02187932743005,44.643591998080595],[-1.022512128354399,44.64308218972229],[-1.022428612560148,44.64279676977575],[-1.022221087477908,44.64254290670388],[-1.021977798428223,44.64233631828108],[-1.021486852399817,44.6421802084006],[-1.020012097217124,44.641914759049875],[-1.019622758619485,44.64173150756466],[-1.018325433143756,44.641386566164535],[-1.018268003975998,44.64128949670294],[-1.01875924702819,44.64038822685241],[-1.018642701068133,44.64034739362826],[-1.018469839209177,44.64057903847669],[-1.018357141559979,44.64059215103983],[-1.018048256137042,44.6403329528388],[-1.017501386754503,44.640100435165245],[-1.016772678341953,44.639973682650655],[-1.016615379249782,44.64006954368687],[-1.016289284338157,44.64063127034808],[-1.016322163963129,44.64073824726669],[-1.017676522860669,44.64113973069782],[-1.017650286360271,44.64130294269003],[-1.017113773921338,44.64119804973773],[-1.016236995058573,44.641208285029876],[-1.016039806061448,44.64113432265223],[-1.013688151367484,44.64124860926045],[-1.013337643059053,44.641078349127234],[-1.013158463003752,44.64063684524749],[-1.012785788602475,44.64072249353221],[-1.012789205141153,44.64078817391941],[-1.013089428118554,44.641191929641955],[-1.013647239597422,44.64141866293503],[-1.014248612662035,44.64147704625226],[-1.017119373469413,44.64148900923227],[-1.018127251589381,44.64161732824311],[-1.019759439001852,44.64223133953088],[-1.021750544293597,44.642619527368524],[-1.022076063208667,44.64286368814098],[-1.022118561056189,44.64308750062748],[-1.021293317759576,44.64355473052409],[-1.021153665866139,44.64375632543729],[-1.021143058109174,44.644014522358404],[-1.021312713015565,44.644250835492315],[-1.022216994285227,44.6446073471934],[-1.023785976345538,44.64442312741168],[-1.024148683072939,44.644498261287055],[-1.025183631304691,44.64426225287944],[-1.02549026860826,44.644100543167056],[-1.025495203918133,44.64420493036587],[-1.025605902424457,44.64419909505396],[-1.025608420591382,44.64411066225058],[-1.025883638495159,44.64421602061622],[-1.02589180134418,44.64441854718236],[-1.025233622214652,44.6452267751527],[-1.025397424242046,44.64527489514994],[-1.027036520978849,44.64518813545828],[-1.027016112370624,44.645962315375044],[-1.026829182936048,44.64620891007913],[-1.027522199687439,44.6468768645834],[-1.027671845630617,44.64838673474666],[-1.027776047326608,44.6486254251705],[-1.027610096402667,44.64939499472952],[-1.026978041548905,44.65030414437065],[-1.026678572449581,44.650478216548464],[-1.026270112087175,44.65062921515846],[-1.025819505147618,44.65068529312072],[-1.025160982667181,44.650553328786685],[-1.024894140790337,44.6504242247846],[-1.024730876219714,44.65045450922732],[-1.024031479327319,44.650139231498265],[-1.023237202664305,44.649432572854124],[-1.022579083891983,44.64852804570774],[-1.022330967429216,44.64844873521418],[-1.021073764529606,44.64753625549255],[-1.020669231508745,44.647512211647076],[-1.020581261978917,44.64765964206029],[-1.0202138232796,44.6478722265592],[-1.019789076278262,44.64860882657129],[-1.018762386220513,44.648448750002196],[-1.018235643738268,44.64941981999817],[-1.014415147943369,44.65003191096306],[-1.01434808903784,44.64994149889035],[-1.014385372534201,44.64927759004295],[-1.014105145760011,44.64894251886773],[-1.013541963652675,44.64871237375898],[-1.013276740151003,44.648694060704166],[-1.013093936775411,44.648556469300374],[-1.012644056650396,44.64848085799087],[-1.012305359213009,44.648689667181266],[-1.012108878241514,44.64896272292287],[-1.012148800542723,44.649168603321684],[-1.012476132618642,44.64956236499818],[-1.01218336702704,44.64958290931321],[-1.011814282926263,44.64977298835671],[-1.010863697501398,44.64979486962674],[-1.010371444014504,44.650276970492996],[-1.009879423816796,44.65053189946986],[-1.009144384511767,44.650424251682416],[-1.008789426768189,44.65042270412607],[-1.008453912004294,44.65051690346422],[-1.008453085981546,44.65039884586731],[-1.00828330263007,44.65040860921355],[-1.008112266223682,44.65031204882351],[-1.008134776144518,44.650167003459735],[-1.007771835016787,44.65017746082533],[-1.007401108470787,44.65009625332401],[-1.005773962943438,44.64916366698676],[-1.005309295999776,44.64868472160222],[-1.005138408929643,44.64830600433016],[-1.004409351268009,44.64762480125407],[-1.004037898406575,44.64707126135078],[-1.003712997169104,44.64676392673546],[-1.003201309919107,44.64663553008766],[-1.00163914464953,44.64677503662841],[-1.001251529072037,44.64665115282477],[-1.000945627154796,44.646433265482024],[-1.000870235068761,44.6462962738391],[-1.001094744558544,44.64591946267258],[-1.001412485249557,44.645699729187086],[-1.002404098208662,44.645278911855776],[-1.002702889769875,44.6448281940714],[-1.002531613004101,44.644532419717585],[-1.00085905620632,44.64379251863752],[-1.000615257811677,44.64350657883013],[-1.000705201901833,44.64320855677374],[-1.00052675081083,44.64322042556649],[-1.000748445444841,44.64299966355334],[-1.001315802993497,44.64279252701934],[-1.001646374518392,44.642575933570456],[-1.003103435169938,44.64010643991082],[-1.003814906098355,44.638410322870534],[-1.003853523253063,44.63758592283164],[-1.004183984506516,44.63676446885832],[-1.004177332747802,44.63654656518649],[-1.004017027741825,44.6363693851086],[-1.003776546338844,44.63628975958295],[-1.003423978081609,44.63632056272564],[-1.002812304354068,44.6367736034123],[-1.002114043118657,44.637536260591204],[-1.001696951101478,44.6376541286829],[-1.001425150756978,44.6374890955147],[-1.00082813893641,44.63656692378665],[-0.999479561541583,44.6356566320942],[-0.998854097935501,44.63468860820003],[-0.998926647700326,44.6341811869558],[-0.998864294496306,44.63376518454521],[-0.998701299199854,44.63351417875334],[-0.998633370785115,44.63220146542502],[-0.998461660351566,44.63191652109974],[-0.997767303212451,44.63147110650069],[-0.997648580407933,44.631221202112094],[-0.997915739268302,44.6287064933399],[-0.997576969803233,44.62843300221735],[-0.997106928493886,44.628212936160416],[-0.99610188338214,44.62790675509322],[-0.995966585393101,44.627689900312966],[-0.995966531511841,44.627422181553406],[-0.996255074738303,44.626204748100726],[-0.996196004312163,44.62590581184565],[-0.995974854583154,44.62549284995916],[-0.994957940607434,44.62459125478223],[-0.993408950940895,44.622824600175655],[-0.993018017832458,44.62250881421199],[-0.992609252384756,44.622315362285306],[-0.990612108355029,44.62204228489101],[-0.988658921254953,44.621444880156865],[-0.987228043027222,44.62025529521979],[-0.986892697666956,44.62004655379974],[-0.986487599806432,44.61999356816475],[-0.986216278629928,44.620047528336514],[-0.985948661078644,44.620260903428175],[-0.985558669683284,44.62099249570051],[-0.985184227972662,44.62121242705524],[-0.983454823000651,44.621601112264415],[-0.983192223358092,44.62181429922695],[-0.982826254053854,44.6226721128826],[-0.982563138641196,44.622878105512676],[-0.982264484031233,44.62293844924234],[-0.981303372022519,44.622840584558745],[-0.980371550340299,44.62256768496646],[-0.979071102919218,44.621971832202114],[-0.978417388070596,44.61986355627146],[-0.977310548664546,44.61866578755357],[-0.975739441373403,44.61784528162652],[-0.975424991896623,44.61741310949315],[-0.973850626801993,44.61613388410332],[-0.97339538824863,44.61592400958304],[-0.972151435239835,44.61571455566745],[-0.971730481876233,44.61557915919826],[-0.971417085688304,44.61528665642968],[-0.970755308090264,44.61497512841286],[-0.970612445249797,44.61486398378126],[-0.970586520773636,44.61460351045738],[-0.969979175701766,44.61424044477225],[-0.969971440144041,44.61411272445452],[-0.97024327780643,44.613976758122355],[-0.970750613673302,44.61421001075742],[-0.971037525297595,44.61414471091404],[-0.971084666287283,44.614007806486434],[-0.971010113327256,44.6136661530399],[-0.970323000890412,44.61281559764295],[-0.970307255427969,44.6122338615318],[-0.969931709947341,44.612097728627184],[-0.969686970254353,44.611722530402055],[-0.969942146645609,44.611224802248685],[-0.97003547332184,44.61022089854492],[-0.970191175240436,44.60994127747527],[-0.97071588656557,44.60957988420952],[-0.970672351007434,44.60933807257777],[-0.970770017053689,44.60918402824135],[-0.970563628099624,44.6087083003466],[-0.970742121684832,44.608053780043306],[-0.970912529243182,44.60775019286928],[-0.971168119830775,44.607527372245926],[-0.971430639681208,44.60745663760322],[-0.971599872132277,44.60720807661168],[-0.97142659814694,44.60609207084971],[-0.971621405811836,44.605508172657835],[-0.971257132044795,44.605030012284104],[-0.970801351022159,44.604793109257116],[-0.970789299305018,44.604586221978316],[-0.971014147281964,44.60432123994866],[-0.97102238343395,44.60416950961977],[-0.971245505515485,44.60398751736484],[-0.971245247956282,44.60384059941898],[-0.969227472229236,44.60387257762346],[-0.961799294474218,44.60110253230669],[-0.963026863668945,44.59923587881849],[-0.962925405337033,44.5985643808286],[-0.964148318893046,44.59715308113968],[-0.965193476071195,44.59762754360055],[-0.96543174858559,44.5974278928834],[-0.965929522563394,44.59727661052411],[-0.966479495114091,44.596737656467965],[-0.971527244782083,44.59536187561027],[-0.971891780723006,44.595200033857296],[-0.974582192145921,44.5866409631183],[-0.975472357963203,44.57749497371717],[-0.972488009770988,44.57507132590254],[-0.972503241542174,44.57496531576826],[-0.985184130940822,44.573564448988066],[-0.992740861857314,44.555082332213246],[-0.991749504835718,44.550586025987386],[-0.991508263353242,44.549884461495054],[-0.991197707581083,44.54959283064963],[-0.992185018549091,44.54918754190567],[-0.995127251572966,44.54902966093024],[-0.997540101017845,44.54325089883272],[-0.998008575142799,44.542889592046926],[-0.998548253074524,44.54132775891699],[-1.006684230259657,44.52154274757962],[-1.006607278142962,44.52150588257647],[-1.01117728692008,44.510251816685106]]]]}},{"type":"Feature","properties":{"fid":171,"ID":"COMMUNE_0000000009756356","NOM":"Arcachon","NOM_M":"ARCACHON","INSEE_COM":"33009","STATUT":"Sous-préfecture","POPULATION":10895,"INSEE_CAN":"32","INSEE_ARR":"6","INSEE_DEP":"33","INSEE_REG":"75","SIREN_EPCI":"243300563"},"geometry":{"type":"MultiPolygon","coordinates":[[[[-1.168542900971429,44.64688237693722],[-1.17296707752394,44.645813872787066],[-1.174438429840471,44.6454580920386],[-1.17476103887747,44.64502308784163],[-1.175438658660948,44.64528867954002],[-1.175967842100824,44.64561306707464],[-1.177770794158744,44.64458659244339],[-1.179331882905899,44.64462402527848],[-1.17978140846692,44.64372171935616],[-1.180746618641614,44.64411884206566],[-1.204530031531091,44.638666347720765],[-1.204121121224027,44.64009011936952],[-1.204072712952241,44.640778036594845],[-1.203430208019758,44.64211783402713],[-1.203256925611808,44.64280779663942],[-1.20190777230201,44.643986039248674],[-1.201144825182175,44.64503289184525],[-1.199959460927318,44.64625807208446],[-1.199114598667976,44.6477146186151],[-1.197689695876498,44.64899755692612],[-1.197006311204758,44.65041910207996],[-1.196695573847005,44.65168945763576],[-1.195937192602178,44.653410451232645],[-1.195771527692973,44.65417043154343],[-1.195897011589707,44.65587138994404],[-1.1957734647977,44.65684073327329],[-1.19434445904544,44.65907310379253],[-1.193225667539854,44.66001078724739],[-1.191718129889271,44.66085140978083],[-1.189463706976208,44.66172212411687],[-1.187122918114456,44.66231568222798],[-1.184531219861224,44.662831238409325],[-1.182389213193545,44.66338110611391],[-1.180761288923226,44.66370954421651],[-1.180674195052486,44.66376152126654],[-1.179664426966673,44.6637726605481],[-1.179611769478715,44.66374399931031],[-1.179577582236488,44.66379397499268],[-1.178822424275987,44.66383154078796],[-1.17494770304332,44.66370749121507],[-1.174209072304052,44.66362720176524],[-1.174223204325767,44.66415857344867],[-1.174097232238001,44.664163330319845],[-1.174034845999682,44.664003409856086],[-1.173862418306309,44.66389272118282],[-1.172559518095046,44.66369849537172],[-1.172230782198679,44.663847936760654],[-1.172172344509397,44.66377531516277],[-1.172266453131122,44.66366448067476],[-1.171360067900226,44.66353641209704],[-1.171257472763241,44.66365207365441],[-1.170934820998653,44.66376431865341],[-1.17054617890166,44.66361670654848],[-1.170165557072811,44.66366261995566],[-1.170141023217922,44.66365543171587],[-1.170112604445763,44.663732232498056],[-1.169889296570396,44.663719019777055],[-1.169942769834886,44.66382698948331],[-1.169763972705295,44.663886022999456],[-1.169347256355455,44.66385396026644],[-1.168740430141031,44.66396699991528],[-1.168657063663279,44.66388179377655],[-1.168454401855857,44.6639597557125],[-1.167783801942266,44.66387685813825],[-1.167651773887473,44.6637997967315],[-1.167641529948873,44.66367847634325],[-1.167435393058253,44.66365830059645],[-1.167053359112827,44.663889971632905],[-1.166062215778679,44.66389667837062],[-1.165921708806945,44.66384157124668],[-1.163708849385168,44.66429006362378],[-1.163213760792546,44.66424019464091],[-1.162857660713691,44.66359278577261],[-1.162134117169904,44.66361372080739],[-1.160996466940336,44.66329593995734],[-1.159270636809459,44.66318960130822],[-1.157415506621346,44.66287173330508],[-1.157043538720044,44.662624280653844],[-1.156844840716436,44.66267051846011],[-1.155908074652019,44.66254076318054],[-1.156034235338543,44.662418821858346],[-1.155502028100973,44.66213952507181],[-1.155158573378945,44.66173052376631],[-1.153381076760393,44.661094140277996],[-1.1533128176011,44.66239489553511],[-1.153249172994067,44.66255956071188],[-1.152928284137706,44.662833058106266],[-1.152290473500257,44.66292012510693],[-1.152256659839243,44.66280419755983],[-1.152924968444591,44.66278810661246],[-1.153233923228292,44.66252407283318],[-1.153341960295419,44.661077579653046],[-1.152698859934171,44.66057886017259],[-1.152151902509733,44.660527285929916],[-1.152234109793339,44.65975790589566],[-1.152060411995838,44.65961207397016],[-1.151229060769855,44.658975274073946],[-1.15076366239452,44.659001767179646],[-1.150699359873645,44.65881486298365],[-1.14844800187904,44.65808801792807],[-1.147452221479428,44.65845894836785],[-1.145155851303651,44.65763456088741],[-1.144243550277993,44.658281800642854],[-1.144150083766177,44.65821318388113],[-1.143804619567474,44.65866787790441],[-1.143946486439852,44.65870763498003],[-1.1440096759786,44.658639455362284],[-1.144018755553119,44.658659849787206],[-1.144122172148571,44.65869203305582],[-1.144168846807619,44.65867405582727],[-1.144186476732628,44.65870765238125],[-1.144251443058981,44.658732262006204],[-1.144270935343877,44.65872251601829],[-1.144276635552339,44.658731317441564],[-1.144326335226965,44.6588917266436],[-1.14382238329144,44.6595957719292],[-1.143888648879675,44.65980965120475],[-1.149433629644611,44.661864442677086],[-1.150178823043675,44.66220608949122],[-1.150235843589275,44.66212281187745],[-1.150377723695718,44.66216256075817],[-1.150951895025676,44.66138372423917],[-1.15139807694367,44.66212424475363],[-1.151200494831068,44.662699622700124],[-1.150772190145357,44.662886995291025],[-1.149151179658836,44.662145500740735],[-1.144432874976032,44.66033917122995],[-1.144200818346037,44.660447038476704],[-1.144326761051027,44.660613604447526],[-1.144202117814932,44.660636307960914],[-1.143683694678044,44.66045741021774],[-1.143667841057167,44.660070353146985],[-1.142331371611802,44.65958855288403],[-1.142173630424139,44.6593330252858],[-1.142382536842677,44.65891050011993],[-1.143816805561639,44.656945529140835],[-1.143802911662785,44.656756732147656],[-1.143628555067197,44.656790314221105],[-1.143585474990049,44.656719808171424],[-1.143771103974594,44.65666777327622],[-1.143700185889065,44.65656225039338],[-1.142852356446973,44.6561973666846],[-1.14277882320301,44.6558845933859],[-1.142646914207612,44.6558084014126],[-1.140014203533438,44.65447815210675],[-1.139119859297715,44.6536858657801],[-1.168542900971429,44.64688237693722]]]]}},{"type":"Feature","properties":{"fid":2680,"ID":"COMMUNE_0000000009756569","NOM":"Gujan-Mestras","NOM_M":"GUJAN-MESTRAS","INSEE_COM":"33199","STATUT":"Commune simple","POPULATION":22643,"INSEE_CAN":"14","INSEE_ARR":"6","INSEE_DEP":"33","INSEE_REG":"75","SIREN_EPCI":"243300563"},"geometry":{"type":"MultiPolygon","coordinates":[[[[-1.085074477060527,44.53236835097485],[-1.085438819569573,44.531917660122296],[-1.090331853213451,44.52415793506478],[-1.10581912168514,44.50439435889534],[-1.10696321212668,44.50268498616982],[-1.105927704543692,44.5190161555589],[-1.105715526683766,44.52420554596682],[-1.105150906467397,44.53328157677798],[-1.104690955328505,44.53425242536279],[-1.104531887297211,44.534855102540554],[-1.104056593536507,44.5655068300535],[-1.104112492307914,44.5670201019409],[-1.106054755086017,44.577762685013724],[-1.107457178930171,44.586262710707246],[-1.107676026117677,44.588591172206264],[-1.109117003678835,44.5980976445224],[-1.111674946221821,44.61313460893833],[-1.112325881252482,44.617212109948504],[-1.11343087435255,44.62640125286156],[-1.115315650269417,44.63065368615366],[-1.117072662493517,44.63482973172593],[-1.117457632554407,44.63608919218004],[-1.117771111922881,44.63669863712675],[-1.118449611953639,44.63698165883521],[-1.11956596675812,44.63703650186095],[-1.119730670360413,44.63711329822854],[-1.119783403999489,44.638300400988385],[-1.119354662587678,44.63880860095411],[-1.119342266105207,44.639157039388934],[-1.118689080506989,44.63927243940762],[-1.118776087349574,44.63951259926721],[-1.118627519433216,44.63970835205288],[-1.118444568605421,44.63965837714215],[-1.118245737032368,44.63978839084358],[-1.118186584443128,44.639739210388996],[-1.117545882025878,44.639800950058024],[-1.117138935367938,44.63877669376081],[-1.117064697550457,44.63879748973761],[-1.117415432921211,44.63962280814326],[-1.117366719219488,44.640165518605514],[-1.117531076628256,44.64016840910158],[-1.1174786305249,44.6403146021854],[-1.117761473391377,44.640556480145165],[-1.117940846055445,44.64093743747432],[-1.117922130256312,44.641199567873734],[-1.117331747409829,44.64314174759491],[-1.117149424581163,44.64323869008004],[-1.117008272723668,44.643207889325524],[-1.116948700315163,44.64308389977542],[-1.117588256235662,44.64095057680965],[-1.117541934643231,44.64083510887831],[-1.117157588654906,44.640759280965035],[-1.116398111356985,44.64280691882647],[-1.11639844311066,44.64332977218933],[-1.116631688968914,44.643411232520165],[-1.116878223930536,44.64386451395355],[-1.116719918397783,44.6444455642147],[-1.11641461618485,44.64489866902404],[-1.115451204745931,44.64547003900746],[-1.114615405894507,44.64567965758378],[-1.114085196605802,44.64562998301348],[-1.113037721660531,44.64579428161721],[-1.112769650535435,44.64603143453575],[-1.112780728081239,44.646304174203216],[-1.112617803044329,44.64640759867644],[-1.11256552894059,44.64666015869432],[-1.112352018107346,44.646779889105325],[-1.112150241889613,44.646800919863175],[-1.111948025770106,44.646694856349356],[-1.111937051495088,44.64656184399061],[-1.112149293078488,44.64626907530614],[-1.112074657004796,44.64618080194846],[-1.1121665497048,44.64614222440428],[-1.11200670711478,44.646011145567826],[-1.111976300354719,44.6458022295946],[-1.11168662232586,44.64584726466612],[-1.111413832112271,44.64600255401228],[-1.111257010619153,44.64591283034583],[-1.11124958210017,44.64582836659921],[-1.111395533226864,44.64573459060629],[-1.111192288225412,44.64568355514394],[-1.111214729765432,44.64526442872718],[-1.111438193150921,44.645125398873624],[-1.111177882451913,44.6449845346023],[-1.110800078829475,44.644998589340034],[-1.109204248469743,44.64476045042345],[-1.108829200876351,44.644639172679405],[-1.106499696581689,44.644383198072546],[-1.10585748671359,44.64418259106631],[-1.105548126719294,44.64414810914185],[-1.105283524928704,44.64432922183248],[-1.10510132031343,44.64425485679108],[-1.105051089881473,44.64408544036505],[-1.103554598191772,44.643996784097546],[-1.103421312127061,44.64407385233633],[-1.10341315606726,44.64430854137136],[-1.102325037219218,44.64635925268614],[-1.101990394491736,44.64627251133031],[-1.101775373959097,44.64664919982512],[-1.101057219761368,44.64686246025783],[-1.100795605247735,44.646790133340346],[-1.101224492880697,44.64659301905595],[-1.101176117037546,44.64636223128522],[-1.100879223191594,44.64623892781749],[-1.10090813579852,44.64615041090789],[-1.100694353558409,44.645815779920916],[-1.100946039544138,44.64528357935196],[-1.101269853811465,44.64487490904589],[-1.101165832372043,44.64483369534958],[-1.101402143317097,44.64443728684523],[-1.101530696307589,44.64446857494518],[-1.101562583973786,44.64438625782098],[-1.101434031153314,44.64435496975908],[-1.10176519178686,44.643873906419934],[-1.101700261140735,44.64384927198956],[-1.101779247449111,44.64372013238617],[-1.101960288693569,44.64360523414866],[-1.102023559029109,44.64326032152577],[-1.102175986344911,44.64327269284867],[-1.101923456858211,44.642839438405645],[-1.101773896363003,44.642883753851464],[-1.101604245081315,44.643085672989166],[-1.101009783583447,44.64442480390955],[-1.100666175995228,44.644735044670846],[-1.100786718043836,44.64482973479253],[-1.100706418706382,44.64494089264506],[-1.100617609418534,44.64493517330436],[-1.100464707366582,44.64543666309921],[-1.100322841663356,44.64546536558366],[-1.100255039679673,44.64567882853016],[-1.099952632479386,44.64586133037508],[-1.099778283487509,44.64589484319406],[-1.09935041640266,44.64556815208903],[-1.098610331038413,44.64528909910612],[-1.099876149635816,44.64285050941139],[-1.10010806737236,44.64261923834298],[-1.100064398091389,44.64253972519504],[-1.099297693980304,44.64241491811007],[-1.099251902448263,44.6424797205769],[-1.099711435057298,44.64258256979189],[-1.099805329207855,44.642675544871885],[-1.098870846802744,44.644478919836445],[-1.098700573632159,44.64448162948639],[-1.098221613944569,44.64430286996949],[-1.097891421441591,44.644294380864125],[-1.097748591999564,44.64436187955553],[-1.097717270962867,44.64446941585802],[-1.098130138534561,44.64493729998876],[-1.098007309557692,44.645158210758765],[-1.097575202449716,44.645120144972964],[-1.096987562206379,44.644853458640824],[-1.097989982458324,44.643184607585454],[-1.097931106041311,44.64306959835504],[-1.098165469831704,44.64264622536373],[-1.098356982151207,44.64267518195897],[-1.098378897220832,44.64262929507905],[-1.098199323898914,44.64259088093306],[-1.098445131187192,44.641977771735135],[-1.098666078728741,44.64192540409938],[-1.098506966561694,44.64183845308009],[-1.098504382271897,44.64176823337077],[-1.098416837489214,44.64176246556306],[-1.098252934455856,44.64107169946779],[-1.098145847751848,44.64098822740916],[-1.097409586493677,44.64093439764708],[-1.097980016313847,44.64113861448469],[-1.098154350333883,44.64179924514905],[-1.098081735785402,44.642189575158234],[-1.097671394205008,44.64297105143358],[-1.097048917276683,44.64378743568853],[-1.097070012664837,44.64390384614554],[-1.0965992928236,44.64472361575074],[-1.096388957271892,44.64495678321372],[-1.096154256573481,44.64502858673395],[-1.095913187593992,44.64483919625136],[-1.09560666179034,44.64475680307058],[-1.095383714740694,44.64493814998522],[-1.095283375662847,44.64493014922995],[-1.095122804764789,44.64484054273803],[-1.095110301659405,44.64468595141376],[-1.095297102495569,44.64452848163489],[-1.09652822585549,44.64218407396869],[-1.097067071521449,44.642231707686975],[-1.096965757660571,44.642140808547204],[-1.096477776175271,44.642063342879624],[-1.096115775762253,44.6427979464654],[-1.096057378280002,44.64267210089352],[-1.096175789579503,44.64256404139075],[-1.096228610486654,44.642231240080804],[-1.094718935338143,44.64213394057384],[-1.09310282090069,44.64178814937032],[-1.093001762607516,44.64183967098218],[-1.092989484911127,44.641792347400006],[-1.092640984234959,44.641688063185384],[-1.092135309751199,44.64167974633818],[-1.092097886597431,44.6417207972199],[-1.092071039025525,44.64166409686378],[-1.0917781373238,44.64162986927887],[-1.09171639866331,44.64234432268891],[-1.091894007286784,44.64235577558161],[-1.091903804780046,44.64249063446001],[-1.09121202454069,44.642353982803684],[-1.091322834946579,44.64161968349234],[-1.090981988871097,44.64179456868017],[-1.090022968850658,44.641803024903616],[-1.089811036956265,44.641666632747416],[-1.089573647470734,44.64117960672017],[-1.089418617557262,44.64113125563114],[-1.088802031923404,44.64133436769147],[-1.088568448893967,44.64159542372589],[-1.08812097802339,44.64169311206441],[-1.087480696868332,44.64174384228095],[-1.087291268697439,44.64163906620956],[-1.087135069564774,44.64180079880742],[-1.086417155834223,44.64175613344548],[-1.086027652770466,44.64164342892028],[-1.085057186796109,44.64158104898097],[-1.083651106829725,44.64134454910424],[-1.083377297216923,44.640876887237035],[-1.083526663239246,44.64067304362731],[-1.083240498704916,44.640557412366995],[-1.083152003026281,44.64057330307327],[-1.083098422320501,44.6406528095491],[-1.083020736297948,44.64060880356411],[-1.082943836750193,44.64068015687635],[-1.082899022208514,44.640636739155305],[-1.082756509929568,44.64070871371023],[-1.082803628423734,44.640818755281614],[-1.082559284889985,44.64080975366201],[-1.082322197185497,44.64093570419317],[-1.08232473379381,44.64081391180843],[-1.082165716555919,44.640780121678766],[-1.082174355812343,44.640707684800894],[-1.081964513189907,44.64072174705403],[-1.081899819869522,44.64104866656196],[-1.08172547503447,44.641082150862026],[-1.080443177653521,44.64098527409785],[-1.080351771423781,44.64094357587645],[-1.080340047921291,44.640781744093246],[-1.08050468795308,44.64056201595909],[-1.08012230140202,44.640808715268044],[-1.080177404983112,44.64088961588186],[-1.080142752265962,44.64098645127051],[-1.080062941861781,44.64079107469942],[-1.080112097887117,44.64070271852708],[-1.080043250392894,44.64069354151797],[-1.079884528181404,44.641465651703214],[-1.07883605941685,44.64145928421249],[-1.078728582520244,44.641544383619426],[-1.078760912764261,44.642165204495214],[-1.078329407290916,44.644227467992],[-1.078234517925276,44.64431210223617],[-1.077766602763481,44.64430232539412],[-1.077637837128728,44.64444229734162],[-1.077458272171527,44.64440384949509],[-1.077311508551273,44.64412079426318],[-1.077755417665566,44.64222935763479],[-1.077588509182195,44.64114473905603],[-1.077509717434469,44.64113773035226],[-1.077475068758097,44.64107770900484],[-1.077406351403083,44.64107032848739],[-1.077454287312871,44.64190692583469],[-1.076895042406099,44.644298424117785],[-1.07666747798079,44.64446908382739],[-1.07650180868194,44.64444815122074],[-1.076352216796408,44.6443004196091],[-1.076817476617215,44.64183126019867],[-1.07675825884751,44.64101310854587],[-1.075817831995932,44.639533334500065],[-1.075552738381367,44.63953409770599],[-1.075656266871507,44.63991791011655],[-1.076145154427962,44.64056696300049],[-1.076276436787973,44.6415086617014],[-1.075940330367471,44.64157514781049],[-1.075895163275255,44.641648931266644],[-1.075640050456326,44.64161326745322],[-1.074707022791975,44.64180633451882],[-1.074635851343496,44.64179994421893],[-1.074676243159453,44.64172994329175],[-1.074375605324368,44.64106492826686],[-1.073370535885957,44.64130931965712],[-1.073395482674094,44.641479678699525],[-1.073121687855789,44.641534844475366],[-1.073089110118725,44.641608162604555],[-1.074143843662257,44.643795904917546],[-1.074279238833181,44.64462026370612],[-1.074063608555329,44.64478146306343],[-1.074113388676548,44.6461678891603],[-1.074027831954963,44.64620710201594],[-1.073920525419934,44.64472363519178],[-1.073812622414141,44.64462845154233],[-1.073779457015952,44.64416992556732],[-1.072726030822433,44.64200016087158],[-1.072552160921627,44.64169105574427],[-1.072354814845623,44.64158113814135],[-1.071660004725415,44.64175097637093],[-1.071539923365193,44.64183653281342],[-1.071518391866049,44.64206269256321],[-1.07161889237133,44.64223026804981],[-1.071718987721884,44.642217565228904],[-1.072273174039498,44.6430715660957],[-1.072564771199218,44.64308786393701],[-1.072696555657798,44.64316413907283],[-1.073199091488801,44.64400201070247],[-1.073051869998588,44.64406152511064],[-1.072719236353345,44.644001667404055],[-1.071760014255362,44.64365839932784],[-1.070898482491749,44.64222075132358],[-1.070663760729403,44.642292500675474],[-1.071540480840004,44.643765649414945],[-1.073121749951524,44.64432938967396],[-1.073348195813942,44.64449232186709],[-1.073386664628383,44.6458971937685],[-1.073300868408136,44.646107693822444],[-1.073141697714121,44.64617666331238],[-1.072889407511207,44.64600566818479],[-1.072293588992357,44.645973537494925],[-1.072218917787728,44.6458140249488],[-1.07229715913255,44.64532434941793],[-1.071482458207245,44.645408456306626],[-1.071376507787099,44.64534024242217],[-1.071470599222649,44.6448950571892],[-1.071316224534226,44.6448556713784],[-1.071250901795564,44.64465074066816],[-1.071118465940846,44.644565473044565],[-1.071147798546842,44.64444720180655],[-1.070927761347122,44.644302960055605],[-1.070482289634054,44.64325834454141],[-1.070330524798889,44.643342362196776],[-1.07037952663655,44.64360108079982],[-1.070555262701712,44.643761378761155],[-1.070594231294827,44.644038496255185],[-1.070852048930421,44.64454824354132],[-1.070177588184143,44.64482549741661],[-1.069479941243655,44.64373337353657],[-1.069358639042284,44.64369727458178],[-1.06932479580879,44.643770638038156],[-1.069722714405744,44.644506904895316],[-1.06917154021613,44.64455063991581],[-1.068869532789404,44.64475737803959],[-1.06902563069979,44.645065340373186],[-1.068935727378651,44.64521919533458],[-1.068505475031906,44.64532878866169],[-1.068068467247951,44.645344876598315],[-1.066787259128015,44.64316541753293],[-1.066549282536266,44.64319220446652],[-1.066721566440162,44.64365462530895],[-1.066572391593327,44.64368715885078],[-1.067438380512204,44.64518777657874],[-1.067393848688327,44.64527054741088],[-1.067171054405042,44.64533283516],[-1.067042518526741,44.645301507117736],[-1.065806919443233,44.64322853515179],[-1.065614510249581,44.64336181900833],[-1.064348408281123,44.643489524303874],[-1.064413055784129,44.6436854682404],[-1.065818988625038,44.64357064695456],[-1.066731176589117,44.645186759909826],[-1.066597188218167,44.645254793050235],[-1.066355307963367,44.645227635084126],[-1.06568516557174,44.644008272739356],[-1.065620211918425,44.64396558929304],[-1.065384827217198,44.64402833673767],[-1.066110570350966,44.6453358012739],[-1.065510477816811,44.645978987792404],[-1.065032571682671,44.64625078073541],[-1.06457392131272,44.64636951599162],[-1.064496879063686,44.64629933103652],[-1.064595532332165,44.646196541699815],[-1.064352721067175,44.645999036993324],[-1.064282216751881,44.64577446134823],[-1.063759399348647,44.645476373149656],[-1.063641939213133,44.64472346424908],[-1.063513406685692,44.64469213211303],[-1.063264286617869,44.644214502926154],[-1.063453730351361,44.6438649816842],[-1.063034791297464,44.64348374273074],[-1.062884966223734,44.64350728053157],[-1.063682269597426,44.6456324579809],[-1.06317926683526,44.646011538038536],[-1.063016192418251,44.64602654831369],[-1.06272096304785,44.645784992894576],[-1.062060378985344,44.64397930999783],[-1.062449173257592,44.64289227953005],[-1.062268975154233,44.642844816281155],[-1.062160822180029,44.642920908863715],[-1.061992396360312,44.64338684487698],[-1.061663020215055,44.64337190779131],[-1.061700526072959,44.64354180672942],[-1.060867778523232,44.64372565964499],[-1.060663040133773,44.64368811010902],[-1.060605905949098,44.6437713409205],[-1.060008542080277,44.6438924501106],[-1.060142624529477,44.644175990972904],[-1.06135994913631,44.643896879112084],[-1.061714889278586,44.6440911697244],[-1.062331844993479,44.64581732662509],[-1.062224710288424,44.646082688650225],[-1.061989312967446,44.646145428919624],[-1.061689273969585,44.646012223009095],[-1.061331825283391,44.64613353528644],[-1.061273668907602,44.6460274972088],[-1.061161618644712,44.646049644199074],[-1.061168750021567,44.64614854283853],[-1.060834820174916,44.64607066777281],[-1.060599513575663,44.6464849713807],[-1.060273360541903,44.646514984089244],[-1.060141216307135,44.646258415506594],[-1.059942582219068,44.64613049398164],[-1.059532184745669,44.64499170166878],[-1.059562471063447,44.644711136624316],[-1.05979138438407,44.644558493671504],[-1.059700916416723,44.64435448148631],[-1.059600166527378,44.644358182652454],[-1.059511081042309,44.644523717936345],[-1.059236609874309,44.64456985861306],[-1.058912775800359,44.644807118099806],[-1.058948330502583,44.644950045680666],[-1.059236411455644,44.645092712364544],[-1.059382241759028,44.64588965479714],[-1.05859545263952,44.64671183733804],[-1.057870166879805,44.646810587893654],[-1.056182043514272,44.64598913124858],[-1.056093172993106,44.64563180992433],[-1.056937771889167,44.64473540740927],[-1.056880920434846,44.64464734868933],[-1.057266076103831,44.64420952329189],[-1.056399830879893,44.64498051907532],[-1.05536777756817,44.64502741168157],[-1.05462532815056,44.644712101233466],[-1.053833856124588,44.64476818149909],[-1.053640418321782,44.64471217531747],[-1.053262388912769,44.64360012319748],[-1.052702520376729,44.64361074104621],[-1.052763979531921,44.6444648696741],[-1.052323515193404,44.64445037276481],[-1.052044766895192,44.644998762761084],[-1.052002137681073,44.64496787344262],[-1.052059323966577,44.64493783149648],[-1.052155062949661,44.644583654906235],[-1.05209609237737,44.64453623719623],[-1.051932079486545,44.6445206161099],[-1.051861173461608,44.64458812069472],[-1.051759928276436,44.64449718007774],[-1.051295079542448,44.644442106200366],[-1.051096692294476,44.64459811897266],[-1.050565231205622,44.644617600248125],[-1.05075771110098,44.644835908589535],[-1.050954104547478,44.64545972782822],[-1.051481185066705,44.646116496959],[-1.051021149787389,44.64762076260804],[-1.051260173525188,44.64813484508178],[-1.051688769855234,44.64865099205255],[-1.051648093085069,44.64878770175376],[-1.050659570511829,44.64891408293858],[-1.049749125122538,44.64801894984585],[-1.048987962223586,44.64814599933765],[-1.048687961235024,44.648364324615095],[-1.047041600565833,44.64829842200987],[-1.046918564070223,44.648519276284375],[-1.046758708257274,44.64857921699079],[-1.045476948482936,44.648139358860206],[-1.045218921367467,44.64788738254869],[-1.044405761571832,44.64781798403069],[-1.044163780576914,44.64791247715501],[-1.043299164625966,44.64740774973182],[-1.0433138970382,44.64726117567659],[-1.044137792717552,44.646530601701876],[-1.044153523912762,44.646380385141725],[-1.043998238926674,44.645993936429875],[-1.042921535703454,44.645260788467795],[-1.042783893530994,44.64367746959371],[-1.043243109856806,44.64300351209267],[-1.044042598024172,44.64121282482462],[-1.045172248172187,44.63726910386909],[-1.046790267160099,44.63409805549399],[-1.048188332748796,44.63062674492922],[-1.049112641632882,44.628698029339226],[-1.049745812141047,44.62691699799514],[-1.050116582576407,44.624541613656156],[-1.051003698800875,44.62013166099089],[-1.051902636619717,44.613799390204164],[-1.063819384316332,44.56657669791774],[-1.085074477060527,44.53236835097485]]]]}},{"type":"Feature","properties":{"fid":3686,"ID":"COMMUNE_0000000009756123","NOM":"La Teste-de-Buch","NOM_M":"LA TESTE-DE-BUCH","INSEE_COM":"33529","STATUT":"Commune simple","POPULATION":27141,"INSEE_CAN":"32","INSEE_ARR":"6","INSEE_DEP":"33","INSEE_REG":"75","SIREN_EPCI":"243300563"},"geometry":{"type":"MultiPolygon","coordinates":[[[[-1.107418620393927,44.50248682974343],[-1.192483856281146,44.481212260323204],[-1.197239664237071,44.48007563934397],[-1.197603854832784,44.480062667585656],[-1.199953435068369,44.479537718961495],[-1.202166494263889,44.479073817349466],[-1.208434381052763,44.477534654223405],[-1.225792799879367,44.47348244828063],[-1.228170002214363,44.47296303203936],[-1.228418978161651,44.47295888563223],[-1.228500493995329,44.473038694805076],[-1.229169669279154,44.47289581468671],[-1.233425016198674,44.47188587430722],[-1.234872479055106,44.47156159706152],[-1.235283434308214,44.47153498135441],[-1.238752145949634,44.47069840546427],[-1.250147713112459,44.468161552324474],[-1.251196345828773,44.468010204648934],[-1.253667230020848,44.467486606859204],[-1.253268039371329,44.47129738282916],[-1.25272838525357,44.473443981606174],[-1.252570564157542,44.47584629492153],[-1.252082248232321,44.47799000909179],[-1.251886672686481,44.480142258945335],[-1.250207497282327,44.48955395559931],[-1.250150816062651,44.49162873072978],[-1.249880114336807,44.493487282479805],[-1.249923112854776,44.49472791741387],[-1.249839861598809,44.49509443984834],[-1.250136929758902,44.49920834089471],[-1.250727332184066,44.50310178538985],[-1.251518881401151,44.50647000361678],[-1.253229337642757,44.512568662424066],[-1.253837049926746,44.51526602990094],[-1.253909921315995,44.516182778505396],[-1.254783562679943,44.519030360054266],[-1.255302718579703,44.51998307807436],[-1.255365243957605,44.52036111160396],[-1.25550638357996,44.52051162956518],[-1.255489987923882,44.520695273434136],[-1.25582483763084,44.521459470944734],[-1.256901456942977,44.52332014831258],[-1.257705225133984,44.525304948355064],[-1.257354870832892,44.52771025000847],[-1.257358629283913,44.52923009557229],[-1.257242510282253,44.53006309080405],[-1.256410360131506,44.533116262988884],[-1.255733814504403,44.53464072725502],[-1.255299127192209,44.53694920951056],[-1.255197904086481,44.536944099438685],[-1.255155917710699,44.53717290698613],[-1.254431783870339,44.53840169084531],[-1.252302115080925,44.541520196855],[-1.251054800796202,44.54410520367146],[-1.250155534543635,44.54627469920451],[-1.245611432025512,44.55331849691083],[-1.244546573997864,44.5550850147889],[-1.243281915903895,44.55749839635264],[-1.242558311369324,44.558472838383395],[-1.240183417686104,44.56099828300799],[-1.239750489894901,44.56216708455001],[-1.238390484703357,44.56375284828012],[-1.237428112217109,44.564723802059966],[-1.237292449655549,44.56521764504086],[-1.237441142025864,44.566206331870234],[-1.236913746152011,44.5667233301382],[-1.23604187468473,44.56700292190132],[-1.235256702603265,44.567463092680306],[-1.233966124181963,44.56871707002231],[-1.231961012647096,44.5702481593856],[-1.231076485791419,44.57128458349026],[-1.22979499261134,44.57239301152974],[-1.228943021283468,44.573376781377995],[-1.227930753511963,44.57425850044481],[-1.224253770302658,44.57853012701796],[-1.222580004030472,44.58097332169595],[-1.22056344403879,44.584922536543246],[-1.219886701426408,44.586448563092546],[-1.218626225693934,44.58862075596764],[-1.217287131757603,44.5906877517545],[-1.215307761825499,44.594131479934624],[-1.214368439704119,44.59545653435119],[-1.21153252495168,44.598739048401036],[-1.210838466123496,44.5998022841173],[-1.21077675691195,44.60000658114052],[-1.21085187038384,44.60033638281958],[-1.211143953649778,44.60054702105939],[-1.211405242800148,44.60037928695034],[-1.211331270182298,44.600571430633074],[-1.21170776941314,44.600881622859475],[-1.211752597846171,44.60131264988426],[-1.210824235831375,44.60273642104798],[-1.209523571203014,44.60542751081248],[-1.208509181707482,44.60705287722345],[-1.208565056273549,44.60709131690584],[-1.208488712745099,44.607116764783136],[-1.208324617848757,44.60728529471263],[-1.207169379820244,44.60922253674016],[-1.207217302124413,44.609255870926276],[-1.207173406746493,44.60927647545249],[-1.206660276807323,44.610179527435484],[-1.206332386733457,44.61085915295266],[-1.20630268405654,44.610968468525655],[-1.206336965073999,44.61100502732504],[-1.206258383090897,44.611051294036024],[-1.205772405809152,44.61198035326351],[-1.205430729282357,44.61281376184662],[-1.205442805865312,44.61297557840549],[-1.205131334738245,44.61353737508157],[-1.205019056317527,44.6138932489975],[-1.20507579132855,44.61392624873913],[-1.205023081520829,44.61394718788734],[-1.204643113029492,44.61494432817051],[-1.20441215291272,44.61590874869169],[-1.204421768189876,44.615919201096396],[-1.204400908321239,44.61592720746503],[-1.204371870020519,44.61604551256327],[-1.204169193112627,44.61823494572998],[-1.20421101335635,44.618254089238704],[-1.204184462949866,44.618270425975396],[-1.204040563841998,44.619556085674695],[-1.2040811579045,44.6196095343622],[-1.204034013841628,44.61963747332382],[-1.203762379513157,44.62107224069374],[-1.20377696340906,44.621081602570996],[-1.203763721016885,44.62109022038943],[-1.203626557165774,44.62178962443029],[-1.203706272142966,44.62187674451667],[-1.203656293571854,44.62235736313163],[-1.203777564307647,44.62246003097896],[-1.203477472983482,44.622498497364596],[-1.203429961170274,44.62270765910414],[-1.203318539104698,44.624767406197805],[-1.20348086077974,44.626942953962384],[-1.203754327662371,44.62891593562092],[-1.204059228253612,44.63046399835171],[-1.204381992211385,44.631320801107044],[-1.204284689816213,44.631505713930494],[-1.204403345164792,44.63226660724741],[-1.204190376466364,44.632559599081254],[-1.204205416559581,44.63377610850046],[-1.204387099326096,44.63604108241184],[-1.204560999193957,44.636763813317884],[-1.204607084560985,44.63842991562493],[-1.204530031531091,44.638666347720765],[-1.180746618641614,44.64411884206566],[-1.17978140846692,44.64372171935616],[-1.179331882905899,44.64462402527848],[-1.177770794158744,44.64458659244339],[-1.175967842100824,44.64561306707464],[-1.175438658660948,44.64528867954002],[-1.17476103887747,44.64502308784163],[-1.174438429840471,44.6454580920386],[-1.17296707752394,44.645813872787066],[-1.168542900971429,44.64688237693722],[-1.139119859297715,44.6536858657801],[-1.138992419645368,44.65353287418319],[-1.139063108278047,44.65342925781444],[-1.139358101896352,44.653404687200364],[-1.139417683823144,44.653459250795834],[-1.140266254565081,44.65314799744138],[-1.140297543841974,44.65314412076914],[-1.140272900537953,44.65306661254272],[-1.140478422247897,44.65294171686228],[-1.140626221910263,44.653062391166905],[-1.140854949491622,44.652909580034745],[-1.140717761468494,44.652761463153205],[-1.141409040135188,44.65230373810042],[-1.141855044109209,44.65184257955313],[-1.141980053315223,44.65189378824841],[-1.142214062881708,44.651812896986655],[-1.142757676416203,44.65147699214228],[-1.142936619164001,44.65167763196197],[-1.144127182701887,44.651380572126186],[-1.144104002545737,44.651237199395325],[-1.144277680057902,44.65119462633284],[-1.144337982785754,44.65132759185205],[-1.14442548327287,44.65131529548073],[-1.14436584198813,44.651191320320095],[-1.145136116203368,44.65101819054127],[-1.145196420767498,44.651151155583555],[-1.145295853550448,44.651129395831724],[-1.145301828176767,44.65105614920749],[-1.14533988056146,44.6510240704897],[-1.145348237564644,44.65098318895915],[-1.145684318084182,44.65091649170946],[-1.14577246030384,44.65108447275161],[-1.146081024278898,44.65109002604866],[-1.146280869426025,44.651179892042556],[-1.146806458864017,44.65116558128182],[-1.147051131479732,44.65107526420101],[-1.146018187943673,44.650442392489815],[-1.145619919740832,44.65005886431706],[-1.145773307330646,44.65003237557131],[-1.146526280986278,44.6503277697142],[-1.146696571125141,44.65030785761974],[-1.146789775703911,44.65023584540186],[-1.146763204924643,44.650132266860275],[-1.146087059348999,44.64981686339054],[-1.145987116369809,44.649677272321185],[-1.14683251352198,44.6497014474673],[-1.147900422542411,44.64894016018264],[-1.147313843157607,44.64852043343412],[-1.147175369529619,44.64784048028701],[-1.147284194074261,44.64798063837616],[-1.148363883182733,44.647911265783684],[-1.14857591714981,44.64799526060895],[-1.148750905891146,44.647970661124084],[-1.148551278686309,44.64769508002289],[-1.147728211499434,44.64728783957329],[-1.147328334634966,44.64724244598134],[-1.147086596569979,44.64732093439746],[-1.147121699282487,44.64762613135154],[-1.146487701784308,44.64433235878741],[-1.146565363034504,44.6431574804823],[-1.146478029095302,44.64162819000962],[-1.14657943021813,44.641633399977394],[-1.14660729586503,44.641325840841795],[-1.146442933602116,44.64132299355435],[-1.146448907412234,44.64123261839024],[-1.146550307820862,44.641237828383915],[-1.146532488102498,44.6404812287915],[-1.146028158574129,44.640319851393556],[-1.146028581002053,44.6425555797774],[-1.145960948150415,44.64283758552184],[-1.145726981217613,44.6429184844316],[-1.145423473416342,44.64256926690593],[-1.145300917440903,44.64210507949886],[-1.145450704295388,44.64208143008237],[-1.1454341415793,44.64202796086177],[-1.145284354859935,44.64205161025534],[-1.145029282211799,44.64133095625291],[-1.145086289250098,44.64124768195721],[-1.144518494950745,44.63988065681293],[-1.144493357036133,44.63953902655939],[-1.144643798955433,44.63952436852831],[-1.144592792383239,44.63934598012169],[-1.144924834908818,44.6392253438709],[-1.145788323121528,44.6396346881832],[-1.145753855830452,44.63968105684497],[-1.146390055378033,44.63991862265531],[-1.146512004543568,44.63985995582331],[-1.146471632346372,44.63931155011469],[-1.143751320604367,44.6380342939713],[-1.143278129109003,44.638124159476355],[-1.145853966573962,44.64532976859318],[-1.145928826753189,44.645660519149544],[-1.145615959535795,44.6458705891243],[-1.145295831653282,44.64581047723386],[-1.145275152917178,44.645804040838904],[-1.145260036748011,44.645838865279195],[-1.142953242706402,44.647268621445],[-1.141253002912096,44.64779482352941],[-1.140396327910733,44.64828669241911],[-1.139894626111138,44.64829917728956],[-1.138828294733822,44.64786312194116],[-1.138101067925031,44.64774521274668],[-1.135577140529247,44.64778650385783],[-1.134815585844335,44.64788892375685],[-1.134588842384261,44.648068693181735],[-1.134325689493278,44.64809656833997],[-1.134102352771043,44.64797871261317],[-1.133966569435888,44.64767728039941],[-1.132326373046492,44.64757725504231],[-1.131422008163934,44.647592136614186],[-1.1311947860472,44.64724904486124],[-1.130779979781791,44.64693099477335],[-1.130209372566032,44.646726946668636],[-1.129608240066184,44.64662320168247],[-1.129587735691452,44.64651578770217],[-1.12977334399208,44.64646377649785],[-1.129774730302615,44.64631046939268],[-1.129386651322124,44.6454955902137],[-1.129013953467207,44.64437362541323],[-1.128857562795351,44.64430734879688],[-1.128398206105757,44.64441466108393],[-1.129292739233792,44.64662597613699],[-1.128413674324242,44.64703745026869],[-1.128273680113407,44.64736722046709],[-1.128283493177247,44.647673364312794],[-1.127008871967377,44.64768491193742],[-1.126749878590289,44.64759722161046],[-1.1262949906745,44.647576344257594],[-1.123366015659512,44.64760453323679],[-1.122980957498075,44.64751973494073],[-1.12158864239193,44.64761404134351],[-1.119854653345489,44.64756060177486],[-1.11813681803451,44.64743441357559],[-1.117798473836049,44.64728024468169],[-1.117703085750085,44.647184634503716],[-1.117714469411421,44.646994896433135],[-1.118369058836792,44.645239633820196],[-1.118121199217808,44.64409495817066],[-1.11813344455876,44.64357163535557],[-1.118337111063279,44.64324852229269],[-1.11853309010805,44.64247494844313],[-1.119249538335449,44.642136326288224],[-1.11943928179631,44.641916500284445],[-1.119125253312558,44.641939024671885],[-1.119014092403197,44.64162764554289],[-1.118437460489734,44.64168519835526],[-1.118407921535838,44.64231734470803],[-1.118095730967876,44.64236503939268],[-1.118158205048996,44.64097441162851],[-1.118444443291538,44.64108995254931],[-1.1184573866512,44.64161233622019],[-1.119646452832134,44.641468847689936],[-1.119673341076407,44.64138761227433],[-1.11962318448637,44.64113345793993],[-1.119185549094074,44.640829742752494],[-1.119022922880942,44.64047070023393],[-1.119204631797727,44.64038279212938],[-1.119140262226094,44.6400723735551],[-1.119337141860481,44.63953585751862],[-1.118776087349574,44.63951259926721],[-1.118689080506989,44.63927243940762],[-1.119342266105207,44.639157039388934],[-1.119354662587678,44.63880860095411],[-1.119783403999489,44.638300400988385],[-1.119730670360413,44.63711329822854],[-1.11956596675812,44.63703650186095],[-1.118449611953639,44.63698165883521],[-1.117771111922881,44.63669863712675],[-1.117457632554407,44.63608919218004],[-1.117072662493517,44.63482973172593],[-1.115315650269417,44.63065368615366],[-1.11343087435255,44.62640125286156],[-1.112325881252482,44.617212109948504],[-1.111674946221821,44.61313460893833],[-1.109117003678835,44.5980976445224],[-1.107676026117677,44.588591172206264],[-1.107457178930171,44.586262710707246],[-1.106054755086017,44.577762685013724],[-1.104112492307914,44.5670201019409],[-1.104056593536507,44.5655068300535],[-1.104531887297211,44.534855102540554],[-1.104690955328505,44.53425242536279],[-1.105150906467397,44.53328157677798],[-1.105715526683766,44.52420554596682],[-1.105927704543692,44.5190161555589],[-1.10696321212668,44.50268498616982],[-1.107418620393927,44.50248682974343]]],[[[-1.188808182208158,44.700350398374894],[-1.188663222261725,44.700559639493214],[-1.189020163089902,44.70076970783106],[-1.189032345249915,44.70093332963579],[-1.188923951083032,44.70105644004626],[-1.188678659997451,44.701140558275895],[-1.188565646262348,44.70130351168822],[-1.188200869792047,44.701395759559446],[-1.188052411530204,44.70174487333971],[-1.187728074087422,44.701582251346686],[-1.18666280196224,44.703065064897764],[-1.184581353689114,44.70424552513492],[-1.184146252709672,44.70427640874836],[-1.183994080162727,44.704100050745794],[-1.18345209584658,44.70401957552476],[-1.183137134971635,44.70413606687009],[-1.182172034464733,44.70416264217741],[-1.182156254349345,44.70430748723565],[-1.181888788230166,44.70453577486535],[-1.181704113383821,44.70436424889239],[-1.181680752739636,44.704100977107885],[-1.181848292443736,44.70399096489452],[-1.182081407237557,44.70404886668627],[-1.182287586993161,44.70386346557671],[-1.18231694751955,44.703680241826795],[-1.181941450107512,44.7037476300649],[-1.181653395929782,44.70368188786247],[-1.181219535790367,44.703797459061036],[-1.17902556675533,44.70404354827708],[-1.177901907776866,44.70425007563495],[-1.177301731467008,44.70444133183308],[-1.176162560446236,44.704558271882306],[-1.175948618620854,44.7044861107332],[-1.175864025162018,44.704334237753095],[-1.175589174620313,44.70425896598216],[-1.173902601702265,44.70398363575909],[-1.173169838271918,44.70361460178855],[-1.17200913600771,44.703236461131155],[-1.171726751278815,44.70302533089378],[-1.170946558136965,44.70280051629648],[-1.170271832756394,44.70248066422457],[-1.170011214635947,44.70246073848645],[-1.169884655941411,44.70256107325215],[-1.169654030415271,44.7025535391874],[-1.169544799476278,44.70247832070029],[-1.169662806005876,44.701972613657546],[-1.170400067110464,44.70182311099752],[-1.170964612236782,44.701833378845045],[-1.171290840463914,44.70164707879467],[-1.171013326853929,44.701092274886626],[-1.170789870625157,44.701079063799334],[-1.170264015552581,44.701283707379545],[-1.169591907851299,44.70120356423394],[-1.169040815885497,44.70156241559659],[-1.168639516014804,44.70165687587331],[-1.168646177070313,44.70174677922124],[-1.168388681359148,44.70195662579025],[-1.168281051787826,44.70190298288151],[-1.16812712732015,44.70166807103371],[-1.168237827744346,44.70155841896397],[-1.168402761583173,44.70154949898528],[-1.168305752583326,44.701280888550066],[-1.168671221947128,44.70118056742804],[-1.168742444361712,44.70084521361942],[-1.168429221479059,44.70059286576803],[-1.167975331118043,44.700506292470244],[-1.167802917325199,44.70008996554401],[-1.167305647735029,44.699776032464484],[-1.167274097701392,44.699640186701096],[-1.167450724738339,44.699226034880894],[-1.168269427415293,44.69908429538149],[-1.168809995563638,44.69887369714579],[-1.16927532300136,44.69843243264051],[-1.169395718273923,44.698163742186054],[-1.170358872877163,44.69795884238352],[-1.170527876809273,44.69785149711683],[-1.170555101542862,44.69772425445577],[-1.170247790454884,44.69746628021221],[-1.169450712490327,44.69750714888834],[-1.168885262752584,44.69787645852496],[-1.168591514413852,44.69792088699642],[-1.168264745997619,44.698492158300716],[-1.168135124685698,44.6985340062944],[-1.167707926336615,44.69822735199882],[-1.16764988267325,44.69776794960249],[-1.167341290070292,44.697629019566016],[-1.167289316508325,44.697524595880225],[-1.167372660987475,44.697352867378015],[-1.167173281933675,44.69701599058682],[-1.166948084635946,44.69687662223668],[-1.166303823054782,44.69597681342692],[-1.166327809256558,44.69560086905294],[-1.166699942331271,44.69523254483171],[-1.167378227110901,44.69488513940233],[-1.167440188352602,44.69464660101729],[-1.167817720659583,44.6944196111268],[-1.168938177101084,44.69446212704316],[-1.169476552971884,44.69439314885429],[-1.170281354895311,44.694167170957144],[-1.171697254167647,44.69338712959001],[-1.172254788635995,44.69332102091317],[-1.173210178611362,44.69282518747023],[-1.173307351289872,44.69297658623993],[-1.173242242117699,44.69324049077746],[-1.172959944117919,44.6933196599409],[-1.172959267877834,44.69346393244144],[-1.173405673745034,44.69353543941094],[-1.173714687101719,44.69340747910053],[-1.174119474563792,44.69358242831686],[-1.174242378002492,44.69353541707977],[-1.174326988628523,44.69327888960543],[-1.175241000117918,44.69334986838189],[-1.175553856106652,44.693222659228375],[-1.175612490748474,44.693365594250906],[-1.175760969468499,44.69340777019417],[-1.1762349304521,44.69306712068783],[-1.176461981581306,44.69302699264538],[-1.176740498112296,44.692658560944636],[-1.178009078526319,44.692466397010165],[-1.178133579458024,44.69273035445468],[-1.177902985125148,44.693573897856155],[-1.178510475997721,44.69409548213453],[-1.178546233261217,44.693674911733716],[-1.178782503920603,44.69335044325193],[-1.17929363893848,44.693102136275165],[-1.179515462938912,44.693093753582474],[-1.17955785634015,44.69337523743597],[-1.179903205129397,44.6932431814905],[-1.179910057219003,44.693148260002395],[-1.179735208365544,44.69304037161591],[-1.179804460192313,44.69276458543668],[-1.180055295218931,44.69267035968698],[-1.18006271399143,44.692515013085014],[-1.180150186803996,44.69246753107453],[-1.180265839244677,44.69252716958985],[-1.180398391490137,44.69242298903526],[-1.18035116219273,44.6921615223131],[-1.180592938756682,44.692132549075936],[-1.18129596317067,44.6925278962616],[-1.181499422761167,44.692544545617025],[-1.181554496027423,44.692826451142885],[-1.182171226149302,44.69296180379743],[-1.182784181113975,44.69285928685571],[-1.18294403522609,44.69295241140825],[-1.182959015357829,44.6930519168314],[-1.182839719555514,44.69313035584211],[-1.182908895186213,44.693227811539224],[-1.183218457795861,44.693175533242076],[-1.183374657053829,44.693015459972926],[-1.18348355392244,44.693086169444136],[-1.183542838910391,44.69340758332005],[-1.184207004744619,44.69341581520228],[-1.184614556053414,44.693610456828694],[-1.184817293529825,44.693974224721664],[-1.18479720705033,44.69411202051506],[-1.184643088819814,44.694198089973064],[-1.184711991527503,44.69427481940156],[-1.184542420495664,44.69471397984884],[-1.185011835604476,44.694839565052156],[-1.185206515711152,44.69502693342537],[-1.185267233226145,44.69528247957222],[-1.184739298360595,44.69549178196243],[-1.184665518417994,44.69558743331866],[-1.184660578304177,44.695877919819274],[-1.184802005767908,44.69597805027704],[-1.184596645686496,44.69613998558231],[-1.184729600180191,44.69650008364466],[-1.184503343232931,44.69655101696231],[-1.184156945990531,44.69683909514232],[-1.184127939021886,44.69704394314452],[-1.184312050855455,44.69707213855241],[-1.185017527544946,44.69663253606399],[-1.185539348688599,44.69661278997188],[-1.185551185463935,44.69677191680082],[-1.185755062911046,44.69679395249058],[-1.186357342368171,44.69675132345404],[-1.186523638949684,44.69682887336183],[-1.186661494370799,44.69715272208695],[-1.186632950237476,44.69744861046777],[-1.186767058348292,44.69750123348048],[-1.187135603962754,44.6974259764288],[-1.187784945512175,44.697624977767866],[-1.187774624976266,44.69777502650447],[-1.187474528954992,44.698039725163326],[-1.187566953144747,44.698160640433855],[-1.188107081381304,44.69811494608984],[-1.188264831493982,44.69789079653358],[-1.188542456520181,44.69796953727671],[-1.188684375751409,44.69809308511215],[-1.18866198804058,44.69835267916393],[-1.189008407004608,44.69852347687926],[-1.189180993807874,44.6987702773352],[-1.189891787172814,44.69896243202035],[-1.189950713231827,44.69927844904098],[-1.189852331761188,44.69948502588656],[-1.190110814702869,44.69959514113678],[-1.190169146582401,44.69971644455451],[-1.189960833205342,44.69992357978611],[-1.189752113046401,44.699921568994206],[-1.189318284165086,44.699714415365776],[-1.18902857058302,44.700033719963315],[-1.1888797300117,44.70008894237309],[-1.188673965418902,44.700041739827064],[-1.188582460983834,44.700120034084726],[-1.188808182208158,44.700350398374894]]],[[[-1.255992700590151,44.56997308977771],[-1.253194735299342,44.57297493583526],[-1.252195091077925,44.57385189769766],[-1.251186709156871,44.57504833489367],[-1.250485276637262,44.57561537937376],[-1.249725116310113,44.576491207181995],[-1.249166264602445,44.57699234847556],[-1.247785143303514,44.578868444101566],[-1.246318253438576,44.58002567923376],[-1.245509122443502,44.58078886206748],[-1.243003895240232,44.5835041893113],[-1.242183528549114,44.584504884199546],[-1.240219152045439,44.586347391714106],[-1.239139036228337,44.58753564340273],[-1.23765860260328,44.58858508660947],[-1.237500116732083,44.58891031781252],[-1.237474840373292,44.58944680682381],[-1.237263616435749,44.59006075389657],[-1.236464059475928,44.5910723227709],[-1.235987076337997,44.59194439049442],[-1.235366168374813,44.592714693388956],[-1.234536257621291,44.59344071929577],[-1.230325886723097,44.59628151986316],[-1.228692728903666,44.59731865212847],[-1.227051733348395,44.59813427871904],[-1.226002885650588,44.598803705414866],[-1.224425706016213,44.59893978951004],[-1.223071475454249,44.59858229445781],[-1.222824763717521,44.598405111424356],[-1.222803496187183,44.59823913972465],[-1.22304910814185,44.597963791166364],[-1.223791896361477,44.597924559758],[-1.224455285224413,44.597785585480366],[-1.225469862395941,44.597753072658215],[-1.226286541645182,44.59745405671435],[-1.226777503538552,44.59738838231755],[-1.226917923436392,44.59720810721708],[-1.227315373741969,44.597191087453425],[-1.227300610523028,44.59709518755781],[-1.226819198005633,44.59696847014103],[-1.226654734621876,44.59679445762171],[-1.22669299320604,44.59648015764525],[-1.226899239969346,44.59630277177839],[-1.227146625720338,44.59628698969464],[-1.227442097137855,44.59652540416505],[-1.228016212263902,44.596794618890364],[-1.228016748282131,44.596700837821324],[-1.227662697955297,44.59633755020282],[-1.227643283352219,44.59623010841661],[-1.227731421887957,44.59622763499807],[-1.228345602368029,44.596694554921015],[-1.227739723719006,44.59585047202362],[-1.227790114115667,44.595748471153485],[-1.228164206083913,44.59560522478066],[-1.227660721534979,44.59555418486449],[-1.227661901017868,44.59514934691051],[-1.227791956303336,44.59499921833761],[-1.22815434049159,44.59491862665454],[-1.228431602990538,44.594964805302524],[-1.228633110107495,44.595548500115356],[-1.229055280834349,44.59589475058109],[-1.229212080213905,44.59593292005691],[-1.229457120249466,44.595801824907554],[-1.22949678519234,44.595607374958654],[-1.228676012594824,44.59534671423362],[-1.228716663579345,44.59504764787637],[-1.228856062270844,44.5949043724195],[-1.229474532825856,44.5946886525315],[-1.230710202559523,44.59454304020506],[-1.232083856338268,44.59420189855915],[-1.232694973391383,44.59390530272325],[-1.233045031965715,44.59345913951557],[-1.233691276814371,44.593193646523524],[-1.233900702670357,44.592857452525685],[-1.234305979840761,44.592508337280215],[-1.234438725209309,44.59217598466394],[-1.234921842651765,44.591721105031425],[-1.234979377968893,44.59144572948574],[-1.234598744492623,44.59111503825186],[-1.2347054964748,44.59080622099778],[-1.235108254019029,44.590558172117646],[-1.235937013613073,44.59047228278513],[-1.236128662537705,44.5903531372517],[-1.236124175612659,44.59000801719793],[-1.235682374935319,44.58941732729767],[-1.235697588035344,44.58904891295359],[-1.235837578080303,44.58874603152129],[-1.236167774980703,44.58847281448853],[-1.236707264955464,44.58819787498955],[-1.237841500225878,44.58715812980386],[-1.239007519435853,44.58649129313343],[-1.239362158423394,44.586157625013435],[-1.239674583159196,44.585162038560064],[-1.240692194221854,44.58404920719358],[-1.24082912846712,44.58380683957575],[-1.240906361593587,44.583324249412286],[-1.241443492874417,44.582901521503274],[-1.241805977475485,44.582320519258914],[-1.241812616215021,44.58212372691613],[-1.24148319613828,44.58146743821681],[-1.241559027921322,44.58106694227632],[-1.241743897789791,44.58095886483011],[-1.243060377971852,44.580634195226864],[-1.243668983698029,44.579854399661805],[-1.244036182017252,44.57918575787199],[-1.244877937321746,44.57873867619746],[-1.246162308579593,44.578256529650126],[-1.246465187444457,44.57802399779743],[-1.246545106805006,44.57779553588508],[-1.246286462345728,44.57767746710042],[-1.244216932835762,44.57761552515991],[-1.244086865717194,44.57774764475454],[-1.244008214991502,44.57839527497353],[-1.243525342205238,44.578599559713965],[-1.243181622241109,44.57855777985405],[-1.242247075680108,44.5780735116244],[-1.241912961480191,44.57799169078159],[-1.241256231622776,44.57806471066596],[-1.24094391988075,44.577954101259344],[-1.23758450981075,44.577965931364986],[-1.236787659786058,44.57810470742356],[-1.23674930699451,44.57791324959139],[-1.236919349759287,44.577675025837245],[-1.237377572601373,44.57744467075009],[-1.238240155978226,44.577224030149985],[-1.240830660741937,44.57720295869348],[-1.242410525788058,44.57732886331178],[-1.243637833381667,44.57726184749898],[-1.245539070540726,44.5769651467706],[-1.246126265435108,44.576689223063426],[-1.246931197411511,44.575988402762675],[-1.247915512274143,44.57540869172569],[-1.248188868288125,44.5748013452633],[-1.24897964154816,44.574482408530535],[-1.24962373135118,44.574058223532475],[-1.250087977821683,44.57360760306794],[-1.250388541111942,44.57294330657924],[-1.250582804611073,44.57274289326089],[-1.251195708298483,44.57240734956575],[-1.252075654756605,44.57223461117924],[-1.252245723298025,44.572131592683704],[-1.252163021550468,44.57151992245276],[-1.251728932928678,44.571148981015156],[-1.248596856987342,44.570590739306624],[-1.247274312775288,44.57014489536383],[-1.246789370088442,44.5700526680296],[-1.246060024741569,44.57006450471643],[-1.245728961453324,44.57024042174221],[-1.245567957927137,44.57066493268743],[-1.245705831368041,44.57134029511686],[-1.245601656679396,44.57154805207676],[-1.245159260298331,44.57165252029846],[-1.244636925029623,44.57144902835893],[-1.244277991434246,44.57110401835035],[-1.244363794064644,44.570668878712205],[-1.244782654703284,44.56969893466951],[-1.245631124402085,44.56863943638851],[-1.246745199226976,44.56790869048663],[-1.247797095778186,44.56702255554207],[-1.249006092197589,44.566447704613076],[-1.250140544979694,44.56610560500499],[-1.252551816088523,44.565704378204245],[-1.252894443722615,44.565582086369446],[-1.253285088333099,44.56529386094708],[-1.253697444581718,44.56519322059732],[-1.254045066713969,44.565237518887685],[-1.25425713901966,44.565390720150184],[-1.254557898515794,44.56623469423457],[-1.255003934236559,44.56616250173375],[-1.255394014526167,44.566184423256104],[-1.256145167676191,44.56636190885432],[-1.256605813334695,44.566566823808785],[-1.257123226600077,44.567256384413696],[-1.257359945849136,44.56776925007642],[-1.257131338048851,44.56844972511392],[-1.255992700590151,44.56997308977771]]]]}}]}