{"type":"FeatureCollection","name":"COM_16368","crs":{"type":"name","properties":{"name":"urn:ogc:def:crs:OGC:1.3:CRS84"}},"features":[{"type":"Feature","properties":{"fid":4082,"ID":"COMMUNE_0000000009752923","NOM":"Sers","NOM_M":"SERS","INSEE_COM":"16368","STATUT":"Commune simple","POPULATION":903,"INSEE_CAN":"04","INSEE_ARR":"1","INSEE_DEP":"16","INSEE_REG":"75","SIREN_EPCI":"200071827"},"geometry":{"type":"MultiPolygon","coordinates":[[[[0.341896438607425,45.575400413459704],[0.341613767827695,45.57516848160464],[0.341140038854185,45.57431935904083],[0.340786549178275,45.57401276968842],[0.338568043367526,45.57343227925432],[0.338362278344467,45.57344272327961],[0.338502645386823,45.57257659529705],[0.338375377410277,45.57199424699962],[0.338445468544785,45.571843640192206],[0.338969449373936,45.57159115790052],[0.339907287030024,45.5714025288534],[0.339800926635911,45.569047537341575],[0.340088907552671,45.568766939393214],[0.340856678985223,45.56853913990148],[0.340991100226334,45.568437806201146],[0.340959091971113,45.568302802062185],[0.339935027056682,45.568257844217754],[0.339714276396214,45.56772554217996],[0.339719974578429,45.56728599610138],[0.341217803256349,45.56657272504616],[0.339437324052952,45.56614586477223],[0.338004246692284,45.56537672206349],[0.337111852389642,45.56520871811477],[0.336586029131736,45.56534041447214],[0.336278674220409,45.56530339677918],[0.337659268165911,45.564573879689526],[0.338239335074323,45.563953327145214],[0.338459183495762,45.56327468638016],[0.338467372267216,45.5625162504516],[0.338344053304055,45.562172756925186],[0.337709474700544,45.561872111371805],[0.336863684807014,45.561856574010356],[0.335765795845516,45.56156205434655],[0.335465441700282,45.56135311148192],[0.335097889029911,45.56139485037115],[0.332058741825841,45.56116776216186],[0.33102697332021,45.560912606729254],[0.33087306183282,45.560539545602204],[0.330565316015514,45.56061782881784],[0.329371236164807,45.55971189166482],[0.329838677498522,45.55935359548862],[0.328602033496462,45.55701586749546],[0.328124674614726,45.55600982502324],[0.328308883102835,45.55601961139847],[0.328329549835013,45.55567051917652],[0.328082167669489,45.55545470601051],[0.327517422764606,45.555251165560556],[0.326685558231325,45.55553410787934],[0.325539702391859,45.55575911509239],[0.324556723956504,45.55611683108373],[0.323525685091187,45.55632743344327],[0.32322112149094,45.55644631659713],[0.321873339324967,45.55737285362833],[0.321149644643272,45.5574330867928],[0.320677112515705,45.55898413974482],[0.320280183075895,45.55966032910012],[0.31998943949607,45.56127067632904],[0.319340507568154,45.56267516169051],[0.318638594280527,45.56350354633759],[0.317897408430154,45.56405618674778],[0.31814083981341,45.56424760145183],[0.319036897498837,45.56463028151632],[0.318859524091434,45.565062130415726],[0.318021880117972,45.56636209760194],[0.317155696658858,45.567217188153116],[0.315593454304457,45.56724024767982],[0.313480270921434,45.56740869119052],[0.313248271821695,45.56761668074668],[0.313922850053578,45.56838784096559],[0.314316058790523,45.569247778470796],[0.314576308552613,45.57216421347138],[0.31324609163665,45.57396144349655],[0.313036467277564,45.575718781537354],[0.312478918094792,45.57660734902923],[0.312125911947335,45.57692867265096],[0.312037171367053,45.577277038384004],[0.312075614298804,45.57778071420577],[0.311870792005408,45.578141620785644],[0.309888545266966,45.5776653209033],[0.308907977027915,45.57767248187027],[0.308195054351169,45.57700308735663],[0.306799289800747,45.57700028529479],[0.305124524691744,45.57674570482514],[0.303984954984868,45.57622372687676],[0.303755738858619,45.57581908528826],[0.30379874322806,45.57564712485973],[0.303443795449491,45.5755854504789],[0.30327276368012,45.57543538486594],[0.3028936478353,45.57547494189159],[0.302397230204652,45.57565764444265],[0.301918868546191,45.575601112051466],[0.301771980783553,45.57548225768492],[0.301524164788382,45.575565507213895],[0.300923036152643,45.575474487895164],[0.300695219189236,45.5755158688214],[0.299895727206381,45.57507229308796],[0.299676905143269,45.574718348212805],[0.299741705867334,45.57454691275128],[0.299292712233092,45.574414489311025],[0.299080517761533,45.57392465110524],[0.298030405394361,45.5743859515907],[0.29659223105683,45.57528030168155],[0.291514585528496,45.579107159179024],[0.294199241231864,45.58175139446068],[0.294334837657184,45.58270611930852],[0.294192629344775,45.58288560021498],[0.294712864529956,45.582979212142234],[0.295927144411058,45.58465366276406],[0.295150408583573,45.58537199738709],[0.293981195997026,45.586743119057125],[0.293377640022137,45.58722504294943],[0.292600987253462,45.58767756709665],[0.291976838983969,45.58826530684516],[0.292472838278753,45.58846195993469],[0.292298710182824,45.58869022562398],[0.292962138422046,45.588717014818286],[0.293678492720078,45.58913160557311],[0.294173255196995,45.589590413641304],[0.294706019728081,45.589691533756344],[0.295766995261137,45.58959272114816],[0.296589018243032,45.589604382337015],[0.297244085313532,45.58982916582565],[0.297073036262804,45.58996831316772],[0.298586721825723,45.59148144104834],[0.298084962524912,45.591875736259865],[0.297799478227572,45.59228243585727],[0.297386662908663,45.59351049314502],[0.29849054868992,45.59355954830689],[0.29992084937569,45.593889436201415],[0.29993996081006,45.59415569121964],[0.299814153057182,45.59436710870719],[0.300814538739366,45.59464431170596],[0.300518196089182,45.59540575285901],[0.29999848278381,45.59606271930579],[0.299887022228099,45.596348363855306],[0.299439592794287,45.59683857626139],[0.299160053159542,45.59699133950701],[0.298656945728233,45.597570312106996],[0.299342651381791,45.598116574661766],[0.299561118752628,45.599612082646885],[0.299467476541046,45.60050633294243],[0.300077623253577,45.60170850847751],[0.30020822791293,45.60229459402488],[0.300334976904023,45.60240665861877],[0.300105562552233,45.60361119935267],[0.299018818285003,45.60512852300296],[0.297660300725033,45.606321252417644],[0.296817400099141,45.6068902519696],[0.296676787345697,45.60750946705889],[0.297007991161141,45.60737777230819],[0.297785500288285,45.6075442224713],[0.299168633460587,45.60800632721053],[0.300802681445345,45.608298741119384],[0.302535130097439,45.608706116648065],[0.303768400104934,45.607922985919785],[0.304757410187643,45.60799084247104],[0.305693786823463,45.607926783913584],[0.30709039903192,45.60882609840988],[0.307893981774863,45.608377717640764],[0.308021382049085,45.60800144560818],[0.30895316873847,45.60692182171713],[0.310094760086178,45.60593550784971],[0.312993157945182,45.605249761933315],[0.313524812612322,45.60519218624878],[0.316549190652598,45.60529593161279],[0.316923979170177,45.60542921215133],[0.31864398869772,45.60577567520043],[0.318735752979962,45.60586886390041],[0.319936320133686,45.606020919094554],[0.32162470132462,45.6059602326339],[0.322415827584709,45.606058359887456],[0.322637905082622,45.60611140013512],[0.322529162855832,45.606634992740226],[0.322076569699219,45.60765946067205],[0.324575080342774,45.60754413542434],[0.327424503928225,45.607578550986155],[0.327801374117128,45.60836146047678],[0.328995182596098,45.60809609654254],[0.329754924537672,45.60772761226164],[0.330663158074246,45.60758068809124],[0.332054996177875,45.60693436802408],[0.333533116930175,45.60652163229008],[0.334782102864002,45.606495378559046],[0.334243881987779,45.60599608616931],[0.334413597831188,45.60593703974412],[0.333945255866862,45.60545291697749],[0.332476772097727,45.60438645715966],[0.332137871346839,45.60422705083188],[0.33225507716886,45.604138831218116],[0.333400658589803,45.604126358786445],[0.335885057723599,45.6032860557469],[0.335594690940028,45.602437651008614],[0.335220977796145,45.60204136952293],[0.334056096456161,45.60141550024465],[0.333726335610401,45.600613007487006],[0.333557175537386,45.59908722239277],[0.333692472963492,45.597609201768904],[0.33319623025773,45.59677302638205],[0.332954791336072,45.59597622957946],[0.332982607328887,45.59558495834745],[0.333363840081313,45.594890327002986],[0.333423128609811,45.59405831684633],[0.333191865147039,45.59379695033031],[0.333888393137691,45.593030508813264],[0.334522743556237,45.592862648741566],[0.335484641996481,45.592368281227955],[0.33618084243402,45.59192797716538],[0.3371873587929,45.59106524759973],[0.337676052594863,45.59082995036985],[0.338038673299653,45.589478945382666],[0.338915706114622,45.58764998019372],[0.339314437920876,45.58658814358115],[0.339551730648115,45.585788276770565],[0.339790865711519,45.58390726862842],[0.341409476346614,45.58012357703471],[0.342081326781169,45.57820685107844],[0.342895327841634,45.57685659898902],[0.342468278466859,45.576585216851754],[0.342135401551546,45.576008823897865],[0.341610982078722,45.57570810611744],[0.341896438607425,45.575400413459704]]]]}}]}