{"type":"FeatureCollection","name":"COM_33317","crs":{"type":"name","properties":{"name":"urn:ogc:def:crs:OGC:1.3:CRS84"}},"features":[{"type":"Feature","properties":{"fid":4157,"ID":"COMMUNE_0000000009754995","NOM":"Périssac","NOM_M":"PERISSAC","INSEE_COM":"33317","STATUT":"Commune simple","POPULATION":1185,"INSEE_CAN":"20","INSEE_ARR":"5","INSEE_DEP":"33","INSEE_REG":"75","SIREN_EPCI":"243301397"},"geometry":{"type":"MultiPolygon","coordinates":[[[[-0.319586072182135,45.049994405336335],[-0.319348538213659,45.04989064244596],[-0.31903094234875,45.04987307602609],[-0.318578055223913,45.04999652148411],[-0.31787881524315,45.04973889780328],[-0.317391608822529,45.04986246002191],[-0.317281049367202,45.049777438662005],[-0.317278937928007,45.04937737682706],[-0.316952095633607,45.04916091897027],[-0.316760422799852,45.04886563509532],[-0.316825116721736,45.04798415459164],[-0.316827477774735,45.047638030651434],[-0.317135936387315,45.0473945326319],[-0.315839347748228,45.04628055046939],[-0.315361435970482,45.04611004287047],[-0.314639477014934,45.04609008790598],[-0.313492410885293,45.04432278004633],[-0.313211357077113,45.04412747930635],[-0.312281265068256,45.04312511222276],[-0.312085819499847,45.04267943770494],[-0.311223944767298,45.041604741841944],[-0.311337059769868,45.041282360208655],[-0.311319622997275,45.0409233093118],[-0.310972650493569,45.04030100471976],[-0.310946912838929,45.03954388085252],[-0.311104824410532,45.03914086349111],[-0.310139668095357,45.038875787165445],[-0.310049833569429,45.03830260741806],[-0.309360552770073,45.03788783590441],[-0.308666142347968,45.03773004779924],[-0.308250176623319,45.03755226438513],[-0.308138759616335,45.03762406523597],[-0.307867505684144,45.03763663294714],[-0.307427284254357,45.03747849208376],[-0.306105622410612,45.03730958699708],[-0.305854795357572,45.03721610578737],[-0.305695240720413,45.03703249946174],[-0.305628616500681,45.03614141557963],[-0.305460662316725,45.03562192106],[-0.304430468827961,45.03500727243805],[-0.304299846920942,45.03447405194228],[-0.303894911284593,45.03409496476974],[-0.303834772436642,45.03283961568196],[-0.304200902826087,45.03249711513701],[-0.304129055991473,45.03209822690256],[-0.30361558393205,45.03199000957726],[-0.303346688383829,45.031439265218516],[-0.302230182732751,45.03045858324331],[-0.302097714219672,45.03023812250653],[-0.302115601248335,45.02989514720644],[-0.301181667161426,45.0295957302105],[-0.300998661796693,45.02910010855629],[-0.300890396845823,45.029052854398145],[-0.300487784197199,45.029099941200165],[-0.300450056128913,45.028675708426405],[-0.299797161254191,45.02820663636853],[-0.299927213928288,45.028063098903814],[-0.300677224903101,45.02789486697755],[-0.300881589341391,45.027740112530566],[-0.300802793245275,45.02756762300457],[-0.300500335580809,45.02752432604956],[-0.300398201201949,45.02721464970035],[-0.299916012989968,45.02707575064114],[-0.299785157339882,45.026903903108845],[-0.299915511712274,45.02670087958258],[-0.299906219917534,45.02650019465106],[-0.299129692524408,45.026132112044884],[-0.298469274840394,45.025922792893],[-0.297781305984217,45.02591434549226],[-0.297385175293429,45.02475546875489],[-0.2966271536065,45.024161530246694],[-0.296622540298249,45.02406163750982],[-0.296997228965504,45.023778384478994],[-0.297060155367842,45.02363864163468],[-0.296874341622231,45.023417954427295],[-0.296402641481438,45.02315436994315],[-0.296231676370408,45.02288367784629],[-0.29636234586466,45.02264280052672],[-0.296658839271345,45.02258535395317],[-0.296878996363957,45.022418423796346],[-0.297050741047439,45.02192580455785],[-0.296882217490597,45.02171812279991],[-0.296452617546632,45.021565036151195],[-0.295757660507242,45.02107015592072],[-0.295223230359358,45.020215459249755],[-0.295379717557836,45.01978727762215],[-0.294837259608515,45.019270754095785],[-0.294802820824523,45.01853462198888],[-0.294598007571535,45.018314494665965],[-0.294284704845026,45.01815074780363],[-0.293786549107109,45.018062763187636],[-0.292948858571511,45.01749459318548],[-0.2910793187196,45.01843574971224],[-0.290613119335342,45.017897126153045],[-0.290381221287113,45.01786433307481],[-0.290139185710433,45.01809137372649],[-0.28986564362338,45.018085043480085],[-0.289567734830166,45.01792353211916],[-0.289261739432153,45.01762438148402],[-0.28907301040105,45.01698563081378],[-0.28927667612012,45.01662455279525],[-0.28970409442213,45.016395637598265],[-0.289576674390731,45.01610833010723],[-0.289268788676633,45.01592818898145],[-0.289042391438511,45.01562127808304],[-0.288874651854013,45.015036877966246],[-0.288274117552356,45.014308468230745],[-0.288478520605839,45.014370914976105],[-0.289304267135409,45.0141969126845],[-0.289796514708074,45.0142499454911],[-0.289856174845878,45.01420582685499],[-0.28958104391649,45.01328576729744],[-0.289886571566003,45.01282074625493],[-0.28925800113568,45.0127609307833],[-0.288806559911541,45.01251564398756],[-0.28895303519154,45.01213282703886],[-0.292374681674498,45.010562729887894],[-0.29276926249228,45.0101220994637],[-0.29383711810262,45.009594849481104],[-0.295587253093752,45.00932854153515],[-0.297086892096857,45.00860553133899],[-0.296947014223215,45.0078481949498],[-0.297382214899588,45.00766677886254],[-0.297272751275527,45.00744743636239],[-0.299373101929729,45.006572313479545],[-0.302747318760086,45.00485459587537],[-0.302642462255934,45.0043260223815],[-0.304041896739077,45.00410423174351],[-0.304607024265997,45.003219623117594],[-0.305106520216295,45.003052486109645],[-0.307058132326612,45.00314767955007],[-0.307566887328947,45.00227734672367],[-0.307841895670721,45.00200873206011],[-0.308401716494735,45.00172353535783],[-0.309463159930883,45.00251112013099],[-0.309654579885184,45.002246789981186],[-0.309985836756182,45.00250007398419],[-0.311182319238434,45.00125329518418],[-0.312255817187861,45.001621452266164],[-0.313801383550073,45.001509632739584],[-0.314314565665514,45.00155291894808],[-0.315126982878958,45.00289578269278],[-0.315545671856479,45.00383133431372],[-0.315634697606824,45.00436938273744],[-0.316037294450843,45.005311721311124],[-0.316136983028758,45.0058152074264],[-0.317109854090726,45.008256312227886],[-0.318619254804884,45.00982439372636],[-0.318750140629927,45.00982499509686],[-0.319418741231871,45.00946710753009],[-0.319595109515734,45.00916355657943],[-0.323377459189593,45.009128128441674],[-0.326797683689948,45.00877086732936],[-0.329127956403693,45.00877775646172],[-0.329854057092664,45.00868302950447],[-0.330355141260544,45.00841479865357],[-0.330639576308343,45.00834860773033],[-0.331078367851863,45.00788758393319],[-0.331652363274588,45.00796952446132],[-0.331288953329166,45.00833096605847],[-0.331043749611063,45.008842968494086],[-0.331423157017778,45.0090064359132],[-0.331684002296792,45.0092482508023],[-0.331578851958663,45.0096587327485],[-0.332386664454255,45.01078714653695],[-0.332975539945298,45.01133184207963],[-0.333455924558223,45.01244392473305],[-0.333540188578375,45.01405090891312],[-0.332921065596077,45.015111222926265],[-0.33480502258417,45.016216393588365],[-0.335371036984687,45.01644004271904],[-0.335032266482016,45.01691701035227],[-0.337506712444594,45.017865655623574],[-0.337574224055906,45.017953748889866],[-0.335696728324426,45.018493987596436],[-0.336137255727303,45.0204489648622],[-0.334967406713782,45.021074309126426],[-0.333496645909304,45.02202406968361],[-0.334458817492629,45.022796392790326],[-0.333851177489203,45.02520273661539],[-0.33423288352962,45.02538145002212],[-0.33397196198365,45.026057045159334],[-0.333953253070085,45.02638293319659],[-0.335723183022076,45.02712473737757],[-0.335610242282512,45.027703079024],[-0.335088327737216,45.028583859622266],[-0.335117813461629,45.02901464378551],[-0.334978524206517,45.02938560055493],[-0.334341517613382,45.029828245375796],[-0.333457072572848,45.030149428766265],[-0.334435374348437,45.03229918787657],[-0.335398982694519,45.03392399027913],[-0.335658726466841,45.03408112292495],[-0.335552822431001,45.03430869250663],[-0.335645814230666,45.0352503496175],[-0.335461341049133,45.03571638489976],[-0.334656224411745,45.036943594935245],[-0.333725250635931,45.036677696824896],[-0.333249679261541,45.037804905801735],[-0.333753774104433,45.0378177450042],[-0.333612772931829,45.03826715456258],[-0.334941634312714,45.038384152986936],[-0.334916551061737,45.03917885096393],[-0.335176029138695,45.03911790611231],[-0.336141594834084,45.03940889134603],[-0.337162525022229,45.03951977318513],[-0.337612280251181,45.03964416970138],[-0.337503008740798,45.04043328333768],[-0.338139749669446,45.04047456885857],[-0.33820679774862,45.041491803810715],[-0.338824890863093,45.04241320690501],[-0.338726255568768,45.04284783572632],[-0.337698552630159,45.04292281444866],[-0.33827507577933,45.04399957121124],[-0.337077647978875,45.04427699404532],[-0.336182845682253,45.04423622618024],[-0.33426844315388,45.044577459992595],[-0.332666755260109,45.04464164554696],[-0.331837611950287,45.044999004272576],[-0.331652286645821,45.04479006845252],[-0.331527700414277,45.04476856394508],[-0.331024479274437,45.04494223242148],[-0.330610699413141,45.04495281116701],[-0.328229658187064,45.045485433983536],[-0.327770887236728,45.04550906261591],[-0.325982965009155,45.04607617243744],[-0.324355717831741,45.04635277894421],[-0.323765843049721,45.04693002833316],[-0.322486916864236,45.04748548605263],[-0.321747675181665,45.047688684697334],[-0.321281555175507,45.04801710526645],[-0.320520376583785,45.048343510833334],[-0.320039167409557,45.048846304272246],[-0.319834053406187,45.04958868772121],[-0.319586072182135,45.049994405336335]]]]}}]}