{"type":"FeatureCollection","name":"COM_19212","crs":{"type":"name","properties":{"name":"urn:ogc:def:crs:OGC:1.3:CRS84"}},"features":[{"type":"Feature","properties":{"fid":4282,"ID":"COMMUNE_0000000009754925","NOM":"Saint-Hilaire-Taurieux","NOM_M":"SAINT-HILAIRE-TAURIEUX","INSEE_COM":"19212","STATUT":"Commune simple","POPULATION":95,"INSEE_CAN":"02","INSEE_ARR":"2","INSEE_DEP":"19","INSEE_REG":"75","SIREN_EPCI":"200066751"},"geometry":{"type":"MultiPolygon","coordinates":[[[[1.850525288647381,45.057640842466704],[1.850339960340665,45.05769476002272],[1.849546171741621,45.058299795012104],[1.848431345683191,45.05888439729678],[1.848005896056823,45.0588142632073],[1.847795227701711,45.05849421339647],[1.847432152961047,45.058295052396886],[1.847283146368212,45.058312420837524],[1.846580272666546,45.0589426890109],[1.846359661422944,45.05978325876936],[1.845535718778377,45.060183543795155],[1.845305362827698,45.06044860063558],[1.845274653485288,45.060951653815124],[1.845038786232369,45.061421963849924],[1.842866961663027,45.06217924844294],[1.842380918097969,45.062519085482336],[1.840971549966834,45.063084345794685],[1.840885639732618,45.06324463918361],[1.840988558368422,45.06379680796392],[1.840854354792561,45.06395749945383],[1.839412965573737,45.06404244782303],[1.838317650158227,45.064349805097315],[1.837897453468154,45.06457594785321],[1.83743935094557,45.06466932182299],[1.835696011272017,45.06454756088356],[1.835307588449145,45.064650659159454],[1.834814440832536,45.06490124149656],[1.834441371430204,45.06664608822081],[1.833878180567176,45.06751276903867],[1.833944189440733,45.06812579254536],[1.833297136579276,45.068686327364254],[1.832481039148548,45.06991775340679],[1.831586374503078,45.070589145917964],[1.831495314188823,45.07111587835229],[1.831582588051099,45.07125727004706],[1.831875837932687,45.07139361726181],[1.831905213947609,45.071508287499505],[1.831482579093729,45.071908176437724],[1.829994561565314,45.07232839955263],[1.828495101676314,45.07286914861452],[1.827747724923747,45.07299636233093],[1.827012357911849,45.07321734862871],[1.826490764925059,45.07324337397792],[1.826163243152077,45.07346864917232],[1.825395093313422,45.07367667272163],[1.825099794387222,45.07406167165795],[1.824400568966256,45.074315439821845],[1.822412361036247,45.0742818397573],[1.820649842805231,45.0744541044485],[1.819960565480707,45.07477728830633],[1.818902509618754,45.075712497473255],[1.818475403320867,45.075836740352365],[1.817846444750504,45.0758300698479],[1.817400224355346,45.076136906141755],[1.817830369230394,45.076590816658495],[1.817883971601419,45.076760678156504],[1.817626265537917,45.077468434008004],[1.816919136557142,45.07857303971322],[1.81685986163145,45.07957286006364],[1.816489555008918,45.0797742408907],[1.81648294816242,45.08068727271804],[1.816292671837576,45.08096980835453],[1.815797369795576,45.08113113807485],[1.815579170134483,45.08141157487571],[1.815574512450804,45.08169157948154],[1.815377251787897,45.081943422633],[1.815339913341643,45.08256616877792],[1.815065942068516,45.08301890713178],[1.815425979275017,45.08348378840851],[1.815415646399482,45.08379164822327],[1.815217763211739,45.084612598306485],[1.814864726942981,45.08519686898417],[1.814796303415815,45.085726533851556],[1.814696158805851,45.08583352846763],[1.814119848230951,45.08603631324779],[1.813494586321921,45.08656905639377],[1.812345997540082,45.08708271358098],[1.812006418882745,45.08756986572307],[1.811448807946451,45.08784847819107],[1.81063570530717,45.08908249177523],[1.810260640550457,45.08950352409777],[1.810439296214635,45.08977017740492],[1.810352919891039,45.090006086594464],[1.811242432921343,45.09091967715133],[1.811539967626525,45.09115607901016],[1.811711406337058,45.09164327544324],[1.811474999154371,45.09451244580273],[1.811288413429123,45.09527588064659],[1.811734763498336,45.09604876546182],[1.812143855788021,45.0965411961459],[1.812737551908004,45.09690231762899],[1.813779144453406,45.09724659085537],[1.813922621428517,45.09743542136825],[1.815603815142621,45.09759647531775],[1.81694431420872,45.09805645640012],[1.817147589995235,45.09818378282187],[1.817351368162088,45.09870823428849],[1.817935882442891,45.0975816060398],[1.820836915007323,45.09614902020315],[1.822022611575776,45.096293028663816],[1.823006117349399,45.09722462635478],[1.823874959798897,45.09883398104041],[1.824880977128271,45.0993029434958],[1.825606165990194,45.100128237453326],[1.82614823956744,45.09992593148153],[1.828714638827549,45.097104652292415],[1.829600146941222,45.09737869881641],[1.829981538160213,45.09738000089178],[1.83131941218616,45.09693658242187],[1.83177660643918,45.09732588646806],[1.833472090315415,45.096925811169875],[1.833700350889546,45.09628344448471],[1.834342426810619,45.097135725830675],[1.834839958767586,45.09760378201933],[1.835328615352688,45.0984373445942],[1.837783638878969,45.09844135424294],[1.839343746990268,45.09911136768618],[1.841078004511698,45.098803430719045],[1.842174541801471,45.098837337015546],[1.842819398395766,45.09870265487573],[1.843920461002182,45.09876360582153],[1.844649357085302,45.09862258067666],[1.844774834390153,45.098518523167805],[1.845884226247843,45.09614280428048],[1.848150884412043,45.09325045177467],[1.849536796432536,45.09045973115794],[1.849447194639151,45.08937731575171],[1.849655932890921,45.0884375561667],[1.84954125120699,45.088141911849526],[1.847870010319159,45.08676670811916],[1.846509241044745,45.08624295538856],[1.845636784070174,45.08571073711302],[1.844273330471125,45.083227459918504],[1.843947165663834,45.082403729824165],[1.845040738636228,45.08201164825673],[1.845762305685679,45.08196869623483],[1.845801040229835,45.08132344575051],[1.84609150211688,45.08104460009906],[1.846376374706106,45.08091337626846],[1.846585593684981,45.08019785122189],[1.847084471942545,45.07998149284981],[1.847191139945527,45.07949272987694],[1.847831327794002,45.07827738620527],[1.849215709015507,45.07721200429622],[1.849430418602276,45.07684502092746],[1.849386732940265,45.07655911495496],[1.849034478329424,45.07601338310738],[1.849190717166345,45.075646696902254],[1.849440454324967,45.0753683233151],[1.84940031538935,45.075157194596585],[1.849502677173728,45.07487639863849],[1.849339200751524,45.07398863033188],[1.849067627886488,45.073660749501634],[1.84808630635734,45.073177853182614],[1.846971824594136,45.072743997632614],[1.846802878419763,45.072617081454766],[1.846765635190758,45.07245100618904],[1.846842807148904,45.07222127989815],[1.847143853763994,45.07198126322104],[1.847269044429003,45.07164127347807],[1.847653662233885,45.07129226053425],[1.84765533591617,45.070408899475986],[1.84783262897558,45.070068547648106],[1.847487654431111,45.06948056361861],[1.847433431148526,45.06921345849613],[1.847146331164186,45.069024087456825],[1.847071420386142,45.06883601099558],[1.847423655387071,45.06820751320275],[1.847837341404569,45.06706277053827],[1.848537253993012,45.06608667480638],[1.84853591217628,45.06578139607016],[1.848197947033494,45.0651007370583],[1.848189083947903,45.0646053780525],[1.84837491442835,45.06428132310684],[1.849065179620456,45.06371034405511],[1.849260624023782,45.062485901591636],[1.849396491506422,45.06218113985597],[1.849846676649579,45.06135824250828],[1.850706675005625,45.060500851326964],[1.850926555580395,45.05994031659209],[1.850950767070999,45.05882306517829],[1.850544549326626,45.05818763506677],[1.850525288647381,45.057640842466704]]]]}}]}