{"type":"FeatureCollection","name":"COM_17013","crs":{"type":"name","properties":{"name":"urn:ogc:def:crs:OGC:1.3:CRS84"}},"features":[{"type":"Feature","properties":{"fid":4266,"ID":"COMMUNE_0000000009751130","NOM":"Antezant-la-Chapelle","NOM_M":"ANTEZANT-LA-CHAPELLE","INSEE_COM":"17013","STATUT":"Commune simple","POPULATION":366,"INSEE_CAN":"11","INSEE_ARR":"5","INSEE_DEP":"17","INSEE_REG":"75","SIREN_EPCI":"200041689"},"geometry":{"type":"MultiPolygon","coordinates":[[[[-0.468756396860346,46.01858822712531],[-0.467177989751678,46.018137199994],[-0.467179840250349,46.01685360573047],[-0.467311316049372,46.01590225081982],[-0.46752887429268,46.01557741008364],[-0.467936521490426,46.01315919628708],[-0.464623284663405,46.01330025926177],[-0.465325955804829,46.010655804592766],[-0.462382360793771,46.01031678906206],[-0.462407682393005,46.01022587906715],[-0.462578502455891,46.00973392286491],[-0.463409301340738,46.00819874212195],[-0.46411166104935,46.008218722286486],[-0.466863239853426,46.00857077908677],[-0.468552970644393,46.00845323896711],[-0.468903010214443,46.006804743033825],[-0.470074621000946,46.00690224953512],[-0.470840725528218,46.00342384805182],[-0.472031162654284,46.003042131210435],[-0.47255912148623,46.002984478981304],[-0.474273392748911,46.003401505867295],[-0.474817371271635,46.001468512816444],[-0.474467198734408,46.00147385000503],[-0.474273261227899,46.00045134372038],[-0.474307194617061,45.99978058862957],[-0.472823967037068,45.99970260328672],[-0.473391634130258,45.99957792868858],[-0.4737794904401,45.99932987270333],[-0.474078933355227,45.998419321034895],[-0.474148247288965,45.99777632407817],[-0.474340259069409,45.997437828734306],[-0.473272944876486,45.995507403690034],[-0.471031641847092,45.996202585568575],[-0.470426221648413,45.9964663149457],[-0.46981847211052,45.99685720439198],[-0.467944793356733,45.99755908278709],[-0.465485813889327,45.99728554544463],[-0.463196790774197,45.99642447914728],[-0.462559619419023,45.995999596984035],[-0.4611090726027,45.99460988783057],[-0.459048772082433,45.9935786051516],[-0.456354402723334,45.99251887487428],[-0.454412193697889,45.992067985470236],[-0.454692947204151,45.991411344515456],[-0.45326832259122,45.99102666487937],[-0.452958664524013,45.99142910023789],[-0.453070062797077,45.991864662004346],[-0.452818526828282,45.992101277609315],[-0.452599013347182,45.992147631724016],[-0.452260216203099,45.99196236949126],[-0.450606705227731,45.99145393961824],[-0.450475547489301,45.99125963947722],[-0.449968243726596,45.9912327363262],[-0.448677948529645,45.990865538971036],[-0.448483036828163,45.99027297863921],[-0.448126317013761,45.990296462982144],[-0.447989107153681,45.990273601443725],[-0.447968374818831,45.99019040717961],[-0.448336347016391,45.989727622267246],[-0.448344389997024,45.989608398846165],[-0.448187677112291,45.9894806735102],[-0.448437964328098,45.98899713605945],[-0.449496790534717,45.98750919397467],[-0.450505149475806,45.98643379544057],[-0.451488711145646,45.986076620083466],[-0.452069604285932,45.98571098478575],[-0.452987907197379,45.985406261602314],[-0.453307035780658,45.98519642599657],[-0.453441453919979,45.984866035031736],[-0.453374635311353,45.9847490947203],[-0.45298997085083,45.98453278648586],[-0.452465111334436,45.98350412635109],[-0.452471974818307,45.983263255522544],[-0.452893777657184,45.982505871239375],[-0.453158504489839,45.982253528655555],[-0.45342728431732,45.98148909242262],[-0.453818215598822,45.98089939634909],[-0.454083860290844,45.9807236383785],[-0.455239344176344,45.980429683119624],[-0.45572758226493,45.98019574867721],[-0.455572500196217,45.9799291752996],[-0.455780435866061,45.97932883363774],[-0.455655947336593,45.97921996494109],[-0.455652340933974,45.97905963375855],[-0.455958368585264,45.97827151884658],[-0.455077171130323,45.97792976724065],[-0.454625889795727,45.97743427655151],[-0.455065812567383,45.97735775337473],[-0.455406078553083,45.977114816121315],[-0.455900936748749,45.97645163258149],[-0.45600863585534,45.97604633936569],[-0.456516354739677,45.97569102366143],[-0.457170943341962,45.974875132983755],[-0.45772330231566,45.974757307207845],[-0.458666805194171,45.97434269729893],[-0.45884997466945,45.97413068873764],[-0.45893412969455,45.97370087346951],[-0.459479853159737,45.973148787121545],[-0.45987126300025,45.972959254507956],[-0.459863243174051,45.97274948333467],[-0.46147004181033,45.97293380194818],[-0.463823232679024,45.973392705131246],[-0.463711286960023,45.973154566891296],[-0.463927987295963,45.972017629424364],[-0.463688683158978,45.971460702556314],[-0.463658134854638,45.97093434212058],[-0.463886943348623,45.96970239110916],[-0.466753503834498,45.97006349139621],[-0.468239242461494,45.97007114832536],[-0.470431326348231,45.96975967723929],[-0.470996941467115,45.96985319813702],[-0.471872659220947,45.968899733341566],[-0.472703465949684,45.96838209659508],[-0.473665554011982,45.968060526487236],[-0.477645019674163,45.96707118804348],[-0.47910940620105,45.966292462335325],[-0.480371899407085,45.96540815652418],[-0.480864730979871,45.965618339619105],[-0.485340296549173,45.96691555982575],[-0.487981495648477,45.96751381465956],[-0.490933428185961,45.96881180520181],[-0.492092618367477,45.96958096711708],[-0.49274443889086,45.96938237915088],[-0.495599917804292,45.96899585606162],[-0.49793234013571,45.96833248130722],[-0.498923595294652,45.9679025265411],[-0.500363309927493,45.96686197918589],[-0.501146825960272,45.9661337634196],[-0.50170150327752,45.96595345065802],[-0.502183233402439,45.96592682446172],[-0.502059703353357,45.96626055230907],[-0.50219693573994,45.96689358014708],[-0.502150831922237,45.96759087164413],[-0.501931289681528,45.96789872645018],[-0.50117260103999,45.9684891695037],[-0.500944278850964,45.96878106894348],[-0.500706123392881,45.970523589736274],[-0.499864629361752,45.972089170634064],[-0.499326120819206,45.97341913013754],[-0.498404427116101,45.97484295689298],[-0.497814693489564,45.976405243072755],[-0.497462088654763,45.97811884014167],[-0.497152976990075,45.97911359596602],[-0.497267854763415,45.98002584495776],[-0.497628216241519,45.98132170603521],[-0.497552151012545,45.983236777574],[-0.497978900168773,45.98331913667588],[-0.49864236169321,45.98311835667172],[-0.500640268549847,45.98365059487643],[-0.501569350143259,45.98406804080025],[-0.503256408423274,45.98450979690999],[-0.503996547901148,45.984802371190476],[-0.502926640116158,45.98651926147774],[-0.502925704081002,45.987134031088296],[-0.503094852225183,45.987881448553885],[-0.501613819139666,45.98815892399347],[-0.499406313154107,45.98833895565855],[-0.499668100849199,45.98893748999534],[-0.499933642054476,45.98916814575331],[-0.500572821759113,45.989417894760535],[-0.501527718293836,45.989629932818524],[-0.502010026440909,45.989934101898776],[-0.502641313759926,45.991176502275295],[-0.503081343335691,45.99179114853784],[-0.503087676619355,45.992641854581144],[-0.503356244625368,45.99395496626547],[-0.503385973715458,45.99458411050262],[-0.503261690659581,45.9958408734686],[-0.502893291542965,45.99651388419969],[-0.503179458220786,45.997412719130686],[-0.503062990202895,45.99834564456391],[-0.50660615841753,45.998843497499045],[-0.506069552071898,46.00052947192234],[-0.504789160523528,46.00225559312049],[-0.503732164098754,46.003489843172126],[-0.503151590558338,46.00436591871215],[-0.502449907206499,46.005574739877524],[-0.502108498318612,46.006428989281495],[-0.499648375421967,46.010821739886566],[-0.498677137230824,46.013225073509865],[-0.498501057377382,46.01411746733404],[-0.498404064048366,46.01564288826388],[-0.49793455678704,46.01666152257586],[-0.4984022999036,46.016814732133106],[-0.500240448893315,46.01715544887957],[-0.501104248451018,46.01749380915681],[-0.501873182180433,46.01766293300431],[-0.504427657185712,46.01795529410233],[-0.505525445580254,46.01820886335159],[-0.506352399678805,46.018049862102984],[-0.507019290501391,46.0181400850147],[-0.510640772416968,46.01931687258168],[-0.509568096254843,46.02083559181322],[-0.508753838504918,46.022531979171646],[-0.508739147240895,46.02258561575429],[-0.508887310608975,46.02261618009633],[-0.508854171552076,46.022806496770876],[-0.508464311094072,46.02355049428113],[-0.508438461898519,46.02385506041441],[-0.508440737734785,46.02543150589595],[-0.511038938301028,46.02605769028531],[-0.511382531746419,46.02621019073706],[-0.511357515302487,46.02707449086594],[-0.510726552354982,46.028257731259785],[-0.510443652635045,46.03008909285804],[-0.509750649959717,46.031477059284164],[-0.509722728477864,46.03158699147475],[-0.509434026932234,46.031787929139576],[-0.50900166769,46.0319076843058],[-0.508608767034191,46.03185495333756],[-0.507931400743691,46.03158297999116],[-0.50725860517252,46.031524488501404],[-0.505612243102163,46.031825125836306],[-0.503527587280151,46.03164533788696],[-0.500884436214493,46.0317585930028],[-0.499641169223572,46.03150045137528],[-0.498643032627849,46.03118965794423],[-0.498012582226272,46.03098288007396],[-0.498253433756476,46.03033456491996],[-0.498345259781048,46.02864615610716],[-0.497964751516792,46.026937178962186],[-0.497976646366699,46.02582271093936],[-0.495384773337594,46.025476364383486],[-0.493495845845524,46.025338133645775],[-0.491817145786586,46.025087029756655],[-0.494717242543719,46.020919780337344],[-0.491914629643157,46.020123769072015],[-0.491722692122549,46.020198190347955],[-0.491050921749507,46.02119237910822],[-0.490693830922209,46.021559426189874],[-0.490296298379951,46.021656405090695],[-0.489150511229064,46.02172685797511],[-0.488268645608558,46.0220415559517],[-0.486647938715662,46.021437960324754],[-0.486301514263834,46.02144321483822],[-0.485897854728352,46.02170892286728],[-0.485399773667931,46.02177112101517],[-0.483356785341481,46.02136345021033],[-0.483587151751732,46.020710985673865],[-0.483640096235271,46.02023974419686],[-0.48329141134752,46.01673783338932],[-0.48313210111157,46.01634703181502],[-0.48272888355138,46.01592497149061],[-0.482214502795348,46.01603543087229],[-0.48047039559176,46.01603315478126],[-0.477997519790517,46.01577921753648],[-0.477657014065434,46.016102447141],[-0.477534846665514,46.016564092039744],[-0.477227905889924,46.01688628956987],[-0.475577610636752,46.017467845837935],[-0.474112242147111,46.01786433360583],[-0.472821801700108,46.0178966958573],[-0.471455176916997,46.01770603763114],[-0.471003060380175,46.01771718942751],[-0.470264788793293,46.01813460778622],[-0.469888431286037,46.01825970959712],[-0.468854534803065,46.01842117387676],[-0.468756396860346,46.01858822712531]]]]}}]}