{"type":"FeatureCollection","name":"COM_17385","crs":{"type":"name","properties":{"name":"urn:ogc:def:crs:OGC:1.3:CRS84"}},"features":[{"type":"Feature","properties":{"fid":3920,"ID":"COMMUNE_0000000009751150","NOM":"Saint-Pierre-d'Oléron","NOM_M":"SAINT-PIERRE-D'OLERON","INSEE_COM":"17385","STATUT":"Commune simple","POPULATION":6665,"INSEE_CAN":"04","INSEE_ARR":"2","INSEE_DEP":"17","INSEE_REG":"75","SIREN_EPCI":"241700624"},"geometry":{"type":"MultiPolygon","coordinates":[[[[-1.231184334662773,45.94030449337964],[-1.231331683041529,45.94059025670249],[-1.231274856014138,45.941549179444536],[-1.231443491895891,45.94224626296497],[-1.23202114094249,45.943219316758686],[-1.232972346302843,45.94395654548405],[-1.23313229022446,45.944674694065725],[-1.233754083037218,45.94472536233302],[-1.234483711122107,45.94461507789297],[-1.234857695531583,45.94477151093868],[-1.235356390149939,45.94520463033788],[-1.236327680285233,45.94509339871454],[-1.239665981572777,45.943708483136525],[-1.239628800505048,45.943578215497475],[-1.240140910786135,45.943262323958336],[-1.240275461706592,45.94297862456367],[-1.242450897504371,45.9427094531836],[-1.242827349139423,45.94254563072966],[-1.243105534183298,45.9422808862546],[-1.243109950824671,45.941751367185844],[-1.242554744197704,45.94100477327538],[-1.242833808582026,45.94070121907756],[-1.243217742133769,45.940517274539374],[-1.243272406326696,45.94067303718787],[-1.243828056239743,45.94098945502255],[-1.244564365363176,45.941586761569035],[-1.246342515342548,45.94218372115112],[-1.247734212915929,45.94289797705915],[-1.248190762304553,45.94300166655161],[-1.24962723639854,45.94303967340998],[-1.250226564340574,45.9432011147907],[-1.250641990344159,45.94340824366659],[-1.251158735575333,45.943253547703854],[-1.251141587144639,45.9429980813837],[-1.249466819914857,45.94186614984253],[-1.249741215906092,45.94143559920262],[-1.250517535639206,45.940960028691705],[-1.250976877181337,45.94084897335081],[-1.252310771542405,45.94109911642815],[-1.253089586819373,45.941074333699966],[-1.253206548365365,45.941299893403055],[-1.253171393486642,45.94151404069507],[-1.253075719599803,45.94161413204144],[-1.252470851526604,45.94183257231976],[-1.252397700670268,45.94215726601298],[-1.25322399700872,45.943081195171956],[-1.25386183238859,45.94322223147676],[-1.254315077258761,45.943182634703184],[-1.254752697031,45.94284061868602],[-1.254950660555235,45.94222445345485],[-1.254782478797261,45.9418213640388],[-1.254945199975387,45.941334580638866],[-1.255186350315097,45.94114334183154],[-1.255554967415627,45.941096102524014],[-1.256141574468751,45.941276929054034],[-1.256707375331664,45.94182376609377],[-1.259298026879072,45.94216087928363],[-1.261124697336189,45.942263399835596],[-1.261498917833408,45.94237194249486],[-1.261775979470797,45.94264466739598],[-1.262573275457881,45.942591167533514],[-1.263205214339047,45.94228868520208],[-1.263421575486939,45.94189455418114],[-1.26387598777316,45.94163663708431],[-1.264544167097808,45.940917948465135],[-1.263662958635819,45.93965438179818],[-1.26413929572215,45.9392793029878],[-1.264244767526741,45.938938951075315],[-1.264499146547006,45.93880220216369],[-1.264124630746121,45.93843937157072],[-1.264107144960308,45.93791337551784],[-1.26442682561354,45.93726824975388],[-1.264903487211472,45.93703113111592],[-1.266620330619229,45.93671926039906],[-1.267296976688702,45.936494423930455],[-1.271453463860374,45.93595870737441],[-1.271508912559824,45.93569057796769],[-1.271917438005544,45.935458707801516],[-1.272026902219898,45.93517050080453],[-1.274142606107816,45.933438414585346],[-1.274164060456843,45.93286585367022],[-1.273789216007451,45.93254905908809],[-1.273429599763472,45.93246165014429],[-1.273128144217155,45.93214117766665],[-1.272655203651675,45.93184251653531],[-1.272721579436582,45.93158208949378],[-1.272494167186075,45.93143286701348],[-1.272305352140629,45.9310982157634],[-1.272468211655631,45.93091530573246],[-1.272365427603406,45.93062339569004],[-1.27274148259656,45.93035667561274],[-1.272858153635144,45.930144848965654],[-1.273399545794785,45.93021005704137],[-1.273564068704437,45.93001535874635],[-1.273836007999645,45.93008894691329],[-1.274177957652273,45.93001559731928],[-1.274526311035966,45.9301079382618],[-1.274556741858935,45.92988403960648],[-1.274725969766562,45.929733350407226],[-1.274766721010672,45.92957579563528],[-1.27431226469881,45.92934858805148],[-1.273483080223484,45.92930508612536],[-1.274101947334677,45.9281877896485],[-1.273871434404688,45.92660029519948],[-1.273975908317072,45.92621487809276],[-1.274137058746484,45.926126719949785],[-1.274701789461293,45.92606027489074],[-1.276451824489868,45.92629709196735],[-1.279119252028762,45.92716379748512],[-1.279618361187809,45.92666874360327],[-1.281856381641425,45.9249048062558],[-1.281293190441254,45.92425969510273],[-1.282576640107258,45.923366072216076],[-1.283387943048723,45.922599446482494],[-1.283860281986254,45.92254186601864],[-1.284572333727724,45.92182859233972],[-1.286167732140701,45.91961545868011],[-1.286442746566044,45.919629378428034],[-1.286646400537972,45.91952335627121],[-1.286498392454507,45.9188670328183],[-1.286568819486265,45.91849371329811],[-1.28674558374016,45.918291313917095],[-1.286665910227296,45.91784883603152],[-1.286775219125784,45.91770941695226],[-1.287753939152228,45.917053641293336],[-1.287939045172564,45.917240510372885],[-1.289133060986673,45.917739904888585],[-1.289702783601441,45.91702568254235],[-1.289700538119915,45.91691394169772],[-1.28947665493291,45.91676011084897],[-1.289456654619681,45.91665265116327],[-1.290220593438656,45.91546300785907],[-1.290153181130583,45.915377188164165],[-1.289579102699744,45.91520598869968],[-1.289703970373784,45.91508401223783],[-1.290941460838904,45.9143345138742],[-1.293365628060232,45.91259932125159],[-1.29377648642353,45.91253320950514],[-1.294175262339646,45.91259381096516],[-1.29479201858437,45.912964471993405],[-1.294276484019741,45.91185407472332],[-1.294442359287653,45.91131389043806],[-1.294590917596786,45.91113148704164],[-1.295294072407687,45.91070525403175],[-1.295972462858054,45.91045851941632],[-1.296208183358517,45.91026738912134],[-1.296825570024787,45.90902374331519],[-1.296685301368404,45.90848437298891],[-1.296841594294387,45.90810326991611],[-1.297228969457006,45.90760425797453],[-1.298080400869444,45.9067945002602],[-1.297801635266882,45.90646691761081],[-1.297567124925677,45.90597802772852],[-1.297435025828983,45.905477126253395],[-1.297513078775492,45.90497093776062],[-1.297915682546965,45.904601206480685],[-1.300977343796025,45.90314729602186],[-1.301168265717918,45.90297860088589],[-1.298954910434654,45.903434387097676],[-1.297643698466377,45.90349959753401],[-1.297406442462623,45.903455413427935],[-1.297114382236365,45.90327172612225],[-1.296906771162047,45.90302801155367],[-1.296834339375739,45.902629452776715],[-1.296869659810659,45.90255235608651],[-1.297405661721993,45.902336274764146],[-1.297824376696699,45.90227255189765],[-1.298309773006143,45.90230188460938],[-1.298562940581008,45.9021362370978],[-1.299272765609513,45.901317424482386],[-1.300658670431607,45.899959733412274],[-1.300885729351344,45.899972734334035],[-1.300845172317471,45.900015762348694],[-1.301347122994991,45.90025728312043],[-1.302372721292359,45.90063758540297],[-1.303190659001776,45.901104247352514],[-1.303599033984865,45.901205931501416],[-1.304351834783884,45.901252107465304],[-1.304887692127043,45.90141476424293],[-1.306180685285406,45.902273639269985],[-1.307540066693575,45.902956818011646],[-1.308718949416592,45.903974230861365],[-1.312420645229976,45.90657369761206],[-1.313780633003591,45.90714676098588],[-1.314116783168951,45.90738103151591],[-1.315793590974365,45.909127894931565],[-1.315978417279587,45.90942565766334],[-1.316253094336887,45.90938630763671],[-1.316168126170615,45.90947252227152],[-1.316736707376664,45.910133496754725],[-1.318223059219023,45.91094878913403],[-1.318337436118218,45.910924577988034],[-1.319174007261236,45.91118029427278],[-1.3193543035832,45.91120586942577],[-1.319462225028553,45.91113230259208],[-1.319936373012682,45.91137931977142],[-1.320862736854847,45.91165954870392],[-1.321886914609218,45.91234636831822],[-1.322458363934678,45.91263113936122],[-1.322960151700972,45.91268679863845],[-1.32323510501291,45.912667262089144],[-1.323367827130502,45.91221847736431],[-1.325357851650792,45.910381023630364],[-1.3258895965286,45.910374197097596],[-1.327597941345831,45.91080660720447],[-1.327629275667164,45.910958721193964],[-1.327479825717467,45.91099691084201],[-1.327307226864968,45.91085561740297],[-1.326928150524441,45.91075018707796],[-1.326872594531967,45.91084881182866],[-1.326991723101747,45.9109344351013],[-1.326379341595123,45.91078653072242],[-1.325516582464324,45.91251683094678],[-1.327596049001611,45.91300177471063],[-1.327705318383456,45.91307695283728],[-1.327676921431695,45.91320880807788],[-1.327473434336502,45.91324996863786],[-1.327318595856306,45.9130881542256],[-1.326121739010075,45.912819232865125],[-1.32595143204882,45.91295381433266],[-1.325965285744109,45.91298214308655],[-1.32592249482826,45.912980173705236],[-1.325844292729635,45.9130372779172],[-1.325855570122922,45.91306570529952],[-1.325810202878211,45.913063834491005],[-1.325098243480494,45.913622271414354],[-1.325237615723231,45.91371884589761],[-1.325147855468846,45.91380976019287],[-1.325696283341304,45.913965531402326],[-1.325701635163856,45.91405010004031],[-1.327007836856162,45.914559240662555],[-1.32786323970521,45.91388617481099],[-1.327899934567294,45.91397495425133],[-1.327161950852522,45.91487620096569],[-1.327336833515666,45.9149641987],[-1.327237726129497,45.915100564939685],[-1.328403264151153,45.915545634473375],[-1.329537435762057,45.915509405654014],[-1.329898967779632,45.91544054229294],[-1.329847745162391,45.915347810688985],[-1.330073481708505,45.91524446793138],[-1.328489244545278,45.913533025569706],[-1.328287062728141,45.913410001383916],[-1.328451753547332,45.91198779338011],[-1.328593972649085,45.91180828945011],[-1.328624899097303,45.91113342483798],[-1.328289855407694,45.91048700763373],[-1.327607590789126,45.909663597823396],[-1.327673448676121,45.909564578086396],[-1.327771308390204,45.90959329680725],[-1.32834278635471,45.91028927942643],[-1.328684230019465,45.911049985925885],[-1.32866561157884,45.91179923247322],[-1.328518418282924,45.912309905005685],[-1.328618188984217,45.912806608810996],[-1.329799352762181,45.91333583773919],[-1.331602247643893,45.914426526933006],[-1.33501314008817,45.916804692018154],[-1.336165562838577,45.91747565147418],[-1.33708671959532,45.917785715567554],[-1.337275580915988,45.91778838830432],[-1.337593281990842,45.917589512071004],[-1.33839084776812,45.91826595245336],[-1.339450675898025,45.91882680181372],[-1.340326557036791,45.918873434129246],[-1.340623237785279,45.9187357807241],[-1.340723135106468,45.91856059163016],[-1.341076083133121,45.91897271131994],[-1.342304160512774,45.91970022950208],[-1.342900835019213,45.91989284762691],[-1.343319986138587,45.92043949965287],[-1.34359791993281,45.921112426357304],[-1.34376268121572,45.92110429073762],[-1.343833439009163,45.921345974637056],[-1.344186629756433,45.921777015881965],[-1.347016694612423,45.924036489067824],[-1.348224266509552,45.92455099818463],[-1.348355803542727,45.924580208728365],[-1.348514486342728,45.92446227348165],[-1.34887080347778,45.924670422541475],[-1.350272883221915,45.92517652547367],[-1.350669306929339,45.92523792606977],[-1.350899426059748,45.925108219142075],[-1.352980878154983,45.92667127464525],[-1.353968119589097,45.927568484646926],[-1.354167615602869,45.92755809479584],[-1.355174156113804,45.928437416838165],[-1.356378875890183,45.929599494494056],[-1.356712781279716,45.93011151166407],[-1.35688615257089,45.930113848448265],[-1.357351988025734,45.930953567604],[-1.359148437618444,45.93284586897966],[-1.360114885279852,45.93346155082016],[-1.361067313810283,45.933916331685374],[-1.36131485313274,45.93394105333105],[-1.362013635020952,45.934668957394614],[-1.364196496839646,45.93621439193948],[-1.36471774160645,45.93667496641978],[-1.364835151451816,45.93667223732895],[-1.365830620400919,45.93763577901889],[-1.366469247729774,45.93804401447813],[-1.367832364496464,45.93916018770497],[-1.368318472819872,45.93950305806587],[-1.368469189114964,45.9394638655562],[-1.368525847834873,45.93964024716009],[-1.368765279193044,45.93985556206328],[-1.369270211522719,45.94027255690711],[-1.369666374571835,45.940475500149475],[-1.369950544759342,45.94076574305725],[-1.370243332097573,45.94095283869187],[-1.370562410098157,45.941080295577564],[-1.370650408908194,45.94104893584735],[-1.370760129299624,45.94122597113475],[-1.371418675748635,45.94159102358034],[-1.372372371647295,45.9422702362275],[-1.372493656473105,45.94228358354353],[-1.373272472682281,45.9428928927762],[-1.375040695611721,45.944401870253074],[-1.375811397236239,45.945705021821084],[-1.375349405830018,45.945796853095615],[-1.373208617451078,45.94586343508431],[-1.372259198731332,45.94606880065171],[-1.371449345039353,45.94655014741256],[-1.370375428302711,45.94756478077655],[-1.369295067124511,45.94810797179467],[-1.368086333660643,45.949053836192704],[-1.367655017432641,45.949157977650366],[-1.366626407838886,45.94906693027015],[-1.366124063780453,45.949139537366555],[-1.363206433126035,45.95038399549096],[-1.36069675294049,45.95242161865583],[-1.358595123869002,45.95354068540002],[-1.356134236698022,45.95516957382536],[-1.354095524794732,45.95456987985879],[-1.35230599557621,45.95450438453527],[-1.351326812511905,45.95438513913928],[-1.350748910170241,45.954222491058765],[-1.349796186959289,45.95381632495915],[-1.348864407248799,45.95396940119079],[-1.346526648120045,45.95454176704525],[-1.34508634449447,45.95475583954449],[-1.344029951886535,45.955181513954024],[-1.343017245444489,45.95578406788591],[-1.342479886493608,45.956216849841844],[-1.341531998297623,45.95724798732674],[-1.340750292854115,45.958386371453],[-1.340081935729369,45.95886384940519],[-1.340417267345038,45.959229760400014],[-1.339990149725984,45.95929034122772],[-1.339329902987616,45.95926426824058],[-1.338418004126096,45.959392141045626],[-1.337856616592767,45.9596030622285],[-1.336531022556928,45.96033930188551],[-1.335430364175307,45.95930288120944],[-1.333822843153613,45.95824980025188],[-1.332188178299827,45.95962641971604],[-1.331111509013111,45.96070027037292],[-1.331046429635585,45.960596344186634],[-1.329392197435877,45.95960631640908],[-1.328885849146772,45.95915312880228],[-1.328090458570947,45.960367693368596],[-1.327626217113726,45.96028535175337],[-1.327015314731593,45.96054140035686],[-1.326372331126249,45.96099798052042],[-1.325664122464038,45.961003422724474],[-1.325359316460786,45.961123300563855],[-1.324784047108305,45.96166836783769],[-1.324482606556953,45.96219304275144],[-1.323808656814971,45.96263455749592],[-1.322072968209388,45.96179183412082],[-1.321628709196863,45.962227263996574],[-1.320170376553718,45.96285744615267],[-1.319018064306968,45.963053862182385],[-1.31890330540458,45.9629428082803],[-1.317859440976764,45.9625768320962],[-1.317202116526736,45.962720063384445],[-1.316368286722172,45.9624596891744],[-1.315746398765243,45.96208210018742],[-1.315624288577159,45.96207503529495],[-1.315433980972001,45.961841505011705],[-1.315201323174939,45.96174396416294],[-1.31398183252374,45.9619410883118],[-1.313243645112116,45.961910620328084],[-1.312149456341872,45.96151224287308],[-1.311881045791914,45.96148640176755],[-1.311312890725647,45.961628905035695],[-1.311223499816623,45.9615773001769],[-1.310896282948173,45.961609611984656],[-1.310392865212478,45.961208541588654],[-1.309728052471688,45.96110761728192],[-1.309359491043552,45.96137146804947],[-1.308654558678118,45.96138569713845],[-1.308664678563733,45.96110213547405],[-1.309009508915538,45.960749909404775],[-1.30889324732084,45.960602830150954],[-1.308023771368925,45.96016699557456],[-1.307627984468161,45.95980239723663],[-1.306979898157334,45.9595844840397],[-1.306889710711704,45.95944001748434],[-1.306551306188415,45.95923014987722],[-1.306060368035733,45.959268681744966],[-1.30528458576864,45.95895551731628],[-1.304962351592745,45.9590182850835],[-1.304799247421061,45.958883807051734],[-1.304371275015956,45.959016431229415],[-1.304189688210445,45.95929028389236],[-1.304262403437279,45.95937679812999],[-1.30412736469835,45.959501880607284],[-1.303256638188413,45.95987590386837],[-1.302801392461139,45.95984181867954],[-1.302359745964528,45.95941942705727],[-1.301921709438976,45.95942346261295],[-1.302012711475516,45.959049348929256],[-1.302324143573818,45.95893108705939],[-1.302060392601514,45.95881576483154],[-1.301774978902543,45.95896910964674],[-1.301480002744144,45.95900016840117],[-1.301031626964348,45.95916962877098],[-1.300548631761807,45.95921054006017],[-1.300088481032714,45.95896470077474],[-1.2998893200485,45.95871615276606],[-1.299601012571322,45.95855125615438],[-1.298144939164364,45.95835138072203],[-1.296912859066567,45.95803926735915],[-1.296755162826445,45.9581724159251],[-1.296226986308025,45.958164523057775],[-1.295551569686416,45.958788087592495],[-1.294843032680357,45.95897101023608],[-1.294669270030096,45.95879904657463],[-1.294561887009649,45.95881484763058],[-1.293957440891913,45.95844279673226],[-1.29009460851422,45.95860200551502],[-1.288787946189078,45.95824483754221],[-1.288185456504117,45.958179302913585],[-1.287483867055311,45.958269027823924],[-1.286530004803,45.95853965537113],[-1.285935948493197,45.95856577486323],[-1.28505898267245,45.95839609284443],[-1.284022597399363,45.95790598387448],[-1.283507387476734,45.95789844252193],[-1.282697871750363,45.95806346863668],[-1.282430538346746,45.95825034729175],[-1.282678525671975,45.95917704556946],[-1.282449508006453,45.95975656803019],[-1.282446528511421,45.960017306427595],[-1.282240024185671,45.95998905199846],[-1.281904396359699,45.95968071084259],[-1.281461108193813,45.95961722955878],[-1.280897472028226,45.95991812680653],[-1.281019865837326,45.96031119606855],[-1.280786746960841,45.96053916067467],[-1.280536425691172,45.9606956303352],[-1.280061077357293,45.96076862917105],[-1.27932622485385,45.961079603706864],[-1.278680696765212,45.961076067702685],[-1.277960434417609,45.96180762902815],[-1.277187512042664,45.96186210930567],[-1.276383724646859,45.961652617567026],[-1.275839630806312,45.96182288767841],[-1.275007246674449,45.96129522521394],[-1.274507047063398,45.96048265660276],[-1.274104164657995,45.960706199941775],[-1.273906612798628,45.96104282650005],[-1.273522208174661,45.961154746328894],[-1.272283279620772,45.96090304803225],[-1.271827430302905,45.96096084633653],[-1.271483506054332,45.961277745214865],[-1.271535700115571,45.961750127237295],[-1.269928941502621,45.96229055576066],[-1.269365140652225,45.962907032080494],[-1.268925252823263,45.96320409704613],[-1.268904631852809,45.96330497620109],[-1.26947645523495,45.963741514497116],[-1.26956353413107,45.96403041442892],[-1.269540840270172,45.96430451961231],[-1.269240445246331,45.96464952716585],[-1.269230052827444,45.9653154554856],[-1.269399292454086,45.96581318026014],[-1.269295715362251,45.96612821399335],[-1.268550007247832,45.96656758029181],[-1.268012350462048,45.96663836807944],[-1.267259650012282,45.96698780812114],[-1.266607317519849,45.96753095350301],[-1.265686823490098,45.96781817315627],[-1.265369648682007,45.96781389999955],[-1.264760912485995,45.967651979930935],[-1.263868987130415,45.96724010865452],[-1.261905452828318,45.96651690403941],[-1.260949381804186,45.965977567967485],[-1.25909218643304,45.965624560898945],[-1.257134094614198,45.96580558152654],[-1.256753828515255,45.965737827396644],[-1.255831400832673,45.965298186353614],[-1.255255020123387,45.96473459999843],[-1.255300314449713,45.96369852943392],[-1.255529490967765,45.963367964679016],[-1.256225401436795,45.96286923758001],[-1.256362625875016,45.962653954171444],[-1.256437366756722,45.96245003980162],[-1.256308177565434,45.962033759248506],[-1.2555054285434,45.96146877314022],[-1.254810769205605,45.96081314318057],[-1.252638831274741,45.96004893290469],[-1.252170830421639,45.959999794226576],[-1.251772777466857,45.960052633123425],[-1.251282835822799,45.96025501577565],[-1.249232916831779,45.961337548193555],[-1.247496469187414,45.96242810959233],[-1.245897110125582,45.96331870827584],[-1.244400191367284,45.964297421874925],[-1.244188483133184,45.964117791874195],[-1.244051419051786,45.96413465770155],[-1.243735833211748,45.9644188395055],[-1.23911794896218,45.96715307501419],[-1.238248083704096,45.96761221500683],[-1.238174203273417,45.967458972984105],[-1.238056332752061,45.96747330852266],[-1.238089930123418,45.96769118513273],[-1.237982785734673,45.967794396066864],[-1.237719281699629,45.96786558894549],[-1.236882488634457,45.96835143422461],[-1.230326545164725,45.97074843848391],[-1.233873992528406,45.96942086571742],[-1.233899212021319,45.9691268405747],[-1.234307663921111,45.96907367840101],[-1.234438526275694,45.969211262987],[-1.236455360971787,45.96848105573206],[-1.236395826329502,45.96843007955107],[-1.236416986223967,45.9684193674706],[-1.236603247833164,45.968033640305094],[-1.236601719043037,45.96774512465514],[-1.237079029916052,45.96618518646504],[-1.236828103911318,45.966134164689926],[-1.236566877417744,45.96640276190737],[-1.236375449627125,45.96646944895359],[-1.236316029517893,45.96640313809215],[-1.236362474301548,45.96628416608365],[-1.237325416216297,45.96553929347325],[-1.237244523607597,45.96541246563378],[-1.237416423903417,45.96536093707018],[-1.237356284593415,45.96526850175888],[-1.236974025252539,45.965342338038084],[-1.236997891228373,45.965282827752866],[-1.236933505225438,45.965252774854264],[-1.237186372679548,45.965245107133676],[-1.237689848299732,45.964998996127605],[-1.238022870365534,45.96468892907827],[-1.239541944206645,45.96369414363549],[-1.239935228937321,45.96284073623844],[-1.24050867450497,45.96227816483207],[-1.240866884292054,45.961741695704355],[-1.241477915563788,45.959972913488116],[-1.241910913186349,45.95987010378177],[-1.243326131877151,45.960046076835916],[-1.243325394167857,45.95996945197796],[-1.242892449783081,45.95993879961923],[-1.242824807652386,45.95986648799607],[-1.242770256190656,45.95991362393415],[-1.242049865958712,45.959810785034136],[-1.242148539063805,45.95939676823247],[-1.242083242493936,45.959388395613935],[-1.241966976036844,45.95979225061763],[-1.24139067215628,45.95986436256448],[-1.24188499370511,45.9591649714106],[-1.242169954167756,45.95838325062551],[-1.242279963211026,45.95722753384532],[-1.242181983809849,45.95661077459736],[-1.241800207009025,45.95539865391289],[-1.241115811006626,45.95401752226645],[-1.239958256484563,45.95251885852301],[-1.238459396737367,45.95088508332069],[-1.235130785138983,45.94779941233423],[-1.226149637392226,45.94104286994168],[-1.225884107201602,45.94068216074944],[-1.22629838219514,45.93961339330152],[-1.226234605383984,45.93879966250693],[-1.226507747971488,45.939326916162535],[-1.226319604532077,45.94020958116275],[-1.226795430643307,45.94081763338234],[-1.227207876251529,45.941155714484566],[-1.227223990857657,45.94133186184476],[-1.227510955391494,45.94148345466832],[-1.227433163435263,45.94154768442971],[-1.227469418904827,45.9417672662494],[-1.228541590252887,45.9427173367881],[-1.228801719582743,45.94268776954917],[-1.228968935526978,45.94229014089827],[-1.228366761043085,45.94055958951498],[-1.228590982475785,45.940668436568515],[-1.228531353702266,45.9407671575551],[-1.228616812013726,45.94080273844384],[-1.228827132513073,45.94042784603172],[-1.230785748718078,45.940231032847464],[-1.231184334662773,45.94030449337964]]],[[[-1.228418314160961,45.935073002661966],[-1.228287780858864,45.93500574164471],[-1.228236117057903,45.935023004128695],[-1.228203551410302,45.93496921310975],[-1.228073734777418,45.93497857680648],[-1.228098451553508,45.93499749175657],[-1.227979406325453,45.93504613107298],[-1.228189819226985,45.935143771222386],[-1.227990302805029,45.93537307160758],[-1.227884004322921,45.93536893058181],[-1.227840872966122,45.935228061411664],[-1.227766149643006,45.935247989530765],[-1.227786771025745,45.935297718382586],[-1.227625822194387,45.93550754015359],[-1.227452458095462,45.935320138749795],[-1.227116489413875,45.93542197707202],[-1.226903135796178,45.935605801665076],[-1.227128347648208,45.935761506528316],[-1.22690566899682,45.93572293894514],[-1.226692358260733,45.93578952949908],[-1.226494559816913,45.93609180722727],[-1.226442549203256,45.93610457287677],[-1.226455391221291,45.93617082485721],[-1.226165420157761,45.9365351633591],[-1.226371922242386,45.936447185620544],[-1.226316828563228,45.936739619530144],[-1.226221367187944,45.93677565204342],[-1.226198813940724,45.93695324473567],[-1.225905453797251,45.937374521417645],[-1.226042294945333,45.93824774439239],[-1.225789461787619,45.93753035632485],[-1.225740537920781,45.93685945411385],[-1.225994129427256,45.93612223629921],[-1.226281866814884,45.935661490791304],[-1.226682111881968,45.9352858150848],[-1.227520035518668,45.93483696061251],[-1.228083577468986,45.93478703025538],[-1.228301719923077,45.93483388112634],[-1.228513978386122,45.93503966590135],[-1.228466711877443,45.935097344377176],[-1.228418314160961,45.935073002661966]]],[[[-1.234594881663738,45.96652168621301],[-1.234725861275413,45.9665600690708],[-1.234488371344957,45.966733986419776],[-1.234262125448384,45.967121206321764],[-1.234212718417745,45.96748737829324],[-1.234309905610748,45.96789315281395],[-1.234233122478818,45.967970875213666],[-1.233839303881853,45.96804603448502],[-1.233912666343164,45.96836071847001],[-1.234012963932195,45.96830285740339],[-1.2341525223712,45.9684022416307],[-1.23419051968974,45.96857666829518],[-1.23402019091805,45.968598373626584],[-1.234048210566028,45.96872718252839],[-1.234321236245206,45.968981187937736],[-1.233880736244432,45.96907162113271],[-1.233579970833002,45.96818830267462],[-1.233523810680588,45.967525786253844],[-1.233638346893698,45.967871393877736],[-1.233999064083238,45.967399785323146],[-1.23397707016004,45.96721484001261],[-1.234229384751043,45.96683025219143],[-1.234293700415136,45.966540174208994],[-1.234751391141189,45.96593417346703],[-1.234422791746627,45.96536121294003],[-1.234379844627896,45.96441684389365],[-1.234734956401016,45.96538469728706],[-1.234811710477914,45.96587780806114],[-1.234679090669121,45.9662380775674],[-1.234725309476451,45.966418508825406],[-1.234594881663738,45.96652168621301]]],[[[-1.233593256566193,45.96716788271639],[-1.233624753093596,45.9673082847935],[-1.233531993043202,45.96741365828037],[-1.233501542749667,45.966833144279086],[-1.232988255689589,45.96550688397954],[-1.232477799966014,45.964754955167905],[-1.233076638738246,45.96394979566641],[-1.233578614917153,45.96346568712982],[-1.233190063341203,45.964146649906006],[-1.233216927753065,45.964277305668844],[-1.233350215088385,45.964228130052305],[-1.233310678315263,45.964386520816795],[-1.233138242444896,45.964397482689606],[-1.233192841586868,45.96515745057317],[-1.233405254729388,45.966203692187875],[-1.233582214861286,45.96640267751804],[-1.233559389568059,45.96652617496127],[-1.234035187933842,45.9660881342463],[-1.234159806189529,45.96609429140169],[-1.233798637073591,45.96639187255675],[-1.233672097149798,45.96715050357467],[-1.233593256566193,45.96716788271639]]],[[[-1.235663209438043,45.96029270728441],[-1.235599340563108,45.96028608104084],[-1.235423820046116,45.96035758230695],[-1.235410018106308,45.96043024228346],[-1.235586698446925,45.96040739426414],[-1.235712489724143,45.960479335968856],[-1.235680680811329,45.960536438078],[-1.235088904422509,45.960844463783395],[-1.234826005929348,45.96120870988265],[-1.234343199297428,45.96264710207609],[-1.234175730486423,45.962890541336],[-1.234129265144638,45.96272364608751],[-1.235089192764525,45.96049546047211],[-1.235358826570573,45.960235568965516],[-1.235588636490444,45.96016383845882],[-1.235760098279168,45.96019078399041],[-1.235672658466834,45.9602138977369],[-1.235663209438043,45.96029270728441]]]]}}]}