{"type":"FeatureCollection","name":"COM_23192","crs":{"type":"name","properties":{"name":"urn:ogc:def:crs:OGC:1.3:CRS84"}},"features":[{"type":"Feature","properties":{"fid":4121,"ID":"COMMUNE_0000000009750578","NOM":"Fursac","NOM_M":"FURSAC","INSEE_COM":"23192","STATUT":"Commune simple","POPULATION":1433,"INSEE_CAN":"11","INSEE_ARR":"2","INSEE_DEP":"23","INSEE_REG":"75","SIREN_EPCI":"242320000"},"geometry":{"type":"MultiPolygon","coordinates":[[[[1.582465832674734,46.13165795143702],[1.582989180205385,46.13125649625758],[1.583121922122392,46.13103209371558],[1.583065780947776,46.13044688260858],[1.582503292781835,46.12900335337514],[1.582705005484196,46.128465491375344],[1.583161384500294,46.12819829479282],[1.583038309717739,46.12774734331367],[1.583431074586233,46.12743522090803],[1.583633667035814,46.12676227345032],[1.583513809560255,46.126086204373536],[1.582433328520281,46.12463981352736],[1.582241405596338,46.1245482546558],[1.58030118756581,46.124445657372156],[1.580129539136571,46.12286920342637],[1.578536784485784,46.121104746626386],[1.577896836322944,46.12055995500602],[1.577656682544994,46.12098114555147],[1.575505296341261,46.12063625021919],[1.574226705795361,46.12019780367076],[1.573769824691487,46.119587739215426],[1.571438318551618,46.11979709587428],[1.570508820526705,46.12032848029351],[1.569174918066226,46.119429955418624],[1.567774899357015,46.119876131107844],[1.567269501548493,46.121028873798444],[1.566205234604637,46.12136218426034],[1.564706083565324,46.12227810423664],[1.563505612219746,46.122667308823736],[1.562773828671581,46.12410176987376],[1.56008055869631,46.12540329340279],[1.559603074205188,46.12479290941164],[1.559973112616938,46.12451210070024],[1.559548839513754,46.1234043383908],[1.557040306233007,46.12230793229259],[1.556846067173972,46.122306364274316],[1.556190966395003,46.12288705360308],[1.555741163603661,46.12270390724206],[1.555873996196794,46.12247953645081],[1.556397339560232,46.12203317027273],[1.5567152461797,46.121321204065225],[1.557920607744949,46.120943841408824],[1.557444569044812,46.12037939832143],[1.556739835441312,46.12073069767714],[1.55635360117768,46.12059339349483],[1.555964061953769,46.120680305009174],[1.554160178527271,46.12012867297953],[1.553844453295589,46.11977340263988],[1.554109654528886,46.119539011500784],[1.554054028078248,46.11855300368178],[1.554193399955267,46.11783426713733],[1.553617386878099,46.117380213180056],[1.553292598821324,46.11746794020831],[1.553099563278107,46.11742134891826],[1.551242190052268,46.11610434361149],[1.550990026312152,46.115697638693426],[1.552170646533195,46.11453646552864],[1.550441813801851,46.11330934742372],[1.550962951256196,46.11304310650538],[1.551160507196358,46.11281956728729],[1.550446747243618,46.11150362644829],[1.551534553940231,46.111550835256956],[1.551883614392904,46.11201461502327],[1.551621314028725,46.11223823004484],[1.551553239360096,46.112462521525536],[1.552132529611315,46.11269146874294],[1.552530971978806,46.11201926853174],[1.553889033963997,46.11198343881901],[1.553881637351856,46.111526720269794],[1.553314918352349,46.1116563967581],[1.552604722310502,46.111432090974844],[1.551658249277295,46.11029782168489],[1.551910125569754,46.11012541019124],[1.55229970403952,46.11008354591382],[1.552751964963851,46.11056214875268],[1.553196504196847,46.110056251858516],[1.55348633947087,46.1095240647826],[1.553517361238991,46.10928038667443],[1.553140433405183,46.10849833070647],[1.553027275741243,46.10714142504491],[1.552682005238043,46.10732075381039],[1.551703482016137,46.10656974791904],[1.55177811151139,46.10585108843272],[1.551200082472624,46.10557712245742],[1.551072890109088,46.10544130347453],[1.551600537798354,46.10467979134783],[1.551669682639616,46.104365449480184],[1.551222314883036,46.10404721789273],[1.551948627933551,46.103018047774086],[1.550968740558978,46.1026164654813],[1.551312431511473,46.10156350056903],[1.551907708670119,46.1008379755704],[1.551877962359035,46.10064035574579],[1.548534401339716,46.09963666151749],[1.547759648269525,46.10009778626944],[1.547529914438638,46.10060911280935],[1.5464242095056,46.100414828953845],[1.546029146697176,46.10086189084272],[1.545770349256619,46.100905408592496],[1.545128678349389,46.10049549882577],[1.545075232529621,46.09977610134185],[1.544755001438747,46.09954863652949],[1.543784387931432,46.09963165519327],[1.543477460141939,46.09841455131999],[1.543025712015483,46.09841145479581],[1.542819119839521,46.09922028145105],[1.541979051162269,46.09921399573773],[1.541864225569783,46.09822361475496],[1.541737073316646,46.09808778526346],[1.541155786166008,46.09803888523244],[1.540376954366178,46.09821350318797],[1.54005118348772,46.09839034227683],[1.540229589267195,46.099471607599355],[1.539187462783845,46.100003988869815],[1.539312218741292,46.10022985471705],[1.539887933715061,46.10068398163909],[1.540178323608006,46.101205586808675],[1.538908318254965,46.10149366231241],[1.538581394803353,46.101518273898236],[1.538268587611069,46.101450300072216],[1.537851760319956,46.10125309400229],[1.5376733923618,46.10094998107694],[1.536936874509342,46.10026320516678],[1.536132342858808,46.09999164450716],[1.53563154721547,46.09993384744903],[1.535436281356886,46.10002229294113],[1.535676914319642,46.101194433787896],[1.534189680680961,46.101228374229976],[1.533919088205918,46.10214984101775],[1.532753392766825,46.10211766554774],[1.532614867390264,46.10274722657782],[1.532284506312753,46.10323921028711],[1.531368166993502,46.10395237638386],[1.531174083952182,46.10399579786257],[1.53085386174864,46.10376919421631],[1.530791373983909,46.10358825639737],[1.531186580417875,46.10314124761056],[1.531196759050623,46.10242176406661],[1.529836298904523,46.10250682390896],[1.528811459395813,46.10117950300063],[1.526325052513807,46.10187586905691],[1.524625403864608,46.10075499964054],[1.524431241961999,46.10075337617422],[1.524105380497511,46.10093106980374],[1.523715821277176,46.10097373768082],[1.522774204575507,46.100168916860554],[1.522627009076994,46.099865284233005],[1.522722348862312,46.09978636766479],[1.523181159282641,46.0997680212375],[1.523349436225109,46.09957657171824],[1.52490032857078,46.09967779749925],[1.525551943633246,46.09927737129132],[1.525816508627793,46.098874616611724],[1.526002209771303,46.0985158694427],[1.524761942461581,46.097069527987244],[1.525675508615475,46.09641041811207],[1.52514936205443,46.095900120370054],[1.524567073494403,46.095986218862464],[1.524111802239471,46.096163130321386],[1.524356868950112,46.097064261771436],[1.524026359405708,46.097512088482766],[1.524131041673756,46.09790433048132],[1.523787498199842,46.09840332393258],[1.523550434118909,46.099082930353305],[1.522579713521239,46.09912073426633],[1.522072419145966,46.09848727906137],[1.52156158381255,46.0980339047197],[1.521762674764433,46.097585299916425],[1.521956742594644,46.09754189451526],[1.522532202637148,46.09795107608081],[1.522856924400197,46.097863436959706],[1.522925181730455,46.097684195966366],[1.521641194959715,46.097000098196254],[1.521254192048096,46.09699685758448],[1.519882042548329,46.09727978674564],[1.519668617905408,46.09708066192604],[1.519015206798871,46.096730791623905],[1.518544878608267,46.096313056990425],[1.517432430312419,46.09613551251606],[1.516934339220406,46.0959794969163],[1.516583771212784,46.0957299387762],[1.516202894993641,46.09516475629963],[1.515759378455049,46.09490587433332],[1.515735632426821,46.09477857232053],[1.514108260711056,46.094830228881385],[1.513334010493961,46.09469039529513],[1.512822238775962,46.0943711645954],[1.512682606093156,46.093982055498756],[1.512275714637526,46.09299321295819],[1.511947333601391,46.09278626132645],[1.511638444778811,46.09281553453292],[1.510327073497227,46.09190938626194],[1.510451494912167,46.09123553216049],[1.512530202269776,46.090479234044395],[1.512956769453725,46.09016689557722],[1.513739678475803,46.0900321480321],[1.512209394122887,46.08927626388335],[1.51163729580888,46.08970467588077],[1.509953573691897,46.089882523486374],[1.508967406278499,46.08987497364526],[1.504837155753137,46.08843542641189],[1.504367235784099,46.08905518612572],[1.503998783423516,46.089798770345574],[1.503892493445416,46.09094479872573],[1.503968214384833,46.092347210289184],[1.503663096045022,46.093283467293624],[1.503087031055983,46.09390092200512],[1.501529426867149,46.094290161985526],[1.50084530244582,46.09464408920545],[1.501195063731607,46.095015274320126],[1.501173909289979,46.09536354711988],[1.500709656006904,46.09567714606979],[1.501326292464657,46.09599421438249],[1.500757863589388,46.09675676367367],[1.499082461839851,46.096810273190854],[1.498963301050181,46.0977597857538],[1.498458927316976,46.098829393020765],[1.498543925986679,46.09884582862787],[1.498632967868598,46.09914061913716],[1.498987978749078,46.09946234437976],[1.500529044930945,46.10044371042619],[1.501467988327028,46.101145109781115],[1.500692742228699,46.104691543875454],[1.498545753274327,46.10649869194991],[1.496613322250828,46.10665954899094],[1.492438209525116,46.10653662537963],[1.491620417298115,46.10628078328975],[1.490091427581095,46.10551921677462],[1.487844232850836,46.10460305784251],[1.487360693911249,46.104529966499456],[1.48408241203078,46.10452405803246],[1.485419250304923,46.10741319127186],[1.485821694046489,46.107563565764586],[1.486401940742238,46.10765236337016],[1.486461809563619,46.10797019197838],[1.487256915653146,46.10886163064781],[1.487441904676466,46.10943240844503],[1.488609979034547,46.110136066203566],[1.490529382554743,46.11149096970932],[1.490421331557676,46.1128306055497],[1.490790825565724,46.11347498206423],[1.491177530308634,46.113540466116326],[1.4912887123883,46.11368875020042],[1.491206000668584,46.11405962062264],[1.49159037200368,46.11496448065599],[1.49196654252488,46.11508386106139],[1.491432154849812,46.115915269048415],[1.491244767843233,46.1159479043503],[1.49114637985182,46.115522389248596],[1.490710729749925,46.115540915970975],[1.49078079721718,46.11605431900179],[1.489963259895186,46.11672614299501],[1.49010257377712,46.11717021654783],[1.489452951630855,46.11738673837225],[1.490354909035271,46.118638033904936],[1.491486884031737,46.119721254024704],[1.491989468769224,46.119577521597606],[1.492466607432456,46.12007741558297],[1.493143392742652,46.12024041139403],[1.49286161145173,46.11970078314026],[1.492999112874395,46.119173925415424],[1.494130832710859,46.11918263702154],[1.494251437400282,46.11875192360354],[1.495318143986432,46.11876966840204],[1.495701387888108,46.11905755157666],[1.49634658938906,46.118434741658774],[1.496920530959994,46.11847476501648],[1.4974760097136,46.11829027892753],[1.497036699840224,46.11740092502328],[1.495819198225186,46.11778288893429],[1.49526744484085,46.11783141786796],[1.494378764657015,46.117792616453],[1.493785187911948,46.11752445461753],[1.493643817916892,46.11715421220549],[1.495380215306512,46.11688272469633],[1.494793475985759,46.11603463873418],[1.495394567589971,46.11593362776247],[1.496093540232737,46.11675077383355],[1.496678940241308,46.11651354973042],[1.497122622066878,46.11714807872557],[1.498684126369227,46.11654638857028],[1.499916813933306,46.118403613371854],[1.501923127320362,46.11839768099625],[1.502223130471691,46.118842057164414],[1.503810488153578,46.11871708159018],[1.504538148015478,46.11981825615721],[1.505448673450184,46.11995993914533],[1.505145955866862,46.12127900818932],[1.506243391575814,46.123025400249134],[1.506565978926793,46.123117907316356],[1.506557945880622,46.1219847849403],[1.507064262375067,46.12203647600593],[1.50750866218575,46.12474696733811],[1.505291404633949,46.12502312157736],[1.503526333563855,46.12453333634043],[1.503646884326616,46.125242835751166],[1.504017983133738,46.12526663919042],[1.504133875327218,46.12619493441834],[1.503454689509057,46.12621120321954],[1.503425370701521,46.12700158723245],[1.504202539680382,46.12695508650625],[1.504913684505249,46.127002279365406],[1.505517316587217,46.12666887947904],[1.505854188191392,46.12680841003863],[1.50513357922352,46.127394254909234],[1.504554318841129,46.127736079689974],[1.505462458572305,46.128160533198276],[1.504546349933926,46.129169808511854],[1.504594113554049,46.12988915564597],[1.505142117106929,46.13012513570489],[1.504922686230706,46.13061940528561],[1.504297315037587,46.130465264964485],[1.503846863124847,46.1309276687663],[1.503752100724447,46.13122003192859],[1.503182322900838,46.13135482583734],[1.502068319548632,46.13111497448761],[1.500800513892051,46.130483100232425],[1.500168803559893,46.13098812924963],[1.499415432617883,46.130114452970446],[1.498632594620661,46.13050849772851],[1.498129765375617,46.13061082740026],[1.497811763525691,46.13020763296513],[1.497048935318438,46.130248876525684],[1.496429205557015,46.13078826846951],[1.495789614253498,46.13025561925086],[1.495474976234352,46.13067565778675],[1.495049399944404,46.1310311797612],[1.494333263033615,46.13144769501609],[1.495246430055612,46.13182996640475],[1.494434631150005,46.13214434183917],[1.493892024797059,46.13265682274711],[1.493870103508396,46.133078036890375],[1.493355097720305,46.13333959966709],[1.492959209457077,46.13435838762837],[1.494816887863122,46.1356367303741],[1.49579365235527,46.137341093906294],[1.496247495096339,46.13775239668478],[1.496103169063805,46.139284293721836],[1.495597483324431,46.14024399488587],[1.495169198896891,46.1403175785255],[1.49651832587575,46.14181791594884],[1.496690080624606,46.142784785813056],[1.496083109002005,46.143231579247534],[1.495009459978556,46.143355158122034],[1.494163240137603,46.14312328321501],[1.494563197686149,46.14228827774852],[1.493045612957631,46.14126212612774],[1.491008913815597,46.14107026635164],[1.490852924150361,46.141701351917256],[1.490114800305398,46.141168263466206],[1.489702947306357,46.140267539739554],[1.488902252391803,46.139843490464656],[1.489087347286151,46.13919117881835],[1.488584038251141,46.13902506671578],[1.487749114654405,46.138292530271826],[1.487047939309436,46.13787879889124],[1.487129410604334,46.137414246746665],[1.486748019657655,46.13705610982692],[1.48664289172406,46.13621710192266],[1.48621478891877,46.13614384755261],[1.485821980800917,46.135448710878066],[1.485578493383716,46.1352112944613],[1.485274740274642,46.13499829199461],[1.484539934729093,46.134678664289694],[1.484506601354406,46.13494751483771],[1.483979369489989,46.135555624333016],[1.483679982573998,46.13612264177066],[1.483832796502041,46.136640756369594],[1.483840263992755,46.13716773830473],[1.483563419719478,46.13738740422404],[1.482636181265996,46.137654222462764],[1.482179582822598,46.13786157622005],[1.481576856172593,46.13838670673646],[1.481484029778876,46.13860432455078],[1.481179349820206,46.13865879303175],[1.480914122601773,46.1385985046894],[1.480849389599538,46.13869040621574],[1.480436438664455,46.13881817875379],[1.4795362730184,46.139369040483245],[1.478972448037246,46.13961097234944],[1.478802473679418,46.13980683988324],[1.478468051738363,46.1406066447105],[1.477796111685922,46.141195675871465],[1.477303553477037,46.14134308548327],[1.477158182267398,46.14177255006645],[1.477394758036238,46.14207203704724],[1.477369092571605,46.14220318855441],[1.476421463276836,46.14329378318731],[1.476463132478352,46.14384644342146],[1.475485719665384,46.144235021168534],[1.475128149553469,46.14446619303529],[1.47505356797648,46.144911916613296],[1.474552353965951,46.14541585797869],[1.474465570011444,46.145601128063134],[1.474808076838068,46.146192053831065],[1.474363661853722,46.14786850918114],[1.47391234804733,46.14881353851463],[1.473370487356157,46.14928630682785],[1.471470664171846,46.14966155093051],[1.470987607556237,46.14979014841145],[1.47089309165811,46.14992667650125],[1.470493762448927,46.149794308134545],[1.468068831810108,46.1517097517088],[1.467621882608437,46.151797391933925],[1.466983319683111,46.151275402489695],[1.466084402887627,46.15079582756036],[1.463875431927943,46.15082272027296],[1.463876656909091,46.150732671133795],[1.462614401170257,46.15036433927294],[1.462333403924665,46.14970936075755],[1.459772706867334,46.14897215688985],[1.459608583550517,46.15011016455779],[1.458783088359175,46.15112571821121],[1.457995696953361,46.15175269905338],[1.457240667705171,46.15284125125131],[1.455009454810307,46.15232007009556],[1.453570771913257,46.15223474692635],[1.452690816524812,46.152648776965464],[1.451659455548089,46.153284100508394],[1.452053735804171,46.153640730737024],[1.454790049488777,46.15537122025682],[1.457663254089677,46.15684861353002],[1.459419530439592,46.15938257481456],[1.460278150335933,46.16028496393033],[1.460759085067683,46.16060580965891],[1.461243393545163,46.16071414390089],[1.463119902656765,46.16077106479286],[1.464772048841291,46.160647494031316],[1.465402172060318,46.16068662873627],[1.465413066402672,46.16201164095566],[1.465751219779605,46.16345365434762],[1.465521575347921,46.16448090366031],[1.466170046626476,46.165441652031745],[1.466052989822579,46.166104755768096],[1.465448624881792,46.16722781928988],[1.463921269578626,46.16668390199824],[1.463810096427955,46.16579345152439],[1.463289015557165,46.16588547798944],[1.462523501014452,46.16655872108737],[1.460966357789496,46.16735543823842],[1.460361634405257,46.168071374493934],[1.460116165765578,46.168919169088994],[1.459696496556468,46.16876847569831],[1.459877711623055,46.16965537683133],[1.458933537448592,46.171008873369125],[1.458781222855824,46.171539096018066],[1.458475304391957,46.172091552768876],[1.457147989104179,46.173190355622445],[1.456419201265682,46.17333537241101],[1.456584967144027,46.17407886469046],[1.456934711608533,46.174504220782495],[1.457675393122529,46.17472052536026],[1.457722194277086,46.174900391212745],[1.456495115890808,46.17501432793677],[1.456225019384979,46.17535200848592],[1.4565897384735,46.17579828404699],[1.456659406076216,46.176547676160055],[1.458240581008035,46.17684473741934],[1.458599247941599,46.17787635079386],[1.460116358729578,46.17717819195759],[1.461554507078055,46.176659075725055],[1.461410760842943,46.178039636738085],[1.460892371596456,46.17807765084004],[1.460778984473959,46.17842196724508],[1.460321492143072,46.178368936559735],[1.459724864863416,46.17920746954489],[1.459415265687596,46.17910510199243],[1.458233962827234,46.179616868660474],[1.458102695648338,46.178659491359404],[1.457315293740973,46.17862719088234],[1.455379283212958,46.18075346738206],[1.455210576274925,46.181034881590165],[1.454689412286517,46.181124167587924],[1.453928965514702,46.1810543829706],[1.453200240273666,46.18110120975484],[1.453243933202542,46.181344981878226],[1.452806274352797,46.18141558117969],[1.452809548661216,46.18116164030333],[1.452314505051079,46.181198132225],[1.45211403887191,46.181593493145755],[1.453458920133328,46.18250345073606],[1.452740981868753,46.18290257870065],[1.453785515035731,46.18365893392137],[1.453814722857293,46.18381874755626],[1.454198640564197,46.18422926487741],[1.454852256535971,46.18473261223854],[1.455019562098046,46.185053718869554],[1.45612065708691,46.185001129992685],[1.45839867961439,46.18681084292058],[1.459976773300166,46.18672055195613],[1.460135020290924,46.18741169724378],[1.460439652388224,46.18746175683021],[1.462647293871158,46.18711876310033],[1.462850420779361,46.18658021635593],[1.462534944848817,46.18603825883491],[1.463123273349493,46.18572828340302],[1.462806562995361,46.185230441982625],[1.463457229690381,46.185055505528375],[1.463712846445136,46.18532735568411],[1.463891220408441,46.18627365255923],[1.463302925165715,46.18662866516848],[1.463486306817745,46.187349866614646],[1.463013569895887,46.18820810454905],[1.463258078012691,46.18841405749891],[1.463924442296441,46.18860589657168],[1.463175126748613,46.18933790857821],[1.462080450980337,46.189898623102266],[1.461616524285758,46.18965547371847],[1.461035276165786,46.18989618734755],[1.460836678446009,46.19017990701712],[1.460805610920851,46.190455086881],[1.46041337990101,46.190799229880994],[1.460600380381422,46.19092875461884],[1.461687192853722,46.190973187663054],[1.462595064354271,46.190785523554034],[1.463300708766477,46.19101122130982],[1.463940466060781,46.19155215409275],[1.464362568812001,46.192085640006994],[1.465091227380385,46.19246294706165],[1.465753370141872,46.19313206420033],[1.466686344556403,46.19376340014583],[1.46667408118607,46.19457292238454],[1.466535810423264,46.195111449658526],[1.466080751425261,46.195198078318825],[1.466014705850708,46.19528725259709],[1.466006074521028,46.195827528361725],[1.46671304359776,46.19614779027818],[1.467103260155771,46.19606118542768],[1.469061719041021,46.19513108017401],[1.469586502065042,46.194730149696476],[1.469921665033882,46.194013237872674],[1.470976883962564,46.193797768001694],[1.47139111934652,46.1941978241824],[1.47239280446972,46.194739970707765],[1.472508005520725,46.19553949646975],[1.47338463360637,46.19628890477763],[1.473877435466171,46.19657021953333],[1.474345170374423,46.196400869823265],[1.476086119852538,46.196106288008274],[1.476166239175393,46.196490138713074],[1.476100253731337,46.196624352016734],[1.475580327380115,46.19666511661913],[1.475577958657652,46.19689024773538],[1.476338861609234,46.19788575977245],[1.477251419708538,46.19757825408736],[1.476934512641475,46.19708045248388],[1.47700054261647,46.19699127187622],[1.478366885394079,46.196642100681366],[1.47922183938955,46.19583845071402],[1.480895971326885,46.19589415571478],[1.48108541681915,46.19734223053346],[1.481041827020398,46.19793247475508],[1.481130463677242,46.19805704794103],[1.48210052181807,46.19815466362707],[1.484130887130961,46.196774936543875],[1.485377082925191,46.19574949343723],[1.486158693094327,46.19553113838323],[1.489031560527327,46.19406797319929],[1.488969163720116,46.193932046603386],[1.488007502495736,46.193250079119764],[1.487563315439935,46.19266235149175],[1.487440882205591,46.19221129869049],[1.487510505165481,46.1918969977513],[1.488361638806281,46.191318392985806],[1.489990640439157,46.19070058110973],[1.490065067018336,46.19011704860887],[1.491818200848962,46.18889742542487],[1.492841959981015,46.1887344758767],[1.493774297347392,46.1890197292949],[1.494752550976146,46.189144366957734],[1.494907908441227,46.189342765164774],[1.494848607426374,46.18947167330902],[1.495000951445327,46.1897799104934],[1.495048562714867,46.190171421902704],[1.49496825896642,46.19035679287499],[1.495040630676064,46.19046042480608],[1.494475629074483,46.19082311004962],[1.494522394412985,46.19091469478103],[1.495361477501028,46.19105549660295],[1.495440604721982,46.190156796902826],[1.496160734509849,46.189622334272556],[1.49732763819189,46.18963055952371],[1.497914575371912,46.18936542021832],[1.497793171412013,46.1887792960034],[1.49955635546773,46.18784789603201],[1.50078441017182,46.18803702273956],[1.501109765892033,46.18799447952069],[1.500959460089601,46.187752925593195],[1.500759297099296,46.18772236587004],[1.500444389289519,46.18747773959249],[1.500251078394305,46.187433759643824],[1.501805259290861,46.18664997615329],[1.502231311133019,46.18652859940006],[1.502998969101666,46.187288949647645],[1.503321818296173,46.187290498827984],[1.504428446786583,46.18693940117821],[1.505463188328864,46.187036770020185],[1.505457331363041,46.18744198355722],[1.505973562915725,46.187580263659456],[1.505772012826436,46.18802883798694],[1.50512621648826,46.18793388559519],[1.504729027877053,46.188470850583364],[1.505622455229457,46.189376939671675],[1.506328486373625,46.189832037919174],[1.506971996965013,46.19010708215359],[1.506700864477852,46.19082493773949],[1.506824749411086,46.19127598686304],[1.507145312517277,46.191457623849274],[1.507469458250601,46.19146007859756],[1.507797065317022,46.191192384395286],[1.507481189760978,46.19069558505508],[1.507741595134783,46.1905621055045],[1.50793614593415,46.19060879069068],[1.508317996957879,46.19101638994286],[1.508837773209042,46.1909304424571],[1.509919894920248,46.192198328132086],[1.509916395426414,46.19242254270473],[1.508667132986868,46.19362833663306],[1.507369415190958,46.19375360824722],[1.507238591837292,46.19384285572892],[1.507611155980294,46.194925818596666],[1.508056729661296,46.19542341846793],[1.509558338088663,46.19619605188208],[1.510089096993817,46.19589859071403],[1.510335406127628,46.19580725057879],[1.510555491584687,46.19582184236931],[1.510756812618883,46.195572299277124],[1.511952662417834,46.195617678277785],[1.512195493061444,46.19551097769979],[1.512511866893789,46.195083709068065],[1.513127570135401,46.19509626608158],[1.513544965673512,46.19433887903559],[1.514022057246561,46.19391460823033],[1.515276299639768,46.193287034880335],[1.515603774184032,46.19268788019473],[1.516485074282124,46.192086045842295],[1.516711730079892,46.1917134351823],[1.515799976176583,46.19075766165879],[1.516946357815717,46.19013496720484],[1.516956842598331,46.18945962173518],[1.517412887109578,46.18928364031952],[1.517668711563707,46.18951033583008],[1.51779829078448,46.18946609259608],[1.519377114934984,46.18785830489028],[1.51919421227022,46.18709217750388],[1.519972024997817,46.18705277165786],[1.519917634100663,46.1863774822071],[1.519660680787211,46.18624084119989],[1.519732460727653,46.185791454606246],[1.519410617112977,46.1856089358231],[1.51908772111015,46.18556149881319],[1.519290287984001,46.185022851303046],[1.51948474806438,46.1850244835543],[1.520127134822446,46.185389502927784],[1.521099408301171,46.18535081985709],[1.521048281273874,46.18479445828934],[1.522993800961854,46.18511336351866],[1.523905975155014,46.183886829629486],[1.52268366303471,46.18329273809405],[1.522685980606856,46.1831585725245],[1.523077252864716,46.1830258588451],[1.522245000717054,46.182344964210756],[1.522376877604005,46.182166550164396],[1.522699756464719,46.18221397784429],[1.523534351989742,46.18275980323789],[1.523793553293613,46.18271633640469],[1.52411990167348,46.18253864456259],[1.524314437949269,46.182585301750436],[1.524631545216009,46.18299200504849],[1.524827209165183,46.18294861178994],[1.5253968584235,46.182547111890365],[1.524397923480879,46.18150651589601],[1.524014396503401,46.18096655490958],[1.525576744816735,46.18038970657272],[1.527260685433139,46.180401630952936],[1.529007545857488,46.17932456896397],[1.528855039696768,46.17887137390312],[1.528242856743412,46.178009640516535],[1.528383157692131,46.17766110769955],[1.528763324401958,46.177312077375916],[1.528791685022566,46.176786469956724],[1.528097958915991,46.17640372170129],[1.528166120827846,46.17613441197096],[1.528362789029692,46.175955929741654],[1.527594258143801,46.175365962633265],[1.527532995580038,46.17518504059831],[1.526884894710626,46.17518024457122],[1.52666745840584,46.174683874267075],[1.527896551499421,46.17439178170966],[1.528394627934685,46.173657904761285],[1.527752553389873,46.17347756633643],[1.526794222160935,46.17257081017822],[1.523894313202504,46.171650551675654],[1.523056271044517,46.17123887734028],[1.523145018046361,46.17087977352126],[1.523457698921017,46.17058122055371],[1.523914719576115,46.16983241898566],[1.523737892722206,46.16912942187465],[1.523095564256756,46.168720289562],[1.521739468993084,46.168485601903505],[1.520639123982643,46.16847758723323],[1.519937863587683,46.16770741192991],[1.519812952813316,46.167436492446555],[1.521322736855034,46.16600791356599],[1.521195478365826,46.165872061606734],[1.520935140856198,46.16596053895533],[1.520738566221067,46.166184041710416],[1.520348646919159,46.16627083079294],[1.520158842213863,46.1659549350728],[1.521465002116468,46.16515415331149],[1.521658261375326,46.165245831497174],[1.522232170257387,46.165835112265086],[1.523263161800206,46.16620246820158],[1.52345749539331,46.16615816008063],[1.523919128235458,46.16562197044436],[1.524829611281695,46.165313165098915],[1.525032022817522,46.164775406907985],[1.525488984612708,46.16450844276724],[1.527430404887253,46.16456784332244],[1.528211427521554,46.16434829840627],[1.528987801703663,46.164640252724716],[1.529807543746339,46.16379795393808],[1.530474979431289,46.163559811805605],[1.5311316099095,46.16391865157437],[1.53203745524009,46.163925854542335],[1.533010427685832,46.1637979201126],[1.533152495761074,46.16333232137294],[1.533964389460274,46.16336261352724],[1.53434544957963,46.16307211911532],[1.534598094739484,46.163027643689],[1.535130636654597,46.16351995584401],[1.535756127158225,46.163881068975776],[1.536370870126702,46.164450988714634],[1.537046225576239,46.164352509534964],[1.537439486391143,46.164479158428215],[1.537490835605951,46.16464373587459],[1.537410785508537,46.16472916700673],[1.536894731561962,46.16492967075676],[1.536713870991856,46.165149800040936],[1.536688093159935,46.16543587172931],[1.536895462593823,46.16563127900227],[1.537127022732268,46.16574593967719],[1.537329141733716,46.16574944215938],[1.538639273774581,46.16527635039109],[1.539151746744196,46.164966815300176],[1.539533375930404,46.16499513754674],[1.540348928007971,46.165717121967106],[1.540811347826629,46.166460684702805],[1.541438774472732,46.16709288286029],[1.541621193955363,46.16739873956939],[1.543730516876005,46.16675301335483],[1.543255116395243,46.16571568833846],[1.543352683121938,46.165702528856926],[1.543491094419765,46.165957382594215],[1.543611077538649,46.165978734487354],[1.544628361258113,46.16530458070629],[1.545539012441721,46.16483800141575],[1.545269027249917,46.16333678322709],[1.544281874317947,46.162535181095635],[1.547352273984324,46.16151442463515],[1.548384439004944,46.16179150283933],[1.550158156886446,46.16289671576265],[1.550663144267473,46.16296530210819],[1.551091020693264,46.16266544283896],[1.552489422851682,46.162081640293394],[1.550738616593825,46.159617693847075],[1.548068362744039,46.15972770462026],[1.548040217714941,46.1586853063587],[1.547170209804126,46.15869850217436],[1.546943435349066,46.158452429759386],[1.547399149787902,46.158275427354745],[1.547401429708884,46.15814036071851],[1.54695235268095,46.157822096736844],[1.547299625116932,46.15616035597782],[1.549193859082467,46.15500382376054],[1.549008373861362,46.154372809331214],[1.549140330688796,46.15428353009716],[1.550957356107888,46.1539365579004],[1.550905863421572,46.15299113173239],[1.552139987524755,46.152730370942635],[1.552744156623652,46.1521796737989],[1.553832145033698,46.15229980414636],[1.554920799948452,46.152542419168974],[1.555260140596339,46.15215585855412],[1.554875956506775,46.15198165231045],[1.554348866810148,46.15196864168354],[1.553803290050545,46.15182119826456],[1.55313261974399,46.15145420471392],[1.551111627637828,46.151088005818714],[1.551017693984057,46.15032666906343],[1.551658288360189,46.15016281617738],[1.552307307317372,46.15012155385807],[1.552509285619215,46.149538712943105],[1.551993318495062,46.14939974346795],[1.552003951859233,46.14914409777941],[1.552499287435209,46.148836988521175],[1.553130599101709,46.148582044881124],[1.554230992141419,46.14685151975969],[1.555595618358891,46.146500519167304],[1.554636222275919,46.14568404627832],[1.554701954392785,46.14554978698617],[1.555092747326869,46.145372829835175],[1.554645025472057,46.145054612472315],[1.554322228211723,46.14496224212249],[1.554846984011547,46.144470866879104],[1.554574247354763,46.143658623788326],[1.557320381228433,46.14358906195461],[1.557406007424845,46.14397922478781],[1.557569583913443,46.14421366654739],[1.5588594850145,46.14507663811853],[1.558847134749433,46.14539890944761],[1.558320177006589,46.14602446976373],[1.559282952403548,46.14661579442435],[1.55947716390993,46.146572324994615],[1.560218433371025,46.145926960131426],[1.561031794160366,46.14648485354806],[1.561972101371668,46.147885542208286],[1.56331138363367,46.14761068247143],[1.565249111074797,46.145757348147725],[1.566029595628291,46.14549250980089],[1.566255062390823,46.14509547375331],[1.567151332491822,46.14530852529971],[1.567529845210119,46.144855776634714],[1.567663961262457,46.144334198868954],[1.568392605797199,46.14312482543527],[1.568919565772021,46.14254335123003],[1.569569265711619,46.142322773823246],[1.570929361570337,46.142286756658116],[1.571710670119949,46.14188769602496],[1.572681090177546,46.14193862197245],[1.5745655750679,46.14136696820568],[1.575543509854135,46.140878484505635],[1.576272561682493,46.14039407819489],[1.576212829782027,46.139899782220255],[1.576729071240762,46.13917763990216],[1.577967450787498,46.13873562981753],[1.578550367514041,46.13873932414336],[1.579062356356831,46.138830390181305],[1.578881721795496,46.13840123005043],[1.578862550074405,46.137040133390904],[1.577666265455258,46.13715935247077],[1.577614328506467,46.136213937470714],[1.577173927172559,46.13531138986485],[1.576090460626614,46.134179223481745],[1.576093709483329,46.13395410572315],[1.576809198372157,46.13368928158507],[1.577832324683722,46.134550495412064],[1.578285538129492,46.134508436322776],[1.579010711056437,46.133569145196134],[1.579203825361704,46.13361569239018],[1.57952235138548,46.13402225999965],[1.579909618650018,46.13402530193116],[1.580046646514929,46.13348573475882],[1.580371486565758,46.13339793128699],[1.580439469448477,46.13317362280382],[1.581473331898974,46.13327030014254],[1.582255730496182,46.132871182943404],[1.582337604682048,46.131657251403304],[1.582465832674734,46.13165795143702]]]]}}]}