{"type":"FeatureCollection","name":"COM_23264","crs":{"type":"name","properties":{"name":"urn:ogc:def:crs:OGC:1.3:CRS84"}},"features":[{"type":"Feature","properties":{"fid":4080,"ID":"COMMUNE_0000000009752360","NOM":"La Villedieu","NOM_M":"LA VILLEDIEU","INSEE_COM":"23264","STATUT":"Commune simple","POPULATION":51,"INSEE_CAN":"09","INSEE_ARR":"1","INSEE_DEP":"23","INSEE_REG":"75","SIREN_EPCI":"200044014"},"geometry":{"type":"MultiPolygon","coordinates":[[[[1.892210167049677,45.71853959489796],[1.888408277494785,45.72200360437248],[1.8875596423193,45.72437095213881],[1.88774540432659,45.72670617764734],[1.886808018293552,45.72702563581089],[1.886307959236329,45.72689101397768],[1.885931730366151,45.726418096372036],[1.885408244461411,45.72597884412363],[1.883776007710274,45.72581319881872],[1.88344314823223,45.72586844004043],[1.883416247012193,45.7266913007833],[1.882742966463867,45.72698452242365],[1.882389861863985,45.72606873800792],[1.882198294131201,45.72587681696839],[1.881609104364732,45.72569986374238],[1.880747370183044,45.7255841428015],[1.880254669928283,45.72559546043249],[1.880235394417209,45.72527736520245],[1.879791885769648,45.72520901800861],[1.879328874283918,45.72527826352426],[1.878888177676796,45.7255152364804],[1.877826025704022,45.725328155346546],[1.877375653043537,45.72585140986013],[1.877273612358118,45.725430724444976],[1.877099563003282,45.72520024417545],[1.8756707182024,45.72401345027289],[1.873634737333281,45.72536740821062],[1.87330871479878,45.72597023955749],[1.873364000518985,45.726222954036544],[1.873256393942368,45.72689731243538],[1.873425128282487,45.72726193184691],[1.873451031160936,45.728262733390366],[1.873628983004776,45.728995781192936],[1.874003519702661,45.72980013678877],[1.874369631408906,45.732219144284564],[1.875024323444406,45.73297135763266],[1.875927092491083,45.73373054343371],[1.876461623348089,45.73495525433882],[1.876981769360168,45.73486317375524],[1.877742435289917,45.735022945177334],[1.878623013744527,45.73548469714736],[1.879525927975569,45.73624115306098],[1.880336375442084,45.73648425457756],[1.88096703353772,45.73728662600603],[1.881724182607138,45.737876811381085],[1.882048641174375,45.73849512326397],[1.88297202347843,45.73887981515794],[1.883351930763697,45.739173563912836],[1.883642056201712,45.73958259702994],[1.883991087495198,45.74045060630224],[1.885211131893086,45.74226292841839],[1.885779118483936,45.74292686396365],[1.885733487781302,45.74353160107088],[1.88590387706144,45.74388450970129],[1.885924638295171,45.744769081782984],[1.886322050730139,45.745473656282485],[1.88748435705968,45.7447313453507],[1.88849999699564,45.74443696519044],[1.889187882770838,45.74438610610297],[1.889934080718211,45.74456996679287],[1.891173825179802,45.74509369081279],[1.890841939738505,45.74541553527138],[1.891692113010156,45.7459318188794],[1.896134663757567,45.74923277404958],[1.89603949169094,45.75084207246459],[1.897002765510228,45.75027422789465],[1.897379969094886,45.750388687048456],[1.898048134532706,45.74971708378989],[1.899139460011568,45.74917658916899],[1.899290483475885,45.74902136307385],[1.89933682523891,45.7486967076049],[1.899266584304594,45.748283558522544],[1.899044908664736,45.747852720824376],[1.899675754274145,45.7473086258834],[1.900385442721145,45.74719757241983],[1.900365603120011,45.74677230748252],[1.902258841361153,45.74548761987291],[1.902089898504823,45.74505640106324],[1.901850774827979,45.744855946339726],[1.901535934710928,45.74477633121219],[1.901481259774236,45.74429128934369],[1.901242284779788,45.74408363013421],[1.900883496137237,45.74395045100454],[1.9008276342618,45.74378420074268],[1.903076806249642,45.74341885384465],[1.903012509426364,45.74302918018554],[1.903690288896507,45.74264312093854],[1.904070181095743,45.74229558952124],[1.90447831115564,45.742210398328304],[1.90485071506862,45.74198076684239],[1.905106518479968,45.74159870564111],[1.905395459133693,45.74149164067037],[1.905386372035274,45.74110610674543],[1.905244645316239,45.74092371551696],[1.905133826948143,45.74047955714048],[1.905354005065962,45.73949286441637],[1.905282124065145,45.73909591403601],[1.905137975797113,45.738971135869875],[1.906198303548222,45.73881301891682],[1.906719498563769,45.73886220152713],[1.906153200365755,45.73829745316184],[1.906588231314645,45.73763074499202],[1.906229466004646,45.73704279311839],[1.906314322119341,45.73619887807259],[1.906549640344755,45.73581031136947],[1.906924916002954,45.735497848705265],[1.908041931884876,45.735200675815165],[1.908151681291278,45.735113482441314],[1.908008770835797,45.73479599722707],[1.90731796823004,45.734350725524216],[1.906172692384236,45.73386681963448],[1.905992854172711,45.73366154519194],[1.906031718636233,45.73267219193714],[1.905840639743104,45.732580280425914],[1.906109531883922,45.73211909420521],[1.906314565258277,45.73137540847741],[1.906827462967939,45.73093009599998],[1.90965693233271,45.72927972786804],[1.910077729597896,45.7289379767778],[1.910244672363319,45.728688330805504],[1.910304047178683,45.72828544817371],[1.907908395427647,45.727897535176766],[1.907588660721249,45.72780978360593],[1.907581666374901,45.727643109824],[1.906603380246876,45.727630023800295],[1.903732405228221,45.72644400524788],[1.903201571334364,45.72364526286885],[1.903306574240279,45.72334279118769],[1.903778034062104,45.72271517434067],[1.903847887988081,45.7215910375788],[1.904196086544939,45.72121348049101],[1.904262467245623,45.72013433857354],[1.903975388990677,45.718920276784246],[1.89683802927937,45.71824276369039],[1.892355407670679,45.71841314057404],[1.892210167049677,45.71853959489796]]]]}}]}