{"type":"FeatureCollection","name":"COM_40232","crs":{"type":"name","properties":{"name":"urn:ogc:def:crs:OGC:1.3:CRS84"}},"features":[{"type":"Feature","properties":{"fid":4206,"ID":"COMMUNE_0000000009760059","NOM":"Poudenx","NOM_M":"POUDENX","INSEE_COM":"40232","STATUT":"Commune simple","POPULATION":219,"INSEE_CAN":"02","INSEE_ARR":"2","INSEE_DEP":"40","INSEE_REG":"75","SIREN_EPCI":"200069649"},"geometry":{"type":"MultiPolygon","coordinates":[[[[-0.60305812456853,43.57565259205116],[-0.605719429250834,43.57721337087565],[-0.606082324997456,43.57764535410349],[-0.606480008227044,43.57790144679022],[-0.606940797620054,43.57813652659045],[-0.608214140452159,43.57832928388414],[-0.608933736467852,43.57871967753759],[-0.609380722395843,43.57910922489],[-0.608914086840956,43.5793526161903],[-0.608883272634664,43.57945361749665],[-0.609258174191807,43.57987888802549],[-0.609513909830629,43.580517081072905],[-0.609457326393608,43.58125212660159],[-0.609929349931636,43.5829054147773],[-0.610532771227181,43.584204863462],[-0.610496374355821,43.58453212583514],[-0.610609178200993,43.58480849017853],[-0.611164704819466,43.58534664118085],[-0.611657884085165,43.586212916627034],[-0.611883440533145,43.58711871935566],[-0.612259745466255,43.58813569645516],[-0.61253419824183,43.58861744459691],[-0.613545848115844,43.589982561977244],[-0.614294399367574,43.59059353804816],[-0.614537520211624,43.59201305616536],[-0.614653558282407,43.59228120487319],[-0.614817248630286,43.59240095234957],[-0.614416458423147,43.59286464785082],[-0.614338267560549,43.593098731627514],[-0.61404439747079,43.59335170442577],[-0.611961516189991,43.59441899907004],[-0.611322561936288,43.59434838294053],[-0.610951754514663,43.59456067237662],[-0.610819990013517,43.59482986114655],[-0.61073681442378,43.595418083889236],[-0.610846252015457,43.59619175075421],[-0.610688252571711,43.596378947350054],[-0.610556998204018,43.59640042564606],[-0.60993247677481,43.59620502364591],[-0.608928879804358,43.595519627830356],[-0.607748134886095,43.59487433724377],[-0.607447081322581,43.59495459543997],[-0.607037654931687,43.59569596471571],[-0.60679840297085,43.595852528700696],[-0.60666967142879,43.59585500376105],[-0.60644947876766,43.595368734400424],[-0.60595737624627,43.59503200542032],[-0.605253064170843,43.59467079705659],[-0.604241427612829,43.594447686644486],[-0.603752520568278,43.59420091230695],[-0.603618555830331,43.59398198587892],[-0.603761449248451,43.593790798357965],[-0.604031454177786,43.59365033365258],[-0.603996208926334,43.593464158512624],[-0.60314799604472,43.59319868522445],[-0.603050362011357,43.59302538887607],[-0.602816826177748,43.592917849920795],[-0.602472487527699,43.592979715435305],[-0.601981964092132,43.593555323598004],[-0.601540467438365,43.59376722298526],[-0.599712445051333,43.59412057514637],[-0.598929457133382,43.59442034468773],[-0.598440375869897,43.59430865729286],[-0.597981264846927,43.5939437799514],[-0.597726440145167,43.59359554952911],[-0.597494885311159,43.59351945800256],[-0.597299938410211,43.59351330788227],[-0.596991746281314,43.59363790733019],[-0.596773156439062,43.594084688084195],[-0.596567834070129,43.59422929626809],[-0.596047125278251,43.594206013370425],[-0.595329332640153,43.593806459974786],[-0.594852196493582,43.59380604725893],[-0.594740061215546,43.59387551077502],[-0.594443763584418,43.59472386639675],[-0.594304989736996,43.59486266406891],[-0.593142541551614,43.59488222717809],[-0.59265764658494,43.59495591811451],[-0.59224820103267,43.595146001922956],[-0.592007191301389,43.59555208206392],[-0.59159337045293,43.59592965212286],[-0.591171378645427,43.59684970798987],[-0.590889649392392,43.59719948808838],[-0.590608123087677,43.597275449967256],[-0.590460941109106,43.597161425762216],[-0.590301869062525,43.59658033504297],[-0.590012302210209,43.59658720798599],[-0.589789199829483,43.59692333745076],[-0.589469173795129,43.59717620430257],[-0.588798630504703,43.59731365900887],[-0.588703173593887,43.59727358095224],[-0.58869568392044,43.59689643853625],[-0.588513313454492,43.59671512239046],[-0.587858620658073,43.59657103175876],[-0.587014541446611,43.59654938349637],[-0.586932128781253,43.596420605340626],[-0.587010375538722,43.59531377381078],[-0.58676370613895,43.59491661266279],[-0.586530867803278,43.59478019420805],[-0.584953620360869,43.59464674404084],[-0.584408109358891,43.59494036597357],[-0.583824017746419,43.59546943755596],[-0.583202837667307,43.59560342696789],[-0.582783703306749,43.59555961485477],[-0.582080969527214,43.59478479319174],[-0.581665629267482,43.59450397118601],[-0.58035260862881,43.593322346502966],[-0.57980665240261,43.59255675386605],[-0.579575237723532,43.592482421872454],[-0.578835432538547,43.5925023083113],[-0.577846013276111,43.59237459785807],[-0.577559805839539,43.59223631751782],[-0.577640058145507,43.59199319051621],[-0.578394605009533,43.591832319500305],[-0.578792962182395,43.59150394933791],[-0.578884783964965,43.59128746044829],[-0.578772623817411,43.59062195027711],[-0.578657239191729,43.59052037398045],[-0.577980872215079,43.59048412325826],[-0.57736794678549,43.59057097265017],[-0.577221593385865,43.59080727050659],[-0.577137538557954,43.591267586742546],[-0.577028588844011,43.59134863522031],[-0.576624694388944,43.59146912337534],[-0.576259508510723,43.59169371470086],[-0.575672160233148,43.59169414675374],[-0.575481511596915,43.59159774802241],[-0.575405726930041,43.59137597415362],[-0.575746866954522,43.59050728986124],[-0.5757100827015,43.59033466995415],[-0.575242591865194,43.59003122563958],[-0.574874665860077,43.58993345881194],[-0.574475948368389,43.59031586656233],[-0.574396410243591,43.59110748165184],[-0.573767257546511,43.591311933129745],[-0.573337293463727,43.59135220575848],[-0.572657538668836,43.59112238694603],[-0.572554498713975,43.59092042274346],[-0.572776962275103,43.590294334789284],[-0.573396577307388,43.58973803712543],[-0.573289841051048,43.58923807063158],[-0.573001877927392,43.58903138564913],[-0.572683131308858,43.58898693456812],[-0.572279306411456,43.589307354990765],[-0.571843066487513,43.58932621233668],[-0.571860852881648,43.58901489307652],[-0.572048550213333,43.58872590427848],[-0.572354418825825,43.58856362490152],[-0.572388982666559,43.58790499248753],[-0.57181264910132,43.588061760391646],[-0.571480199820779,43.58799614060558],[-0.570818469142141,43.58759729279951],[-0.570262417315334,43.587781306251536],[-0.569909464900357,43.58768483241258],[-0.56976364379179,43.587372589557425],[-0.569798875379995,43.586644585469976],[-0.569469069250144,43.58642215548024],[-0.568877387524672,43.58625246746203],[-0.569236647888265,43.58553452656424],[-0.569192113551759,43.5854162010964],[-0.569310899267856,43.585333936716076],[-0.570237086923617,43.583412963179946],[-0.572493734815,43.583220729550284],[-0.573188606894506,43.582342216923976],[-0.57451727062382,43.58209131640366],[-0.574631612705374,43.58195785375217],[-0.575285684413407,43.58167781827328],[-0.575630656873902,43.58162682537517],[-0.575856124423657,43.58168604802987],[-0.575975803594371,43.58094265067035],[-0.575619056181949,43.58058602683408],[-0.575495709154384,43.58023702545808],[-0.575770441703598,43.579794750744625],[-0.576621411378439,43.57883811804473],[-0.576723815616999,43.5784537583548],[-0.577523311758937,43.577605994730845],[-0.577912362599128,43.576156595850705],[-0.578677877379138,43.5756386894418],[-0.579114181903785,43.575602686394795],[-0.579278732190533,43.57551980204721],[-0.57961018731353,43.574935141664206],[-0.579735667436102,43.57357098660751],[-0.580060044155898,43.5728334442678],[-0.579728957281565,43.571458231250496],[-0.579806239637033,43.570830616264125],[-0.579981400896493,43.57069964506751],[-0.580418492749851,43.569287384633014],[-0.579210912018526,43.569031798661435],[-0.579837030479305,43.56850497046335],[-0.58031818203399,43.56789825834378],[-0.58107895125776,43.56744533841764],[-0.581519352508786,43.56676160718804],[-0.581594730886939,43.56640155369619],[-0.583951842283929,43.56663896765509],[-0.584413742896347,43.566835369588325],[-0.586057196409939,43.56724762160788],[-0.586305653970383,43.567437558907656],[-0.588123832291411,43.568127718731894],[-0.588765334795859,43.5682839391803],[-0.589744143951362,43.56854518595103],[-0.590439558783641,43.568988730288744],[-0.591729654315101,43.569018094418816],[-0.592699775997334,43.56923907261347],[-0.59373673254178,43.57007209135336],[-0.5953614089401,43.57085410896344],[-0.596422617309729,43.57181599976725],[-0.597155965201048,43.571776383869306],[-0.599336228561263,43.572704754814495],[-0.600255399417265,43.57284269466672],[-0.600919757239681,43.57304582470976],[-0.601169910261086,43.57320234968121],[-0.601719332303009,43.57394249382447],[-0.602101269983536,43.57495479760997],[-0.60305812456853,43.57565259205116]]]]}}]}