{"type":"FeatureCollection","name":"COM_47164","crs":{"type":"name","properties":{"name":"urn:ogc:def:crs:OGC:1.3:CRS84"}},"features":[{"type":"Feature","properties":{"fid":4170,"ID":"COMMUNE_0000000009756505","NOM":"Mazières-Naresse","NOM_M":"MAZIERES-NARESSE","INSEE_COM":"47164","STATUT":"Commune simple","POPULATION":99,"INSEE_CAN":"10","INSEE_ARR":"3","INSEE_DEP":"47","INSEE_REG":"75","SIREN_EPCI":"200036523"},"geometry":{"type":"MultiPolygon","coordinates":[[[[0.685476163057581,44.67572354877809],[0.685485595747477,44.67638483502287],[0.686127965146969,44.67641898695053],[0.687350345117093,44.676684122528215],[0.68777273865454,44.676665030464605],[0.688145273279998,44.676415225286505],[0.690560575744563,44.67661788161055],[0.692662097740901,44.676623000642444],[0.692892425410339,44.67679352607349],[0.693440658499741,44.67696887783348],[0.693781854299005,44.67695977861634],[0.694421163596406,44.67676054656796],[0.694772207050628,44.67694259015515],[0.695264032129403,44.67689249228997],[0.69614733771759,44.677023472240194],[0.697919434753484,44.67776918062873],[0.698783844710457,44.67780697778508],[0.700340027380424,44.677318752040954],[0.701456943764809,44.67682948587884],[0.701992173857776,44.677509795389106],[0.702605616359119,44.677851276423695],[0.70284745396113,44.67804993997411],[0.702818571814419,44.678170028878114],[0.703799912987737,44.67828136661433],[0.706220219354667,44.67715530915346],[0.706461834081264,44.677111682524576],[0.70704904919791,44.6770436953792],[0.707723883487277,44.67733508219757],[0.708490893372482,44.677532904088466],[0.709007274373762,44.677561611186604],[0.710004014538468,44.677480471808444],[0.710216601604997,44.67740561380581],[0.710403125027412,44.677226640343584],[0.710717797111883,44.676317182758964],[0.710969404620837,44.676182786794776],[0.712184162905738,44.67617188689962],[0.712502446095638,44.67601184658565],[0.713676562447062,44.67585148172198],[0.713787186300461,44.675924919627214],[0.713631354891437,44.67628106140013],[0.714237717564656,44.67642508649211],[0.714071064770348,44.67720341343821],[0.714236708024099,44.677631945829084],[0.715065623133857,44.67789134455004],[0.716889800870615,44.67801276365568],[0.722033819342352,44.67751175251598],[0.723614996308909,44.67727410025565],[0.729200846761245,44.67604871811685],[0.727830350779176,44.67557115493398],[0.726849081946649,44.67511418147598],[0.724161312171788,44.67356294031325],[0.721514294722148,44.67228717017492],[0.722019295297071,44.6715662400235],[0.721884744345631,44.67149141713823],[0.721961708609928,44.670774281463736],[0.723300111261923,44.66982462715189],[0.723503673437459,44.6692848230093],[0.723411250570104,44.667949056894415],[0.723916521538953,44.66690749462109],[0.723918556944926,44.66616990405515],[0.723832174168934,44.66593395759345],[0.724385546895221,44.66460697781011],[0.724763690795658,44.66421216640269],[0.72534642076535,44.663313595371314],[0.726102673322649,44.662961680139965],[0.716462820376881,44.656506269868736],[0.711644568455364,44.65630220613322],[0.710078321899174,44.65615450476917],[0.709425246784031,44.656016691013335],[0.708482082745149,44.656279057094075],[0.70841026054645,44.655593974380274],[0.708088666703218,44.6546281166025],[0.707495662286877,44.65344858179608],[0.707482195835221,44.65322133858478],[0.70763193447502,44.652890301023625],[0.708407724684381,44.651964298809204],[0.70894205849191,44.651142268606726],[0.710467610980678,44.65020746659813],[0.7113832083726,44.64947167553345],[0.712010942879136,44.64870920711938],[0.712100682144888,44.64836341373838],[0.712390032873325,44.64807308681612],[0.712779974949263,44.647977578410895],[0.714113000305021,44.64786644239698],[0.713676599288133,44.64730352256433],[0.714775603490635,44.64590051663287],[0.715221443021352,44.64604392579295],[0.715420882189479,44.645730118469814],[0.714914475434656,44.64508920263649],[0.71444500040529,44.64524882125081],[0.713916677338872,44.644339955827405],[0.715094169195653,44.64389325614886],[0.718192442486659,44.64243154464262],[0.71927430039311,44.642101713610195],[0.720424075434492,44.642088497525236],[0.721357325751937,44.64218879174097],[0.723756491285089,44.6429443109427],[0.723954527300497,44.64266378467675],[0.723661909182864,44.6414130739916],[0.724115878995268,44.639855303510124],[0.723530595119954,44.63960458468429],[0.722985454951316,44.6391097150529],[0.722709682276795,44.63909773086025],[0.722171726676582,44.63876872301153],[0.721496037907021,44.63869535818156],[0.721058840793861,44.638308078169665],[0.720729107813411,44.63825805040584],[0.720605374048296,44.63791775902068],[0.720442185039115,44.6378045162923],[0.720314027889471,44.63779196683891],[0.720067255053162,44.637936384846405],[0.71987500082332,44.63791800990339],[0.719575345904037,44.63752995767997],[0.719692707079607,44.63727929802508],[0.719581243565129,44.63697888674212],[0.718819859771155,44.636623638002305],[0.718656815829251,44.63628883773381],[0.718682144568718,44.63578770314786],[0.718589885801192,44.63563629294725],[0.71813497088023,44.63534500393138],[0.718636392140296,44.63504823332143],[0.718570389889411,44.63496491300111],[0.718699923042366,44.63463164688556],[0.718436048148341,44.63401466645729],[0.717689764040161,44.634035288247276],[0.717508631844299,44.63368029880872],[0.716361152957424,44.633547624560414],[0.71612753537039,44.633398696032174],[0.716011052919834,44.63303603312481],[0.715060236523968,44.632750696273256],[0.715254978629047,44.63224045495115],[0.71517169153138,44.63189919194162],[0.713813136983864,44.63118751864203],[0.713602365750367,44.631035454475146],[0.713596898493869,44.630828193914404],[0.713424926055562,44.63083904725697],[0.7123779995873,44.630405794650265],[0.712156825502366,44.63038590666274],[0.711309729753251,44.63090245300193],[0.710762357973582,44.631026215755405],[0.710682137722266,44.63126232409753],[0.710290946495345,44.63170184175112],[0.709801647237988,44.63176195648746],[0.708661254705184,44.63167347957256],[0.708469184542825,44.63174425181949],[0.707917203932474,44.63201200825079],[0.70721157431175,44.63277012842068],[0.706308961403859,44.632944142981074],[0.705735572422551,44.63336545517163],[0.705260080224806,44.6335816483496],[0.704038591399172,44.633811170089324],[0.703598463570821,44.63380923392252],[0.703108650654259,44.63360271782548],[0.702593391345179,44.63377304129916],[0.700757840338879,44.634646336180374],[0.699255200670357,44.635891292894996],[0.699101945836436,44.63664825034911],[0.698979746982099,44.63689158409225],[0.698667639467524,44.63712105780202],[0.698538830992163,44.63734083672266],[0.698701310777008,44.637871998844396],[0.698654685082965,44.63799441720416],[0.698253367212327,44.6381842058077],[0.697847791482638,44.63807669019565],[0.697147433973406,44.63805219783945],[0.696343163671224,44.63834796849178],[0.69490074068898,44.638424181834544],[0.693781191302202,44.63917989767459],[0.692620774449826,44.6397005808407],[0.691736188073998,44.64072417097622],[0.690697637643781,44.64153288623311],[0.690089054094339,44.64268471812843],[0.690060894248103,44.6434640955871],[0.689879768674529,44.64388181745423],[0.689402989288399,44.64415646205533],[0.688604096194293,44.64434871691745],[0.687985560276703,44.64432677901808],[0.687815603565347,44.644471833219754],[0.687520995353842,44.645010568465416],[0.687256614123324,44.64588858169809],[0.6869918531375,44.646283835474726],[0.687047102811759,44.64681277526249],[0.686873143966757,44.647762030305365],[0.686886748282243,44.64822975536668],[0.687042387792729,44.64843385719343],[0.687040902106947,44.648654486882954],[0.687319880254663,44.648989061193745],[0.687726985406895,44.649245254890296],[0.687860520400863,44.649157981379716],[0.688030295891812,44.648956181438436],[0.688409444228258,44.647956273961476],[0.688704624335572,44.64746528227788],[0.689421434886467,44.64687592295652],[0.689621402290804,44.646983676448166],[0.689906601617121,44.64688966220402],[0.691253000256745,44.647130335858066],[0.692500851088313,44.64805253296916],[0.69360303854286,44.648588899536634],[0.694304326910993,44.649734745347686],[0.695134423676874,44.65029244219196],[0.694265601791859,44.65058865887715],[0.695370332072299,44.65146550733338],[0.694470200149696,44.65227985083575],[0.69652782028435,44.653707034246004],[0.696984155254516,44.653810206164756],[0.698536162362289,44.655261946147135],[0.7003970186739,44.65669216535694],[0.701125962825653,44.65741343252978],[0.701410488772033,44.65758416596566],[0.701550180771198,44.657593373668135],[0.701678560814328,44.65750867806795],[0.705020000962549,44.66128785799958],[0.704864442157775,44.661389106146856],[0.703639135024111,44.66172843916176],[0.703422843033511,44.661864450674265],[0.70321893039866,44.66265639607045],[0.703916648333233,44.662722219160315],[0.703978952017427,44.66280367080036],[0.703897843936911,44.6633694001436],[0.70322202121595,44.66335446845821],[0.702408027430511,44.66518030640879],[0.702800596802316,44.667654458853065],[0.703081242068105,44.66764317408971],[0.703344983539042,44.667984595344436],[0.703282205138832,44.66834805822405],[0.703384688429815,44.66852761548362],[0.702841114005344,44.66879643350415],[0.701396906864142,44.669114087867136],[0.699663935693396,44.670692046464495],[0.698782087341678,44.671052883606876],[0.698012023465568,44.6712106895995],[0.696092302067038,44.67179578464536],[0.695340704079418,44.67174860623278],[0.694083766642538,44.67180527453857],[0.693305715435012,44.67200341161917],[0.692948626152727,44.67196984615705],[0.691449610933398,44.67229703889113],[0.691331848058297,44.672152276657506],[0.690127217151883,44.672656720869256],[0.690292115584265,44.67294477337946],[0.689741546068614,44.67325841682892],[0.687460335760582,44.67422040024349],[0.68573247093906,44.67507682854002],[0.68537188848585,44.675404332835114],[0.685476163057581,44.67572354877809]]]]}}]}