{"type":"FeatureCollection","name":"COM_23150","crs":{"type":"name","properties":{"name":"urn:ogc:def:crs:OGC:1.3:CRS84"}},"features":[{"type":"Feature","properties":{"fid":4057,"ID":"COMMUNE_0000000009750571","NOM":"Peyrabout","NOM_M":"PEYRABOUT","INSEE_COM":"23150","STATUT":"Commune simple","POPULATION":151,"INSEE_CAN":"01","INSEE_ARR":"2","INSEE_DEP":"23","INSEE_REG":"75","SIREN_EPCI":"200034825"},"geometry":{"type":"MultiPolygon","coordinates":[[[[1.904235027967858,46.09218707396924],[1.904343495294572,46.09479618982455],[1.904272076014859,46.09565104761675],[1.903614288823787,46.097087418054286],[1.902963160765484,46.09767010304589],[1.899988538057999,46.10334826566915],[1.897896388093222,46.103346883494616],[1.898186545079352,46.104759102898115],[1.899086603742125,46.10539283594198],[1.899148401153944,46.10579779410503],[1.898740182536598,46.108270419763336],[1.898738257717343,46.10849554519122],[1.899059511371576,46.10881116123762],[1.898281281337574,46.108943200484234],[1.898406389864589,46.10948385987242],[1.898598684132151,46.109709068642],[1.899439337907814,46.109757747571464],[1.899435511925878,46.11020709801242],[1.898719965657745,46.11069907806429],[1.898907395489644,46.11155464242391],[1.899932606486964,46.11286321201747],[1.900313886162933,46.11367472250276],[1.900936318745441,46.11673640331823],[1.902298077833386,46.11624615566627],[1.903853515847056,46.11584781951441],[1.90547358149791,46.11558427100125],[1.906636766391423,46.11563330287209],[1.90773411034613,46.11599779109143],[1.908498219279625,46.11710113877402],[1.912124329384186,46.11709361382967],[1.9132138062111,46.11844770350454],[1.913860455012397,46.11836023162068],[1.914187421022489,46.118001328406635],[1.915540235236113,46.11868068196682],[1.916311225277799,46.11931394161614],[1.916501775012912,46.1197642455236],[1.916300954078247,46.12075295935562],[1.916364324665752,46.120888650114836],[1.917419619888381,46.12142375053765],[1.917437444745601,46.12150497203726],[1.917213904753424,46.12200445964326],[1.917354540800116,46.12235972576792],[1.917062749006594,46.122510941210784],[1.916952797465768,46.12296378123679],[1.917197048763431,46.12305616794537],[1.917261407785932,46.12366736997998],[1.917960474191909,46.123683039331816],[1.918478964799713,46.12359521992221],[1.919318375603025,46.124639770655385],[1.91931364343637,46.12488017844121],[1.91962725007317,46.12506868048839],[1.920481446005946,46.124704867935776],[1.921362778049688,46.12513471080192],[1.921964987098241,46.12533495305205],[1.92215357918085,46.12522867467428],[1.922546222407857,46.12469025666954],[1.922777715345187,46.123849517709104],[1.922615191291591,46.12355168762874],[1.922619363631204,46.12314106641965],[1.923084879888955,46.12185766455025],[1.923673614813965,46.120959973179005],[1.924193009355317,46.120692022204494],[1.923875128656237,46.12006131133122],[1.923749785379524,46.11938649550319],[1.92478756450585,46.119164880763066],[1.924988640177827,46.11822118434611],[1.924989576305295,46.118041078846915],[1.924084429898176,46.118037908595916],[1.924023374107639,46.11745285879022],[1.924741068625444,46.11664554094975],[1.924165634566279,46.11574402061395],[1.924427352029027,46.11534034231559],[1.924440541227762,46.113675309499484],[1.924961212561366,46.11327228188246],[1.925092549224668,46.112913296648514],[1.926514608378328,46.11309786064462],[1.927622886174706,46.111978117195754],[1.928144906562375,46.11130491656514],[1.928274384820195,46.11130523839253],[1.930719708944149,46.112934015336045],[1.931365785860472,46.11307068142142],[1.931369350779071,46.11262133000848],[1.931931532108472,46.11207817262232],[1.931435559786783,46.11174749866853],[1.930802221852628,46.11148937568715],[1.930613933235053,46.11131739424299],[1.928429592639938,46.10779717563545],[1.928437249661414,46.10680751951475],[1.92904375058409,46.103525255472036],[1.929506269710692,46.10231294583835],[1.928603692239898,46.10185954739395],[1.928547995929917,46.10060002193103],[1.929130525785562,46.10060191712713],[1.928697278823796,46.09799067248542],[1.928049581578591,46.09807911713753],[1.927411332211906,46.09708696053802],[1.927412723945938,46.096816801966746],[1.928256350277344,46.09650506833965],[1.930462783521212,46.09534343143904],[1.932278966779984,46.094675197255974],[1.933900117360531,46.093915945893436],[1.93532880619905,46.093066610388135],[1.936958662678801,46.09131767009262],[1.937671425792967,46.091005542359504],[1.938449306967296,46.09087323299553],[1.938066752035028,46.09010687016576],[1.938067627405702,46.089927664715724],[1.93865006552132,46.08979442560901],[1.938332643578243,46.089073701302915],[1.941006393542534,46.0859340787717],[1.940878284626821,46.08579869806759],[1.939975441380991,46.08543544265418],[1.939653663042662,46.08520909462475],[1.939464800539449,46.08453370247321],[1.939726256936723,46.084129988301946],[1.940247404531284,46.08368186957792],[1.940378128047922,46.08341291911931],[1.939860938421067,46.083320732765756],[1.935386877729548,46.0851943590184],[1.934860335126805,46.08645201922838],[1.935178117844663,46.087217785867495],[1.935108963267504,46.087847537054444],[1.934915258731006,46.08789164828101],[1.933624573949561,46.087572431707756],[1.932728838947326,46.08577817634028],[1.933036742264658,46.085318177898515],[1.930549390140134,46.0836476153177],[1.929646607305135,46.08341936318301],[1.928807207519184,46.08332588752239],[1.928285045266946,46.08395405953814],[1.927636603525268,46.08422170731118],[1.926989084464949,46.08430924556073],[1.926993612283362,46.08367978784034],[1.926412607039804,46.08354280843577],[1.926416228142956,46.08309255613176],[1.925705352517922,46.08304530206559],[1.923512563062705,46.08240762683051],[1.922931126468688,46.082359782087934],[1.921702105483073,46.082535428348656],[1.919309777197785,46.0825712054868],[1.918853409926823,46.08248130340093],[1.917612391736889,46.082608160176086],[1.917177673134467,46.08233924349276],[1.915113064174299,46.081835912999445],[1.913824984836529,46.08120129230388],[1.913307272508588,46.081335023681426],[1.912404684925058,46.080971548864596],[1.910136102758799,46.08181793570216],[1.909811696763133,46.08186164914571],[1.909816347041536,46.081366377140995],[1.909625584766731,46.080871028528406],[1.90917593973067,46.08050917789728],[1.908659706126598,46.080372729531355],[1.907948802305912,46.08045954930921],[1.907496884999347,46.08027778525152],[1.907365990110529,46.080547598247875],[1.908007457219496,46.08108961654038],[1.908197806350502,46.081539935223724],[1.908311086981125,46.08365467705753],[1.908175940014203,46.08446389507112],[1.907462278879131,46.08468667275351],[1.906808470390666,46.085673711195966],[1.905929460604226,46.08626952605823],[1.905605694416069,46.08686438659324],[1.905430324117489,46.0870265999986],[1.904680046063714,46.08733095982858],[1.904168908234003,46.08777991546265],[1.904912316157988,46.088275204400915],[1.904248427425544,46.09047700899434],[1.904235027967858,46.09218707396924]]]]}}]}