{"type":"FeatureCollection","name":"COM_16215","crs":{"type":"name","properties":{"name":"urn:ogc:def:crs:OGC:1.3:CRS84"}},"features":[{"type":"Feature","properties":{"fid":4126,"ID":"COMMUNE_0000000009754358","NOM":"Médillac","NOM_M":"MEDILLAC","INSEE_COM":"16215","STATUT":"Commune simple","POPULATION":151,"INSEE_CAN":"17","INSEE_ARR":"1","INSEE_DEP":"16","INSEE_REG":"75","SIREN_EPCI":"200070282"},"geometry":{"type":"MultiPolygon","coordinates":[[[[0.010547987560763,45.20295893079799],[0.00936159285812,45.20304970080152],[0.008818555992235,45.202955858688874],[0.008567587847136,45.2028346987448],[0.008000012198929,45.202152699467575],[0.007640198272777,45.20192229421679],[0.007047704012421,45.20101615714342],[0.006353822398754,45.19967208241158],[0.006153980477528,45.198835939371676],[0.006024607173183,45.19659151666995],[0.005793510051105,45.19536437305422],[0.005950976999359,45.19373586494759],[0.005888933781029,45.19322960380389],[0.005235400657798,45.19234704812402],[0.004672788637983,45.19216885873123],[0.004244541071739,45.19167169098645],[0.003699277052073,45.191930078267696],[0.003407917531104,45.192823323393256],[0.002146927121367,45.192527252654244],[0.001411799390072,45.192785035179185],[-0.00017447836509,45.19405977194153],[-0.001636358844053,45.194939560899215],[-0.002030712385764,45.194997437104355],[-0.002457448375778,45.19475708787222],[-0.002204214984287,45.19623264294274],[-0.00192086055796,45.19714854195453],[-0.002468113497977,45.198650325423],[-0.002374904142424,45.199334041767926],[-0.0026673826256,45.200719230858816],[-0.00266109026365,45.20176284056038],[-0.002509692253854,45.20250218673032],[-0.002235345993268,45.203206994098984],[-0.002131081585291,45.204514549451694],[-0.001586008658113,45.20691614410514],[-0.000680397752606,45.20896699743275],[-0.0004409159139,45.20918338305439],[4.6136923624e-05,45.209394706354516],[0.000594586109189,45.2099104367987],[0.001164139882808,45.21086375079356],[0.001984133307516,45.21152192730054],[0.002482120546003,45.21228949374466],[0.002720112560453,45.21315099897982],[0.003119813694257,45.21385014570717],[0.003589191961493,45.21503233260246],[0.004645721642255,45.21672405558735],[0.004881461373255,45.21758098986856],[0.005510443282921,45.21864129843186],[0.005926682567096,45.2198175440129],[0.005914616203682,45.220778663484076],[0.005816923182233,45.22110223207144],[0.005865996142414,45.222301972870454],[0.00638086468008,45.22311412479301],[0.007060973981462,45.223674798188625],[0.009172603121282,45.22433778808001],[0.010823077466005,45.226468853368004],[0.011153209121659,45.226780448065824],[0.012242414730014,45.227442141744994],[0.012712251601591,45.22783586170675],[0.013290138913537,45.228688410184844],[0.013947658883849,45.22941152817291],[0.014584836403678,45.23058643506049],[0.015669203571475,45.23150747137955],[0.015881987822777,45.23191593424758],[0.017577201801817,45.23176477776547],[0.01846166086822,45.231918143874765],[0.019031421586909,45.23259113048683],[0.020729784084413,45.23307346010498],[0.02118557701257,45.23337395755085],[0.021927973723758,45.23356135157411],[0.023934997421314,45.234545644073904],[0.026219677304494,45.235370593767804],[0.026762535829969,45.234995784168895],[0.027678361561775,45.23475344184732],[0.028200306800189,45.23443573736241],[0.029055306633251,45.23349163934782],[0.029259015423586,45.23299516480874],[0.031686687431962,45.233625571088055],[0.031843201118341,45.233488263280066],[0.032378473655783,45.23356646079933],[0.032964283672526,45.23343785276749],[0.033028148580002,45.23367562740135],[0.034003001643491,45.23340146318268],[0.034133907030475,45.233313931807785],[0.033843653342468,45.23263313166451],[0.033718654686926,45.23258566027557],[0.033139292112289,45.23117903405538],[0.033310217209178,45.23014735338413],[0.033213290989506,45.229188752940544],[0.033926669180889,45.22869860003063],[0.034738754788867,45.22800652286656],[0.034908529931385,45.22776323852338],[0.03489656037273,45.227436736995635],[0.034255043348718,45.22612037547432],[0.034515524897326,45.224914465399834],[0.034413694300793,45.224623422382855],[0.033830262801084,45.223869960700846],[0.032252745910391,45.222557557174426],[0.032096520627869,45.2221389178345],[0.032209369800864,45.22183916054815],[0.03205470374045,45.22165483823536],[0.031377901987761,45.221387255819266],[0.030031257695575,45.2206738532338],[0.028797707380147,45.22063833757938],[0.028367388640899,45.22050704668596],[0.027953217984541,45.220192367251755],[0.026308810973098,45.21954127594277],[0.025548233730712,45.21900471156534],[0.02542131822613,45.21882652491018],[0.025500740693271,45.218604275881404],[0.025714034209879,45.21842974451381],[0.026630111015905,45.218345111269095],[0.026937089773715,45.21775227632478],[0.027916685785101,45.21721699127483],[0.028085381353038,45.216802487620235],[0.028563476948723,45.21639531621324],[0.02881726822025,45.21598668031448],[0.029054201694689,45.21527213602442],[0.028927986064707,45.214769590499166],[0.028373362685289,45.214220503348436],[0.027472895376484,45.214061377014595],[0.026725302790591,45.21404778061757],[0.026091384134755,45.213623619620805],[0.025885947924705,45.213579402387005],[0.024893788261197,45.21372957990632],[0.024454522640994,45.21355207993651],[0.024070330436352,45.21327422595813],[0.023730895471137,45.21318498448968],[0.019942480373696,45.21337048007008],[0.019613947477232,45.21350678287783],[0.019263834789863,45.21385606092034],[0.019157735548596,45.214553355602725],[0.019441018233447,45.215144807104885],[0.019399886290394,45.21598620448282],[0.019215617947877,45.21626151694969],[0.018689511645552,45.21665925876269],[0.017412669831559,45.21702974070972],[0.016181333349819,45.21712119288168],[0.015622946054403,45.21700174750123],[0.014861589061792,45.21669666028384],[0.014619758465883,45.21647484037577],[0.014568235842361,45.215531848288116],[0.014232065638569,45.21492905718436],[0.014057223353922,45.21426570229622],[0.014152276872217,45.21401414331207],[0.014716866082583,45.21344534812164],[0.014255484700422,45.212586009833565],[0.014568777442116,45.21204383547308],[0.01519733682886,45.21158938230994],[0.015287589299941,45.211022321536916],[0.015550775574274,45.210582428170895],[0.015429340096001,45.209325800710054],[0.015169318980964,45.20882506621482],[0.015039383445231,45.20806109370516],[0.014656196800278,45.20695605471022],[0.014700929437092,45.20645355559291],[0.013761655002765,45.20506963072888],[0.013477175144222,45.204883610322355],[0.012759082133976,45.204702207034664],[0.012479268531162,45.20435772132746],[0.011840897544052,45.204544277802846],[0.011611869486592,45.20479855557978],[0.010922285375405,45.204513379741584],[0.01076757284374,45.20418935901955],[0.010866316257745,45.20384509245756],[0.010547987560763,45.20295893079799]]]]}}]}