{"type":"FeatureCollection","name":"COM_33051","crs":{"type":"name","properties":{"name":"urn:ogc:def:crs:OGC:1.3:CRS84"}},"features":[{"type":"Feature","properties":{"fid":4229,"ID":"COMMUNE_0000000009756355","NOM":"Biganos","NOM_M":"BIGANOS","INSEE_COM":"33051","STATUT":"Commune simple","POPULATION":11303,"INSEE_CAN":"01","INSEE_ARR":"6","INSEE_DEP":"33","INSEE_REG":"75","SIREN_EPCI":"243301504"},"geometry":{"type":"MultiPolygon","coordinates":[[[[-0.894217023471953,44.68716650911667],[-0.892355623559254,44.68683452657913],[-0.892063187255466,44.68719184852746],[-0.891418869675245,44.687046864623056],[-0.891303905635093,44.68666331742916],[-0.891114933931934,44.6866348124235],[-0.890955094820507,44.68691805997109],[-0.89037471110759,44.68674738513598],[-0.890268065318835,44.686502356543244],[-0.887073832535454,44.68598911382559],[-0.886174461921194,44.68569983078065],[-0.88523525299648,44.68483325876274],[-0.88614399876995,44.684453400094306],[-0.885354956589476,44.68259545180579],[-0.885820021618604,44.682469144229245],[-0.885146662122998,44.680895571133554],[-0.885629352943827,44.68071366104114],[-0.885206764951236,44.6787644204564],[-0.885036429878518,44.67717497887499],[-0.885323613242602,44.67707114622887],[-0.885021642776485,44.67650307620175],[-0.884114765741884,44.675553343093654],[-0.884840183336524,44.674898703657675],[-0.884888571889303,44.67395236853849],[-0.883985877232813,44.670920329775136],[-0.883681654139541,44.66956814874406],[-0.883988319048188,44.669417664552824],[-0.88450721750768,44.668516996549],[-0.884917796423432,44.66809695525478],[-0.885056869679923,44.66776937895354],[-0.885681042063409,44.66731478778555],[-0.885779124617721,44.666960708693885],[-0.887081075458853,44.66521856802156],[-0.886881728791852,44.66450808841764],[-0.887493451139813,44.66416659443138],[-0.887546168799321,44.664052069757204],[-0.887360751043802,44.663579963720096],[-0.886814214608494,44.66332877010367],[-0.886581070763348,44.66302509392815],[-0.886119217769489,44.662884492188816],[-0.885586418290331,44.662521040773456],[-0.885490142589356,44.6622422971398],[-0.885929319425931,44.66165178935583],[-0.886025528947798,44.66127073527682],[-0.8858336449261,44.66097912830624],[-0.885813162973795,44.66062741445122],[-0.886254371694129,44.66006657880682],[-0.886219829914202,44.65978566582011],[-0.886405153843466,44.65959797624106],[-0.886413708049705,44.65906316602124],[-0.886749140951263,44.658378954382684],[-0.886863180038531,44.65761599544823],[-0.886918481010242,44.65755726496609],[-0.887155120107827,44.65756426709982],[-0.887334530036525,44.65723617079746],[-0.888422095365047,44.65696536735213],[-0.888647325403226,44.656788888983144],[-0.888570319062609,44.65613089717127],[-0.888906178767071,44.65541691815737],[-0.889956512449889,44.65517444915977],[-0.890586407176734,44.654805254568764],[-0.891344474056056,44.65462804182282],[-0.891511737823409,44.654453597785334],[-0.891648208541225,44.654071120647366],[-0.892422928506881,44.65351383847647],[-0.892998347616187,44.653581006272276],[-0.893822464147369,44.653190529569045],[-0.894187034419187,44.65267382170643],[-0.895016477566847,44.652360665425654],[-0.895396366869274,44.65173705196383],[-0.895770319208788,44.65155711916031],[-0.895897748575234,44.65139128284762],[-0.896325425027931,44.650254004635286],[-0.896656396656011,44.65001879748571],[-0.897382484208226,44.649800303891745],[-0.89847138995407,44.64973395905194],[-0.899103574060837,44.6495818617573],[-0.899546150678573,44.64955452995646],[-0.899740740816826,44.64933764527867],[-0.900577670094212,44.64933425186558],[-0.900909534914649,44.64945864627541],[-0.901084946829496,44.6494389345627],[-0.901371129023573,44.649268389288615],[-0.901778107774201,44.64925582553574],[-0.90258992759822,44.64930918825213],[-0.903004307681442,44.649676737225434],[-0.903529134208676,44.6499069812611],[-0.904015302341438,44.64977984251209],[-0.904284310453172,44.64983523901177],[-0.904531673302566,44.6496876894648],[-0.905462142863126,44.64975847277415],[-0.905557349448757,44.649874991135746],[-0.905882306558343,44.649717485561766],[-0.906160719537093,44.64974460263125],[-0.906568198439472,44.649648175960195],[-0.906899840964665,44.64975092784254],[-0.908028873871763,44.649844415992945],[-0.908133234357839,44.65012916562689],[-0.908480469770617,44.65018358879514],[-0.908732295354791,44.64993672049897],[-0.909092342648951,44.64984827144088],[-0.909387717253795,44.64984683794727],[-0.909743804511149,44.65004696677957],[-0.910398733955531,44.64973175180856],[-0.910772464601304,44.649713120318836],[-0.911008734019898,44.64955152618997],[-0.911075321495036,44.64931030540036],[-0.911613266556441,44.64923808696115],[-0.912040543278521,44.64897238170575],[-0.912566470756793,44.6488726411861],[-0.912918082118377,44.64864476455465],[-0.913246794021903,44.64870523662472],[-0.913795662124933,44.64868129488802],[-0.914596061695961,44.64889722191794],[-0.915427541884606,44.6489425832891],[-0.916633870856554,44.649366755283495],[-0.917198502220508,44.6493151968624],[-0.917584740806087,44.64907706373588],[-0.917880809512052,44.64761534874305],[-0.918197965639646,44.64747340542539],[-0.918795942340783,44.64744769737337],[-0.919025392714153,44.647115966207984],[-0.91943033019784,44.64683840365065],[-0.920774032250323,44.64658793232553],[-0.921330849543632,44.64617066854527],[-0.921900471434314,44.64599181317078],[-0.922290571162557,44.64575532814532],[-0.922442339208741,44.645758955561924],[-0.9231566721545,44.64573630455007],[-0.925175822609868,44.64505076874672],[-0.925315169242276,44.64491241495493],[-0.925203337825617,44.64434040389782],[-0.92547283990638,44.64385940879183],[-0.925899007802843,44.64357926406277],[-0.926239284032837,44.643660919207306],[-0.926413728861368,44.64362768004169],[-0.92665329790661,44.643170279752965],[-0.927006144551276,44.64312439090676],[-0.927261807021778,44.642934127852776],[-0.927258084046289,44.64255477814977],[-0.929159296939006,44.64148395829147],[-0.929940662585437,44.64088469686569],[-0.930440402798904,44.640827262795355],[-0.931179049364535,44.64050263067284],[-0.931867245718535,44.64046823136006],[-0.932419930179415,44.64015651669984],[-0.932870545555568,44.64010081946942],[-0.933299407150676,44.64018560933814],[-0.933772206103082,44.640031769213515],[-0.934377259488134,44.6400904522651],[-0.934510290909158,44.639862172198264],[-0.934844907558334,44.639844849468226],[-0.935148199387805,44.63963213909206],[-0.936044686528107,44.63956145141113],[-0.936821467665969,44.639060552697245],[-0.937636858367255,44.63885933557293],[-0.937885365103391,44.63854941681652],[-0.938099490271386,44.63875902034494],[-0.938329252969288,44.63879499983475],[-0.938524843131558,44.63866724292408],[-0.938728980691564,44.63867979743635],[-0.938954475617276,44.6385825223721],[-0.939267286542002,44.63866872144381],[-0.939954673929765,44.63820794309472],[-0.9401627169185,44.63818610291039],[-0.940478353673467,44.63836684355537],[-0.940791120946926,44.6381997497082],[-0.9413564835191,44.63841304568397],[-0.941591722562317,44.63849118837518],[-0.941638244921529,44.638668905374026],[-0.942008804184449,44.63869624942773],[-0.942213312621817,44.63887644277162],[-0.942370419396474,44.63879421973997],[-0.942811126816659,44.63877759454612],[-0.943807013116192,44.63884661755826],[-0.945278996388392,44.63880939695732],[-0.945349141209028,44.638747400730814],[-0.945889901426125,44.63869924779233],[-0.946070864007968,44.63848907121181],[-0.946221290366606,44.63843772836154],[-0.946687845080975,44.637564743656746],[-0.947099571641575,44.637404913377516],[-0.947070974108121,44.63712289785392],[-0.947517323229256,44.63688070388267],[-0.948187575672839,44.63671704167417],[-0.948581746311812,44.63688323553035],[-0.949088483560575,44.636818254167146],[-0.949408606737589,44.636936613518316],[-0.949546479435193,44.63668830952367],[-0.950268671469563,44.63654531276689],[-0.950712477009341,44.63684313103478],[-0.950966893899757,44.636618601344274],[-0.951300595020669,44.63651652967968],[-0.951459672683562,44.63622870479272],[-0.951804832476699,44.63614605240887],[-0.952173837990217,44.635935449428395],[-0.952398483477557,44.63586251386503],[-0.953227590650144,44.635858093236614],[-0.953437984662066,44.63565406171724],[-0.953749966853723,44.63563839194323],[-0.954061796107256,44.63545867282637],[-0.9542871100242,44.63489174479253],[-0.955519610300823,44.63425000505502],[-0.955907733459044,44.63373673688241],[-0.956350481135765,44.63374972922865],[-0.957041390478982,44.6336114121459],[-0.957228295234538,44.63348663549233],[-0.957696469968503,44.63346626145096],[-0.957886657586758,44.63338823865969],[-0.958045284214641,44.632968815378106],[-0.958035324162072,44.632647373605316],[-0.958591206571491,44.631899130670064],[-0.95904276790506,44.63171439006622],[-0.958963372272229,44.63144681595629],[-0.959251367295175,44.63103627614915],[-0.959699928949416,44.630970624471814],[-0.961019675260875,44.63101526138031],[-0.961052672214017,44.629725080118504],[-0.961710826661263,44.62973212981549],[-0.961962844057838,44.6299412310668],[-0.962315746504098,44.629825816171326],[-0.963152123288856,44.62980032506208],[-0.963466986035019,44.62984401563313],[-0.963968887890177,44.63005226071687],[-0.964704979760122,44.63003666570712],[-0.965165949764603,44.63020130441756],[-0.965546094833599,44.63022191410782],[-0.965773735190271,44.63035346042536],[-0.966376714320399,44.630275928641105],[-0.967131313902454,44.629931543247565],[-0.967193305211778,44.62971838956339],[-0.967423286775893,44.62956049879018],[-0.967376253124062,44.62923317647471],[-0.967540230310118,44.62901636030298],[-0.967588775820138,44.628719858975884],[-0.96784582355216,44.628408658498365],[-0.968525016255643,44.62817694168614],[-0.968908891233422,44.62782061971686],[-0.969312533482374,44.62761952849746],[-0.969901919213321,44.62706291917415],[-0.970113472335331,44.62698410642765],[-0.97064078061592,44.626997606593314],[-0.971243227422945,44.62614305752287],[-0.971497096205158,44.625966270868496],[-0.971591830589697,44.62568072647671],[-0.972392695146504,44.625259822832874],[-0.972508871234914,44.62506364675128],[-0.972692732768005,44.62502188056005],[-0.973004543092022,44.62466452892036],[-0.974077573709118,44.62446999153292],[-0.974264943618499,44.624281167748],[-0.974273580238939,44.624063618965636],[-0.97478349963663,44.624099357649996],[-0.97478672370322,44.62376932813641],[-0.975134022251994,44.62377215571854],[-0.975175183616672,44.62363997114294],[-0.975592797424909,44.62329773378275],[-0.976836824407205,44.622432679987675],[-0.977270464349366,44.62240715299927],[-0.97801990904233,44.62193847998356],[-0.978329575926257,44.62187324410861],[-0.979071102919218,44.621971832202114],[-0.980371550340299,44.62256768496646],[-0.981303372022519,44.622840584558745],[-0.982264484031233,44.62293844924234],[-0.982563138641196,44.622878105512676],[-0.982826254053854,44.6226721128826],[-0.983192223358092,44.62181429922695],[-0.983454823000651,44.621601112264415],[-0.985184227972662,44.62121242705524],[-0.985558669683284,44.62099249570051],[-0.985948661078644,44.620260903428175],[-0.986216278629928,44.620047528336514],[-0.986487599806432,44.61999356816475],[-0.986892697666956,44.62004655379974],[-0.987228043027222,44.62025529521979],[-0.988658921254953,44.621444880156865],[-0.990612108355029,44.62204228489101],[-0.992609252384756,44.622315362285306],[-0.993018017832458,44.62250881421199],[-0.993408950940895,44.622824600175655],[-0.994957940607434,44.62459125478223],[-0.995974854583154,44.62549284995916],[-0.996196004312163,44.62590581184565],[-0.996255074738303,44.626204748100726],[-0.995966531511841,44.627422181553406],[-0.995966585393101,44.627689900312966],[-0.99610188338214,44.62790675509322],[-0.997106928493886,44.628212936160416],[-0.997576969803233,44.62843300221735],[-0.997915739268302,44.6287064933399],[-0.997648580407933,44.631221202112094],[-0.997767303212451,44.63147110650069],[-0.998461660351566,44.63191652109974],[-0.998633370785115,44.63220146542502],[-0.998701299199854,44.63351417875334],[-0.998864294496306,44.63376518454521],[-0.998926647700326,44.6341811869558],[-0.998854097935501,44.63468860820003],[-0.999479561541583,44.6356566320942],[-1.00082813893641,44.63656692378665],[-1.001425150756978,44.6374890955147],[-1.001696951101478,44.6376541286829],[-1.002114043118657,44.637536260591204],[-1.002812304354068,44.6367736034123],[-1.003423978081609,44.63632056272564],[-1.003776546338844,44.63628975958295],[-1.004017027741825,44.6363693851086],[-1.004177332747802,44.63654656518649],[-1.004183984506516,44.63676446885832],[-1.003853523253063,44.63758592283164],[-1.003814906098355,44.638410322870534],[-1.003103435169938,44.64010643991082],[-1.001646374518392,44.642575933570456],[-1.001315802993497,44.64279252701934],[-1.000748445444841,44.64299966355334],[-1.00052675081083,44.64322042556649],[-1.00034443984623,44.64321350387851],[-1.000305749771124,44.643379865113545],[-1.000420519099958,44.643733576133954],[-1.000586190700341,44.643915075124845],[-1.002331712966468,44.64475780470812],[-1.002263760426003,44.64506314488906],[-1.002028419450812,44.645180740202925],[-1.001503643214801,44.64529439256748],[-1.000950961798198,44.64508634228196],[-1.00026854143965,44.64498935386819],[-1.0002232870351,44.64488552522501],[-1.000394090311184,44.6443925729782],[-1.000267009490512,44.644007757584994],[-0.999965553434222,44.64374553767736],[-0.999028920328106,44.643375597730234],[-0.99956682244976,44.64310914100484],[-0.999496887672627,44.64294220437966],[-0.999364204713672,44.6429406963669],[-0.999262356586441,44.64278663310383],[-0.999032750237357,44.64218467854932],[-0.998910811652942,44.64215663996299],[-0.998784560265736,44.642227913867664],[-0.999061979946692,44.64291647812154],[-0.999176973202026,44.64298893771965],[-0.998879773837687,44.64301772109773],[-0.998964258137845,44.64292722581096],[-0.998643991397525,44.642275367263174],[-0.998424145300778,44.64232659036889],[-0.998821653871418,44.6432839413396],[-0.998712910856944,44.643228382244786],[-0.998254001587115,44.64233094360879],[-0.998089005973303,44.64231888471859],[-0.998097472956058,44.642616047964175],[-0.998434191411792,44.643090633780744],[-0.998517586152352,44.64337607186448],[-1.000053483728075,44.64402359942743],[-1.000172931963915,44.6444609739346],[-1.000088141674551,44.644689399263704],[-0.999817628006249,44.64496961789125],[-0.999843340562434,44.64511832378974],[-1.000660511616056,44.645263620944306],[-1.001060235788342,44.64541591359869],[-1.000432206427067,44.64594254605259],[-1.000404182951101,44.646134662666135],[-1.000611464202764,44.646546322277075],[-1.000961674586923,44.646801367775716],[-1.00145987769926,44.64698885560405],[-1.001799991835984,44.64703062615125],[-1.003318777323573,44.64695578888973],[-1.003545667411586,44.64700345832456],[-1.004271083690902,44.648131005262556],[-1.004243820315535,44.648315884476396],[-1.004450576863316,44.648435494637944],[-1.00525021292388,44.6493809634247],[-1.008975653126104,44.651690574463764],[-1.009797689290978,44.65229265887717],[-1.010160099813931,44.652682451021235],[-1.010819333913209,44.653108346036255],[-1.012455208935486,44.65354025329277],[-1.013137290748664,44.65387876837935],[-1.013047653037141,44.654233582851674],[-1.012220632716587,44.65457279909014],[-1.011780379147182,44.655058427041006],[-1.011644806855197,44.655459979121],[-1.011621877196408,44.65614860653645],[-1.011568074041363,44.656244308513834],[-1.011225611298524,44.65640096657992],[-1.011280481860361,44.65646207581279],[-1.011610988542975,44.65631486586093],[-1.011722011530474,44.65645506613253],[-1.010827417794839,44.656839090707756],[-1.010910043881647,44.656935250416566],[-1.011856307107492,44.65656737856483],[-1.012617036411364,44.65696344014274],[-1.013095734122951,44.65747790914594],[-1.014033997151591,44.65983265075185],[-1.015200093107637,44.66095315658929],[-1.017748694848339,44.66286175387385],[-1.017645785859591,44.662977272744236],[-1.017445748116126,44.66295299222394],[-1.017256295215216,44.66307706448118],[-1.017151508769558,44.663006954209145],[-1.017121504205482,44.663188332763575],[-1.017270955299415,44.66340645921971],[-1.017530836299933,44.66352592096554],[-1.017623288618622,44.663458558651506],[-1.017686420186989,44.6635644372198],[-1.017928186546269,44.663607032457605],[-1.017992439059722,44.66379940855711],[-1.018154905571344,44.6637042606336],[-1.018545080075679,44.66393256589071],[-1.018706877200338,44.66395192463478],[-1.018723052376538,44.66437321165783],[-1.018854919044521,44.6647695598459],[-1.018962294795174,44.66484047605774],[-1.018905205936833,44.6649254842067],[-1.019260597956841,44.66509104947625],[-1.019142533870134,44.66541895990137],[-1.019222072722796,44.665542270220115],[-1.019129286047686,44.66583500681163],[-1.018895731024486,44.66596068512736],[-1.018882568290276,44.66605942093128],[-1.018473319370275,44.666095030752686],[-1.018240153100635,44.66627928725659],[-1.018226167481999,44.666472704359954],[-1.018417371004894,44.666620802772286],[-1.018366217549522,44.66671821506553],[-1.018236680302059,44.6667085002998],[-1.018234487610391,44.66676627234724],[-1.018111232532775,44.66679148536925],[-1.017857360362631,44.666508644737064],[-1.017923266818067,44.666759554871085],[-1.017761613555228,44.66676002118861],[-1.017625513949292,44.66688846492408],[-1.017928709961718,44.667119032750215],[-1.017766734858488,44.66730971517935],[-1.017793712455348,44.6675638431124],[-1.017706666530588,44.667724759031664],[-1.017794581739842,44.667894641122786],[-1.017624273899162,44.668269520522514],[-1.018024182802286,44.66820901344351],[-1.013203902223763,44.67026630384838],[-1.013152397083708,44.67044756022139],[-1.01279352398772,44.67002068288687],[-1.012310541368019,44.66654062436615],[-1.011643387923654,44.666750531851385],[-1.01069548252565,44.6668849840019],[-1.009963782899093,44.66718195781434],[-1.007879213947436,44.6677452258587],[-1.007704782830051,44.66781464983077],[-1.007246335428188,44.668383848759596],[-1.006985624452076,44.66848344188979],[-1.006444123759546,44.66847151620735],[-1.005769616236377,44.66873844380366],[-1.005307977446728,44.668765986361166],[-1.004873315263428,44.66856899367374],[-1.00457709683167,44.6685779207411],[-1.002083231191315,44.66889358316751],[-1.000831168578339,44.66890825062364],[-1.000011903353108,44.668969444953674],[-0.999564636720155,44.669074868060136],[-0.997564975368153,44.66886143576139],[-0.99646050634722,44.668926605689606],[-0.996069308833194,44.66896778891231],[-0.994529440188351,44.66960846389456],[-0.992896938250698,44.670119050252474],[-0.992264619481571,44.67023383034813],[-0.990443623337381,44.67025990702487],[-0.989972857321499,44.670479718454814],[-0.989351720291942,44.670645459402294],[-0.989514272838084,44.671049743602566],[-0.989440888959837,44.67138682125934],[-0.988994765564801,44.67147322909911],[-0.98850174889846,44.67170014656262],[-0.988364119527192,44.67182590260273],[-0.988249475990172,44.672347457395915],[-0.988083109518717,44.672549068101766],[-0.987740064019219,44.672735416617726],[-0.986965334711527,44.67296257106893],[-0.985941468324054,44.67300759915372],[-0.98536417859668,44.67322221560408],[-0.984243661768614,44.67327612001332],[-0.983747648766061,44.67322908988338],[-0.983362782486154,44.67355665189159],[-0.983133062318405,44.67364876016415],[-0.982180457143875,44.673719129910445],[-0.981603614480175,44.67397607685891],[-0.980189207104588,44.67421539835768],[-0.979162345827959,44.67466520945658],[-0.979196211287876,44.67471537182916],[-0.977855603315212,44.6751413053453],[-0.974000592516244,44.67670777396261],[-0.952566460654289,44.68631525090742],[-0.951803991255868,44.686415512835765],[-0.94675295076113,44.68759644693762],[-0.94642820825509,44.68788476769461],[-0.939685539571102,44.68936278860051],[-0.939591947892505,44.68937964346231],[-0.939585924161149,44.689095013957704],[-0.923007523355889,44.692631858570905],[-0.906702604736949,44.6997169812592],[-0.893786086656841,44.68785951859275],[-0.894217023471953,44.68716650911667]]],[[[-1.030937005340193,44.652474734378146],[-1.030672124831962,44.652655669072125],[-1.030758639838759,44.652805759718916],[-1.030501205146714,44.65291430677645],[-1.030465895710808,44.653303215920694],[-1.030331844285257,44.65337120533375],[-1.028638995499199,44.65601105402807],[-1.02898264822715,44.657107306420386],[-1.029157714644521,44.658512589974094],[-1.02910650804826,44.658767762962185],[-1.029042112703616,44.65883862010397],[-1.02897814255558,44.65835056489929],[-1.028487921689615,44.65836572766852],[-1.027906968062651,44.65930186649271],[-1.02746996031652,44.659743272200075],[-1.027488629251674,44.65984535684402],[-1.027297098350663,44.65990461893771],[-1.025424937989163,44.661701783350345],[-1.026206365359404,44.66231425303223],[-1.028501208960427,44.66137607509118],[-1.028219333675666,44.66151435259627],[-1.027996864282305,44.66174151084719],[-1.027080749446905,44.66203630812986],[-1.026974350668818,44.662120412896314],[-1.026962094226469,44.66235523547806],[-1.026849883826727,44.66242873445635],[-1.026491958674057,44.66247512567687],[-1.02624144856722,44.66239861262158],[-1.025749315836274,44.662511187759904],[-1.025688188950673,44.662451214060056],[-1.02577721015884,44.66237134924921],[-1.025634941093441,44.66221877726441],[-1.025557477911349,44.66249563768455],[-1.025071527470298,44.662129317057776],[-1.025035237694563,44.66208105892213],[-1.025148015346163,44.66205081057889],[-1.025245688270812,44.66216263906723],[-1.025320851874213,44.66208327923601],[-1.025465240572511,44.66217718042051],[-1.025602481229847,44.66211809597072],[-1.025770600452574,44.6621552429588],[-1.02537220743869,44.66191824753579],[-1.025050588174105,44.661536027053906],[-1.024609987146759,44.66129155162557],[-1.024673349424461,44.66124146814644],[-1.024554173255964,44.66111149183188],[-1.021619766844143,44.658719487974814],[-1.02176014851704,44.658934332395354],[-1.021551849218461,44.658847259422174],[-1.021518737716191,44.65863121650937],[-1.021261925442595,44.65839536722184],[-1.021110092727943,44.65837384743518],[-1.020807484252935,44.65813335309955],[-1.018618983930115,44.65691576660509],[-1.016111735373604,44.65519410032039],[-1.016138862003596,44.65507863208028],[-1.015895468885144,44.65476476084537],[-1.015709776903251,44.65460474151578],[-1.015456499174666,44.654541828183206],[-1.015379145923139,44.65418316206268],[-1.015306555206548,44.65415695317982],[-1.015224656816305,44.65414189961812],[-1.015123565999467,44.65414106474361],[-1.015139350806703,44.65391963931401],[-1.01490351607182,44.65380020214831],[-1.014835183081915,44.65355028206673],[-1.014411827514913,44.65320959198589],[-1.014232405993773,44.6531728395936],[-1.014076801808202,44.65293870891502],[-1.014178526450625,44.65284216657206],[-1.014004292662768,44.6527718723288],[-1.013592723374888,44.65217113818537],[-1.013385529046238,44.65208130699628],[-1.013221154997286,44.65177718197403],[-1.013112446916271,44.65177572057005],[-1.013103584774034,44.65168680030005],[-1.012788709190959,44.65155670762473],[-1.011822122202413,44.65085802988274],[-1.011146469914551,44.65027228263334],[-1.011141197627856,44.650180527792735],[-1.011233528518595,44.65018258540824],[-1.01141430506209,44.65014988265771],[-1.012393561690921,44.64976818531749],[-1.013117938519849,44.649602162576095],[-1.013922299626832,44.65041669533891],[-1.014475875272831,44.65070668299857],[-1.016576754589173,44.650293216156214],[-1.017401707370244,44.65022717517323],[-1.017443786382521,44.65003814675392],[-1.01726747634578,44.64986787389603],[-1.017345561851869,44.649811850813116],[-1.017411762919381,44.64981936023763],[-1.017473974315597,44.65005417671793],[-1.017449779966753,44.65019297602104],[-1.017881504182226,44.65019080357453],[-1.019096470404243,44.65001591966665],[-1.019164984212837,44.64991426998636],[-1.01932074067226,44.649920324378876],[-1.019659443444956,44.64972952149918],[-1.019882868982607,44.649710577966644],[-1.019911653842556,44.64961848574264],[-1.020035303736238,44.649634721278744],[-1.020256842942817,44.649430149305864],[-1.020330416766687,44.64948786933308],[-1.020630238214468,44.649424679036784],[-1.020901007699036,44.64976819225989],[-1.0216023881203,44.65127872544874],[-1.022088247174421,44.651663087702204],[-1.02255929834552,44.65194612428413],[-1.022886359125625,44.652034280279125],[-1.022917780689682,44.65212057633662],[-1.023669752033538,44.65241141202718],[-1.024001201421673,44.65243720567646],[-1.024109243236203,44.652411637450086],[-1.024129242702916,44.65239107757644],[-1.024153392875131,44.65241093144239],[-1.024480434511045,44.65239271350309],[-1.024793633652447,44.65233984243361],[-1.024851677834838,44.65223316147192],[-1.0250624898906,44.65228497956143],[-1.025133553316783,44.652254446873535],[-1.025172034690141,44.652298117543936],[-1.025298828058495,44.652305218579635],[-1.026130713288538,44.65214150486898],[-1.026206246395911,44.65197919802928],[-1.026432505199351,44.65191146038043],[-1.026481136257676,44.65174382327476],[-1.026526094916956,44.65173677672818],[-1.026546414687354,44.65172071192627],[-1.026554793660378,44.65167894030507],[-1.026621395834497,44.65165668212568],[-1.026605290629696,44.65162571837808],[-1.026810173062213,44.65154163126775],[-1.026791020009789,44.65145038192798],[-1.026914301947869,44.65142605848477],[-1.026936857189688,44.65138827752864],[-1.026978229710901,44.651384065776845],[-1.027056912595764,44.65135415560783],[-1.027028427988456,44.65125603476857],[-1.027279099155672,44.651088247050886],[-1.027269265136336,44.65103902602941],[-1.027360376374132,44.651023987284155],[-1.027592731051363,44.65086497922374],[-1.029020541053214,44.649499535184844],[-1.029090252385848,44.64932662102233],[-1.029234066781059,44.64930695493475],[-1.02925789977957,44.64919881427982],[-1.029005981969788,44.649154813162234],[-1.029077917255824,44.64899533958921],[-1.029196300095294,44.64902618003599],[-1.029221510848541,44.6489549483439],[-1.029333091840982,44.64894366878381],[-1.02947912611055,44.649060940811744],[-1.029828013929506,44.64880122435995],[-1.032157739769023,44.65012250527355],[-1.032741582784125,44.65175084940091],[-1.032524518851295,44.65189398625158],[-1.030937005340193,44.652474734378146]]],[[[-1.026242504132636,44.661777477846485],[-1.027811206845384,44.66078823500184],[-1.027704462988386,44.660549635307],[-1.027622056419507,44.66066892444985],[-1.027523098786463,44.66062745766357],[-1.027149548458657,44.66087904898481],[-1.027030492809225,44.66105105522983],[-1.026097524261434,44.66171064258685],[-1.026363562253002,44.66189836956079],[-1.027964234768813,44.6611441391065],[-1.027917846883028,44.66125490444731],[-1.026312233941038,44.66199308804011],[-1.025795996236974,44.66159181596916],[-1.025839394088024,44.661545163198575],[-1.026030316482653,44.66158328215242],[-1.027588999990892,44.660506967088736],[-1.027705900477634,44.66049910193341],[-1.027609296201966,44.66017269247517],[-1.027657397580446,44.66015651671656],[-1.027677504499304,44.66020806797728],[-1.028156374725956,44.66111099572192],[-1.028075223573298,44.661141897697775],[-1.027902701480923,44.66093724563396],[-1.026242504132636,44.661777477846485]]],[[[-1.028627819453293,44.66078011165162],[-1.028029266339064,44.660093387061494],[-1.02800095746278,44.660033120267336],[-1.028110169773056,44.660023731907536],[-1.028846037376085,44.659310913201956],[-1.028391849891269,44.65997109903301],[-1.028627819453293,44.66078011165162]]],[[[-1.025888575435542,44.661402746541974],[-1.026208067035032,44.66113690269927],[-1.026319929918439,44.66112922254274],[-1.027118401744145,44.66051419657877],[-1.02718199489346,44.660538021730396],[-1.026042475350463,44.661453031132844],[-1.027574174241442,44.660405643840335],[-1.026062324101085,44.66150098629515],[-1.025883537367287,44.66149127169612],[-1.025888575435542,44.661402746541974]]]]}}]}