{"type":"FeatureCollection","name":"COM_19104","crs":{"type":"name","properties":{"name":"urn:ogc:def:crs:OGC:1.3:CRS84"}},"features":[{"type":"Feature","properties":{"fid":4016,"ID":"COMMUNE_0000000009753150","NOM":"Lamongerie","NOM_M":"LAMONGERIE","INSEE_COM":"19104","STATUT":"Commune simple","POPULATION":124,"INSEE_CAN":"18","INSEE_ARR":"2","INSEE_DEP":"19","INSEE_REG":"75","SIREN_EPCI":"241927243"},"geometry":{"type":"MultiPolygon","coordinates":[[[[1.546816560146878,45.554466113791314],[1.547197752714535,45.55469349672116],[1.547699285420307,45.555416876851154],[1.548332314099247,45.55591679688908],[1.549415067030925,45.556328853783384],[1.549605074315114,45.55646549921974],[1.550116615884453,45.55651352847605],[1.550816027942789,45.556878296160015],[1.551009462983703,45.55683485838708],[1.551149603415661,45.555936040323736],[1.551093311274695,45.55544087162657],[1.550715310208095,45.55494335589585],[1.551426089683422,45.55079793959555],[1.551997288371135,45.55067020760144],[1.55383710096917,45.54991936312696],[1.554055705435313,45.54969611969993],[1.554954637876389,45.54948522906719],[1.556622729151669,45.549271604817605],[1.557198367500644,45.549366357621395],[1.55885110468796,45.55018731854913],[1.561718056098656,45.55119672120724],[1.563489286435823,45.55269369476333],[1.56405511149626,45.553416920426834],[1.564500442475198,45.55364506333987],[1.566036029896394,45.553700692558294],[1.56941713448044,45.5546687215512],[1.569670472381173,45.554836759737874],[1.570232913638602,45.55564546907617],[1.575861021027089,45.55633385355298],[1.576181794719512,45.55627307326474],[1.577380865468794,45.55575689244986],[1.579181081366535,45.55554370373146],[1.580807557187186,45.5551058397289],[1.581769738933397,45.55497748963479],[1.582602852078644,45.55498349694216],[1.583494713047962,45.55534958512351],[1.584902306595165,45.55610312242189],[1.586208879165119,45.55584217619361],[1.587147077172834,45.55529649254871],[1.58740948746905,45.55500979242936],[1.587633685107272,45.55456230167613],[1.588228419229292,45.55416269553088],[1.588923019501045,45.553364466529544],[1.589287655460764,45.55314028777344],[1.591572701018527,45.55235569244909],[1.59186136036257,45.55184145563884],[1.591886842837416,45.55154457169634],[1.591195904940799,45.551393614617965],[1.591837008612061,45.55098286356891],[1.592842949343657,45.550641522389455],[1.593068268916557,45.5505011457312],[1.594331543684958,45.55032332250285],[1.595636715352701,45.54975604250665],[1.596089382698482,45.54939424785469],[1.596797226805213,45.54847095282844],[1.597312956608244,45.54825043684094],[1.598143236259022,45.54770511891029],[1.599630553682352,45.54738233130814],[1.600583112901245,45.54691687306544],[1.601152672681579,45.54679697834486],[1.601481548927058,45.5468181836452],[1.601942800108297,45.546977928269776],[1.602238056521354,45.54695998667263],[1.60304786768596,45.54625767214244],[1.60359422572717,45.54609154549836],[1.604064014975,45.54581008721704],[1.605230051423935,45.54541568889822],[1.60742802729708,45.545167363236686],[1.609439438515123,45.54458886353237],[1.609600445994944,45.544454863629305],[1.609598333156161,45.54397661276218],[1.610251814872264,45.54342091452797],[1.610411340961443,45.54319233104229],[1.61041621180007,45.54299785925159],[1.610350018544916,45.542928594150766],[1.609033995015948,45.54276551041649],[1.60898288992665,45.54245236556085],[1.609132844121401,45.54199220825446],[1.609784619823321,45.54145270298178],[1.60984161286014,45.54107064840671],[1.610337494111983,45.540204991283844],[1.610570429462758,45.53898934564224],[1.610950402571632,45.5382987725935],[1.611522506988287,45.53812392103071],[1.611956699305288,45.53782668104459],[1.612674782575593,45.53755365941954],[1.612673896124089,45.53723032941745],[1.613256072704873,45.53716456744287],[1.613189368346879,45.537013342197874],[1.613544878326257,45.53668450431775],[1.613596368369956,45.53677790255502],[1.613860279065785,45.53683249374163],[1.614368796885845,45.536739699568855],[1.61492464658517,45.53634217999051],[1.61486913151035,45.53615326814537],[1.615016301202821,45.53595604780267],[1.615057700050759,45.535683673463275],[1.61453575509392,45.53533950936196],[1.614313901964002,45.535294444544064],[1.614518945009646,45.53508893259184],[1.614608915106508,45.53461632149877],[1.614446804953786,45.53433423272163],[1.613540292179104,45.53384212325594],[1.613405651565228,45.53364052617659],[1.61291454685675,45.53334536783811],[1.612607585348326,45.53291198648621],[1.612414847043644,45.53288168711146],[1.612131821129013,45.532567480537026],[1.61170300710633,45.53229289969818],[1.611771298250098,45.53202175946995],[1.611491525281163,45.53193634630807],[1.611402372337193,45.53155608759718],[1.611043551311756,45.53130128210476],[1.610100834043773,45.53016025727017],[1.60945816286882,45.52998388966718],[1.609228441217555,45.529998157383574],[1.608623654811257,45.53050851896717],[1.607541786668213,45.53052393332877],[1.607111627820476,45.53066179751731],[1.606770080568036,45.530638649201876],[1.606692912773459,45.53029275823594],[1.60627090193786,45.53005516560765],[1.606240673346791,45.529779203694886],[1.60595914987293,45.52966223344051],[1.605533660681328,45.52930841601052],[1.604979988499676,45.52834509284518],[1.604304694375225,45.528091738269154],[1.604238934121208,45.52800626376189],[1.604108317269236,45.527697532395685],[1.604711503485081,45.527149349635344],[1.604793717854814,45.52683515711211],[1.604676990524295,45.52663647346987],[1.604277010887171,45.526543244383596],[1.602882002863755,45.52658173988285],[1.602050550369174,45.526475930465125],[1.600912619717456,45.52597363138952],[1.599983994159027,45.52535234699179],[1.599735088507161,45.52490884535292],[1.599584307535296,45.52392800097575],[1.599061745866346,45.52315956726397],[1.599374039395349,45.52251232003659],[1.599319040727982,45.522000987628665],[1.59863445023552,45.52115578035241],[1.598448846197661,45.52018530737255],[1.59825203047894,45.51991266781344],[1.597085468795181,45.520448375875844],[1.595670291761426,45.52017581696036],[1.595253711438428,45.52043718853411],[1.594807793944061,45.520541485104644],[1.593932549143036,45.52095471965171],[1.593046808962215,45.521225519336305],[1.591799162589764,45.52182320070238],[1.59139221729935,45.52170371998702],[1.590845649990061,45.52178512402715],[1.589960315432634,45.522290964865206],[1.58961914229129,45.52280993754668],[1.589102059202754,45.52324294272582],[1.587964872565153,45.52362492231892],[1.587179781680012,45.52401582301679],[1.584553958055535,45.52423943891411],[1.584754103794445,45.52478142894698],[1.584764003503383,45.52529760577823],[1.584267160326085,45.527998592641985],[1.584503611597903,45.52927774383743],[1.584670156314515,45.53138908287009],[1.584816903791365,45.531815121405764],[1.58465117006114,45.53278659857585],[1.583047114551235,45.53247367772351],[1.582286870751971,45.53218669635465],[1.581745157195993,45.53207358591327],[1.577683242854087,45.53266617208333],[1.576307345163219,45.53280184838671],[1.575809946346087,45.53295945599406],[1.575733823310828,45.532580231696684],[1.571909536456036,45.53399338408095],[1.571262098434076,45.53420400218397],[1.57099495549329,45.5341276543211],[1.567633240244156,45.535583472578544],[1.567109228387915,45.535529057508484],[1.566483214227711,45.53595066676518],[1.565450215988998,45.53615272914176],[1.565008519289127,45.53633441713163],[1.563530600933989,45.53604984709355],[1.560919535563496,45.535134723658246],[1.559440935653016,45.53473030789573],[1.559464748638002,45.533862414873596],[1.559344240917597,45.53332139777422],[1.558764512417891,45.53358775050774],[1.558124012930402,45.53362816512774],[1.556782227939229,45.53348394788211],[1.555113508140941,45.53319861557933],[1.554017580553329,45.53355376957403],[1.553078547214698,45.533493945960984],[1.552617735389302,45.53376900392578],[1.551349967393366,45.533587849127436],[1.550349430871106,45.53377307951742],[1.550070383262334,45.533466869128375],[1.549475868514854,45.533806834755055],[1.549598136014193,45.534031767824246],[1.549499351917781,45.53447720131538],[1.549386484754202,45.534627949239606],[1.549205865797397,45.5346742505],[1.549195221998932,45.53517936250882],[1.548949605845745,45.5352608489135],[1.548763352172709,45.53562049354967],[1.548946105889729,45.53603173704687],[1.548921352274841,45.53634123168023],[1.549393646020669,45.536559877959355],[1.549556673081338,45.53699067940827],[1.549855713216567,45.53741513068911],[1.549824346641151,45.537732645765836],[1.549068749984326,45.53834972392903],[1.548648516721767,45.538491998321305],[1.548486243857447,45.53876729397614],[1.547903469772649,45.539194764534564],[1.547520451585994,45.53933481395432],[1.546428105704609,45.53939994174712],[1.546354451812544,45.54010777993767],[1.546118795664882,45.54049289974337],[1.546114129575576,45.54086659840462],[1.546326802884582,45.541456557203034],[1.545836964953585,45.54219953804566],[1.546290605213988,45.54386525905857],[1.546201648042344,45.54447202967846],[1.546717829235453,45.545463990339734],[1.546589869240509,45.54594507007397],[1.546329083865798,45.54616325026823],[1.546395562335984,45.54626768212293],[1.545900329174306,45.54657919508391],[1.545768811413443,45.546804450550695],[1.545811295376185,45.54704186471715],[1.546264765942074,45.54763944288183],[1.546176430409905,45.54832007312318],[1.5449634577979,45.54950760873343],[1.544498965501228,45.54962317779558],[1.543281398827782,45.54961640695237],[1.542868407780863,45.54986953207581],[1.542766658357348,45.550180729834985],[1.542842234107578,45.55067074972904],[1.543497235641798,45.55189238424946],[1.543437395959438,45.55221853588223],[1.54395579422181,45.5524432052743],[1.544555496021691,45.55284274601821],[1.544859684083359,45.55287730648926],[1.545139154770334,45.55317002572003],[1.545755565780626,45.55347070737732],[1.545851863654373,45.55361155043746],[1.5462247220048,45.55371634385681],[1.546318896515942,45.554085017296],[1.546442839924715,45.55419829803273],[1.547024573380856,45.55420852260801],[1.547094058364752,45.55434541539148],[1.546816560146878,45.554466113791314]]]]}}]}