{"type":"FeatureCollection","name":"COM_16191","crs":{"type":"name","properties":{"name":"urn:ogc:def:crs:OGC:1.3:CRS84"}},"features":[{"type":"Feature","properties":{"fid":3990,"ID":"COMMUNE_0000000009751354","NOM":"Lonnes","NOM_M":"LONNES","INSEE_COM":"16191","STATUT":"Commune simple","POPULATION":188,"INSEE_CAN":"05","INSEE_ARR":"3","INSEE_DEP":"16","INSEE_REG":"75","SIREN_EPCI":"200072023"},"geometry":{"type":"MultiPolygon","coordinates":[[[[0.201148566054533,45.95390828679637],[0.199266863316419,45.93955110306586],[0.198640045968472,45.936259330144395],[0.198820372941028,45.93621784151212],[0.198069013146411,45.930044994046085],[0.197441430632003,45.9252745512829],[0.196395069442017,45.92528466086162],[0.195011438632241,45.925071944185845],[0.192663856846001,45.92487403323389],[0.190992392046407,45.92506500653739],[0.19031408055777,45.92494723863739],[0.189230461745455,45.92586462833005],[0.189441775569875,45.926860148378964],[0.189200623595549,45.92715781409402],[0.187606578596956,45.92724704096606],[0.187127393301884,45.92795777850749],[0.18711090776309,45.928406999673186],[0.187255877745525,45.92865299118422],[0.186468603858982,45.929479510405585],[0.185850337223431,45.9291712835904],[0.185405084241484,45.92904036314955],[0.179450432621094,45.92784228674401],[0.178202472928947,45.92787964033846],[0.175025962498639,45.92755345418746],[0.172959329527234,45.92678636821322],[0.171646659898294,45.926676058103965],[0.170766250868453,45.92669728984352],[0.169886616950043,45.926753675931536],[0.168584797548128,45.92695987789341],[0.166648474088994,45.92707538300288],[0.166249022059315,45.92931805803361],[0.166440786454061,45.93061049535085],[0.166626694044428,45.931088215606685],[0.166141521133434,45.931357196122605],[0.164770918515841,45.93166796069425],[0.164640140056788,45.93109790730257],[0.162265798196684,45.931140186557485],[0.161397563978741,45.93142476660303],[0.160667472748382,45.93191014339723],[0.159566178907796,45.93283222756673],[0.157084010684731,45.9340611136643],[0.157165041447827,45.934467733557426],[0.157073169578526,45.934521291405666],[0.15704140104928,45.93543688802615],[0.156587674295281,45.93544530771056],[0.156336637526153,45.935530006128495],[0.155527247599661,45.93624853999634],[0.155142753117842,45.93644161362873],[0.154413007923124,45.93729279942496],[0.153906373772423,45.93759993686516],[0.154909729010249,45.93825232566497],[0.155042558014768,45.938206106924554],[0.155859179024018,45.93897363377905],[0.15587076543262,45.93942446367932],[0.155147332042808,45.939627938868874],[0.153879618797366,45.94019166524425],[0.156284022701453,45.94117573331587],[0.158067396312208,45.94175668679884],[0.158353033145574,45.94172781862067],[0.159540752756394,45.94118726412188],[0.159972868958487,45.94107286308609],[0.162239424346282,45.94157667197026],[0.163789444904415,45.942150778879316],[0.165299908047795,45.94213907602042],[0.165959163496056,45.9431071255371],[0.166260869651515,45.943293095222415],[0.167569406095586,45.94379261797357],[0.170165863726475,45.94572190738698],[0.171524988888251,45.946219043058775],[0.173107308719352,45.94707405691869],[0.175721324517881,45.948290002134186],[0.180385968615997,45.95022739658791],[0.181325402755972,45.94981738917088],[0.186498685234545,45.953081845859096],[0.186680550563133,45.95303680896623],[0.18990295955355,45.95327816850815],[0.191088997163476,45.9534526865992],[0.194411180842601,45.95376487402086],[0.197062531940001,45.95372965959298],[0.201148566054533,45.95390828679637]]]]}}]}