{"type":"FeatureCollection","name":"COM_33421","crs":{"type":"name","properties":{"name":"urn:ogc:def:crs:OGC:1.3:CRS84"}},"features":[{"type":"Feature","properties":{"fid":4178,"ID":"COMMUNE_0000000009755855","NOM":"Saint-Jean-de-Blaignac","NOM_M":"SAINT-JEAN-DE-BLAIGNAC","INSEE_COM":"33421","STATUT":"Commune simple","POPULATION":450,"INSEE_CAN":"10","INSEE_ARR":"5","INSEE_DEP":"33","INSEE_REG":"75","SIREN_EPCI":"243301454"},"geometry":{"type":"MultiPolygon","coordinates":[[[[-0.144649084392586,44.81904068053416],[-0.144030241436271,44.81843380919735],[-0.142986617240342,44.81686405331143],[-0.142372687852099,44.81618585312986],[-0.14163506406843,44.81551385810635],[-0.140882756225691,44.814986440593806],[-0.139657334448753,44.814441781457084],[-0.137830589717367,44.81394116015385],[-0.135809103916338,44.81369290094925],[-0.13495970135474,44.813715118992235],[-0.134025068398569,44.81397941443642],[-0.133353390229339,44.81428312462683],[-0.132567840413201,44.81486035756385],[-0.13224295860112,44.815254276729],[-0.131864086428839,44.8158605614732],[-0.130227647910245,44.81975147685678],[-0.129691639736463,44.82056041651698],[-0.128800610804358,44.82131449671196],[-0.128152163056914,44.82174185990374],[-0.127299382088258,44.82218309110303],[-0.125592253097562,44.82281058509619],[-0.124067545824373,44.82312205713521],[-0.123295440659384,44.82317083712388],[-0.12231578279193,44.82312994657251],[-0.117597484054516,44.82267792807205],[-0.114480776337993,44.82215731383876],[-0.111450664678928,44.821850430003984],[-0.111865031794908,44.82030345608798],[-0.1124594124164,44.819332588933726],[-0.112758085373449,44.81917103083543],[-0.113248338199,44.81748676755106],[-0.113090014019952,44.817462379942484],[-0.113429575644971,44.81664552808431],[-0.113177761111237,44.81651023671641],[-0.113971636838053,44.81365872857829],[-0.11401686628384,44.81308170419123],[-0.114689994300237,44.81312226409765],[-0.114667536283436,44.812397570900025],[-0.114787704734829,44.81184817472318],[-0.114724004225452,44.811315657424245],[-0.115453483336275,44.81114018536244],[-0.115366863073841,44.81083356831023],[-0.115148909368594,44.8107378768495],[-0.11521810442139,44.80931501912309],[-0.115335284578225,44.80930541926585],[-0.115281475636144,44.8086545907374],[-0.116566425354794,44.80822563029528],[-0.116624475112744,44.80756084538538],[-0.116865588791136,44.80670530315105],[-0.117490337993636,44.80541909619371],[-0.118313822248253,44.8055022563816],[-0.12207505192543,44.805474782954924],[-0.122061192357046,44.80442818258894],[-0.121485959675437,44.8023891457677],[-0.121482130518524,44.801887383462734],[-0.122130180505817,44.80156999316744],[-0.123071799835203,44.80145697001852],[-0.124381896201833,44.80164350614072],[-0.125130194912628,44.80187740259646],[-0.125299806431849,44.801172524257666],[-0.126060951894767,44.799999551785035],[-0.129138982484973,44.79755021402646],[-0.129435104161851,44.7974139083411],[-0.129424705264631,44.797181737307234],[-0.130170840135978,44.79635515192659],[-0.131787530797967,44.79568687505304],[-0.133642120859613,44.79449736165213],[-0.13407792062585,44.79505088458012],[-0.134512466904622,44.79521880185806],[-0.134819833724021,44.79508036111734],[-0.135006416749239,44.795203930786805],[-0.135373622156095,44.7951854346889],[-0.13544474015049,44.795416789089785],[-0.135973590869753,44.79573250480498],[-0.136319124824099,44.79639129116012],[-0.136261508882962,44.79653798702822],[-0.136415066658626,44.79674988884634],[-0.13641683458211,44.79703095978353],[-0.1365844447014,44.79738122228298],[-0.138351256484645,44.79788354269567],[-0.139828438950876,44.79811652305681],[-0.140117027304209,44.7982534138956],[-0.140708557892467,44.798716003303994],[-0.140583299068858,44.798965533877166],[-0.141154505206571,44.799313365137586],[-0.141500734087331,44.79939455735722],[-0.142742913999595,44.80019910787088],[-0.143101938687581,44.800689902500785],[-0.143384553968641,44.80074225781265],[-0.143445837004025,44.80084233670494],[-0.143762352177436,44.80095770311462],[-0.143700843888299,44.80117028931489],[-0.143770978083515,44.80124759121632],[-0.145162619676407,44.80139733165744],[-0.145555733934226,44.80166009147062],[-0.145719196011489,44.80161851043677],[-0.145887889473853,44.8014443286283],[-0.14646060565767,44.80159206192695],[-0.147296403130506,44.80200803995592],[-0.148197183813862,44.80227349568731],[-0.148238511841458,44.802378644175526],[-0.148697196026745,44.80268188000913],[-0.148671831467182,44.802974536172286],[-0.149276100962561,44.8031880361122],[-0.149241799186044,44.803434092533735],[-0.149795965693637,44.80381480402603],[-0.150232365328987,44.803810512704075],[-0.150939797980355,44.8041481186468],[-0.151316042231641,44.80424464712326],[-0.151518320152185,44.804263224731336],[-0.15173086874596,44.80417158334155],[-0.15176800009368,44.80438227156841],[-0.151890918805687,44.80445266187215],[-0.152013187514344,44.80444377917638],[-0.152241007717457,44.80426340082996],[-0.152421036793468,44.80440424962889],[-0.153078173772419,44.80434140960702],[-0.153378044730397,44.8045202959588],[-0.15381945596953,44.80446989512368],[-0.154218842027724,44.80488832762058],[-0.15428443772176,44.80515497091027],[-0.154209319167292,44.805327404726725],[-0.153496436022134,44.805975710359455],[-0.153533385552757,44.80683695399313],[-0.153345031944795,44.80708919657949],[-0.153106886442716,44.80735637060405],[-0.152041040127879,44.80798587127256],[-0.15129159738114,44.808682956161334],[-0.151247752164161,44.80939061715423],[-0.151011754251944,44.80971899595237],[-0.150049058297119,44.80954812487581],[-0.149821072343692,44.80961316998688],[-0.149774215148761,44.81040291018347],[-0.150077439834576,44.81061865376588],[-0.150144249263951,44.81077173422375],[-0.149907555090928,44.81090730788249],[-0.149799344289048,44.81116717838946],[-0.149354604383333,44.8114978794267],[-0.14887141259567,44.81202339404275],[-0.148798656453189,44.81246426639846],[-0.148182637058891,44.812743061242784],[-0.148037414640915,44.81297514754776],[-0.147797224322042,44.81307116995514],[-0.147514893983538,44.81334138756453],[-0.147259093150618,44.81336216465864],[-0.146791537230398,44.813037546414684],[-0.146615866204261,44.813042532196874],[-0.146466891305404,44.813298149755504],[-0.146059769424627,44.813668315936795],[-0.14602526575767,44.81406935596114],[-0.146122526020758,44.814359433662624],[-0.146807688387043,44.81488511823326],[-0.146962952692433,44.81510326814368],[-0.146992373618209,44.81540247911543],[-0.146796280488507,44.816489291676305],[-0.146348793431929,44.81686240636507],[-0.145984212374611,44.81697546967313],[-0.145448456960737,44.81728711113581],[-0.145273705948014,44.81767050469545],[-0.145444194806119,44.81861266071615],[-0.144649084392586,44.81904068053416]]]]}}]}