{"type":"FeatureCollection","name":"COM_16133","crs":{"type":"name","properties":{"name":"urn:ogc:def:crs:OGC:1.3:CRS84"}},"features":[{"type":"Feature","properties":{"fid":4105,"ID":"COMMUNE_0000000009753191","NOM":"Étriac","NOM_M":"ETRIAC","INSEE_COM":"16133","STATUT":"Commune simple","POPULATION":200,"INSEE_CAN":"09","INSEE_ARR":"2","INSEE_DEP":"16","INSEE_REG":"75","SIREN_EPCI":"200029734"},"geometry":{"type":"MultiPolygon","coordinates":[[[[0.018959787700601,45.543738468271876],[0.016890198456865,45.541708277496845],[0.015294259434914,45.54041062441838],[0.015599211544687,45.53908057233154],[0.015309400019267,45.53796089499224],[0.013992226239051,45.53632279790915],[0.013309294445967,45.535813529771644],[0.012722623506857,45.53454086944249],[0.012357484222671,45.534083301386154],[0.012184449198605,45.533629942146604],[0.011645197503822,45.53276313791284],[0.010755997373714,45.531942885077484],[0.008931037119855,45.53090576567222],[0.007983140057145,45.52967752186508],[0.005872509754599,45.52861471510728],[0.004899311361892,45.527857052971584],[0.004587710358825,45.527478381379325],[0.004024063535422,45.52625944944747],[0.003413858596508,45.5254519840174],[0.003256514732282,45.52539822320001],[0.002657847491851,45.52565888711674],[0.002126474538087,45.52569426266359],[0.000198306653414,45.52529222971877],[-0.000596886219606,45.52326058265945],[-0.000467258961162,45.523020744404654],[0.000690771706036,45.52192168133686],[0.000893161050913,45.52161620157343],[0.001456074364621,45.52035615338081],[0.001891067831334,45.51866375482928],[0.002615931304653,45.51746569906508],[0.003003411662904,45.51534670220037],[0.003291236797844,45.514360453070495],[0.003270784672585,45.51348131760662],[0.00278714265767,45.513608079024856],[0.001591422063275,45.51374826150151],[0.000593572886349,45.51349992960675],[-0.001157726365888,45.51320080999172],[-0.002309789249372,45.5128419966438],[-0.005347232926392,45.51269673958344],[-0.005669179857045,45.51265387731982],[-0.006096403497211,45.512448696504364],[-0.006812183145043,45.512507022886865],[-0.007393705567932,45.512713121143186],[-0.008144254861289,45.51284530081903],[-0.008682429640248,45.512724545616635],[-0.009060045550359,45.5127865139965],[-0.010736053219531,45.51249466798695],[-0.011023417616339,45.51294833567271],[-0.012335321932509,45.51274913472491],[-0.014470800285119,45.512233137490895],[-0.016843487869546,45.51129530480801],[-0.018785963392984,45.51079071777142],[-0.019076306358958,45.5105206813501],[-0.019095319374088,45.50981008211131],[-0.017709899144355,45.50931567153348],[-0.018642897291379,45.50877333839836],[-0.019827481831454,45.50790883443381],[-0.020040231873555,45.50764989385357],[-0.020262113095494,45.50711135778431],[-0.02155245437959,45.506448544314765],[-0.022375266078971,45.505908243089],[-0.022769056311921,45.505914760154674],[-0.024266900066299,45.506168180029654],[-0.024103001167042,45.50689980669992],[-0.024986992953073,45.5080699825124],[-0.02603029128033,45.50929353034132],[-0.026095660493339,45.509270140975104],[-0.026353530090388,45.50955695715555],[-0.027577648030847,45.51031153509853],[-0.028327642897694,45.511043748363846],[-0.029960032498023,45.51321828444767],[-0.03036240729289,45.5130524283928],[-0.033129617222286,45.51246584976239],[-0.033410583712077,45.51251773250651],[-0.03432874363797,45.512947990352544],[-0.034616504589556,45.51312404299565],[-0.03489816163993,45.51346967317279],[-0.035197630516377,45.515710807762815],[-0.032198655799427,45.515671098500995],[-0.03084855347844,45.515875167405305],[-0.02993840410827,45.51634309290673],[-0.030476208907373,45.517436068294316],[-0.030730504564159,45.518196067507645],[-0.031655421007261,45.51879558013865],[-0.032183599911319,45.51964099744249],[-0.032346716907549,45.52018628337797],[-0.032948487990147,45.520665652067905],[-0.033341439734988,45.522155424564986],[-0.033367179922893,45.522368297978595],[-0.032958549011438,45.523476017715666],[-0.032636935629158,45.52387759953828],[-0.032966188437938,45.5243661321071],[-0.032485604461627,45.524533206915905],[-0.032811840884139,45.52534172423938],[-0.033377126935046,45.52613747520917],[-0.033429896031471,45.5264460399943],[-0.033351796620138,45.5267293039586],[-0.033126928876696,45.52686063627376],[-0.032809329762542,45.52735943236915],[-0.03186831979414,45.52803996963601],[-0.032531287880464,45.528300517363505],[-0.032855654388683,45.52853506314199],[-0.029714728606681,45.5312845067714],[-0.02944493171861,45.531368382036746],[-0.028845815791225,45.53225413712747],[-0.026523549858481,45.531967110276135],[-0.024862788979192,45.53203078195087],[-0.022365538482732,45.5315906855225],[-0.022717328649804,45.532164248226735],[-0.022603787140976,45.532339420408924],[-0.02037864843421,45.532611056792575],[-0.018933208685255,45.53345102869911],[-0.017590069747673,45.53362680355102],[-0.016901926009616,45.53401115083252],[-0.016731574351361,45.534509545547664],[-0.016943635777803,45.53503731681796],[-0.017005420039253,45.536267499882555],[-0.016906391760515,45.53699286545532],[-0.01667505427638,45.53766681612652],[-0.016532668337803,45.53771299372825],[-0.015478648944299,45.53759531676236],[-0.014358812859352,45.53768215034594],[-0.013716734682502,45.53783004565911],[-0.012505728365251,45.53829237362535],[-0.010667145684619,45.53832004899894],[-0.00787728134664,45.53861107284126],[-0.007053182500775,45.53880795921003],[-0.005582675227402,45.53888426818482],[-0.005005123903808,45.538851062241946],[-0.003552284720996,45.53911160205509],[-0.003100753725913,45.5392507349871],[-0.002602915438619,45.53957673537622],[-0.001421506535809,45.541109583765326],[0.000312755250203,45.542949148344626],[9.5916430975e-05,45.54404182479762],[-0.000816640271176,45.54573859219473],[-0.000880523732605,45.5464451679755],[-0.001016586469493,45.54680288310274],[-0.001358236325464,45.54740471611908],[-0.001883382432194,45.54798452332908],[-0.002247410547793,45.548833565133705],[-0.002272794234845,45.550202594784515],[-0.001360327261043,45.550168405316356],[-8.8866907598e-05,45.54999421039878],[0.002089924203185,45.54957208105945],[0.004486975707516,45.548931351880285],[0.0047751579448,45.54884351771254],[0.005443034757964,45.54839814854621],[0.006167823649305,45.54806242698013],[0.007133096545144,45.54738167213677],[0.009035691785856,45.54706018727099],[0.01050098738533,45.54709468922029],[0.013141226209988,45.54614936789024],[0.017020176816455,45.54437001804557],[0.018743346052988,45.54375705364713],[0.018959787700601,45.543738468271876]]]]}}]}