{"type":"FeatureCollection","name":"COM_17346","crs":{"type":"name","properties":{"name":"urn:ogc:def:crs:OGC:1.3:CRS84"}},"features":[{"type":"Feature","properties":{"fid":4074,"ID":"COMMUNE_0000000009751397","NOM":"Saint-Hippolyte","NOM_M":"SAINT-HIPPOLYTE","INSEE_COM":"17346","STATUT":"Commune simple","POPULATION":1485,"INSEE_CAN":"25","INSEE_ARR":"2","INSEE_DEP":"17","INSEE_REG":"75","SIREN_EPCI":"200041762"},"geometry":{"type":"MultiPolygon","coordinates":[[[[-0.884144084848538,45.88113422977602],[-0.88785682932598,45.882124478639966],[-0.88886465152406,45.88246665239442],[-0.890937226854798,45.88390183837139],[-0.892129287855208,45.885151848880405],[-0.894632281227009,45.88712121229534],[-0.895767611242963,45.88753015918389],[-0.897085361530091,45.88774346914005],[-0.897222644378757,45.88782258157777],[-0.898247110936131,45.88885382023536],[-0.903182206053622,45.894803453775666],[-0.901076871528726,45.898185905626356],[-0.900077229396334,45.899934337823495],[-0.89984098040734,45.90064663443632],[-0.899421536578025,45.90043120275408],[-0.899002728485095,45.900772029641956],[-0.898765100008451,45.90126438271419],[-0.89837461024124,45.901695290645755],[-0.898852287293575,45.90229550006737],[-0.89894106333692,45.902582749697714],[-0.899402925874004,45.90284991394118],[-0.899364844626922,45.90302343193394],[-0.89917166186517,45.9031950886585],[-0.900502886824606,45.904194997429954],[-0.900457576627288,45.9042299201557],[-0.902037523425823,45.90534925447532],[-0.901875224870632,45.9054828841843],[-0.903199013754954,45.9057202731261],[-0.905506150513945,45.90598317512919],[-0.911343976062752,45.90738793556692],[-0.926956738440408,45.915006979811416],[-0.926900800999734,45.91525506195492],[-0.927125739290307,45.91536625943262],[-0.927151084520218,45.91548619428356],[-0.927006827318631,45.91570939507845],[-0.926244179285841,45.91639045455141],[-0.925267982885036,45.91983874137012],[-0.927442234038565,45.920764007905355],[-0.929389162298739,45.92196040663494],[-0.931359723763482,45.92303423561492],[-0.932779344470944,45.92304977503753],[-0.93345715731143,45.92324258007736],[-0.9353117381764,45.92352335463108],[-0.934755089831817,45.92524317020541],[-0.934777550748198,45.925394760891926],[-0.935355941000504,45.92576863367019],[-0.937441374406147,45.92649395064309],[-0.937392875355477,45.926321628313865],[-0.937728266450189,45.92391165508519],[-0.946196290973903,45.92462439560354],[-0.947960499583451,45.92465206124668],[-0.947870891805344,45.925078049925574],[-0.947979181019873,45.92682250852906],[-0.948510688569379,45.92800039643386],[-0.950449976767352,45.93070062809876],[-0.953123399189431,45.93356270662243],[-0.953911569789007,45.93464143960975],[-0.954254567872101,45.93542287354723],[-0.954368945798658,45.93568395087136],[-0.954092974735708,45.93799454336547],[-0.953512626134553,45.940313972740405],[-0.953109568240652,45.94274531281877],[-0.952961706070699,45.94451946430374],[-0.952668273310779,45.94579649939455],[-0.952189865806807,45.94645968139933],[-0.950762856563897,45.94753828869492],[-0.949664257330352,45.94809689413792],[-0.948636921445471,45.94847808596358],[-0.94659257848231,45.94900656050911],[-0.945322425526162,45.94917439536959],[-0.944253656560738,45.94917650841377],[-0.943439979006234,45.94907685117534],[-0.941970585576413,45.948610545502774],[-0.941588643154738,45.94843902546721],[-0.9413158496572,45.94813116321373],[-0.939922373380311,45.946215095020854],[-0.938080236240975,45.944222672279274],[-0.936517804366409,45.94294087707254],[-0.932845829671621,45.941163528803735],[-0.929854143377739,45.93986102046521],[-0.927018447764461,45.93875047303761],[-0.925735780956806,45.938341500469946],[-0.923520700667843,45.93777733527626],[-0.919876932539261,45.93716528896129],[-0.915163551751909,45.936211494277416],[-0.912794019164837,45.9360347516395],[-0.910543344639974,45.936275797496094],[-0.909948145298616,45.9364830101371],[-0.905734398227506,45.93936226775721],[-0.903362112434111,45.940733456218126],[-0.901176953263939,45.941701435067415],[-0.900494917775447,45.94188814880936],[-0.898685789311432,45.9421452747734],[-0.894888901758668,45.94212643991881],[-0.893924483924838,45.94213981552079],[-0.890655585409501,45.94183849304087],[-0.889979274418648,45.94174094541754],[-0.889336974632287,45.94153944332279],[-0.886737530071206,45.94048740538784],[-0.885182551830029,45.93971318364392],[-0.883619071066849,45.93879948866749],[-0.882523475451145,45.938362876383586],[-0.881333219525899,45.93775639943585],[-0.880124245706075,45.93703064284949],[-0.879321925959082,45.93635403518239],[-0.876906199928508,45.933794354094935],[-0.876046929258051,45.93291321727944],[-0.875409836895022,45.93243467835349],[-0.874712847913023,45.931986137678145],[-0.872293698929848,45.93076803539592],[-0.871763090633296,45.93031468150154],[-0.871458146707938,45.92978147274646],[-0.87140185967636,45.9289809972493],[-0.871506766084709,45.92845178624949],[-0.871868045135163,45.927802000399446],[-0.876397714467337,45.922792689102494],[-0.87672582447362,45.922315321859756],[-0.876998739093522,45.921604534187196],[-0.877062602170415,45.92091534059997],[-0.876886968867708,45.92007207629185],[-0.876672000527824,45.919624150874554],[-0.876159531298825,45.91909717013256],[-0.872369567050769,45.91595704038607],[-0.871764397283025,45.915286261019624],[-0.870353865596187,45.913043662407475],[-0.869591383241002,45.91217360230799],[-0.868701845944106,45.9113331308113],[-0.869384536151698,45.91084725414078],[-0.87028979034879,45.91064315783523],[-0.871123511199299,45.909972684583025],[-0.873002689272082,45.907896889588045],[-0.874156603474409,45.90693232324067],[-0.874568588903076,45.90628980055948],[-0.874966888819981,45.90510409373915],[-0.875215665526043,45.90484041711162],[-0.875458933071454,45.90475544127261],[-0.875093508945978,45.904150390565796],[-0.874118703140479,45.90323535135766],[-0.873767202329925,45.90279120226183],[-0.873643527164916,45.90209762068665],[-0.873359448493966,45.90182245929584],[-0.87345567543811,45.901574833720915],[-0.873843246986884,45.901209933673435],[-0.8732460419475,45.90081567836585],[-0.873229353498313,45.900523237824],[-0.873013555100415,45.900447688855245],[-0.873486437379481,45.899753495095425],[-0.874053546559946,45.89839791714463],[-0.873964588688621,45.898308104363394],[-0.874176457108462,45.89757507099409],[-0.874190777343436,45.89640162771356],[-0.874669180046817,45.8949237670132],[-0.874648368037771,45.89442590818216],[-0.874458480021117,45.89394737062804],[-0.872992233432272,45.89239373233332],[-0.873177438945068,45.892199855881046],[-0.873625064228877,45.89215746358502],[-0.873877319974681,45.89185219633247],[-0.873872581070672,45.889930196124354],[-0.873998793326634,45.88908109075675],[-0.874818697803192,45.889008797496665],[-0.875105484219381,45.88882766187091],[-0.876587457281415,45.886751877488415],[-0.877491885044714,45.88577147777253],[-0.8787055747475,45.8863239571838],[-0.879472898610474,45.88656898683807],[-0.88001388043138,45.885836357346136],[-0.880495118710085,45.884585564710456],[-0.88140812777257,45.884058330768205],[-0.88196071632486,45.88343618603032],[-0.88276940040032,45.882894493150815],[-0.883607627881145,45.88170985152137],[-0.884144084848538,45.88113422977602]]]]}}]}