{"type":"FeatureCollection","name":"COM_24004","crs":{"type":"name","properties":{"name":"urn:ogc:def:crs:OGC:1.3:CRS84"}},"features":[{"type":"Feature","properties":{"fid":4273,"ID":"COMMUNE_0000000009754536","NOM":"Ajat","NOM_M":"AJAT","INSEE_COM":"24004","STATUT":"Commune simple","POPULATION":300,"INSEE_CAN":"05","INSEE_ARR":"4","INSEE_DEP":"24","INSEE_REG":"75","SIREN_EPCI":"200041150"},"geometry":{"type":"MultiPolygon","coordinates":[[[[1.066947075800526,45.16903778397528],[1.062448360787848,45.16772403407244],[1.062853338979094,45.1665835929573],[1.063485219200152,45.16532459561243],[1.063999407977791,45.16463188482971],[1.060571781442406,45.16379597893718],[1.060282115851891,45.1637783347932],[1.059937333994374,45.163881324057684],[1.057075867448567,45.16243728084055],[1.055886328202456,45.161718532587834],[1.055347046857299,45.161703731831714],[1.054047593134683,45.16099835955384],[1.053599636107368,45.16084733792574],[1.052584296871692,45.1607575681678],[1.051300234262082,45.16041540802181],[1.050733556968689,45.15983627695195],[1.050503163152829,45.15972597109153],[1.049438413855154,45.15984877166597],[1.048390680506228,45.15973948266292],[1.046930380550493,45.15970582659384],[1.045570172884893,45.159285708377865],[1.045689530315526,45.15842133796387],[1.045393114255237,45.1583792178518],[1.046179168503239,45.15657900163339],[1.045991938971037,45.15650907218003],[1.046070152993984,45.15598354033038],[1.046781230509036,45.1555978870236],[1.047043757750092,45.15511611198953],[1.047226107065994,45.15430598434278],[1.047360830322398,45.15431194491661],[1.047503019804444,45.154213556458004],[1.047493374248243,45.15343339405548],[1.04767868832458,45.15275661948672],[1.047989052648402,45.15218020737471],[1.048863316195737,45.15102010639761],[1.048896886030694,45.15075138882011],[1.048726036518536,45.150249421705226],[1.04877313269425,45.149848540193474],[1.047756405452919,45.14874813091586],[1.047628121011686,45.14841263281324],[1.046919427669872,45.147495040539944],[1.045392899153097,45.146271295712175],[1.044174472807275,45.145155609333194],[1.042386329796212,45.14301123846608],[1.041971296885685,45.14159888642344],[1.041131812712089,45.13995210754154],[1.04090748487479,45.139671657801685],[1.040365127746863,45.13920638469734],[1.039894591203887,45.139342226793495],[1.039509827236676,45.13862932825064],[1.039535203764836,45.138377582616904],[1.03915661644452,45.138069198690374],[1.039352471771868,45.13629559154332],[1.039247629758979,45.13511295193384],[1.03908885033967,45.134669726194545],[1.038886205261807,45.13453376279781],[1.03874108712814,45.134027728889926],[1.037830936001468,45.1337108923907],[1.037584090087255,45.13349308737503],[1.034797874062446,45.13203175619162],[1.033373319517598,45.13158152285345],[1.032581159346471,45.131059565462124],[1.032058222359672,45.131239483239554],[1.031869981610423,45.13051471288314],[1.030038245574749,45.13082463365722],[1.028814623659578,45.1313893602201],[1.02746657032087,45.13154926641035],[1.02693298858998,45.13120116998966],[1.026694085574656,45.131840934201946],[1.026573566697505,45.1320828878983],[1.025467410508595,45.13295859310022],[1.024689157804737,45.13377254433155],[1.023445272430192,45.13472685360514],[1.022940421595871,45.134969197933266],[1.021687504219203,45.13527843552676],[1.01900563154472,45.13508222151066],[1.018781637179072,45.13659050108947],[1.018395683501929,45.137103343118426],[1.015944061764017,45.13701472658752],[1.012965786282424,45.1362411564724],[1.010849049375816,45.13607642959267],[1.007931265678797,45.136857497252116],[1.005317165063676,45.137043158473766],[1.004047617386743,45.13731497480693],[1.002008365374353,45.13740276081218],[1.001245374554925,45.13752959943483],[1.000192993557743,45.13784849716229],[0.999433026945657,45.13821045942195],[0.998681989326077,45.13882026837033],[0.997497609224104,45.13958982349375],[0.996227162935421,45.14140983527141],[0.996216424505506,45.142631889036345],[0.995800630611581,45.14411147180045],[0.994020616279824,45.143494023321686],[0.991798889310022,45.14234889142993],[0.990161106614127,45.14202576690657],[0.990165586493397,45.14232578052346],[0.990348535436002,45.14268845569486],[0.991776659988418,45.14466689102899],[0.992855700045116,45.14552396113937],[0.993282421191619,45.146577349888304],[0.994180740392497,45.14754194160533],[0.994321057371722,45.147958786086775],[0.994735095660432,45.14840937309785],[0.996878531315593,45.14915492811948],[1.000107853470723,45.15043150830204],[1.001212440474807,45.15292912403161],[1.000522196628637,45.15414711081375],[0.999741360249734,45.155263492532455],[1.001262142858501,45.15612929659793],[1.000538703030087,45.15731336454841],[0.999943202531552,45.157661170372315],[0.999527956860839,45.158236479322674],[0.998256258184378,45.158482982072925],[0.998365033514145,45.15924872748222],[0.997931384066514,45.15930669880019],[0.99902497784366,45.16044318374778],[1.000139927778539,45.161375581190825],[1.000585508884549,45.164718860948035],[1.001141130980248,45.16598529257337],[1.002179264871112,45.167752143062394],[1.004148458701254,45.170475069132124],[1.004822666789959,45.171562561231795],[1.005875551922499,45.17274418349803],[1.006186420528218,45.17359549578964],[1.005647541771551,45.173851575024166],[1.004867600210708,45.174011471330125],[1.00539275673489,45.174389244512106],[1.005787400751806,45.17531951562412],[1.006141811133345,45.175807722691175],[1.006060456637775,45.17616024522328],[1.007305853519807,45.17901609417601],[1.00689672634409,45.17941770851161],[1.006894098573302,45.17956267466963],[1.007457499487854,45.18079768825262],[1.007368402299277,45.18165266596251],[1.00752227798409,45.18194453818419],[1.009299759023326,45.18306429893784],[1.008743416054366,45.18366505271071],[1.008539561237225,45.184202738595424],[1.008654008628118,45.18474340051114],[1.00951622918773,45.18592338629689],[1.010427360211853,45.188126534638755],[1.010832971815539,45.188146372225305],[1.011139042154613,45.188278824337814],[1.011153384576211,45.18819801658308],[1.011564255041116,45.18807022993186],[1.011881491647757,45.18785340623885],[1.012417625120566,45.1867830104315],[1.012803965423942,45.18644942268798],[1.013627945911798,45.18598671490229],[1.014488483985468,45.18578495424223],[1.015151232009698,45.18548599767986],[1.016124631705071,45.18526191233896],[1.017031661623257,45.1849339598939],[1.01820379402841,45.18474401049377],[1.018547392806053,45.18478793912882],[1.019575193590723,45.18550692180951],[1.020064610809817,45.18549758902095],[1.021608238639863,45.18481610525754],[1.02218353604193,45.18479117195322],[1.022665125324071,45.184679009526164],[1.023571013569361,45.18395017379136],[1.026839542941105,45.18411878008745],[1.02749685048541,45.184944626823],[1.030614198222891,45.18463488223685],[1.031560146926336,45.185006440443885],[1.031877182945665,45.185009328135145],[1.033290551492693,45.18444157892006],[1.033892401266838,45.18434950106102],[1.034765158212197,45.18437657776693],[1.035346990375022,45.186264768886005],[1.036027646269449,45.18708286776323],[1.036122809066207,45.18843288325513],[1.038336726339507,45.1888987354844],[1.038957897110997,45.18963560856479],[1.039209051830683,45.189774223412996],[1.040083009924162,45.190059777607026],[1.040385729015532,45.189709316902395],[1.040789463619296,45.189892038098066],[1.040939553758538,45.190043286498046],[1.041573895937849,45.189425730831594],[1.041949471624801,45.1885955734514],[1.042191852874292,45.187749569042076],[1.042146347063366,45.18617796102007],[1.042228644360792,45.18597404614279],[1.043700568429658,45.18485957199225],[1.04428389592752,45.184205081504544],[1.045079160892625,45.18353538543753],[1.045366621708508,45.18314591594313],[1.044535910385163,45.18271885031074],[1.045042430342207,45.18236564376209],[1.045631582478772,45.18165270437563],[1.045838523804777,45.18097990785277],[1.050527348006338,45.18077186998915],[1.054442703504826,45.18426640216985],[1.054295341340142,45.18312265998003],[1.055533387810399,45.18114470210686],[1.056648799366152,45.18001664899624],[1.056523647266714,45.179880267529356],[1.057563079667404,45.17866531815602],[1.057542736370955,45.178188500334805],[1.057166020949418,45.177559568858754],[1.057620155470237,45.17695140219581],[1.058028371012947,45.175393110864086],[1.058364090490625,45.17511343366088],[1.06087193534197,45.17440225610212],[1.063711017148226,45.17456593141769],[1.067640142364513,45.173736042198264],[1.067441030374609,45.17319758854633],[1.067373716933401,45.172383105506654],[1.067693095559253,45.17143301006563],[1.067687636267119,45.17114920026707],[1.0674477660341,45.16998586759757],[1.066947075800526,45.16903778397528]]]]}}]}