{"type":"FeatureCollection","name":"COM_33080","crs":{"type":"name","properties":{"name":"urn:ogc:def:crs:OGC:1.3:CRS84"}},"features":[{"type":"Feature","properties":{"fid":4247,"ID":"COMMUNE_0000000009756119","NOM":"Cadaujac","NOM_M":"CADAUJAC","INSEE_COM":"33080","STATUT":"Commune simple","POPULATION":6784,"INSEE_CAN":"08","INSEE_ARR":"2","INSEE_DEP":"33","INSEE_REG":"75","SIREN_EPCI":"243301264"},"geometry":{"type":"MultiPolygon","coordinates":[[[[-0.501592783681399,44.73999484821468],[-0.502291019757043,44.73845606674994],[-0.502177315909931,44.738051426339815],[-0.500681210417335,44.73686772367754],[-0.501035047634356,44.73651949166577],[-0.50106339955559,44.73597968662675],[-0.499938168006453,44.734009230108846],[-0.496942998977889,44.73114079655778],[-0.497231072572834,44.73095506464648],[-0.497301143314651,44.73078072536582],[-0.498405971592333,44.7304132793029],[-0.499082221148095,44.730452284944654],[-0.499469487547608,44.730235474839574],[-0.499760928165636,44.72971799458617],[-0.50035150424113,44.729375797205],[-0.500776099171561,44.72945429082903],[-0.501422952416488,44.72924458390774],[-0.502048594837228,44.72914098251188],[-0.502455128489362,44.728949686178275],[-0.502603718173125,44.72871698532512],[-0.503246709474109,44.72858759484091],[-0.503598297877422,44.728589985061056],[-0.504015608240932,44.728044176493626],[-0.504725037618638,44.72788563847599],[-0.50521961799658,44.72766721180373],[-0.505816854264708,44.72791955455584],[-0.509388641672105,44.727462120342956],[-0.510136228336556,44.727186084198955],[-0.511550849061012,44.7268627495573],[-0.513509714632996,44.7267122731043],[-0.515526535516153,44.72665995301437],[-0.516467474332959,44.72654535310512],[-0.521579862354118,44.72529688597591],[-0.525282319708583,44.72374162560203],[-0.52692099151511,44.723345166159305],[-0.526933410657825,44.72358358675996],[-0.527135776033029,44.723847496419395],[-0.527686430817785,44.72390024078312],[-0.528810996397949,44.72330835643373],[-0.530027994907509,44.722920786961005],[-0.532500197576747,44.7251706053463],[-0.5339806788343,44.72670314725985],[-0.534658539328706,44.727210506961654],[-0.536156374921573,44.72933906490834],[-0.536491655632375,44.72956446839728],[-0.536938743805706,44.7301404705463],[-0.537940852615256,44.731058313519384],[-0.539319473373385,44.73207225585611],[-0.540379443634673,44.733225246382105],[-0.540575087170104,44.73376241529789],[-0.540572863604505,44.73549460107905],[-0.542069227087733,44.73512320225107],[-0.542342748817242,44.73577233050429],[-0.543012044707374,44.73676296718181],[-0.543553004608922,44.73647889646642],[-0.543878927497884,44.736434218017244],[-0.5440560939276,44.7374198741241],[-0.543577692550113,44.73749286488404],[-0.543833395617829,44.73898248640063],[-0.544395964908125,44.739121287781366],[-0.545212292768683,44.73917355588045],[-0.545314897828309,44.73941720132654],[-0.545200021135131,44.74134586127716],[-0.545713886388878,44.74129335769258],[-0.545739822766029,44.742145972220214],[-0.54538155148837,44.74229983617018],[-0.545486915407793,44.74324904061029],[-0.546392876678993,44.74325787733972],[-0.546892507492142,44.74315986297833],[-0.54980930088063,44.74321238298051],[-0.551879663671264,44.74281704348824],[-0.553146991667268,44.74302151074904],[-0.555638510795889,44.74254769635345],[-0.556608867728779,44.74225517783253],[-0.556636836992319,44.7422975376983],[-0.557751845720956,44.74167322091118],[-0.558603032314787,44.7423154694917],[-0.561660823475082,44.740221852304266],[-0.562437407846406,44.742061486405596],[-0.563224096455199,44.74413961575116],[-0.563881466883935,44.746830228829424],[-0.56468326524738,44.749304406266084],[-0.565114695124123,44.75028456449926],[-0.566058835332689,44.751312198960306],[-0.56626960305607,44.75228233710067],[-0.566220448337947,44.752564200502086],[-0.565792742816128,44.75303939968963],[-0.56222507134342,44.75336240248072],[-0.560737736599459,44.75342285318116],[-0.558392367192867,44.75423453739461],[-0.556649951531783,44.75446174290072],[-0.557804363431728,44.75689490503565],[-0.556881189708454,44.75711741955056],[-0.556053059919083,44.75748287196411],[-0.555288296733368,44.75789044345042],[-0.554850849198408,44.758413674381295],[-0.554299068266168,44.75868913261462],[-0.554178544610681,44.75874346874194],[-0.554017561109404,44.75841788752651],[-0.551724857592299,44.75902676062748],[-0.550365704031746,44.75901626626699],[-0.548651698941703,44.75879452539066],[-0.548402090400798,44.75940904141407],[-0.54786355313153,44.75947405873781],[-0.547345413840741,44.759742094833086],[-0.546802319784027,44.759915398681386],[-0.54578346830353,44.76012646251487],[-0.544609151884774,44.760821037365304],[-0.544424987973761,44.76078908016338],[-0.544103770391864,44.76095076341828],[-0.542923577617604,44.761111087511935],[-0.541643286571677,44.7613692271067],[-0.540974809453915,44.76144016755426],[-0.540122216208273,44.7614196580042],[-0.539559994478438,44.7615710063001],[-0.539186096332687,44.761920909233496],[-0.538865264408708,44.76200866496114],[-0.538865690730379,44.76231686591148],[-0.538558946472531,44.76256819116922],[-0.538495157120884,44.762881147312534],[-0.537906220613819,44.76284949291601],[-0.53747481042176,44.763130030933844],[-0.537393435715514,44.76320382558863],[-0.537518247984487,44.763458487153535],[-0.537284465341993,44.76366331892545],[-0.537380803262087,44.76386752097196],[-0.537102090588335,44.764524393212206],[-0.536758123787912,44.76466695384094],[-0.536454129057155,44.76528407700224],[-0.535829588509632,44.76557167524632],[-0.535490692020691,44.765996149073914],[-0.535710773479689,44.766236957416105],[-0.535623932993831,44.766445205672014],[-0.534965705133452,44.76684111807788],[-0.535217999463484,44.76731251094311],[-0.535154559855562,44.7675308264938],[-0.535247792048048,44.7678667067214],[-0.535137393244729,44.76810274281066],[-0.534848515972787,44.768156121116874],[-0.534832864742293,44.7684504157044],[-0.534492600618481,44.76865233038208],[-0.533870005776672,44.768528901786475],[-0.533482343108204,44.76835922382064],[-0.53308746595391,44.768054593027244],[-0.532353494187386,44.76793020259318],[-0.529614120452468,44.76806348660659],[-0.529441123294334,44.767645430598066],[-0.527216180709314,44.76738826181109],[-0.526939438184259,44.76741329552126],[-0.526594278273794,44.76755766377224],[-0.525687434462261,44.76758112426625],[-0.525663856589648,44.767890988797376],[-0.525441514561858,44.768178340867756],[-0.525171952192492,44.76829776825057],[-0.524659183804611,44.76831138179839],[-0.524369812861936,44.768437745903796],[-0.524029569902907,44.76874146294816],[-0.523997352197881,44.76927690350552],[-0.524092504052603,44.769583891595865],[-0.523858751677595,44.769951810613456],[-0.523699597744289,44.770016353039765],[-0.522036219315413,44.76953573824587],[-0.52166627406864,44.769305075703855],[-0.519415726089224,44.76975060161509],[-0.518316446612658,44.76975217701523],[-0.517827185786414,44.76981818288687],[-0.517432460535846,44.77024256749785],[-0.516334761745382,44.7705324577983],[-0.516208375865083,44.770635601943106],[-0.515386509796043,44.7699956974652],[-0.513973529160202,44.769471870464685],[-0.511483592718735,44.769366983635216],[-0.511383774457427,44.765055203283886],[-0.511879466780261,44.75948359957251],[-0.511896308997333,44.75795103001294],[-0.511294334802891,44.755967658192574],[-0.511657802613272,44.752613598343956],[-0.512014223282309,44.75129375993613],[-0.512192124649702,44.74960648807749],[-0.512239282934035,44.74847849926366],[-0.512174663403156,44.74724140702326],[-0.512028695254416,44.74644307322031],[-0.511723179698835,44.745661515250205],[-0.511198969644667,44.74482020383353],[-0.510035941273383,44.743508895213054],[-0.509197770019984,44.74284334808377],[-0.507983432877011,44.74206625108571],[-0.506769717995045,44.74131886159084],[-0.505244836496548,44.74062997590407],[-0.503797769814684,44.74017471912036],[-0.501592783681399,44.73999484821468]]]]}}]}