{"type":"FeatureCollection","name":"COM_87089","crs":{"type":"name","properties":{"name":"urn:ogc:def:crs:OGC:1.3:CRS84"}},"features":[{"type":"Feature","properties":{"fid":4064,"ID":"COMMUNE_0000000009750088","NOM":"Magnac-Laval","NOM_M":"MAGNAC-LAVAL","INSEE_COM":"87089","STATUT":"Commune simple","POPULATION":1693,"INSEE_CAN":"04","INSEE_ARR":"1","INSEE_DEP":"87","INSEE_REG":"75","SIREN_EPCI":"200071942"},"geometry":{"type":"MultiPolygon","coordinates":[[[[1.105457573918271,46.21096821826227],[1.107187470824406,46.21088173030993],[1.109495925827426,46.21087329217673],[1.110664588610491,46.210770213924334],[1.110822798024762,46.21017024697935],[1.111572259041593,46.20995751028096],[1.111915633050649,46.21057301311722],[1.112126056430756,46.21128178612857],[1.110933707148832,46.211733072573686],[1.111381903512719,46.2119801138502],[1.111616180077565,46.21237312411111],[1.11148825152813,46.21303574593738],[1.112930504624711,46.212750733609425],[1.113273375872143,46.21296719567867],[1.113779273587566,46.213687171888814],[1.114353160709688,46.21424163616477],[1.113861952473422,46.214791048137975],[1.113607958263446,46.21534709526089],[1.11594651781655,46.21575156076743],[1.117384695404394,46.21520881255302],[1.117851788251539,46.21536066187014],[1.118606516930624,46.21495790964998],[1.118814198712642,46.2158251528329],[1.118704600921875,46.21637188929556],[1.119139750492093,46.216471862629234],[1.118629936902734,46.21748846986505],[1.119466967773769,46.21775091665653],[1.120733458941396,46.21801504972776],[1.120369036432158,46.21842516823045],[1.120098509333847,46.21904851092837],[1.120148316035422,46.2192610074199],[1.120453646336171,46.21959031897279],[1.120485761144616,46.219789011851574],[1.120308453540729,46.22000225860002],[1.119840325645668,46.21991705764658],[1.118963028776146,46.220751046581945],[1.118927836012261,46.22158724963892],[1.117874668811631,46.222326446805056],[1.117916998797473,46.22249198223172],[1.118172316278528,46.222577273042276],[1.118620740553922,46.222367613459],[1.118833229206278,46.22237743314765],[1.118928151385475,46.22256095196033],[1.118759780886031,46.22289144015141],[1.118520912739033,46.2230451182161],[1.117672140000069,46.22327337354595],[1.116040187345141,46.22344451728334],[1.115910233069317,46.22352523266268],[1.115899597239373,46.22368358639026],[1.116076828316874,46.22403961126309],[1.116039686450254,46.22432723224995],[1.118005125718029,46.22412017241246],[1.118745399680787,46.22474672111704],[1.118508979104453,46.22630288759517],[1.119330178698724,46.2265011187989],[1.120103147414696,46.226024795829545],[1.12039597731662,46.226681768273544],[1.120660930238814,46.22788682776295],[1.121973555050337,46.227152788648375],[1.12260120278831,46.22807649552562],[1.123674712089223,46.22791946497619],[1.123600141708706,46.22763360246993],[1.124737416346918,46.22750913963436],[1.127071784389918,46.229116678506415],[1.128692500153363,46.228100300841426],[1.129926441405091,46.227463057255534],[1.130321375365754,46.22710925564991],[1.131026559552031,46.228199022370525],[1.132327135366444,46.22804293880553],[1.132335571447152,46.2276431517291],[1.132121456268187,46.22707127329386],[1.132356800500516,46.2267157449335],[1.132814752760876,46.22653050605008],[1.13446543225364,46.22661073267074],[1.136098813059317,46.22601690397691],[1.13614383015437,46.22694449523248],[1.13658501174498,46.227519184544136],[1.136403090265362,46.22840342551081],[1.138346172516094,46.22996378303359],[1.137496009985749,46.23027052743714],[1.137394124181391,46.230480531235195],[1.136973887345394,46.23043401762745],[1.136997914400727,46.23083433604231],[1.138320480069006,46.23110188715441],[1.138280098560386,46.231717326595025],[1.138600754259778,46.23171536784107],[1.138641444742302,46.23277169064538],[1.139233993048248,46.23301917711119],[1.139266821425693,46.23381055586345],[1.137027996920223,46.234072058297386],[1.13720287876397,46.23476938587299],[1.136508277047169,46.235384919801824],[1.136739520271277,46.23564631643171],[1.136491326169843,46.23561613016559],[1.136234891529114,46.23571371224879],[1.136097018133167,46.23617983399607],[1.135763151430311,46.23641666062327],[1.135541309595587,46.236413025355795],[1.135258309180547,46.23618500577445],[1.134683906071192,46.23605218940719],[1.134346071071495,46.23625291762198],[1.134166964814432,46.235947334444646],[1.133958232528069,46.23586374588588],[1.13324294869255,46.236094308699116],[1.132911573160122,46.236067253415335],[1.132536314874565,46.23580438565834],[1.132056772514012,46.23578300228673],[1.132068589103662,46.23600747874641],[1.133271938853482,46.23825293895332],[1.134654536310474,46.24007887998844],[1.135439220872829,46.24143383154832],[1.135368583275658,46.24270810954555],[1.134988442650239,46.24403586250516],[1.134959700287916,46.24537567946595],[1.134674699515994,46.245815068398215],[1.134805944584929,46.24794654803984],[1.135206679759332,46.24963748229623],[1.13579604650042,46.251699903342384],[1.138220741299898,46.25439494713515],[1.139943830681929,46.25611469074269],[1.140564066788524,46.25658689947489],[1.14122033395837,46.256954307848666],[1.144399385047534,46.25855633467729],[1.145025125029898,46.258752985087725],[1.146344454718481,46.25994272222768],[1.14644175187561,46.260175793533726],[1.152351409750561,46.26480252436839],[1.153057184781603,46.265594005448904],[1.153924035402285,46.26700148727422],[1.152534032361042,46.26828138478356],[1.151302453552747,46.26982955279619],[1.151477480575974,46.27026204058853],[1.152419289897658,46.271412241913936],[1.152999868834786,46.27156667916175],[1.153392360852837,46.27144424265237],[1.154166374011935,46.27190985880912],[1.15580001738318,46.27111037071611],[1.157433307892695,46.27059007830263],[1.158099818330032,46.271240377028946],[1.157805646829429,46.27206968651423],[1.15831174555754,46.27331907040835],[1.158940881430358,46.27801750440705],[1.158114898591912,46.283185097690506],[1.158109316772657,46.284547799111465],[1.158390116629389,46.28516032763639],[1.159046387043577,46.285927544938765],[1.159799799678352,46.287399790859304],[1.16049600640244,46.28821718382966],[1.161432187157427,46.28993646462175],[1.162207275566441,46.29254665096361],[1.164024740260956,46.296817449716265],[1.164515348091781,46.29760988283661],[1.165244759634198,46.29802425594689],[1.166114235712328,46.29829226091862],[1.166237113542754,46.29842574408856],[1.166338503991068,46.29826975073164],[1.166592246825544,46.298143231265385],[1.167030358922157,46.29806021069115],[1.167563680991649,46.29808320347919],[1.169151575534383,46.298551891231696],[1.169730420062283,46.29884582060892],[1.169763379828326,46.2974718559448],[1.169632518214742,46.297304921832755],[1.170142791147908,46.297084338635194],[1.171918608415407,46.296712035412895],[1.173260541787729,46.29695784401732],[1.173892555319922,46.296943659310216],[1.175524261829455,46.29652755684581],[1.179656458073928,46.29602171952361],[1.180239070475787,46.29456196401701],[1.180860260104923,46.29205799292488],[1.178160291128692,46.28780128656373],[1.182500890470055,46.2871806967173],[1.183198446352955,46.28503191366169],[1.184959276924212,46.284548387357525],[1.184353754192723,46.28329845022224],[1.188089034295482,46.28458561990979],[1.188155448397622,46.28454164096847],[1.18810207403413,46.28395622858765],[1.188511724514695,46.28382583762492],[1.188782940720709,46.28407064233466],[1.189121114695568,46.28413726922441],[1.189986889252151,46.28306027042346],[1.190306377973722,46.28333826444908],[1.190764080159809,46.28281501759756],[1.191574462128294,46.282115426704486],[1.192755020116244,46.281535195986244],[1.193740167021532,46.28057715736771],[1.193722299259684,46.27970138136288],[1.192124709673057,46.278514106887506],[1.191807718037966,46.27812176660353],[1.191755860544957,46.27678158240801],[1.195849435754605,46.275505360964075],[1.195711810457533,46.275227562052585],[1.195286686365786,46.27476596430217],[1.19382806126867,46.2737007089436],[1.193149547317448,46.272849577215005],[1.193025548361156,46.272553075936045],[1.193013711702237,46.27232140472102],[1.193184985597223,46.27193321342788],[1.191255985040326,46.27040559615112],[1.19094452735041,46.270476307292],[1.187734443976545,46.266651255241904],[1.187531423861414,46.266624604385804],[1.187447583267036,46.266528694348324],[1.185474226581386,46.26399867013468],[1.185169600284671,46.2634722990929],[1.187985548886545,46.26294880864506],[1.191891932559769,46.259880042461056],[1.195391373413054,46.25972931520837],[1.196410333737816,46.25978149450441],[1.196360898163761,46.25907455161485],[1.198605035484573,46.25879123845656],[1.201088328549063,46.2586584776678],[1.201746149724446,46.25899132761291],[1.204889966545899,46.25752505595196],[1.208158975606157,46.255481513817294],[1.209284439519703,46.255133538696036],[1.210085415516753,46.25406618642744],[1.212382870850543,46.254288742720654],[1.212664633731453,46.254049976325966],[1.213215274547316,46.254086544552536],[1.213766726578839,46.25401864051697],[1.214072131074453,46.25412971711447],[1.214979864422135,46.2538070924756],[1.214624581573805,46.253314235753585],[1.213731683393748,46.25258506135173],[1.213543178738466,46.252313690974105],[1.214053647443492,46.25186954652519],[1.215230885382456,46.25224019215881],[1.21651401213208,46.25211078984034],[1.217369195451431,46.25232414579059],[1.219179908307516,46.251741813485474],[1.218728828147088,46.25084035047824],[1.219391686408322,46.25085883008096],[1.21949280145374,46.251263028780514],[1.219751503851088,46.25133282767562],[1.220440093746769,46.25115895204345],[1.220693015817859,46.25176638112451],[1.220900083846752,46.25174710066612],[1.221264908753626,46.2525472276656],[1.222409000788254,46.25234082716681],[1.2244171708937,46.25251448750603],[1.225348437388402,46.253826931420825],[1.224826076287745,46.25395929524923],[1.224819332542691,46.25432757914097],[1.224234119634943,46.254395910502986],[1.224574298565988,46.255637888129],[1.22583374323831,46.25535939390864],[1.226584832682214,46.255100887842225],[1.227026896520485,46.25560406424256],[1.226640429043754,46.25578989367251],[1.227265576603365,46.256734565310616],[1.226856320882673,46.25674170083136],[1.227368652056721,46.25804309491126],[1.225968185725557,46.260708982060045],[1.226292376741323,46.26072304139879],[1.226575101264748,46.2602933065076],[1.226853729379413,46.26019046334268],[1.227222487944056,46.260352029365016],[1.227893780277522,46.260073356151366],[1.228295766323595,46.2603318114488],[1.229198373307216,46.26052960110381],[1.228969143802611,46.26143394544542],[1.230134376820441,46.26158267166494],[1.230429318724085,46.26141702409286],[1.231452831794198,46.26128971930464],[1.231906851384971,46.26130487898905],[1.231980925934716,46.26082054993974],[1.232482190524238,46.260940922919126],[1.234522640189857,46.26181564814192],[1.234936644120688,46.26146088654685],[1.235265728319608,46.261565066451425],[1.235774475557553,46.260889318935874],[1.235287458152504,46.260125178390595],[1.234586669759379,46.26039352940368],[1.234692064430876,46.25994391145389],[1.234896335609855,46.25960931546394],[1.235346303446695,46.25962890232062],[1.235554919855756,46.2593204929903],[1.23585894772881,46.259315297836096],[1.23609537187343,46.258627221685366],[1.236609109019176,46.258601856030744],[1.236838306693195,46.25793618410848],[1.237282030157617,46.25758457703032],[1.236838645233275,46.25707871968656],[1.237290891588145,46.25658313214038],[1.237353073265409,46.25638594040792],[1.237229938319216,46.25609670896878],[1.237270619554239,46.25580100759687],[1.238090467588481,46.25453380284212],[1.238382251931667,46.25422217269512],[1.238285424799709,46.25388200945742],[1.237119497114216,46.251863492585926],[1.236304595181255,46.2507601140007],[1.235696482764776,46.250331860531624],[1.235197360826243,46.24942251626483],[1.23505510208272,46.248398010310424],[1.23554828700338,46.248121035575224],[1.234916824621323,46.245759502652035],[1.232253351026521,46.245744277964135],[1.230582801134082,46.24505269238173],[1.230078718087574,46.24349743957981],[1.231591562236475,46.24243741170158],[1.230867920274551,46.24128947160342],[1.230307430402241,46.23862817475168],[1.230280118541354,46.23762526334651],[1.22868925936026,46.23612334749306],[1.229127844134454,46.23528441080066],[1.229515290824523,46.235465178008184],[1.229748794166641,46.23502746500225],[1.230282320523967,46.23510602045812],[1.230674626641562,46.23332782166596],[1.231724602517625,46.23272626134287],[1.232896193978746,46.23169334091149],[1.232242781698374,46.23110763790057],[1.232386853002523,46.23042353795745],[1.233165743164965,46.230377992395205],[1.233003613446676,46.229650405342426],[1.233272561748349,46.22915829314478],[1.23412374552415,46.22876168780456],[1.234387897020548,46.22853880992736],[1.235226701653425,46.22872746351453],[1.235351234269946,46.228245716136904],[1.235189040910183,46.22727764283426],[1.234847035707603,46.227379520458314],[1.233986817613483,46.2274130058163],[1.233957539923962,46.2272342113661],[1.23216474747733,46.22721086763727],[1.23263018066061,46.227990005761484],[1.231510810546956,46.22801043889336],[1.230654650429663,46.22791786328444],[1.228839346632632,46.228670527546434],[1.227301904422175,46.228575423818725],[1.227221855836182,46.22727895779372],[1.22729118253725,46.227101697917504],[1.224949870141566,46.22794608091009],[1.224587481356304,46.22739459593715],[1.224005022815478,46.22734677330577],[1.223471190976823,46.226519692779235],[1.222269977653447,46.226623423085044],[1.220895817871614,46.225618364024754],[1.22009222783955,46.225347288891214],[1.219483375186018,46.22527380980143],[1.219893022389759,46.22460829121661],[1.219773166511117,46.22382369801748],[1.220004287996699,46.2233003993418],[1.220136116390351,46.22319707909642],[1.221323173206494,46.22300758356027],[1.220987934575762,46.22274113483351],[1.220946341481511,46.22242343424737],[1.221311889886126,46.2219959094794],[1.220992174163132,46.221771136066494],[1.220729871575704,46.22193636676486],[1.220266688111395,46.221694034843985],[1.219867548583347,46.221397759956176],[1.219517678310257,46.220903197754],[1.219452320143439,46.22051847179102],[1.219795575902938,46.21925924671258],[1.22173079644231,46.2192841157316],[1.222072811758058,46.21950112948655],[1.223056831999241,46.219007605982284],[1.222673347758726,46.21870888325696],[1.222445979066052,46.217957740458075],[1.221380314445396,46.216249545653575],[1.219871103701606,46.214737057858954],[1.218827522368047,46.21271303232206],[1.218429725201869,46.21229787808815],[1.217323637611588,46.2117599333107],[1.217254306686815,46.211418377285014],[1.217673929961621,46.209685679615724],[1.217426269812274,46.20836495633591],[1.217700411043855,46.20679660966677],[1.218466588114763,46.204418125649944],[1.218534499335005,46.20272765175385],[1.21847536912035,46.20239166025841],[1.217290647080235,46.19985019467518],[1.216933163283469,46.19995357524785],[1.214597478458008,46.19699140334784],[1.214572254713914,46.196610905963475],[1.214126818555718,46.19563203934832],[1.213387994668228,46.194343218200146],[1.212847302878028,46.19370151741716],[1.211894110009347,46.193419917343036],[1.205755220318133,46.192910666090164],[1.205504059765321,46.19261937318548],[1.205037979203836,46.1924354745694],[1.204245878124003,46.19238513490411],[1.203930359299475,46.191960416297626],[1.202969287550594,46.192277592654484],[1.201978806059989,46.19080186803768],[1.203119125064927,46.190475824484864],[1.203803610618576,46.19044520899049],[1.204066196908424,46.190268313636544],[1.203977716453288,46.18968325104251],[1.203223057723042,46.188610280224054],[1.202757668054016,46.18840656667962],[1.200310998896227,46.18582152641083],[1.189399899194971,46.18518167427496],[1.185984451670884,46.18505335864147],[1.183512465422941,46.18482653044202],[1.182503129093973,46.185817404081746],[1.18202016605476,46.18649873383841],[1.180525768023725,46.18741067475431],[1.178306980123506,46.184361315043596],[1.1772603983487,46.18412926351842],[1.175577331660557,46.18350057666965],[1.174777907880428,46.18281760253258],[1.173168144540445,46.182326065565135],[1.17284832881918,46.18293431902411],[1.172254810554094,46.1834670133855],[1.172031063582011,46.18403267397232],[1.172760610820852,46.18552789957322],[1.169852710192786,46.18616206563877],[1.169732425302706,46.186307848006074],[1.165837246877885,46.18667921212346],[1.165661376705465,46.18519107458105],[1.165462228001031,46.18525181219407],[1.165516456472143,46.18425107836579],[1.165874839416577,46.18415958338182],[1.165327345674205,46.1829653898082],[1.164961493087658,46.18297029249595],[1.163676705000474,46.18183804391068],[1.163108497674579,46.17990940990462],[1.160284071829883,46.17991596852982],[1.159384695585772,46.17974558062998],[1.158344509745689,46.17932790540635],[1.155443856575845,46.17955829071426],[1.15515207109025,46.17736207689213],[1.152135018470834,46.178317377159715],[1.15159698569376,46.178314933066126],[1.150067930272993,46.17774691296072],[1.149535178064039,46.17774184277287],[1.150085807462583,46.17998462239242],[1.149290766834502,46.18006625588149],[1.148930771020982,46.17878405555467],[1.148155534265881,46.17870207007301],[1.148722381776122,46.18011734815043],[1.145709333674821,46.18029431378675],[1.144555232505347,46.18044841947661],[1.144219612895555,46.17948365868215],[1.143747377208306,46.17960565247997],[1.144147681565566,46.18053634241523],[1.142628433120415,46.18075112003033],[1.141919119010031,46.18098092289579],[1.140370398636703,46.18183471034116],[1.138029510808362,46.18348436296293],[1.137338160044237,46.18409994700324],[1.134538630503194,46.185159237728705],[1.132583049483561,46.185805380439014],[1.132972266920453,46.186524256524315],[1.134515248105395,46.186265858255645],[1.134424003613545,46.18749926941752],[1.134036891473273,46.1874037425295],[1.132868525360095,46.187514262979334],[1.133051079136796,46.188094633251275],[1.132790166365528,46.18817771907843],[1.133288564826527,46.189042504753246],[1.133385233848266,46.18986015885797],[1.131808221731011,46.190086458425206],[1.13122421039353,46.19161982031218],[1.130313564350751,46.19147243812002],[1.130233496960824,46.19176656278919],[1.129661735382848,46.19255881272381],[1.128767401209712,46.193187221149905],[1.128705515302688,46.19336634983826],[1.128899687579389,46.19379559439546],[1.129126719766854,46.19394615096551],[1.129208547276657,46.19417088025439],[1.128950370778826,46.19421076746916],[1.128843996854576,46.19451526716019],[1.128998805330264,46.19484388175726],[1.128901533482798,46.1955277414275],[1.127829231848467,46.19570644860052],[1.127320392648597,46.195299942208415],[1.127373958620766,46.19517472136858],[1.126589765063066,46.19462766421739],[1.124767445163051,46.193564473179975],[1.124440631515823,46.193677078458265],[1.12391464807114,46.193318012304374],[1.122118258316773,46.19324241462678],[1.12142561775845,46.192334735760646],[1.1194857802221,46.1921693535778],[1.119189806517484,46.19179875686373],[1.119050808309662,46.19135149170101],[1.119631998477408,46.19070446775102],[1.118570736830461,46.19026085805217],[1.118389568097255,46.190438007361756],[1.117826952696981,46.190241339368875],[1.117660380070417,46.190408821088404],[1.116243598026344,46.19049884517942],[1.115596249962607,46.19020168039425],[1.115453586349729,46.19005069314327],[1.111856530960183,46.189578462942684],[1.110625566474955,46.18852936225017],[1.111440197513919,46.187884457317416],[1.111863705844343,46.18767531484205],[1.112301545066318,46.18757720006031],[1.111758421566539,46.18719256979935],[1.111292701801973,46.18700828695877],[1.111104191655665,46.1867205200312],[1.111032254817598,46.18636172996836],[1.110763698976511,46.18606362470837],[1.108901986884613,46.187475655824734],[1.107270837752311,46.18889329867828],[1.106773012438315,46.189375913379024],[1.10649552418801,46.18990002767975],[1.105966788430076,46.1901506331844],[1.105415360090072,46.190870145386725],[1.104918675121837,46.19090600271704],[1.104552170038139,46.19115300110234],[1.102378394656854,46.191640967773125],[1.10206256379127,46.192034724840475],[1.10478374023608,46.193533923937615],[1.105917754547154,46.19401040118266],[1.106788776049829,46.194666238880174],[1.106936765100961,46.19470022928047],[1.107300462189944,46.19528636316599],[1.109328805614738,46.19728823514993],[1.111104936006145,46.19682595376941],[1.112363234755576,46.19633343059217],[1.11307721457602,46.197108210562355],[1.114007896293514,46.196561591344235],[1.115348799649731,46.195966820845875],[1.116087848253243,46.19635287719078],[1.11583532951473,46.196793658045344],[1.116137646234621,46.19701754776571],[1.116431345069681,46.19692603489451],[1.116689600329587,46.1969600377233],[1.11793458414447,46.196362747323114],[1.118601175816622,46.196970970767445],[1.118449677004106,46.1971900454477],[1.119394762296076,46.19788574058112],[1.118578374617075,46.19865587660154],[1.119844077388813,46.199346063772104],[1.119465298089035,46.199573090650475],[1.118067104632902,46.19983278770961],[1.117932418766306,46.20005304085042],[1.11828257510274,46.20032005101653],[1.119093974870162,46.2016998980397],[1.117856025907836,46.20201358629816],[1.115504407167486,46.202873572334646],[1.114899733070683,46.20163313802554],[1.111707012221038,46.20194135558522],[1.11004699458971,46.20279379844611],[1.109156926892783,46.203437442135126],[1.107498897447908,46.207310969881846],[1.106502542665146,46.20911298071683],[1.10612419076222,46.20936158994002],[1.106080498841032,46.21010037128714],[1.104484527454215,46.21081689179527],[1.105457573918271,46.21096821826227]]]]}}]}