{"type":"FeatureCollection","name":"COM_24043","crs":{"type":"name","properties":{"name":"urn:ogc:def:crs:OGC:1.3:CRS84"}},"features":[{"type":"Feature","properties":{"fid":4150,"ID":"COMMUNE_0000000009756497","NOM":"Biron","NOM_M":"BIRON","INSEE_COM":"24043","STATUT":"Commune simple","POPULATION":146,"INSEE_CAN":"08","INSEE_ARR":"1","INSEE_DEP":"24","INSEE_REG":"75","SIREN_EPCI":"200034833"},"geometry":{"type":"MultiPolygon","coordinates":[[[[0.885454614700239,44.64887353633271],[0.887006361227943,44.64873928848073],[0.888657534032372,44.647769367099485],[0.889466810169261,44.64694456361745],[0.89310696548351,44.646253879296744],[0.893891243330845,44.64653449290194],[0.894581760706762,44.64523908606689],[0.894830017164548,44.644536850433354],[0.894739675328956,44.644017292170226],[0.896423227773144,44.64224005141798],[0.897199542883303,44.64154965773072],[0.895901653849607,44.64076937554064],[0.895470439294072,44.64059546107401],[0.894858353535607,44.64046853436471],[0.895245827226605,44.639719417735655],[0.895552131932132,44.637562940436766],[0.895033408155388,44.63453160193545],[0.89505997026721,44.63290835352363],[0.89380298867028,44.63235577110999],[0.893807363606182,44.6320361469588],[0.893420476197791,44.63152174665519],[0.893587988661323,44.631089055633026],[0.894296722326126,44.62994260513898],[0.895328494151965,44.62966866256153],[0.89525581608457,44.62928453107456],[0.895941960646088,44.6290121075277],[0.895362190357792,44.628428300790134],[0.895363074034613,44.6276952433927],[0.895039011490292,44.627322536247455],[0.896085090312308,44.626697633336974],[0.896603854033414,44.62614464175714],[0.897312307846388,44.62564478834247],[0.898404260372206,44.62517473683496],[0.899525946704337,44.62485383569716],[0.900007062677776,44.62436225414331],[0.900370025911893,44.623758555883434],[0.900865255898894,44.62342934347558],[0.901304367483747,44.62328638399598],[0.901846580687077,44.6232192273245],[0.903145642385224,44.62273865278727],[0.903968139632158,44.62252640582808],[0.904966821717536,44.62228957437601],[0.906450088759379,44.62211054425742],[0.907587906903267,44.621827693494005],[0.906310842982684,44.62154774794473],[0.905012399118392,44.620961185968504],[0.90257883249386,44.618484376775],[0.900848059584051,44.61752392532769],[0.896670311569306,44.615946840946236],[0.895533967175653,44.6161242378792],[0.894207748634447,44.616186334095225],[0.89377912762265,44.61611692757523],[0.89182450718064,44.615517700622696],[0.891655588415477,44.61555050165024],[0.891320787630664,44.61540002182678],[0.890975693297687,44.61545737839353],[0.890405078674905,44.61537534263003],[0.889894237422578,44.614908996990216],[0.889645973384829,44.61443415429352],[0.888394095493283,44.61503704699062],[0.88709238479123,44.61548857653828],[0.885481773566443,44.61587204178966],[0.884525694993342,44.615914985842345],[0.880725693883972,44.614667827702206],[0.879770163381251,44.61479719672942],[0.878952159482516,44.61505798032363],[0.877501744689712,44.61590730428171],[0.876969766560301,44.6160384786404],[0.875866892370575,44.61555979163379],[0.875848225807096,44.61511814669181],[0.876193433479393,44.61465647715679],[0.876053384361491,44.61449168079446],[0.874830019260796,44.61409982519796],[0.874557133299985,44.6138802386422],[0.873762770572911,44.613513731427936],[0.873868363022941,44.612485494900405],[0.873459420117319,44.611695019750904],[0.873075253555192,44.611284165569515],[0.873117814905234,44.61099139448149],[0.873303461599966,44.610782429480246],[0.873910622532922,44.610461796638326],[0.8748904619173,44.60958546364458],[0.875087808641231,44.60936681456094],[0.875101640749854,44.6092004728251],[0.875033869167867,44.60865701931423],[0.875093957679712,44.607731476082876],[0.874801291908289,44.60686669342007],[0.872967674961515,44.606181195229404],[0.872988146690644,44.60597265432621],[0.873463190892338,44.60564407894331],[0.873426591939677,44.605377703143006],[0.873247893829114,44.60490145893127],[0.872295353966672,44.60388617873135],[0.873486285337684,44.603293106557075],[0.873654308302356,44.60311622384884],[0.873627931586243,44.602913085696606],[0.873197254605148,44.60253375810009],[0.873095231037317,44.602598437322676],[0.872968741491306,44.60247622536113],[0.872960331348847,44.60129540286711],[0.872510429656802,44.600223156540636],[0.871206456613061,44.59957123809194],[0.870936629196575,44.59950660090653],[0.87089408268523,44.59916446129935],[0.871002900410326,44.59855236273551],[0.870930979599249,44.5982537856553],[0.870711319125216,44.59796226788162],[0.869988990594001,44.597463833466776],[0.869717015070871,44.597723360388954],[0.868549916744698,44.598154744455115],[0.867698846651887,44.59856159616511],[0.86665443384319,44.59804791742529],[0.866083757762656,44.59807292055156],[0.865781635729571,44.5981958682843],[0.865322988806117,44.598258154073115],[0.863277846487189,44.59840864570221],[0.857744202674163,44.598313202230266],[0.858196811419965,44.59980433755895],[0.85860073720182,44.60048670392891],[0.858574770480899,44.600672621603906],[0.857016983364265,44.60086576520294],[0.855379080846183,44.601408560417696],[0.85477334988507,44.60135987811023],[0.853024740950573,44.60173027908097],[0.852539566397635,44.60192528409386],[0.851670831286239,44.60322145303447],[0.851925452872494,44.603354286464146],[0.851569847998235,44.60415159765316],[0.851335297011921,44.604451435775815],[0.851721464762799,44.606459149933485],[0.851997259283422,44.60653295586066],[0.851991243835656,44.606757085430246],[0.85179791308368,44.60693434560443],[0.850848110314454,44.60714642850261],[0.850028617184901,44.60718092086979],[0.849386523152005,44.607621423216024],[0.849125814043337,44.60797838624033],[0.849041242564877,44.60841082444705],[0.849249717669371,44.60886157460774],[0.850466105086567,44.60966064900038],[0.85090160613268,44.610340958992154],[0.851211029427022,44.61052529257635],[0.851571903196405,44.61045125561224],[0.853356721931682,44.611223521557925],[0.85348670543072,44.611452094258716],[0.852270620392213,44.612927049962146],[0.853342530298391,44.6132522749661],[0.853392723421626,44.61339104019135],[0.852325907106321,44.61379269134834],[0.851713566232454,44.61378169093985],[0.851400204306113,44.613865658465215],[0.850344248440739,44.61431253173641],[0.849872971843802,44.614206100382454],[0.847063115432968,44.61518257880791],[0.847297107058299,44.615526660155496],[0.845960103314377,44.61695867174411],[0.84587943378109,44.61742000484904],[0.844533060285619,44.6190949798679],[0.843425996412075,44.619983887328964],[0.845127374172092,44.620371003661056],[0.846027427358674,44.62044438380207],[0.846356721194592,44.620406671188164],[0.846487430166751,44.620682098158575],[0.847770342657796,44.62116458780908],[0.848802450299879,44.621115333615386],[0.849542716970995,44.621576432909954],[0.850550721020149,44.62139880897906],[0.850991536108958,44.62141278374547],[0.851625242939559,44.62156019150493],[0.85265157897388,44.622291603714515],[0.853138368555127,44.622489283394714],[0.853638642234289,44.62286283845028],[0.853915390141227,44.623311303900365],[0.854834739160955,44.62407213875987],[0.8553685252721,44.62422839243207],[0.855869445204999,44.624220998581954],[0.856183810157935,44.624145141852324],[0.856817754477929,44.62375667092359],[0.857312626967108,44.623841914424794],[0.858384233262093,44.62461287481689],[0.859452765011143,44.62486772541248],[0.859041103542756,44.62541361763965],[0.858469089655131,44.62666156678963],[0.858501571536283,44.626736044701126],[0.858779183138882,44.626764837733305],[0.858792890452244,44.62690199343081],[0.858372255524429,44.6288454320227],[0.858577707979643,44.629578893353994],[0.85883360626279,44.629582048767055],[0.860841781700688,44.630768282017506],[0.861280360793146,44.63110908671576],[0.86117207680688,44.632965818791455],[0.861449757512974,44.63296038330702],[0.860271456286433,44.63389851969725],[0.859415493738267,44.6354147644825],[0.858690298783541,44.635911359779136],[0.856840748520065,44.636786027107334],[0.857015759156869,44.637291952747795],[0.858894423690791,44.63814158849227],[0.860351774431047,44.6386939476507],[0.860780381684383,44.63850140789722],[0.861299119146095,44.639124749433485],[0.861724793071614,44.63897627848617],[0.863234943582056,44.639867343625916],[0.864308771236694,44.63982414777481],[0.865457916893717,44.63992378911035],[0.866609554012948,44.640157655243605],[0.866571671618793,44.64025869162711],[0.867930346665303,44.64045511094652],[0.8690606548899,44.64018600794919],[0.87045297215895,44.640059731086744],[0.870861565488927,44.639962230151106],[0.871739309405597,44.639666622363265],[0.873568156711664,44.63886876038265],[0.875251291784529,44.63875612191113],[0.876082386232656,44.6388270257383],[0.87706357076592,44.63903229156804],[0.877754752043496,44.639569704651535],[0.879659447195607,44.64037445095152],[0.880334919675426,44.64059273674155],[0.881652604194791,44.64080711305693],[0.882106572381848,44.64148224673249],[0.882842763522177,44.64293909236556],[0.883963030143816,44.644515857461954],[0.884760840640079,44.64524078762275],[0.885140797897141,44.64587306565133],[0.885567962452175,44.64813901878471],[0.885454614700239,44.64887353633271]]]]}}]}