{"type":"FeatureCollection","name":"COM_17453","crs":{"type":"name","properties":{"name":"urn:ogc:def:crs:OGC:1.3:CRS84"}},"features":[{"type":"Feature","properties":{"fid":3940,"ID":"COMMUNE_0000000009751396","NOM":"Trizay","NOM_M":"TRIZAY","INSEE_COM":"17453","STATUT":"Commune simple","POPULATION":1505,"INSEE_CAN":"19","INSEE_ARR":"4","INSEE_DEP":"17","INSEE_REG":"75","SIREN_EPCI":"241700517"},"geometry":{"type":"MultiPolygon","coordinates":[[[[-0.926956738440408,45.915006979811416],[-0.911343976062752,45.90738793556692],[-0.905506150513945,45.90598317512919],[-0.903199013754954,45.9057202731261],[-0.901875224870632,45.9054828841843],[-0.902037523425823,45.90534925447532],[-0.900457576627288,45.9042299201557],[-0.900502886824606,45.904194997429954],[-0.89917166186517,45.9031950886585],[-0.899364844626922,45.90302343193394],[-0.899402925874004,45.90284991394118],[-0.89894106333692,45.902582749697714],[-0.898852287293575,45.90229550006737],[-0.89837461024124,45.901695290645755],[-0.898765100008451,45.90126438271419],[-0.899002728485095,45.900772029641956],[-0.899421536578025,45.90043120275408],[-0.89984098040734,45.90064663443632],[-0.900077229396334,45.899934337823495],[-0.901076871528726,45.898185905626356],[-0.903182206053622,45.894803453775666],[-0.898247110936131,45.88885382023536],[-0.897222644378757,45.88782258157777],[-0.897085361530091,45.88774346914005],[-0.895767611242963,45.88753015918389],[-0.894632281227009,45.88712121229534],[-0.892129287855208,45.885151848880405],[-0.890937226854798,45.88390183837139],[-0.88886465152406,45.88246665239442],[-0.88785682932598,45.882124478639966],[-0.884144084848538,45.88113422977602],[-0.883057965191262,45.88061439073368],[-0.880343273242575,45.87964290509923],[-0.878018894605732,45.87867689188472],[-0.875207010607549,45.87767887383969],[-0.873629129983468,45.876991897157644],[-0.874200808029258,45.87550272067545],[-0.875162853667338,45.87170923938943],[-0.873317383736225,45.870995381809884],[-0.874341380207517,45.86756942920526],[-0.875247383799166,45.868285753433156],[-0.877002232972206,45.867730560534156],[-0.877453002169675,45.867478871960316],[-0.878597670669086,45.86604752844174],[-0.878562271274313,45.865562792828506],[-0.87808827293129,45.86401663370833],[-0.878058899158056,45.86392928764086],[-0.8810233776078,45.86354795913452],[-0.881171034497487,45.862987510795975],[-0.881632178387885,45.86216925408748],[-0.883783247683547,45.85876124451808],[-0.885515630438616,45.85748992024265],[-0.886766756936207,45.85638479634229],[-0.887846861483162,45.855197190362425],[-0.887840022526705,45.855027026377414],[-0.889816823207919,45.855284416138794],[-0.891461098139083,45.85569297846639],[-0.895087646964428,45.853312161073326],[-0.895808582853704,45.85347211408233],[-0.899319845103427,45.853771049130756],[-0.899983373392256,45.85395820322512],[-0.902092556386128,45.85522870418716],[-0.903509575167701,45.856635798656754],[-0.903474268935735,45.85763147662296],[-0.909153747386151,45.863518071112416],[-0.913653708523349,45.86658993672534],[-0.913923964571323,45.86686998442861],[-0.91403837598995,45.86728165670002],[-0.914453050921508,45.872411813039086],[-0.917799245875171,45.87959335841448],[-0.92244197731989,45.88955996570007],[-0.921951053140994,45.89352783853044],[-0.921814459121232,45.895998467533964],[-0.922049226008177,45.89626711165925],[-0.922275173027323,45.89637557590638],[-0.930853941799549,45.89879401646792],[-0.930780380204047,45.89908418878074],[-0.93116472933606,45.89920425670609],[-0.932810401457664,45.90002516295231],[-0.933500903193075,45.900092192307135],[-0.933830387863992,45.90022137425649],[-0.933801430996126,45.90169651661909],[-0.933209010638144,45.90282251234552],[-0.933099751554975,45.903209499588044],[-0.932434383842391,45.90405582485429],[-0.93205121819487,45.904785035642014],[-0.931485726080598,45.905348380092384],[-0.931258031625228,45.90688092297305],[-0.931500547951406,45.907184443949674],[-0.931474091216485,45.907374702371236],[-0.930882767929024,45.90831851889326],[-0.930253788099315,45.90907881120619],[-0.930023001187835,45.90922929064528],[-0.929941409887308,45.90960629548684],[-0.929359512871491,45.91006741387189],[-0.929532873724836,45.91027055999044],[-0.930235642384697,45.91021817470328],[-0.930743296539792,45.91036371206248],[-0.930908616541615,45.91054459568293],[-0.931038361987494,45.91078802585409],[-0.930862871967971,45.9118399964448],[-0.93045570350957,45.912179637152505],[-0.929759613949786,45.9122173649835],[-0.92954796187588,45.912310376316505],[-0.929250647516485,45.91256054024944],[-0.928671901715762,45.91357332861652],[-0.927991451135468,45.91381246153818],[-0.927441606131244,45.91418049013624],[-0.927043500551345,45.914665862748194],[-0.926956738440408,45.915006979811416]]]]}}]}