{"type":"FeatureCollection","name":"COM_64516","crs":{"type":"name","properties":{"name":"urn:ogc:def:crs:OGC:1.3:CRS84"}},"features":[{"type":"Feature","properties":{"fid":4122,"ID":"COMMUNE_0000000009761340","NOM":"Sedzère","NOM_M":"SEDZERE","INSEE_COM":"64516","STATUT":"Commune simple","POPULATION":391,"INSEE_CAN":"23","INSEE_ARR":"3","INSEE_DEP":"64","INSEE_REG":"75","SIREN_EPCI":"200067296"},"geometry":{"type":"MultiPolygon","coordinates":[[[[-0.212997048365352,43.34005203431942],[-0.213145649174476,43.34028350736729],[-0.213220737803876,43.34070083420343],[-0.208093000696058,43.34121232970914],[-0.201923728022231,43.3421838868775],[-0.199339475352142,43.34269614277275],[-0.198029605136571,43.344410413917785],[-0.197546906287197,43.344826238091755],[-0.19709771116509,43.34546795402054],[-0.193592824861514,43.348291433469804],[-0.192584211454127,43.34901357315536],[-0.191998074468909,43.34927846794762],[-0.192096554570463,43.34958617701153],[-0.191958487675664,43.34996659281098],[-0.191689103672945,43.3500033543556],[-0.191415232232758,43.34987008414094],[-0.191136705269977,43.34994222722666],[-0.191060635287634,43.35019476528955],[-0.191201647769765,43.35044629974087],[-0.191025092656195,43.35057755658042],[-0.190671110924073,43.35053488111123],[-0.190582596125114,43.35040694387476],[-0.190613157728132,43.35017915756944],[-0.190311956745761,43.350153830843254],[-0.190129601149983,43.350224934788876],[-0.190071090977335,43.350349106403606],[-0.189234688678282,43.35070689969956],[-0.189213091118497,43.350851590308594],[-0.189430340237841,43.3510540612944],[-0.189906093563941,43.35113456461362],[-0.190085969415908,43.35128591728823],[-0.190024745626992,43.35140566730766],[-0.189406135916161,43.35164179422941],[-0.189259385968518,43.35195493735313],[-0.189360877699046,43.35211670589456],[-0.189748787615698,43.352281731414735],[-0.190010701626142,43.35259992813151],[-0.190101671295918,43.35279441866166],[-0.190019960019187,43.35319027636766],[-0.19040348414171,43.3536768499723],[-0.190798751850549,43.35392988843532],[-0.191159737327772,43.354031779911246],[-0.191896184916428,43.35405146295687],[-0.192409805980733,43.35396877760256],[-0.192534273931917,43.35405513739669],[-0.192673293363169,43.35440396664841],[-0.192658287137868,43.35475644248301],[-0.192226042666962,43.35497177795285],[-0.192127230651077,43.35510344303563],[-0.192110886281199,43.35560991653976],[-0.192261320174495,43.35600882894585],[-0.19245698232883,43.356155211222294],[-0.192647733747612,43.35616848770065],[-0.192951802240154,43.35600015104384],[-0.193056246413626,43.35581429838066],[-0.193459037102039,43.35569076366649],[-0.193692539389763,43.355829724033],[-0.193686695926191,43.356169325219284],[-0.193943668440024,43.356175241918],[-0.19390613091252,43.356343813958645],[-0.193302622475819,43.35667495318824],[-0.19325616042926,43.35761718214506],[-0.193381107725786,43.35782327284392],[-0.193555259735505,43.357915367800395],[-0.193971282184231,43.35796340613122],[-0.194214474723142,43.35783197692269],[-0.19438028938386,43.35790721030433],[-0.194306373071254,43.358131778047486],[-0.19439258215925,43.35839573349213],[-0.194265142332573,43.35845621888608],[-0.193877578388516,43.35845415902449],[-0.193799785246525,43.35863112273397],[-0.194316600101266,43.35900570930109],[-0.194915877421324,43.360221480573784],[-0.193402155840875,43.36062812104041],[-0.191745256364392,43.36078956970051],[-0.187956746051371,43.36160986635484],[-0.186415119309878,43.3618704737091],[-0.186152688459919,43.362903693937206],[-0.182119536903206,43.36195821631668],[-0.179832875442855,43.361152134918456],[-0.178052088798569,43.36092536760112],[-0.177122782944995,43.36049799825411],[-0.176037185683507,43.36023457032574],[-0.167197300835976,43.35404381522407],[-0.16541986300775,43.35266073208124],[-0.162720158737858,43.351241576323375],[-0.161049729052716,43.35050083152024],[-0.15932729890897,43.34941855943512],[-0.159514961785613,43.348296679277944],[-0.159598364507195,43.346083958076285],[-0.159407786833975,43.34573570106254],[-0.159185156412018,43.34460060218776],[-0.158848846690879,43.34384425711095],[-0.158793937213576,43.343000463871064],[-0.159325518022748,43.341334654714466],[-0.159637625917497,43.34097531238854],[-0.159889846416737,43.34004151772215],[-0.160055752196559,43.33994033549775],[-0.160536295831897,43.339211440416335],[-0.160145815367152,43.33762479664881],[-0.158786380702757,43.33667687831515],[-0.156802653081289,43.3341266167352],[-0.156058250407981,43.33379902954683],[-0.155141157049623,43.332097206126605],[-0.154407563421517,43.33090770058945],[-0.154290540383665,43.33084269172589],[-0.153966759782631,43.32963672587162],[-0.153875164896886,43.32839157611693],[-0.154022681167968,43.327188968265716],[-0.153330894128207,43.32588300396673],[-0.153274327581448,43.32554794110458],[-0.153344621405909,43.32446642925714],[-0.154208865028034,43.32351660587211],[-0.157624003487628,43.323976888555755],[-0.159855900174231,43.32406472180481],[-0.16100718897271,43.3238086868317],[-0.161436383086143,43.32324785025872],[-0.162455247927662,43.32323065161437],[-0.162435042772825,43.32308719404761],[-0.164525961333933,43.323123235467015],[-0.165104989315153,43.323023454748515],[-0.166549183828757,43.32295955107175],[-0.167759543559365,43.32310595011309],[-0.169636348339334,43.32317247554917],[-0.171087263118198,43.32300657935357],[-0.172181398176084,43.323281481682194],[-0.172627220475348,43.323248590925814],[-0.172949704111059,43.32330484811746],[-0.173363602093166,43.323229676538645],[-0.174283099542874,43.3232666010804],[-0.174515760895127,43.32316973766917],[-0.174910912564776,43.32315723200736],[-0.175686637660374,43.32297959187916],[-0.176071698346061,43.32298538459733],[-0.176109569945372,43.32313552400378],[-0.176327038380293,43.32312103126516],[-0.178107733800978,43.32374752698584],[-0.178558011934731,43.323907147563396],[-0.178738994985591,43.32649472754059],[-0.180447251842154,43.32634274711579],[-0.181047137799804,43.32758103626684],[-0.182001254749105,43.32743951648494],[-0.182187033756495,43.3271189373041],[-0.182713005824305,43.32784441368605],[-0.183074499619545,43.32869537389967],[-0.183138373264924,43.32911484187678],[-0.183240202991621,43.32917216480739],[-0.184376656669562,43.328692137610425],[-0.185617942378488,43.32830174176266],[-0.187290473012397,43.32785990381971],[-0.18893846570306,43.32753220350217],[-0.189711874014096,43.32766874259731],[-0.191268807351367,43.3275453648201],[-0.192386697996127,43.32771132925419],[-0.194095901698279,43.32757621128127],[-0.196914536500924,43.32669880833665],[-0.197509153587218,43.327013441108264],[-0.199403057283181,43.327406667173506],[-0.201049813078584,43.32801245370568],[-0.203439291740215,43.32919942927852],[-0.205890865339485,43.330082004088354],[-0.208215129879502,43.331223998181855],[-0.208112160399809,43.33085881854879],[-0.208667434791104,43.33068658218585],[-0.209028634011513,43.331857095833],[-0.209247596466366,43.333728689701324],[-0.209913242741403,43.33469569440074],[-0.210591732899621,43.33536160309938],[-0.211315111182893,43.33712008337025],[-0.211800659937278,43.33795287780817],[-0.21243115644452,43.33879667031913],[-0.212997048365352,43.34005203431942]]]]}}]}