{"type":"FeatureCollection","features":[{"type":"Feature","properties":{"fid":459,"ID":"COMMUNE_0000000009751684","NOM":"Bourcefranc-le-Chapus","NOM_M":"BOURCEFRANC-LE-CHAPUS","INSEE_COM":"17058","STATUT":"Commune simple","POPULATION":3515,"INSEE_CAN":"10","INSEE_ARR":"2","INSEE_DEP":"17","INSEE_REG":"75","SIREN_EPCI":"241700699"},"geometry":{"type":"MultiPolygon","coordinates":[[[[-1.102813693774391,45.865642164562516],[-1.1014656764818,45.865201505458266],[-1.101062669939519,45.86504121083357],[-1.100856005868248,45.864865669402306],[-1.100899208979472,45.86430143476612],[-1.101184641437048,45.86354084754283],[-1.100792403999828,45.86317817876867],[-1.099918036985191,45.862753664987885],[-1.099877370934832,45.862345766439496],[-1.100150930498339,45.86182456553853],[-1.100075564070458,45.86150539265353],[-1.099382105052077,45.86078846574319],[-1.097373528427643,45.85751874641984],[-1.096666520881362,45.85661834982668],[-1.097032051837812,45.85651852271554],[-1.102600518919982,45.85398720855508],[-1.102098770740547,45.85345269278281],[-1.102029612036625,45.85323428704422],[-1.101969177581225,45.85325451698609],[-1.101665449934315,45.852536971791025],[-1.101847241701619,45.85230944852833],[-1.102930435702111,45.85247297268061],[-1.103668648299682,45.85237039858538],[-1.104596367110948,45.85210944263108],[-1.106034548286187,45.851529644787675],[-1.106963514643218,45.85128575562199],[-1.108444143210076,45.85067011618067],[-1.109457750789767,45.850592647255304],[-1.111794481119041,45.850054902922786],[-1.111040512577411,45.84882086436469],[-1.111046358632828,45.84851857744407],[-1.111279202781667,45.84814580549943],[-1.110021001973245,45.84824752694535],[-1.109400588273024,45.84857940044733],[-1.108839682994837,45.84875761672559],[-1.108504640136775,45.84876349874612],[-1.108223685701495,45.84862944952008],[-1.108286846885539,45.84746845123225],[-1.1078633795752,45.846356722113995],[-1.107370682424177,45.84587420041287],[-1.108806420799237,45.84496983294112],[-1.109511012367411,45.844763841768],[-1.110278440557536,45.84429315952652],[-1.11066178921378,45.844312563555455],[-1.111600861311896,45.844500184012944],[-1.113380280110978,45.844693246528955],[-1.113199095054221,45.84541220335571],[-1.114826148339175,45.8448425343566],[-1.115457823215099,45.84436864839542],[-1.116769783704038,45.84476355162],[-1.1186003669883,45.84505385589638],[-1.119511351951468,45.845279407288714],[-1.119595970540609,45.84522041265024],[-1.119916681368693,45.84443593503441],[-1.120363632494021,45.84432223567436],[-1.121020171294324,45.843974551502015],[-1.121267668078095,45.84352277132414],[-1.119922482733634,45.84308044011326],[-1.117485154895934,45.84297460266547],[-1.118052785049613,45.84119464467266],[-1.118008431237248,45.84108444988361],[-1.117694284548822,45.840885810418236],[-1.117511482567138,45.83921528509801],[-1.117977037277586,45.83852201260261],[-1.119171462939493,45.83755236352774],[-1.120027026801143,45.83669245630119],[-1.121646086960092,45.835657681798494],[-1.122101329856234,45.83522446126196],[-1.123063290689679,45.83544360812419],[-1.123526388164713,45.835115595742344],[-1.123675205534675,45.83525984405845],[-1.124751384972091,45.83564342539118],[-1.12518995697453,45.83588438682639],[-1.125475490810722,45.83545915805064],[-1.126078664138261,45.83412420106579],[-1.130111605343299,45.8295140520553],[-1.132037578488651,45.828053087352],[-1.13349444155131,45.8275795283076],[-1.134216764351472,45.82683980166496],[-1.134565712934755,45.826745861415255],[-1.135477544582744,45.82674491063444],[-1.135892183446482,45.82656379634742],[-1.136613984116664,45.82607565402967],[-1.13720140800125,45.82553291941522],[-1.138008822767638,45.82450149262022],[-1.139495389677194,45.82286172668657],[-1.139547828914892,45.822666832701934],[-1.140038976079458,45.82252617777754],[-1.140171321703715,45.822502385455564],[-1.140117137290901,45.82263963311812],[-1.140265597518559,45.822916427325026],[-1.140902135764703,45.8238534122478],[-1.142121138829444,45.824869106913475],[-1.142432454596691,45.82497851072174],[-1.143092548874141,45.82547277214045],[-1.1442302466529,45.82559420796751],[-1.144473779626212,45.825402211866894],[-1.14501967744127,45.826007061586495],[-1.146216428981486,45.82670792712089],[-1.147121213479008,45.82752230923106],[-1.147349487292363,45.827624833141265],[-1.147549749382234,45.82754353054968],[-1.147534642083769,45.82766852520677],[-1.148502743990731,45.828758304894635],[-1.149267864471094,45.829464187808206],[-1.149388641528706,45.829526475416344],[-1.149888762693815,45.82935028126456],[-1.149682672535594,45.82949131678756],[-1.149729246226322,45.8296131420154],[-1.150280050320751,45.83021328094494],[-1.150161232624177,45.830194205486954],[-1.150162928591881,45.830096755583334],[-1.149828756887709,45.82988992267939],[-1.149684152907389,45.829699563392936],[-1.149647996198202,45.829784754398176],[-1.149555583139715,45.82977372476112],[-1.150038147387942,45.83023840838903],[-1.150448756060473,45.8305353084569],[-1.150445711641825,45.830460576287756],[-1.150550312847539,45.83046213960977],[-1.150586193697851,45.83052754845021],[-1.150487210557985,45.83056635668047],[-1.152508298303652,45.8321052148553],[-1.152988056556535,45.832103792189464],[-1.152389611932745,45.83222500435274],[-1.152184873309737,45.833377744274394],[-1.151650053239982,45.83403585005334],[-1.150991179606097,45.8346570357329],[-1.15079684283419,45.83526293665306],[-1.151307431095008,45.83561927968691],[-1.15229233303216,45.835884228689046],[-1.152776257891543,45.836160390188205],[-1.152638740867276,45.83637284982043],[-1.152738616105054,45.83658559214211],[-1.154718671803345,45.83790139807874],[-1.154282757063928,45.8383142090006],[-1.154278233557635,45.83864801897249],[-1.153975974332554,45.839002706307035],[-1.154227202052797,45.83927209724986],[-1.154265403227507,45.839539409475925],[-1.155048783615919,45.83944023786654],[-1.156084673339385,45.84130477068689],[-1.155764951031891,45.841821517209254],[-1.155824746713147,45.841844564365516],[-1.156109541806141,45.841531995296144],[-1.156671403229711,45.84172862499895],[-1.156858419804917,45.842309672748264],[-1.156585694579729,45.84281657522672],[-1.155750573718946,45.84252089513142],[-1.155563478935305,45.84267476692301],[-1.155889546955842,45.842755641317545],[-1.156017937548901,45.842713041017696],[-1.15657107949779,45.84296499888027],[-1.155939915351705,45.84352657821104],[-1.15609552963758,45.843468547706316],[-1.156063650362055,45.84369605831092],[-1.156441822350496,45.84318437285894],[-1.156784065673298,45.84310323761306],[-1.157058533300153,45.8431499393841],[-1.157211881434298,45.84350679158455],[-1.15733172939136,45.84335088506263],[-1.158130163150042,45.84298873264149],[-1.15883098294351,45.843556259798284],[-1.159530233701722,45.84393176982994],[-1.159879600996754,45.843945045666835],[-1.159963357755609,45.843858096877305],[-1.159964665807125,45.843533421306084],[-1.160056493345822,45.843536349251885],[-1.160060654411708,45.84374540021103],[-1.160534357028632,45.843782045602126],[-1.160208200723046,45.84364888630623],[-1.160579127940317,45.84295620224577],[-1.161402539654006,45.84309627789952],[-1.162071631608197,45.84290117882874],[-1.162517898300117,45.84291628372519],[-1.162867889590007,45.84233978626112],[-1.164698624072896,45.843175801749524],[-1.164500474611323,45.84345634141291],[-1.164857931346235,45.843610877396486],[-1.1647969783251,45.843880043084425],[-1.165853708563526,45.84429011788434],[-1.16583959362807,45.84444483741294],[-1.16676641000516,45.84468926866005],[-1.167240826263947,45.84505950647893],[-1.167484228073985,45.845104625239095],[-1.167797461339264,45.845424903372276],[-1.167815198637389,45.84564247135377],[-1.167601338980861,45.845902856596375],[-1.167334404625797,45.84575129881487],[-1.16708743047505,45.84577845126817],[-1.16703315422237,45.84591391345921],[-1.16735154268213,45.84601217279537],[-1.167390512277938,45.846118042029616],[-1.167244010289003,45.84629658597608],[-1.166967420721072,45.84625629860832],[-1.167245611234675,45.84645433262283],[-1.16717295494391,45.84673926167186],[-1.167583174539352,45.84777916171784],[-1.168273689506734,45.84846424386036],[-1.168143056414304,45.8484943162816],[-1.16830279151053,45.848627287384055],[-1.16821678702438,45.84865030148715],[-1.16823675560189,45.848846145186634],[-1.168131891932634,45.848995198499196],[-1.167995979364901,45.84904079534483],[-1.16774151290788,45.84896903310179],[-1.167703060119459,45.84902365585136],[-1.167220865073369,45.848824135931686],[-1.167054288614565,45.848429909262215],[-1.167373140509517,45.84819270199368],[-1.167003781986174,45.848239701518324],[-1.166845450920497,45.84802281444728],[-1.16687589032576,45.84839140711248],[-1.166419640430777,45.84870582375238],[-1.166644870590182,45.84886884265732],[-1.16670574329512,45.84907670286461],[-1.166816542282957,45.84907441669446],[-1.166917995065816,45.84932406281792],[-1.167010978822665,45.84930800611453],[-1.167059555391783,45.84937023705427],[-1.16694239907987,45.84940792623732],[-1.16699477268481,45.849486248496206],[-1.16694513626867,45.84951242785729],[-1.167070735105828,45.84963764326581],[-1.166975327030094,45.8497069925616],[-1.166633501870435,45.8496745221978],[-1.166326113332768,45.84950010740897],[-1.166162780788504,45.84959270299523],[-1.166013232403909,45.84956034862805],[-1.166014230086381,45.84948817209242],[-1.165678309871372,45.84949966656218],[-1.165300576109962,45.84940178808489],[-1.165332329947339,45.84936093961741],[-1.164863348030885,45.84916543103402],[-1.164749903348541,45.8491497779722],[-1.16440271381777,45.8493366230964],[-1.164220586167326,45.84928292461652],[-1.164189454427099,45.849075769821006],[-1.163643812290063,45.84919779324355],[-1.16291241569377,45.84908138951155],[-1.162652243371828,45.84924157477558],[-1.16261089189339,45.84939459262707],[-1.162411290690508,45.84933161641313],[-1.162114770973378,45.849625696915986],[-1.161683641012365,45.84972635536791],[-1.161430382855229,45.849961127414716],[-1.16135430087891,45.850218223696494],[-1.161871588566386,45.850523782127894],[-1.161845700055031,45.850813294613026],[-1.161958422007918,45.850938990106584],[-1.162286206201199,45.851195625064406],[-1.162374913809054,45.85110578696728],[-1.162471978970657,45.85116082148006],[-1.162420932317268,45.85127091294113],[-1.162574201426482,45.85126706518943],[-1.162848221443259,45.85156355434338],[-1.163074579865397,45.8516048032736],[-1.163030840830331,45.85167494879565],[-1.163199013307852,45.85168046985425],[-1.163535447222764,45.852119836832536],[-1.163620308051361,45.85209867223121],[-1.163656422218873,45.85216677468042],[-1.163584093834051,45.85220010153577],[-1.163656526056934,45.8523390041669],[-1.163801004711654,45.85238958376919],[-1.163931912001289,45.85263634248068],[-1.164381636163531,45.85291823210557],[-1.164551091697312,45.85288943763349],[-1.164556118797508,45.852955981370656],[-1.165243245836166,45.853237225852105],[-1.165190971649606,45.85329686621305],[-1.165412314897369,45.85328869977761],[-1.16551420720683,45.853390444637114],[-1.166086695777959,45.85348654729005],[-1.166450805677934,45.8536940383872],[-1.167090770406009,45.853829126289966],[-1.167033631271704,45.85392682050591],[-1.167206496818903,45.85397725001264],[-1.167318233703109,45.8539018875578],[-1.16756873051796,45.85398912782795],[-1.167485373482462,45.854064344680985],[-1.167565986420408,45.85410645630122],[-1.167680292022755,45.854013865452714],[-1.168214433009184,45.85426827745343],[-1.168166026752894,45.85434490968011],[-1.168268115006931,45.85439795069553],[-1.168335416695978,45.85431521029452],[-1.168498115245489,45.85433355036022],[-1.168479993173391,45.85443521525574],[-1.168734375637201,45.8545908424984],[-1.168908458497044,45.854623189621336],[-1.168975555477044,45.85453775112728],[-1.169585605249142,45.854908384820384],[-1.175447611216937,45.85373948692214],[-1.175853449787195,45.85356035744356],[-1.176385747119571,45.85355148841529],[-1.177036094515386,45.85338044240452],[-1.177113989976362,45.8535398759131],[-1.176445049349082,45.853635862902046],[-1.175975412995808,45.85382456842788],[-1.175482529550649,45.85382566544653],[-1.169622210195607,45.85499991305011],[-1.169281152221553,45.85514867255113],[-1.169440261490952,45.8553754478536],[-1.169005767785835,45.855653901752646],[-1.168986887822772,45.85593323917336],[-1.16905287750356,45.855986710833974],[-1.16899774840742,45.85600858500365],[-1.168857336600169,45.85556830607153],[-1.167566357193415,45.85518673614657],[-1.167530745684731,45.85524486078774],[-1.167388698763713,45.85520952549426],[-1.166877143763438,45.855595417995794],[-1.166851115682629,45.85578033503126],[-1.169115106949842,45.85636585252023],[-1.169446212041502,45.85620483688621],[-1.169473980658206,45.85619659740568],[-1.169470810802806,45.856239998406245],[-1.169160176625863,45.85644985434742],[-1.166615937183752,45.855759256863536],[-1.166740498048816,45.85575105289896],[-1.166830809642999,45.8555799948603],[-1.167348522766835,45.85517313507788],[-1.166925935452196,45.854926324322875],[-1.166977487939896,45.85470349354375],[-1.166865023344999,45.85459853302415],[-1.164370755568641,45.854243297701906],[-1.164360267985167,45.85429237880775],[-1.163906923521875,45.85423605852918],[-1.163876406765085,45.85437875805114],[-1.163715121537211,45.85431076327393],[-1.163385405766252,45.85433644892715],[-1.162942347060165,45.85422834604224],[-1.162911814369469,45.85430251320146],[-1.161721051000242,45.854136307574656],[-1.161520846119337,45.85420230081128],[-1.160911233323355,45.85405884912964],[-1.160872197221265,45.853917812346154],[-1.159450820386815,45.853739342331245],[-1.15889214046276,45.853501124173],[-1.158819805361094,45.85351731495458],[-1.158770352511938,45.8534433903049],[-1.158555974757739,45.8533728355384],[-1.158515951574915,45.85342390559655],[-1.158334289054146,45.8533593593014],[-1.157689492361263,45.85339933860864],[-1.156471167260817,45.85284995240342],[-1.156090368638881,45.852608778974684],[-1.155837035041382,45.85227814867942],[-1.155776961469933,45.85232003664253],[-1.1548187048584,45.85203609107357],[-1.153898579839148,45.85145316076529],[-1.15370656719625,45.85140521960714],[-1.15321539896766,45.85144583368153],[-1.152804828810888,45.8515970998659],[-1.152683525417743,45.85152852114319],[-1.152314403060167,45.85159620266438],[-1.15181415556499,45.85180757296616],[-1.151115122323619,45.851778272582614],[-1.150598329082364,45.852489808094454],[-1.150481766236589,45.8524670413455],[-1.150502020143018,45.85237612301063],[-1.150205637139708,45.85227881045283],[-1.150179359954266,45.852221163536214],[-1.150111696948731,45.85224799780127],[-1.149971902845038,45.85224231581375],[-1.149936812253713,45.85241042704132],[-1.150444307433623,45.852603679047064],[-1.149658910068013,45.8540843463727],[-1.148971736830349,45.85464162613467],[-1.148887666714221,45.854879167036266],[-1.148440483882405,45.8539956667674],[-1.148757082791383,45.85479018511653],[-1.148192450855049,45.8549353718228],[-1.148097605275691,45.8552012617185],[-1.148279936233312,45.85530908301995],[-1.148403028454619,45.8560187351571],[-1.146950525654883,45.85607840740357],[-1.146981356145649,45.855956442477314],[-1.146863703459541,45.855936417015826],[-1.146824198976038,45.856097475097016],[-1.145629506826214,45.85601600759056],[-1.144388251382497,45.85617339275725],[-1.144365020810917,45.85615621081662],[-1.144341647820546,45.85618862944665],[-1.143925282032648,45.856194894868494],[-1.143947240685886,45.8561093259773],[-1.143559745310748,45.85601894671354],[-1.143028936726838,45.855446889503106],[-1.142473383129067,45.85545555209987],[-1.142469666395263,45.85540609318555],[-1.141775994574298,45.85546580829064],[-1.141356968250882,45.85524763082751],[-1.141292519381847,45.855076862372265],[-1.140701755665267,45.85471980324085],[-1.140474104424924,45.85440352902408],[-1.140815081798445,45.85401229635946],[-1.140766185976979,45.85397982391394],[-1.140567965049645,45.85415842277275],[-1.14038983689728,45.854123475817886],[-1.14038269628622,45.854578210196955],[-1.14148725132707,45.855435822440896],[-1.141473693037811,45.85549583408921],[-1.141447406922426,45.85552385026796],[-1.141562952526057,45.85556740358689],[-1.141339134463174,45.85569734740991],[-1.141387214781972,45.855753294617486],[-1.141665010988623,45.855654734686595],[-1.142080970639057,45.85562594904712],[-1.142227453067751,45.855772065936634],[-1.142357850228808,45.855721293434875],[-1.142405764952358,45.855568946136145],[-1.142989624156894,45.85561064399966],[-1.143513190605634,45.85615501349807],[-1.143549666969802,45.85636558210383],[-1.145272792739917,45.85621486226833],[-1.145540813389284,45.85626092903991],[-1.145810135099359,45.85618701673333],[-1.145498452276404,45.85705330540037],[-1.145577564944472,45.85707564918125],[-1.146049305504412,45.85619266189493],[-1.147245158263681,45.856220880110264],[-1.147304349652861,45.85632150366595],[-1.147736221849301,45.85638408980037],[-1.147873987069969,45.856482728247],[-1.148107088112108,45.8570765238645],[-1.148232934498657,45.85717109117746],[-1.14852449073574,45.85684386940082],[-1.150899080912311,45.857375185156734],[-1.150873538286446,45.857652957635686],[-1.150945880786983,45.85765390496623],[-1.151037737220339,45.85734844575661],[-1.15139694173308,45.85733704228322],[-1.151423359729676,45.85725942320361],[-1.151914038896639,45.857297288068416],[-1.151926231556393,45.857236423245006],[-1.152915247565775,45.85748229347133],[-1.153079857554628,45.85809122454303],[-1.153017201266339,45.85811607269787],[-1.153113051131049,45.85822346092729],[-1.154085429247239,45.85853936769997],[-1.154342974025927,45.85870302586376],[-1.154398725906904,45.85879205022067],[-1.154278782630347,45.85930684802911],[-1.154726475110558,45.85949326663226],[-1.154675335904112,45.85956818931482],[-1.154775997415938,45.8596023583639],[-1.154838720675384,45.859544142423026],[-1.155116049642526,45.859661984061205],[-1.155429358435011,45.85993179675941],[-1.155519435834054,45.860767100178734],[-1.155678295765082,45.86090553200676],[-1.155752088034564,45.86125088795059],[-1.155828297717567,45.861268823072635],[-1.155648671905436,45.8616253094589],[-1.155414299746533,45.86183772829266],[-1.155223741081123,45.86180957309871],[-1.154662381319716,45.86211878638696],[-1.153545660100969,45.86228611364439],[-1.153553313110408,45.862216398209455],[-1.153488483873495,45.862212470740076],[-1.152755917803081,45.861911182243496],[-1.151547612180033,45.861650827145446],[-1.151077290076925,45.86131824438027],[-1.150477652561536,45.86113649480231],[-1.149344484098566,45.86117092834466],[-1.147800653719387,45.8614079976488],[-1.146505095339992,45.861514194247654],[-1.145432213126735,45.861492270244305],[-1.143467346404057,45.861279441779885],[-1.143498660706885,45.861163772556516],[-1.143331229352119,45.86101391670034],[-1.141758154140653,45.86103375662086],[-1.140964589944579,45.860950145953744],[-1.140029622143598,45.8607021890934],[-1.139092286074995,45.86076631038688],[-1.137797715494921,45.86071366645862],[-1.137720538855944,45.86001224373973],[-1.137281226330078,45.859592806473295],[-1.137337519050558,45.859586235130536],[-1.137356676080343,45.859635128287096],[-1.137502238800959,45.8596658635636],[-1.137484804907584,45.859760282282664],[-1.137572788080383,45.85979763604638],[-1.137608015578978,45.85978552439081],[-1.137655438566377,45.8597639485209],[-1.137715768312558,45.859862731430326],[-1.13802389768116,45.859394262334746],[-1.137505718446309,45.859058872064544],[-1.137316606453369,45.85875741033652],[-1.136849335932416,45.85856713382231],[-1.133796389355978,45.85881510982101],[-1.133439737811703,45.85904999172909],[-1.131915298159413,45.85902914186486],[-1.129954007565655,45.85886194070653],[-1.129300102323783,45.858609027583064],[-1.129036091040553,45.858375217060136],[-1.128747038952401,45.85825503721736],[-1.127918492884067,45.85822040768161],[-1.127206934776565,45.85802459597194],[-1.126427779178401,45.857977329578105],[-1.126490914789682,45.85782082753173],[-1.126043969214423,45.85800488180089],[-1.125867081986921,45.857917566577015],[-1.125312241133743,45.85793603669975],[-1.125327525045474,45.857847109491395],[-1.126077959539225,45.85789002261444],[-1.126244310563584,45.85776762115566],[-1.124975243514847,45.85726123688042],[-1.1253102915316,45.85678911726898],[-1.12660261136652,45.855623754965194],[-1.126664322186798,45.855465501344526],[-1.126041886497739,45.8559598509444],[-1.125193099315436,45.85680963014063],[-1.125053329807732,45.85673538522239],[-1.123364665289267,45.856519338586054],[-1.123173096491148,45.85654617249377],[-1.122921842132416,45.85646517566795],[-1.121414611613851,45.85632813834808],[-1.121420662761819,45.85640907224908],[-1.121250962258731,45.856210576384434],[-1.121309009409903,45.85560610870245],[-1.121204985626689,45.855578345641796],[-1.121129140563991,45.85603107224368],[-1.120917306588211,45.85620111374053],[-1.121103438942649,45.856446801433016],[-1.121019784539612,45.85644985483782],[-1.121194201374476,45.85766081018389],[-1.121090913169053,45.85776376938623],[-1.120871926868184,45.857872754682475],[-1.120194975864,45.85762153366593],[-1.119783061495561,45.85729030432625],[-1.119733092887074,45.85713973709399],[-1.119555956190939,45.85715251234669],[-1.120119569539278,45.85764863176685],[-1.12085848001253,45.85793456239075],[-1.120959703323375,45.85801112100068],[-1.120911323888002,45.858158063614155],[-1.120567752507624,45.85829233479665],[-1.119215994448682,45.858509378236384],[-1.117790243894321,45.859290873798415],[-1.117309221562095,45.859416621427386],[-1.117728170157744,45.86063669701832],[-1.117694429475726,45.86075515077165],[-1.117475403093367,45.86089839554739],[-1.117211704029067,45.860875549319694],[-1.116320943263051,45.8610450867035],[-1.116069779107812,45.86070617996692],[-1.115983599718043,45.860727355776554],[-1.116298885634742,45.86152740765421],[-1.116738598437733,45.8616258953164],[-1.117390027965746,45.862226131888804],[-1.11437858612197,45.864261063556135],[-1.114168420302405,45.86419478022549],[-1.113460295385281,45.86369938634843],[-1.112053249168186,45.86473440389546],[-1.111964966766231,45.864935094107295],[-1.112478434995853,45.86508772134252],[-1.112797227277307,45.86539892493602],[-1.112471322271766,45.86603027227243],[-1.111980398062149,45.86635292901066],[-1.112247523605107,45.86654248074911],[-1.112045867432396,45.86697092462442],[-1.11052672212316,45.86674670022808],[-1.110481041707252,45.86686107718092],[-1.111839577496354,45.86706049214027],[-1.112008802993144,45.86716614287133],[-1.111640294309211,45.868126360706455],[-1.111479313726278,45.86832158170332],[-1.111292956095788,45.86838427261471],[-1.110361013842448,45.86817653752004],[-1.109756668265323,45.86838067865577],[-1.108955001386792,45.86818893049407],[-1.108656178561255,45.86833596137653],[-1.107979308906505,45.86848502170164],[-1.107417203061302,45.868216919813165],[-1.107713423971341,45.867601998445615],[-1.107534788076248,45.867664402218885],[-1.107076387472654,45.868094960215956],[-1.106914017899894,45.8680638950608],[-1.106541202765597,45.86780693925313],[-1.106044916935156,45.866862859472555],[-1.1061069101697,45.86677674625309],[-1.105166924565523,45.86604446704634],[-1.104456290904451,45.86577453750814],[-1.104384682927547,45.865852883836745],[-1.102813693774391,45.865642164562516]]],[[[-1.174467436735895,45.85717263272277],[-1.174243206117742,45.85727921404581],[-1.173863313374563,45.85720488700111],[-1.173774206878862,45.857118907695956],[-1.173731914536563,45.85705464328618],[-1.173736912753609,45.857018388464],[-1.173903747537924,45.85702304193275],[-1.174044414069329,45.85680142122505],[-1.173945979185584,45.85676267801557],[-1.174340985775694,45.85686620367871],[-1.174496504484815,45.85702817944862],[-1.174467436735895,45.85717263272277]]]]}},{"type":"Feature","properties":{"fid":858,"ID":"COMMUNE_0000002200276493","NOM":"Marennes-Hiers-Brouage","NOM_M":"MARENNES-HIERS-BROUAGE","INSEE_COM":"17219","STATUT":"Commune simple","POPULATION":6148,"INSEE_CAN":"10","INSEE_ARR":"2","INSEE_DEP":"17","INSEE_REG":"75","SIREN_EPCI":"241700699"},"geometry":{"type":"MultiPolygon","coordinates":[[[[-1.125264496570529,45.78630324533547],[-1.128598778504164,45.78900811334816],[-1.132579499408921,45.79247461015228],[-1.139156030889418,45.79891883808973],[-1.134743070915842,45.80136026609787],[-1.134794606679677,45.80144584432818],[-1.134465227662844,45.80157514278228],[-1.133944737366541,45.801958517622325],[-1.133908596795359,45.80218166672553],[-1.1343303443443,45.80206341205008],[-1.134388729448766,45.802102751385306],[-1.134942013302096,45.803103223955176],[-1.134989200830198,45.80325118069825],[-1.134795752529211,45.80340525355521],[-1.135237646599043,45.80426102369847],[-1.135214533625047,45.80438270239743],[-1.135331730066328,45.80441537667235],[-1.135499476450974,45.804675236144476],[-1.135552847316269,45.80497445617642],[-1.134733951436144,45.805402137630125],[-1.135084694682067,45.80585006274226],[-1.135450037804003,45.80570141031126],[-1.135665434648957,45.805719663408],[-1.135980741616116,45.80634832899346],[-1.135818409361611,45.80652200215133],[-1.136086400429201,45.807912558536],[-1.136199265558668,45.80797334456619],[-1.136237356380883,45.80848142385548],[-1.136128922878247,45.808772148984644],[-1.136237087326257,45.809182977624914],[-1.136435165104224,45.80922801488419],[-1.136348499366994,45.80960270442265],[-1.136159439507909,45.80972956624657],[-1.136362474228893,45.80996107954805],[-1.136397812582856,45.81063878462796],[-1.137154650583233,45.81068948168011],[-1.137326184120235,45.81081033449976],[-1.137293201240005,45.81140217603722],[-1.136738417498605,45.81144957270596],[-1.136790049396707,45.811966172888184],[-1.137106967478409,45.81232335804272],[-1.13713994649958,45.8125051994294],[-1.137053961969537,45.812613854799665],[-1.137124289763747,45.813087388184954],[-1.136817694953668,45.81307428440654],[-1.136772473176516,45.81408768129082],[-1.136912928268794,45.814533395022586],[-1.137400797071522,45.81502047230122],[-1.138136999365605,45.81608456316381],[-1.138523906639618,45.81711637697194],[-1.138675285259477,45.81810272616325],[-1.138550915915898,45.81931560519782],[-1.138394886980111,45.819608078069095],[-1.138267966147564,45.81961814363232],[-1.138203351630546,45.81977110223179],[-1.138222090826898,45.81981459965711],[-1.138133276594571,45.81983408816308],[-1.138112853311644,45.82002600372707],[-1.137988494971113,45.82007024065268],[-1.137889878013271,45.82030289644449],[-1.138141220656939,45.82054165399381],[-1.138206213725127,45.820771916386065],[-1.138065429846668,45.820717565584104],[-1.137913924474147,45.82050310008967],[-1.137569059434125,45.8204273776031],[-1.138790186681639,45.821610746838346],[-1.13911464835503,45.82184411533886],[-1.139330978776026,45.82190831777459],[-1.139317859026325,45.82185379356591],[-1.13936443104268,45.821855691972665],[-1.139693794750141,45.822583928834234],[-1.139813901491201,45.82250017005311],[-1.139724364110958,45.822406969965854],[-1.139780562589957,45.82234809913185],[-1.140038976079458,45.82252617777754],[-1.139547828914892,45.822666832701934],[-1.139495389677194,45.82286172668657],[-1.138008822767638,45.82450149262022],[-1.13720140800125,45.82553291941522],[-1.136613984116664,45.82607565402967],[-1.135892183446482,45.82656379634742],[-1.135477544582744,45.82674491063444],[-1.134565712934755,45.826745861415255],[-1.134216764351472,45.82683980166496],[-1.13349444155131,45.8275795283076],[-1.132037578488651,45.828053087352],[-1.130111605343299,45.8295140520553],[-1.126078664138261,45.83412420106579],[-1.125475490810722,45.83545915805064],[-1.12518995697453,45.83588438682639],[-1.124751384972091,45.83564342539118],[-1.123675205534675,45.83525984405845],[-1.123526388164713,45.835115595742344],[-1.123063290689679,45.83544360812419],[-1.122101329856234,45.83522446126196],[-1.121646086960092,45.835657681798494],[-1.120027026801143,45.83669245630119],[-1.119171462939493,45.83755236352774],[-1.117977037277586,45.83852201260261],[-1.117511482567138,45.83921528509801],[-1.117694284548822,45.840885810418236],[-1.118008431237248,45.84108444988361],[-1.118052785049613,45.84119464467266],[-1.117485154895934,45.84297460266547],[-1.119922482733634,45.84308044011326],[-1.121267668078095,45.84352277132414],[-1.121020171294324,45.843974551502015],[-1.120363632494021,45.84432223567436],[-1.119916681368693,45.84443593503441],[-1.119595970540609,45.84522041265024],[-1.119511351951468,45.845279407288714],[-1.1186003669883,45.84505385589638],[-1.116769783704038,45.84476355162],[-1.115457823215099,45.84436864839542],[-1.114826148339175,45.8448425343566],[-1.113199095054221,45.84541220335571],[-1.113380280110978,45.844693246528955],[-1.111600861311896,45.844500184012944],[-1.11066178921378,45.844312563555455],[-1.110278440557536,45.84429315952652],[-1.109511012367411,45.844763841768],[-1.108806420799237,45.84496983294112],[-1.107370682424177,45.84587420041287],[-1.1078633795752,45.846356722113995],[-1.108286846885539,45.84746845123225],[-1.108223685701495,45.84862944952008],[-1.108504640136775,45.84876349874612],[-1.108839682994837,45.84875761672559],[-1.109400588273024,45.84857940044733],[-1.110021001973245,45.84824752694535],[-1.111279202781667,45.84814580549943],[-1.111046358632828,45.84851857744407],[-1.111040512577411,45.84882086436469],[-1.111794481119041,45.850054902922786],[-1.109457750789767,45.850592647255304],[-1.108444143210076,45.85067011618067],[-1.106963514643218,45.85128575562199],[-1.106034548286187,45.851529644787675],[-1.104596367110948,45.85210944263108],[-1.103668648299682,45.85237039858538],[-1.102930435702111,45.85247297268061],[-1.101847241701619,45.85230944852833],[-1.101665449934315,45.852536971791025],[-1.101969177581225,45.85325451698609],[-1.102029612036625,45.85323428704422],[-1.102098770740547,45.85345269278281],[-1.102600518919982,45.85398720855508],[-1.097032051837812,45.85651852271554],[-1.096666520881362,45.85661834982668],[-1.097373528427643,45.85751874641984],[-1.099382105052077,45.86078846574319],[-1.100075564070458,45.86150539265353],[-1.100150930498339,45.86182456553853],[-1.099877370934832,45.862345766439496],[-1.099918036985191,45.862753664987885],[-1.100792403999828,45.86317817876867],[-1.101184641437048,45.86354084754283],[-1.100899208979472,45.86430143476612],[-1.100856005868248,45.864865669402306],[-1.101062669939519,45.86504121083357],[-1.1014656764818,45.865201505458266],[-1.102813693774391,45.865642164562516],[-1.104384682927547,45.865852883836745],[-1.104262158937776,45.8661314568323],[-1.104766197984551,45.86636561535251],[-1.105661986374997,45.867128359513266],[-1.105919609956541,45.86788364373244],[-1.105890017187685,45.86811014738898],[-1.106011767836002,45.86818507128385],[-1.106270339189129,45.868952944569806],[-1.106175110579238,45.869407262641815],[-1.104497523702816,45.871614316529566],[-1.103775240234022,45.87273163307484],[-1.103092523827723,45.8735138740845],[-1.102736946757609,45.87411290239436],[-1.102543629267493,45.87449864245795],[-1.102525966859174,45.87485095053134],[-1.102269817503118,45.875554570330046],[-1.10222691784414,45.876313563894136],[-1.101988832588294,45.87725998795933],[-1.101757594487858,45.87767415452617],[-1.101768012757246,45.87769271206671],[-1.101750121596317,45.87769516520111],[-1.101389348982525,45.87822494493883],[-1.101288358987712,45.878619953385055],[-1.100998813444435,45.878909995994455],[-1.100788681137155,45.87934773989384],[-1.099796794797804,45.87903027692348],[-1.099619662970222,45.87888792437531],[-1.099783575315288,45.8786790908498],[-1.09918408603645,45.87853403299566],[-1.099091052886113,45.87874119506327],[-1.098844616061269,45.8787257920559],[-1.098649297264192,45.878894285212745],[-1.093354031394609,45.87784015341121],[-1.092184318986313,45.87785638871895],[-1.090511005337214,45.87799274330825],[-1.089780287951598,45.87785329080925],[-1.089393407216148,45.87770228723805],[-1.087778854078178,45.87649023532991],[-1.086732851744321,45.8758590260071],[-1.084162904497574,45.87469591934076],[-1.080682699806299,45.87159364098394],[-1.079970761804012,45.871218107974514],[-1.078913664530888,45.87087036623798],[-1.07845208335498,45.8707553887155],[-1.077850489038159,45.870719403928476],[-1.07618813617423,45.87094893337846],[-1.075810770806287,45.87083811919227],[-1.074784136338319,45.87029086830912],[-1.07392750909025,45.870174796853945],[-1.073355271015751,45.870273884943686],[-1.072413548017682,45.87091017663367],[-1.071892287828321,45.87098307306758],[-1.071019801936276,45.870774677082856],[-1.070166195348267,45.86994793671321],[-1.069591164867153,45.86978200953532],[-1.06798845618138,45.86977032145314],[-1.064072358256663,45.86947399578748],[-1.06289860628323,45.869117683424214],[-1.059762152180075,45.86843519151273],[-1.056377970178289,45.86871729628798],[-1.055445303579153,45.86868947793202],[-1.054503507968074,45.86853754774905],[-1.052651269177957,45.868063023572425],[-1.052009459901671,45.867812844760955],[-1.050546562943767,45.86696274436773],[-1.048593694194134,45.86560902438749],[-1.042215777424494,45.862553606134334],[-1.041042640518987,45.86223672878138],[-1.039883533811198,45.8623223850979],[-1.03894645446254,45.86262009598447],[-1.037653021371498,45.86259872632251],[-1.035946266277608,45.86239645292845],[-1.035150682234117,45.86205339757139],[-1.034513797159895,45.86153334988766],[-1.032949210610401,45.86101577946804],[-1.030203899296005,45.8595989969614],[-1.030431546965215,45.85939430827343],[-1.029451431168683,45.85890902735355],[-1.028197185192555,45.858098099127766],[-1.027669211788431,45.857901435609904],[-1.027319485119023,45.85751266938484],[-1.026218542503238,45.85666199007865],[-1.025621044782514,45.85595475039849],[-1.02498900813889,45.85551653329819],[-1.024400079210462,45.855421211659035],[-1.023235263908939,45.85425990637146],[-1.022438127937366,45.85290245473988],[-1.022180506002216,45.85220112375816],[-1.02215878306054,45.85176188694729],[-1.021533062089565,45.85109079974229],[-1.02070315204637,45.85045042490549],[-1.01887564078927,45.84955883388013],[-1.018674136656978,45.84953805541291],[-1.018373773943877,45.849647929288665],[-1.017567453175412,45.849773103648495],[-1.016915717422046,45.849717850346096],[-1.016478323018275,45.849558490583235],[-1.014892217677579,45.84872046413889],[-1.014513746733273,45.848484164225816],[-1.014355621725236,45.84826166790834],[-1.014099656769315,45.84816617725666],[-1.01258525141735,45.847071304827075],[-1.012373463834065,45.84705088104484],[-1.011577985996131,45.845852900266046],[-1.010875574101905,45.84384102111928],[-1.01067220085364,45.84223338393581],[-1.010697010579827,45.84145707969158],[-1.010750473537918,45.84086189152421],[-1.011003202934881,45.84000896276421],[-1.011201269444205,45.83971700157803],[-1.012018772452546,45.839109085057224],[-1.012195125372908,45.83827058894386],[-1.012081804377416,45.83740451985984],[-1.011902501506955,45.837032198061245],[-1.011873321542977,45.8366842947839],[-1.011337458607137,45.835754799683194],[-1.01073372969527,45.834867387147796],[-1.010446588664692,45.8345728313396],[-1.010028001875468,45.83431540470602],[-1.009531190971289,45.833727143821015],[-1.009073563983687,45.83291478093312],[-1.008195917080319,45.832410371369726],[-1.006890624972089,45.831842695354375],[-1.006699005936807,45.832028025303664],[-1.006590399515179,45.831722614376595],[-1.00613474918294,45.831593623370715],[-1.004903690595959,45.83146149301523],[-1.00360900783201,45.83119906394628],[-1.001529643369142,45.8304676364605],[-1.001082358051408,45.83038251004756],[-1.000523953018351,45.82988566109308],[-1.000866002618348,45.829533614245726],[-1.000962249078775,45.829295773586935],[-1.000525824592386,45.828488941814115],[-1.000422357266535,45.82788039053811],[-1.002087953625649,45.825772789407075],[-1.003595273777103,45.82409815692836],[-1.004205386854244,45.82360224126052],[-1.00623876244243,45.82233628328606],[-1.007903877260897,45.82161173445248],[-1.008941867193093,45.820882392373576],[-1.009857764909547,45.81955597593048],[-1.009964877462843,45.819308723001356],[-1.00996310202776,45.81889402558853],[-1.010271863756067,45.81861796607705],[-1.010551669281708,45.81849351099507],[-1.010871801953084,45.81848032839491],[-1.011605806769513,45.81885637212606],[-1.012486161072161,45.81888638174],[-1.013772816695349,45.81920128174454],[-1.01491267403038,45.82008582788185],[-1.015863242947411,45.820336022762284],[-1.017525471712248,45.82005233881254],[-1.017979313282192,45.81983871575577],[-1.018399207347506,45.81944236145978],[-1.019010350658627,45.81841434411594],[-1.019347001180988,45.81744208585413],[-1.019987914968317,45.81662849784827],[-1.019799518181116,45.81598962232229],[-1.019819412711647,45.815059303204215],[-1.019324892975292,45.81430690474631],[-1.019190228825978,45.81387439767524],[-1.019605018203961,45.81307247249432],[-1.020337229497372,45.81266317776969],[-1.020456240873085,45.81236770085586],[-1.01982113361472,45.81154367415786],[-1.019392666624179,45.8113966414725],[-1.018402805684371,45.811330917384176],[-1.017939174682039,45.81109045780937],[-1.017114468248951,45.8109376915237],[-1.016859473810001,45.810569878255954],[-1.017170710379575,45.810134115646036],[-1.017710460876923,45.80973800194265],[-1.018934016779669,45.80931301898618],[-1.019710181904269,45.80929528408907],[-1.020016465870215,45.80902198764935],[-1.020112667587798,45.8082719860213],[-1.019153248899909,45.807278280982466],[-1.019145552715091,45.80710183016949],[-1.019857514680316,45.806751865201484],[-1.020080019359946,45.80672680466529],[-1.020853882723239,45.80697873872561],[-1.021386753669876,45.806948924424674],[-1.021570495833431,45.806745812482355],[-1.021457143550564,45.80628730203738],[-1.021567205275674,45.805904681388064],[-1.021803049765202,45.80567356332779],[-1.022651924962499,45.805274516767575],[-1.023544505721723,45.80536891622664],[-1.023959591210547,45.80558042711667],[-1.024721558290589,45.805474799491755],[-1.024856181922401,45.805552949122095],[-1.024987065513596,45.80584492584339],[-1.025316214713889,45.80593867559887],[-1.025806569289101,45.805556003930874],[-1.026332845356202,45.805294673839676],[-1.026499146035322,45.8048352017908],[-1.027260524281644,45.80447440692559],[-1.028026809560818,45.804304583968545],[-1.028546802989545,45.80445192071791],[-1.029298863438662,45.804316860219465],[-1.029483414399408,45.80437248278535],[-1.030199971490646,45.805022230895005],[-1.030079737758914,45.80556482016957],[-1.030396640637931,45.806796893766965],[-1.030960365223865,45.807383572285886],[-1.031514225793054,45.80778215286462],[-1.031668456548868,45.808093125594574],[-1.031996291758841,45.80839789351108],[-1.033042263525452,45.8089141276756],[-1.033217533641777,45.80926582322746],[-1.033782016883101,45.80965048919316],[-1.049971863423891,45.82007810326597],[-1.050105060438107,45.8199777446035],[-1.050526285739665,45.820094269053804],[-1.053086617404016,45.82125926893807],[-1.054062325578371,45.82137479770638],[-1.054635139184865,45.821640949941425],[-1.055049973894875,45.82167022503187],[-1.056365657993674,45.82212967983712],[-1.056968642280071,45.82210439510961],[-1.057607737027885,45.82221937257938],[-1.058107149121206,45.82243404669626],[-1.058877600825093,45.82249379885414],[-1.059521371976671,45.82281237779669],[-1.059762560215739,45.823057974990576],[-1.060940258511115,45.82328880751924],[-1.061437744784591,45.82349452020247],[-1.062226585242781,45.82366359375968],[-1.062345787416656,45.823793653392606],[-1.062623324601429,45.82388465019733],[-1.062740240596315,45.824298822320266],[-1.062623615705161,45.82462402076588],[-1.062659194281401,45.82480938848256],[-1.062953872523723,45.82506297243737],[-1.063380016446785,45.8251927995124],[-1.063685637096522,45.82550730230359],[-1.064253828860779,45.826777151097886],[-1.064236097158558,45.8271141183059],[-1.066035287068974,45.828968094332666],[-1.066658208037796,45.829404607369895],[-1.066885094338819,45.82970029973582],[-1.06763692554213,45.83018806696745],[-1.068120504612292,45.83029146227142],[-1.068768147729796,45.83029336172285],[-1.069764545001666,45.83005725903384],[-1.070665764786291,45.83017443575971],[-1.07274025352475,45.83068658976371],[-1.073625322026108,45.83079440774796],[-1.07391889956387,45.83092717924253],[-1.080622752859746,45.82843975902379],[-1.081638690381681,45.82799815710184],[-1.082036590228026,45.82771055092521],[-1.085316116504791,45.82389130643912],[-1.085615097440325,45.823296181484075],[-1.085742962837081,45.82251518993032],[-1.085849710003482,45.822406727713734],[-1.085705653921592,45.822185617767566],[-1.08590963845403,45.82086535944046],[-1.088308486324834,45.81723028131255],[-1.088454657836815,45.81690578312481],[-1.088385314793657,45.81687493300534],[-1.088535853918159,45.81640059432455],[-1.088540656716148,45.81587382792641],[-1.088775695055884,45.81554791212486],[-1.088592989162748,45.81527500657388],[-1.088842515967032,45.81517940052514],[-1.089214394229714,45.81522092619921],[-1.089837389448687,45.815136126918524],[-1.089963901500469,45.8149466922441],[-1.090655920067527,45.81450591949518],[-1.091048675631805,45.81439429463031],[-1.091572230026618,45.81406422170969],[-1.091657036887202,45.81381678506766],[-1.091985534786136,45.813412630843715],[-1.091896511774573,45.813307655578036],[-1.091508022055067,45.81330280960738],[-1.091421428534453,45.81314364384743],[-1.091870599714344,45.812801839376604],[-1.092008805911157,45.8121791612739],[-1.092553475686573,45.81169953622601],[-1.093063527596839,45.811622421490966],[-1.093482450056451,45.81125555791532],[-1.093665503090714,45.810698877375714],[-1.094157425653286,45.81015172653509],[-1.093991891376058,45.8095021964254],[-1.094389464999183,45.80914331709702],[-1.095128904739566,45.808682757896406],[-1.09505198080918,45.808462829721044],[-1.095254399050936,45.80695144108338],[-1.095548238049458,45.80635917477205],[-1.095288650554168,45.805693223779166],[-1.095304861129491,45.80545999591171],[-1.095551970799728,45.805158872507704],[-1.096328912923555,45.80489170954112],[-1.096480712010125,45.804678805095854],[-1.09634848638491,45.804339156214894],[-1.096436683759844,45.80398158380236],[-1.096337301625959,45.80328547107934],[-1.095901483097605,45.80271158345289],[-1.095469534353678,45.80107805314617],[-1.095486069341378,45.800328137730446],[-1.096100961116803,45.799250816571195],[-1.096380455311178,45.79921271322792],[-1.096966551653061,45.79943218025292],[-1.098545734788843,45.799206188359626],[-1.098803937351135,45.79907237023647],[-1.098765696722274,45.79859224960687],[-1.099082500721318,45.798379656192985],[-1.099383593715708,45.798320020989685],[-1.100344535659824,45.79848346565604],[-1.101685914830207,45.7982498426755],[-1.102363123564878,45.798290135772426],[-1.1031044395829,45.798221691240826],[-1.104070733204266,45.798855601324185],[-1.104167507187921,45.79915144695776],[-1.104095308344802,45.79961935536912],[-1.105020090438897,45.80049191844985],[-1.105371837051452,45.80047190251757],[-1.107688929993341,45.79988889579088],[-1.108217428769365,45.79968028808509],[-1.109007129647487,45.799534299130485],[-1.109826252568056,45.79957569007893],[-1.11046360415504,45.79973821706324],[-1.111870862441816,45.80026762562766],[-1.112301769349758,45.8002546209286],[-1.112504208787233,45.799995661999894],[-1.112880145594947,45.79972947447882],[-1.11360565409748,45.79953529773951],[-1.113816587210804,45.79940767655979],[-1.114582485052558,45.79861418367167],[-1.115296930056654,45.798237350883575],[-1.116182811227477,45.79735921515825],[-1.116820503919368,45.79602304263325],[-1.117031308907984,45.794891810120745],[-1.117064451762377,45.794161112470725],[-1.116880250900717,45.79272869918404],[-1.117070855802005,45.79227719530232],[-1.117581960279276,45.79190596436449],[-1.118087464449962,45.79171888541619],[-1.119634475481645,45.79137653902164],[-1.120314987164311,45.79096123396273],[-1.1217133859976,45.78952689675854],[-1.125264496570529,45.78630324533547]]]]}},{"type":"Feature","properties":{"fid":1227,"ID":"COMMUNE_0000000009751930","NOM":"Saint-Sornin","NOM_M":"SAINT-SORNIN","INSEE_COM":"17406","STATUT":"Commune simple","POPULATION":420,"INSEE_CAN":"10","INSEE_ARR":"2","INSEE_DEP":"17","INSEE_REG":"75","SIREN_EPCI":"241700699"},"geometry":{"type":"MultiPolygon","coordinates":[[[[-0.982827079541447,45.793094535447324],[-0.982753090733089,45.792908706225965],[-0.981029895183657,45.7923735642093],[-0.979856044052447,45.792181470044724],[-0.979267276131806,45.79216708142629],[-0.978750915450802,45.79156587634222],[-0.977812084310728,45.79080735902626],[-0.97775121249873,45.789515661780044],[-0.977517589955525,45.78924259209205],[-0.976945746145131,45.78942685650689],[-0.97661501505706,45.78939794553728],[-0.975012889966457,45.78791083328843],[-0.974329421274133,45.787529187978286],[-0.973827443037426,45.787448599900344],[-0.973012700834937,45.787122965819414],[-0.971609389120289,45.78678469600422],[-0.971039384657286,45.78690485019381],[-0.970542996277281,45.78734970095273],[-0.970181956102133,45.78749044348535],[-0.969806651700401,45.787504557248184],[-0.968802590913494,45.78721621323457],[-0.968313121320497,45.78720188127163],[-0.967758520743579,45.78667591097498],[-0.967590760980171,45.78620665562289],[-0.967730607290519,45.785857313509325],[-0.967693139561942,45.78571256811333],[-0.967531988357449,45.785675861522606],[-0.967297753531316,45.78578778953245],[-0.967391453184264,45.785441874611124],[-0.967654381800575,45.78524508541241],[-0.967839238610407,45.78494825705452],[-0.967860602747945,45.78454628099545],[-0.967580535581014,45.78307025314155],[-0.966986305755352,45.78152593497165],[-0.966510460629282,45.78121628570065],[-0.965981385337306,45.781188011065595],[-0.965022710644463,45.78074025737059],[-0.964671091149047,45.78090409425748],[-0.964225422518864,45.78137328100172],[-0.964071829870517,45.78140572942727],[-0.963634329679315,45.78078636481596],[-0.96375437188359,45.78037641374999],[-0.963585204554048,45.77995859655802],[-0.963686026876629,45.779729646164895],[-0.96409969832266,45.77967633385415],[-0.964148504735119,45.77938699949506],[-0.963851832749455,45.77897005886593],[-0.963616060189141,45.778844906611226],[-0.963431890506248,45.77832573318207],[-0.963468774549492,45.77812157104679],[-0.962987908373049,45.77802847510763],[-0.962937581823369,45.77781205079806],[-0.962630051894335,45.777548765384694],[-0.962089392857631,45.77755604425869],[-0.961852361698512,45.77748503034454],[-0.961084734562796,45.77754355728158],[-0.96045189297797,45.777684802085005],[-0.959712399285082,45.77770446318657],[-0.95946398444973,45.77783400433712],[-0.958733693557742,45.777658585381964],[-0.958495223177486,45.77772916974387],[-0.958210527628564,45.777460563266345],[-0.958339674695638,45.77735685100938],[-0.95828649154523,45.77720814722241],[-0.958382747964644,45.776897314887755],[-0.958281103000661,45.77671965732945],[-0.958538676514266,45.776214722402415],[-0.958685449285445,45.77619514328167],[-0.958905946995286,45.77598183141756],[-0.958928777571159,45.775797098842766],[-0.958734056762066,45.77552533466099],[-0.958367173744807,45.77549403634798],[-0.9578862441475,45.77554337822545],[-0.957737301803146,45.77562253953458],[-0.95718933628403,45.77563546177242],[-0.956692918230344,45.77509117390829],[-0.955993341678179,45.774678436375254],[-0.955683601954198,45.77501298564398],[-0.953814052761369,45.77319598150791],[-0.95346208912661,45.77270702387006],[-0.953301131548953,45.7723664463045],[-0.953377264762591,45.77227812286775],[-0.950476832518516,45.769321506038565],[-0.949785989684866,45.76823672387044],[-0.949977649388936,45.768124519469254],[-0.951711905450976,45.76792939975715],[-0.952398664985896,45.76803876362796],[-0.95277613351511,45.76787676199555],[-0.950034607220458,45.76569717477198],[-0.948104565191758,45.76569355976024],[-0.946892327819335,45.76542314920476],[-0.945367525260506,45.765357512998],[-0.941929052690739,45.765860087019995],[-0.940768896226307,45.76456806797277],[-0.940338504015024,45.7643495958143],[-0.941077463684246,45.76304347479935],[-0.946073132741303,45.75408608070481],[-0.955395454014287,45.754175844670264],[-0.955929261804654,45.75285336757926],[-0.956328891667951,45.75293040312935],[-0.956566473227526,45.752794934356146],[-0.959105389947434,45.7519736567639],[-0.96076615403063,45.75340117589431],[-0.961046331921645,45.75332100258714],[-0.961321950682678,45.7534645911907],[-0.961503408723587,45.75342665630447],[-0.962367583210684,45.754018397247165],[-0.96361443451004,45.752691543696336],[-0.965413818628803,45.751491297487085],[-0.967429868280317,45.75269884838766],[-0.96773804581059,45.75309823907691],[-0.967927790023825,45.7535342573841],[-0.968113759266522,45.75354123420804],[-0.968402087873733,45.7534670666891],[-0.970477286916017,45.75227054894813],[-0.970993655722532,45.75209006280512],[-0.971157233194902,45.752161839025],[-0.971900864076437,45.75172088443181],[-0.97236059487712,45.75223934686486],[-0.972510229501389,45.75217095853785],[-0.972606247245044,45.75227035970747],[-0.973043910661699,45.752070097502155],[-0.974210758014536,45.7512463413913],[-0.974829663321985,45.75161401866966],[-0.975693273394811,45.75110479030321],[-0.976005295797999,45.751055913984096],[-0.977799304861603,45.75010720386237],[-0.977956591618088,45.75007370142506],[-0.978409421270581,45.75026328851821],[-0.978939587778939,45.75023916140598],[-0.979129265113455,45.7504407414482],[-0.979869884871228,45.75126392716185],[-0.98055301907181,45.75255798867921],[-0.981238227721917,45.75334435406373],[-0.984164852139274,45.75613428073563],[-0.98715716406176,45.75966927634342],[-0.989057691186202,45.76110325967681],[-0.99080303740579,45.76300885666708],[-0.991426754039132,45.764223823274875],[-0.992302453082284,45.76539560119052],[-0.994384168199358,45.767459649381145],[-0.995159681566098,45.7685628277179],[-0.996455970389025,45.76954475410816],[-0.99694565865107,45.76940386823426],[-0.997741876759048,45.76903030593828],[-0.998893189003419,45.76875684773036],[-1.000367173717022,45.76886504511277],[-1.001835911876432,45.76923849379874],[-1.002140886272368,45.76832692216206],[-1.002408777442537,45.7680947044853],[-1.003218373237092,45.76875932441494],[-1.003890477936973,45.76917996772798],[-1.004992103755911,45.769269772039216],[-1.005508744497599,45.769411909976405],[-1.005603759665004,45.76933640206143],[-1.006539237489774,45.76955111259255],[-1.007873501141785,45.770165496276064],[-1.007966500725745,45.77023973189511],[-1.007773222632138,45.7704702124119],[-1.009275483448862,45.771463613405],[-1.009245396819164,45.77161706239663],[-1.008767465938402,45.77207947333882],[-1.009659170222327,45.772506703017484],[-1.009953680384064,45.77257016358366],[-1.010013815691185,45.77272401037125],[-1.008530440866283,45.773996695752615],[-1.007165341152876,45.774219241668106],[-1.006389423826203,45.774482147530456],[-1.005552556336107,45.77589411084704],[-1.005163619780439,45.775879075187],[-1.004820775006543,45.776410603389294],[-1.004770187906571,45.77663691076032],[-1.00513967004759,45.776898789187705],[-1.004853023958028,45.777583404539534],[-1.003962428033316,45.77811364625598],[-1.002748164120177,45.77906742410423],[-1.002211863346836,45.779010723194595],[-1.001539187948604,45.77970362006641],[-1.001972978029439,45.77999929274129],[-1.00202377601175,45.78014896650866],[-1.001100749876945,45.78165501442179],[-1.000585906715416,45.78148573938612],[-1.000026353151661,45.78094837329789],[-0.999569788433122,45.781209816552696],[-0.998838296840274,45.78228347256439],[-0.998466414855202,45.78246887436608],[-0.998655782922838,45.78262806198178],[-0.999228004793877,45.78284219657161],[-0.999377304465522,45.783035263423905],[-0.999025616870507,45.7834994608565],[-0.99916934961234,45.78365124975049],[-0.999102271741634,45.78373928501338],[-0.998863157570205,45.7837829290573],[-0.998921490681588,45.784018894833885],[-0.998740707791605,45.78429850436839],[-0.998991066188827,45.784445610784104],[-0.99881496090318,45.78484317009205],[-0.998481684756282,45.78495687399077],[-0.997944892557852,45.7849118897267],[-0.997340905960816,45.784971170745415],[-0.996947725369938,45.78454240020302],[-0.996752893731473,45.78452135488335],[-0.996369761081206,45.78465845898916],[-0.99594172162409,45.78495854731253],[-0.99540169498759,45.78502907602056],[-0.995176094636597,45.785170512283074],[-0.995153461713274,45.78523172425333],[-0.995680758862287,45.78564402728303],[-0.996101196453225,45.78559486660393],[-0.996559345258941,45.78539018664287],[-0.997097412465331,45.78548832945999],[-0.997323108006284,45.78673632041207],[-0.997637237678656,45.78708764628931],[-0.997441516317749,45.78735696301571],[-0.997107446887479,45.78760233047571],[-0.996190393131189,45.78785934068382],[-0.99570750692793,45.78816768229425],[-0.995516331657443,45.78864240893887],[-0.99552530689399,45.78924709395665],[-0.995179324102511,45.78970205843271],[-0.994262341650622,45.789800359729014],[-0.993527874265743,45.790515225637186],[-0.991852776354553,45.79139412223408],[-0.99065619132478,45.79186835562045],[-0.989475509559093,45.792081438954696],[-0.98827610410257,45.79187500761803],[-0.985427682837435,45.79200004550891],[-0.984195565228008,45.79241144738058],[-0.983034572763025,45.79307638815759],[-0.982827079541447,45.793094535447324]]]]}},{"type":"Feature","properties":{"fid":1854,"ID":"COMMUNE_0000000009751932","NOM":"Saint-Just-Luzac","NOM_M":"SAINT-JUST-LUZAC","INSEE_COM":"17351","STATUT":"Commune simple","POPULATION":2100,"INSEE_CAN":"10","INSEE_ARR":"2","INSEE_DEP":"17","INSEE_REG":"75","SIREN_EPCI":"241700699"},"geometry":{"type":"MultiPolygon","coordinates":[[[[-1.125264496570529,45.78630324533547],[-1.1217133859976,45.78952689675854],[-1.120314987164311,45.79096123396273],[-1.119634475481645,45.79137653902164],[-1.118087464449962,45.79171888541619],[-1.117581960279276,45.79190596436449],[-1.117070855802005,45.79227719530232],[-1.116880250900717,45.79272869918404],[-1.117064451762377,45.794161112470725],[-1.117031308907984,45.794891810120745],[-1.116820503919368,45.79602304263325],[-1.116182811227477,45.79735921515825],[-1.115296930056654,45.798237350883575],[-1.114582485052558,45.79861418367167],[-1.113816587210804,45.79940767655979],[-1.11360565409748,45.79953529773951],[-1.112880145594947,45.79972947447882],[-1.112504208787233,45.799995661999894],[-1.112301769349758,45.8002546209286],[-1.111870862441816,45.80026762562766],[-1.11046360415504,45.79973821706324],[-1.109826252568056,45.79957569007893],[-1.109007129647487,45.799534299130485],[-1.108217428769365,45.79968028808509],[-1.107688929993341,45.79988889579088],[-1.105371837051452,45.80047190251757],[-1.105020090438897,45.80049191844985],[-1.104095308344802,45.79961935536912],[-1.104167507187921,45.79915144695776],[-1.104070733204266,45.798855601324185],[-1.1031044395829,45.798221691240826],[-1.102363123564878,45.798290135772426],[-1.101685914830207,45.7982498426755],[-1.100344535659824,45.79848346565604],[-1.099383593715708,45.798320020989685],[-1.099082500721318,45.798379656192985],[-1.098765696722274,45.79859224960687],[-1.098803937351135,45.79907237023647],[-1.098545734788843,45.799206188359626],[-1.096966551653061,45.79943218025292],[-1.096380455311178,45.79921271322792],[-1.096100961116803,45.799250816571195],[-1.095486069341378,45.800328137730446],[-1.095469534353678,45.80107805314617],[-1.095901483097605,45.80271158345289],[-1.096337301625959,45.80328547107934],[-1.096436683759844,45.80398158380236],[-1.09634848638491,45.804339156214894],[-1.096480712010125,45.804678805095854],[-1.096328912923555,45.80489170954112],[-1.095551970799728,45.805158872507704],[-1.095304861129491,45.80545999591171],[-1.095288650554168,45.805693223779166],[-1.095548238049458,45.80635917477205],[-1.095254399050936,45.80695144108338],[-1.09505198080918,45.808462829721044],[-1.095128904739566,45.808682757896406],[-1.094389464999183,45.80914331709702],[-1.093991891376058,45.8095021964254],[-1.094157425653286,45.81015172653509],[-1.093665503090714,45.810698877375714],[-1.093482450056451,45.81125555791532],[-1.093063527596839,45.811622421490966],[-1.092553475686573,45.81169953622601],[-1.092008805911157,45.8121791612739],[-1.091870599714344,45.812801839376604],[-1.091421428534453,45.81314364384743],[-1.091508022055067,45.81330280960738],[-1.091896511774573,45.813307655578036],[-1.091985534786136,45.813412630843715],[-1.091657036887202,45.81381678506766],[-1.091572230026618,45.81406422170969],[-1.091048675631805,45.81439429463031],[-1.090655920067527,45.81450591949518],[-1.089963901500469,45.8149466922441],[-1.089837389448687,45.815136126918524],[-1.089214394229714,45.81522092619921],[-1.088842515967032,45.81517940052514],[-1.088592989162748,45.81527500657388],[-1.088775695055884,45.81554791212486],[-1.088540656716148,45.81587382792641],[-1.088535853918159,45.81640059432455],[-1.088385314793657,45.81687493300534],[-1.088454657836815,45.81690578312481],[-1.088308486324834,45.81723028131255],[-1.08590963845403,45.82086535944046],[-1.085705653921592,45.822185617767566],[-1.085849710003482,45.822406727713734],[-1.085742962837081,45.82251518993032],[-1.085615097440325,45.823296181484075],[-1.085316116504791,45.82389130643912],[-1.082036590228026,45.82771055092521],[-1.081638690381681,45.82799815710184],[-1.080622752859746,45.82843975902379],[-1.07391889956387,45.83092717924253],[-1.073625322026108,45.83079440774796],[-1.07274025352475,45.83068658976371],[-1.070665764786291,45.83017443575971],[-1.069764545001666,45.83005725903384],[-1.068768147729796,45.83029336172285],[-1.068120504612292,45.83029146227142],[-1.06763692554213,45.83018806696745],[-1.066885094338819,45.82970029973582],[-1.066658208037796,45.829404607369895],[-1.066035287068974,45.828968094332666],[-1.064236097158558,45.8271141183059],[-1.064253828860779,45.826777151097886],[-1.063685637096522,45.82550730230359],[-1.063380016446785,45.8251927995124],[-1.062953872523723,45.82506297243737],[-1.062659194281401,45.82480938848256],[-1.062623615705161,45.82462402076588],[-1.062740240596315,45.824298822320266],[-1.062623324601429,45.82388465019733],[-1.062345787416656,45.823793653392606],[-1.062226585242781,45.82366359375968],[-1.061437744784591,45.82349452020247],[-1.060940258511115,45.82328880751924],[-1.059762560215739,45.823057974990576],[-1.059521371976671,45.82281237779669],[-1.058877600825093,45.82249379885414],[-1.058107149121206,45.82243404669626],[-1.057607737027885,45.82221937257938],[-1.056968642280071,45.82210439510961],[-1.056365657993674,45.82212967983712],[-1.055049973894875,45.82167022503187],[-1.054635139184865,45.821640949941425],[-1.054062325578371,45.82137479770638],[-1.053086617404016,45.82125926893807],[-1.050526285739665,45.820094269053804],[-1.050105060438107,45.8199777446035],[-1.049971863423891,45.82007810326597],[-1.033782016883101,45.80965048919316],[-1.033217533641777,45.80926582322746],[-1.033042263525452,45.8089141276756],[-1.031996291758841,45.80839789351108],[-1.031668456548868,45.808093125594574],[-1.031514225793054,45.80778215286462],[-1.030960365223865,45.807383572285886],[-1.030396640637931,45.806796893766965],[-1.030079737758914,45.80556482016957],[-1.030199971490646,45.805022230895005],[-1.029483414399408,45.80437248278535],[-1.029298863438662,45.804316860219465],[-1.028546802989545,45.80445192071791],[-1.028026809560818,45.804304583968545],[-1.027260524281644,45.80447440692559],[-1.026499146035322,45.8048352017908],[-1.026332845356202,45.805294673839676],[-1.025806569289101,45.805556003930874],[-1.025316214713889,45.80593867559887],[-1.024987065513596,45.80584492584339],[-1.024856181922401,45.805552949122095],[-1.024721558290589,45.805474799491755],[-1.023959591210547,45.80558042711667],[-1.023544505721723,45.80536891622664],[-1.022651924962499,45.805274516767575],[-1.021803049765202,45.80567356332779],[-1.021567205275674,45.805904681388064],[-1.021457143550564,45.80628730203738],[-1.021570495833431,45.806745812482355],[-1.021386753669876,45.806948924424674],[-1.020853882723239,45.80697873872561],[-1.020080019359946,45.80672680466529],[-1.019857514680316,45.806751865201484],[-1.019145552715091,45.80710183016949],[-1.019153248899909,45.807278280982466],[-1.020112667587798,45.8082719860213],[-1.020016465870215,45.80902198764935],[-1.019710181904269,45.80929528408907],[-1.018934016779669,45.80931301898618],[-1.017710460876923,45.80973800194265],[-1.017170710379575,45.810134115646036],[-1.016859473810001,45.810569878255954],[-1.017114468248951,45.8109376915237],[-1.017939174682039,45.81109045780937],[-1.018402805684371,45.811330917384176],[-1.019392666624179,45.8113966414725],[-1.01982113361472,45.81154367415786],[-1.020456240873085,45.81236770085586],[-1.020337229497372,45.81266317776969],[-1.019605018203961,45.81307247249432],[-1.019190228825978,45.81387439767524],[-1.019324892975292,45.81430690474631],[-1.019819412711647,45.815059303204215],[-1.019799518181116,45.81598962232229],[-1.019987914968317,45.81662849784827],[-1.019347001180988,45.81744208585413],[-1.019010350658627,45.81841434411594],[-1.018399207347506,45.81944236145978],[-1.017979313282192,45.81983871575577],[-1.017525471712248,45.82005233881254],[-1.015863242947411,45.820336022762284],[-1.01491267403038,45.82008582788185],[-1.013772816695349,45.81920128174454],[-1.012486161072161,45.81888638174],[-1.011605806769513,45.81885637212606],[-1.010871801953084,45.81848032839491],[-1.010551669281708,45.81849351099507],[-1.010271863756067,45.81861796607705],[-1.00996310202776,45.81889402558853],[-1.009964877462843,45.819308723001356],[-1.009857764909547,45.81955597593048],[-1.008941867193093,45.820882392373576],[-1.007903877260897,45.82161173445248],[-1.00623876244243,45.82233628328606],[-1.004205386854244,45.82360224126052],[-1.003595273777103,45.82409815692836],[-1.002087953625649,45.825772789407075],[-1.000422357266535,45.82788039053811],[-1.000525824592386,45.828488941814115],[-1.000962249078775,45.829295773586935],[-1.000866002618348,45.829533614245726],[-1.000523953018351,45.82988566109308],[-1.000222269901834,45.82976291079285],[-0.999244054195409,45.829683972016916],[-0.998321502861321,45.82962559395229],[-0.997500035806596,45.829662809045985],[-0.997011987292701,45.82958452071672],[-0.996660416524465,45.82941393757015],[-0.995662413291447,45.828580991812586],[-0.995262795724987,45.8281208744602],[-0.994945043365517,45.827562283608735],[-0.994127958409074,45.82541553747113],[-0.993494888509056,45.82443801938284],[-0.993072908353116,45.82416713096218],[-0.992919832010779,45.82217721036454],[-0.992949300134503,45.820713701865294],[-0.993034812338084,45.820166984818705],[-0.993374617769174,45.819178479307666],[-0.99393425596608,45.818073993941],[-0.994159334869614,45.817050775396815],[-0.994227981999887,45.81614670121528],[-0.994049769806555,45.81527030048233],[-0.9937686004835,45.8148952515474],[-0.993231642976291,45.81454909158509],[-0.993121302980563,45.81434291387566],[-0.993193031250396,45.8137840612634],[-0.993620279878128,45.81282852452587],[-0.993988218504261,45.81237189108254],[-0.994753836334174,45.81201207811403],[-0.995051646759091,45.81167333427788],[-0.99526292478233,45.81079847052437],[-0.995169398566984,45.81034374719027],[-0.994833745508002,45.80985702384533],[-0.994398636435181,45.809456772403095],[-0.99330727427958,45.808913848491606],[-0.992604568920721,45.80896667099938],[-0.991274153766727,45.80925358450275],[-0.990776361589367,45.80944791653808],[-0.989813634578929,45.810005821851696],[-0.989053669599521,45.81012285986792],[-0.988297482566428,45.810060332650416],[-0.987342289768664,45.80975958811824],[-0.986829148335243,45.809242149335276],[-0.986625766219833,45.80856859878625],[-0.98679154124582,45.807561920650365],[-0.987337779863481,45.8070746641048],[-0.989159775686677,45.80620508503004],[-0.989636605412422,45.80572117225947],[-0.990057707406452,45.80487676853449],[-0.990164716904474,45.80403896524104],[-0.990111552335339,45.8031076470836],[-0.989113970872984,45.80088161491475],[-0.98904473988602,45.80049455453985],[-0.987906804208195,45.79937528267272],[-0.987034172292039,45.79834129542602],[-0.985279428467514,45.79680109761228],[-0.984173997192269,45.79543359646811],[-0.983763115909093,45.79511630744073],[-0.98275289032827,45.79345961327871],[-0.982827079541447,45.793094535447324],[-0.983034572763025,45.79307638815759],[-0.984195565228008,45.79241144738058],[-0.985427682837435,45.79200004550891],[-0.98827610410257,45.79187500761803],[-0.989475509559093,45.792081438954696],[-0.99065619132478,45.79186835562045],[-0.991852776354553,45.79139412223408],[-0.993527874265743,45.790515225637186],[-0.994262341650622,45.789800359729014],[-0.995179324102511,45.78970205843271],[-0.99552530689399,45.78924709395665],[-0.995516331657443,45.78864240893887],[-0.99570750692793,45.78816768229425],[-0.996190393131189,45.78785934068382],[-0.997107446887479,45.78760233047571],[-0.997441516317749,45.78735696301571],[-0.997637237678656,45.78708764628931],[-0.997323108006284,45.78673632041207],[-0.997097412465331,45.78548832945999],[-0.996559345258941,45.78539018664287],[-0.996101196453225,45.78559486660393],[-0.995680758862287,45.78564402728303],[-0.995153461713274,45.78523172425333],[-0.995176094636597,45.785170512283074],[-0.99540169498759,45.78502907602056],[-0.99594172162409,45.78495854731253],[-0.996369761081206,45.78465845898916],[-0.996752893731473,45.78452135488335],[-0.996947725369938,45.78454240020302],[-0.997340905960816,45.784971170745415],[-0.997944892557852,45.7849118897267],[-0.998481684756282,45.78495687399077],[-0.99881496090318,45.78484317009205],[-0.998991066188827,45.784445610784104],[-0.998740707791605,45.78429850436839],[-0.998921490681588,45.784018894833885],[-0.998863157570205,45.7837829290573],[-0.999102271741634,45.78373928501338],[-0.99916934961234,45.78365124975049],[-0.999025616870507,45.7834994608565],[-0.999377304465522,45.783035263423905],[-0.999228004793877,45.78284219657161],[-0.998655782922838,45.78262806198178],[-0.998466414855202,45.78246887436608],[-0.998838296840274,45.78228347256439],[-0.999569788433122,45.781209816552696],[-1.000026353151661,45.78094837329789],[-1.000585906715416,45.78148573938612],[-1.001100749876945,45.78165501442179],[-1.00202377601175,45.78014896650866],[-1.001972978029439,45.77999929274129],[-1.001539187948604,45.77970362006641],[-1.002211863346836,45.779010723194595],[-1.002748164120177,45.77906742410423],[-1.003962428033316,45.77811364625598],[-1.004853023958028,45.777583404539534],[-1.00513967004759,45.776898789187705],[-1.004770187906571,45.77663691076032],[-1.004820775006543,45.776410603389294],[-1.005163619780439,45.775879075187],[-1.005552556336107,45.77589411084704],[-1.006389423826203,45.774482147530456],[-1.007165341152876,45.774219241668106],[-1.008530440866283,45.773996695752615],[-1.010013815691185,45.77272401037125],[-1.009953680384064,45.77257016358366],[-1.010287733786012,45.77227335944113],[-1.010561072029495,45.77231142361295],[-1.011359678869396,45.77209546755796],[-1.011629619077028,45.77219315910324],[-1.011980692903129,45.771687462144236],[-1.012144706759451,45.771604083147686],[-1.012128303098224,45.771378352097024],[-1.012423853386987,45.77129660297016],[-1.012995538761887,45.77091919995273],[-1.013035195711601,45.770667128710905],[-1.013345384145775,45.77078682627203],[-1.013343973393178,45.77094466583661],[-1.01367408818531,45.77091307705846],[-1.013953270435932,45.77120879776497],[-1.014518544435519,45.77131039321987],[-1.014834413601483,45.77124234055693],[-1.014752502034993,45.771001810967064],[-1.014900457506414,45.77092801615949],[-1.015064128180288,45.77103489398308],[-1.015074311097677,45.771210353929405],[-1.015453113629989,45.77126358480114],[-1.015834447556574,45.7710859006147],[-1.016004912941022,45.77087875919911],[-1.01619095545691,45.7709920517426],[-1.016373022136738,45.77096212248223],[-1.016475511444638,45.7710603581512],[-1.016957302338251,45.770953026694],[-1.017039168369109,45.7708563374727],[-1.016921686800123,45.77069371729758],[-1.017210622838438,45.77057432139169],[-1.017385417099117,45.770586125738625],[-1.017695483367482,45.77089877037824],[-1.017955820432882,45.770970641185265],[-1.018287584738057,45.77073159909247],[-1.018386376653822,45.76978765024644],[-1.018807820573083,45.76968336308131],[-1.01897552960164,45.769827960977565],[-1.019176243719234,45.769859576531935],[-1.019520313750903,45.76970124079832],[-1.019788200944944,45.77003612192535],[-1.020328410386525,45.77004120295308],[-1.020624893051841,45.77018481280813],[-1.020890129565729,45.76998780811491],[-1.020803182430581,45.769607704726006],[-1.020905722557664,45.76945888052656],[-1.021152913134206,45.769597935443606],[-1.021537173886321,45.77011530493088],[-1.021990765518309,45.770487737890015],[-1.022805394417144,45.770793187185],[-1.023315595999122,45.770793013356815],[-1.023865224517015,45.77041453629234],[-1.024427534040399,45.770369217722994],[-1.025549739313262,45.77056358297796],[-1.025973422781268,45.77080813150191],[-1.02643959363082,45.770928535212924],[-1.026646498158311,45.771186233624256],[-1.026519941159253,45.77164158439339],[-1.026573595949807,45.771988610895825],[-1.027567978053356,45.773521080560194],[-1.028069467029227,45.77394858521326],[-1.029255098874078,45.774339918042415],[-1.029978671934165,45.775126454751636],[-1.031677568811338,45.775329001485595],[-1.032417093543405,45.77548649357227],[-1.033768814944751,45.77629832862371],[-1.035053607258405,45.7766346611045],[-1.035557035745729,45.77666443124982],[-1.036869358266476,45.77642539626484],[-1.037651810486973,45.776411804540494],[-1.039110530586433,45.77671210791501],[-1.039680474906315,45.77692882732866],[-1.040174812819581,45.777609006339745],[-1.040951962034183,45.7781212558138],[-1.043086006971192,45.778721004327906],[-1.044721497015963,45.778671362548636],[-1.045207320810546,45.77847810730135],[-1.045575922220443,45.77807445791845],[-1.047008143169645,45.77723860309424],[-1.047382028282566,45.77681942895979],[-1.047326784721816,45.77634713184558],[-1.046580473905094,45.77550019925228],[-1.046239701922724,45.77491191561304],[-1.046224507747602,45.774511216552256],[-1.046503214851686,45.774129724366986],[-1.047959848612308,45.77362839982183],[-1.04995313855872,45.7726794827691],[-1.052530741722123,45.772266761153375],[-1.053301242087539,45.77205602108289],[-1.054430796021223,45.77138332776826],[-1.055474459212082,45.77092740972734],[-1.056708910674224,45.770262640020526],[-1.05923686572639,45.76919422117496],[-1.060010557526354,45.76897520281501],[-1.063853962872949,45.768223570808466],[-1.064634658644137,45.76796008462791],[-1.065314817149696,45.767591114822224],[-1.065779159589365,45.76723082650366],[-1.066229177728909,45.766641123319545],[-1.066697850519724,45.765745074017175],[-1.06755467329098,45.76515150784741],[-1.068329505809475,45.764879188663144],[-1.069830031426677,45.76457705793726],[-1.070397648512086,45.764534921896654],[-1.074027033831601,45.764659883394664],[-1.076368012212813,45.76434712189591],[-1.080675394914417,45.76309931825302],[-1.082470353901114,45.76242477635278],[-1.086063677535446,45.761227865273035],[-1.08995593010503,45.76224267244519],[-1.09446470373354,45.76415108477187],[-1.097893602350576,45.7658091447497],[-1.101376996123302,45.76785105511128],[-1.105225459351236,45.77074431083761],[-1.121260143929271,45.78280131963337],[-1.125264496570529,45.78630324533547]]]]}},{"type":"Feature","properties":{"fid":1996,"ID":"COMMUNE_0000000009751933","NOM":"Nieulle-sur-Seudre","NOM_M":"NIEULLE-SUR-SEUDRE","INSEE_COM":"17265","STATUT":"Commune simple","POPULATION":1224,"INSEE_CAN":"10","INSEE_ARR":"2","INSEE_DEP":"17","INSEE_REG":"75","SIREN_EPCI":"241700699"},"geometry":{"type":"MultiPolygon","coordinates":[[[[-1.077180838168835,45.757855309629306],[-1.079525954795699,45.759049950225986],[-1.081623248465713,45.75995776528413],[-1.082670998168336,45.76031205450613],[-1.086063677535446,45.761227865273035],[-1.082470353901114,45.76242477635278],[-1.080675394914417,45.76309931825302],[-1.076368012212813,45.76434712189591],[-1.074027033831601,45.764659883394664],[-1.070397648512086,45.764534921896654],[-1.069830031426677,45.76457705793726],[-1.068329505809475,45.764879188663144],[-1.06755467329098,45.76515150784741],[-1.066697850519724,45.765745074017175],[-1.066229177728909,45.766641123319545],[-1.065779159589365,45.76723082650366],[-1.065314817149696,45.767591114822224],[-1.064634658644137,45.76796008462791],[-1.063853962872949,45.768223570808466],[-1.060010557526354,45.76897520281501],[-1.05923686572639,45.76919422117496],[-1.056708910674224,45.770262640020526],[-1.055474459212082,45.77092740972734],[-1.054430796021223,45.77138332776826],[-1.053301242087539,45.77205602108289],[-1.052530741722123,45.772266761153375],[-1.04995313855872,45.7726794827691],[-1.047959848612308,45.77362839982183],[-1.046503214851686,45.774129724366986],[-1.046224507747602,45.774511216552256],[-1.046239701922724,45.77491191561304],[-1.046580473905094,45.77550019925228],[-1.047326784721816,45.77634713184558],[-1.047382028282566,45.77681942895979],[-1.047008143169645,45.77723860309424],[-1.045575922220443,45.77807445791845],[-1.045207320810546,45.77847810730135],[-1.044721497015963,45.778671362548636],[-1.043086006971192,45.778721004327906],[-1.040951962034183,45.7781212558138],[-1.040174812819581,45.777609006339745],[-1.039680474906315,45.77692882732866],[-1.039110530586433,45.77671210791501],[-1.037651810486973,45.776411804540494],[-1.036869358266476,45.77642539626484],[-1.035557035745729,45.77666443124982],[-1.035053607258405,45.7766346611045],[-1.033768814944751,45.77629832862371],[-1.032417093543405,45.77548649357227],[-1.031677568811338,45.775329001485595],[-1.029978671934165,45.775126454751636],[-1.029255098874078,45.774339918042415],[-1.028069467029227,45.77394858521326],[-1.027567978053356,45.773521080560194],[-1.026573595949807,45.771988610895825],[-1.026519941159253,45.77164158439339],[-1.026646498158311,45.771186233624256],[-1.02643959363082,45.770928535212924],[-1.025973422781268,45.77080813150191],[-1.025549739313262,45.77056358297796],[-1.024427534040399,45.770369217722994],[-1.023865224517015,45.77041453629234],[-1.023315595999122,45.770793013356815],[-1.022805394417144,45.770793187185],[-1.021990765518309,45.770487737890015],[-1.021537173886321,45.77011530493088],[-1.021152913134206,45.769597935443606],[-1.020905722557664,45.76945888052656],[-1.020803182430581,45.769607704726006],[-1.020890129565729,45.76998780811491],[-1.020624893051841,45.77018481280813],[-1.020328410386525,45.77004120295308],[-1.019788200944944,45.77003612192535],[-1.019520313750903,45.76970124079832],[-1.019176243719234,45.769859576531935],[-1.01897552960164,45.769827960977565],[-1.018807820573083,45.76968336308131],[-1.018386376653822,45.76978765024644],[-1.018287584738057,45.77073159909247],[-1.017955820432882,45.770970641185265],[-1.017695483367482,45.77089877037824],[-1.017385417099117,45.770586125738625],[-1.017210622838438,45.77057432139169],[-1.016921686800123,45.77069371729758],[-1.017039168369109,45.7708563374727],[-1.016957302338251,45.770953026694],[-1.016475511444638,45.7710603581512],[-1.016373022136738,45.77096212248223],[-1.01619095545691,45.7709920517426],[-1.016004912941022,45.77087875919911],[-1.015834447556574,45.7710859006147],[-1.015453113629989,45.77126358480114],[-1.015074311097677,45.771210353929405],[-1.015064128180288,45.77103489398308],[-1.014900457506414,45.77092801615949],[-1.014752502034993,45.771001810967064],[-1.014834413601483,45.77124234055693],[-1.014518544435519,45.77131039321987],[-1.013953270435932,45.77120879776497],[-1.01367408818531,45.77091307705846],[-1.013343973393178,45.77094466583661],[-1.013345384145775,45.77078682627203],[-1.013035195711601,45.770667128710905],[-1.012995538761887,45.77091919995273],[-1.012423853386987,45.77129660297016],[-1.012128303098224,45.771378352097024],[-1.012144706759451,45.771604083147686],[-1.011980692903129,45.771687462144236],[-1.011629619077028,45.77219315910324],[-1.011359678869396,45.77209546755796],[-1.010561072029495,45.77231142361295],[-1.010287733786012,45.77227335944113],[-1.009953680384064,45.77257016358366],[-1.009659170222327,45.772506703017484],[-1.008767465938402,45.77207947333882],[-1.009245396819164,45.77161706239663],[-1.009275483448862,45.771463613405],[-1.007773222632138,45.7704702124119],[-1.007966500725745,45.77023973189511],[-1.007873501141785,45.770165496276064],[-1.006539237489774,45.76955111259255],[-1.005603759665004,45.76933640206143],[-1.005508744497599,45.769411909976405],[-1.004992103755911,45.769269772039216],[-1.003890477936973,45.76917996772798],[-1.003218373237092,45.76875932441494],[-1.002408777442537,45.7680947044853],[-1.002140886272368,45.76832692216206],[-1.001835911876432,45.76923849379874],[-1.000367173717022,45.76886504511277],[-0.998893189003419,45.76875684773036],[-0.997741876759048,45.76903030593828],[-0.99694565865107,45.76940386823426],[-0.996455970389025,45.76954475410816],[-0.995159681566098,45.7685628277179],[-0.994384168199358,45.767459649381145],[-0.992302453082284,45.76539560119052],[-0.991426754039132,45.764223823274875],[-0.99080303740579,45.76300885666708],[-0.989057691186202,45.76110325967681],[-0.98715716406176,45.75966927634342],[-0.984164852139274,45.75613428073563],[-0.981238227721917,45.75334435406373],[-0.98055301907181,45.75255798867921],[-0.979869884871228,45.75126392716185],[-0.979129265113455,45.7504407414482],[-0.979447636192197,45.750283435270134],[-0.979586523061865,45.74938681599597],[-0.980162293126224,45.74917353270564],[-0.980792973327622,45.74875724240544],[-0.980360974369927,45.7483920124463],[-0.980719311729043,45.74818189739979],[-0.980678129453841,45.747967861738346],[-0.980768410177665,45.74782672272231],[-0.98103787707415,45.74775949899615],[-0.981335864582745,45.747891429670666],[-0.98157151913074,45.7477839240758],[-0.981720655101321,45.747869719747634],[-0.981830562004439,45.74778649253588],[-0.981777260318065,45.746743382110445],[-0.982025025129598,45.746696758579624],[-0.982461157598574,45.74681568979032],[-0.983006159654205,45.74721208143544],[-0.983510805479612,45.747477356958385],[-0.983636758081508,45.74747380617905],[-0.984837801733248,45.74712749103393],[-0.985125071614168,45.746646678471016],[-0.985866028107051,45.74631391632121],[-0.985925307409899,45.74613600045253],[-0.985714859553215,45.745914428556574],[-0.98566819536653,45.74560681785757],[-0.985735687468649,45.74541779197172],[-0.98604413292104,45.745105735156066],[-0.986198093832326,45.74468733945543],[-0.987007686008363,45.74419976403275],[-0.988188946023797,45.743313127506966],[-0.988101218326449,45.74298983972682],[-0.987975070606259,45.74281217366469],[-0.987695647304017,45.742669685991224],[-0.987363629019623,45.742030453625425],[-0.987409511970684,45.74189899423078],[-0.987759178971103,45.74169457110677],[-0.987722170105708,45.74134243912661],[-0.987813622350723,45.74109305558804],[-0.98888321000556,45.74080093413986],[-0.989132854293799,45.74065594879045],[-0.989573845410123,45.740628613916456],[-0.990205441015589,45.740280757343896],[-0.990773973534837,45.74025431072682],[-0.991007398229216,45.740152272473985],[-0.991305217175464,45.73956918230729],[-0.991541814911547,45.73935071895664],[-0.993206914170832,45.73867589868064],[-0.993295408332229,45.73852849988095],[-0.993226472273593,45.738055778752646],[-0.993359527188294,45.73790139070623],[-0.993828487387449,45.73801189966209],[-0.994367632305728,45.7382560663356],[-0.99503214312117,45.73829291624803],[-0.995592815565962,45.73819369027285],[-0.996590474697252,45.73772732126143],[-0.998280384738715,45.73778818444558],[-0.998632401869531,45.73795511891705],[-0.998904732449164,45.73819520882938],[-0.999252131098156,45.73927657209137],[-0.999670813927426,45.73975941779801],[-1.00020839169338,45.73999910550114],[-1.001198786179892,45.74016139979537],[-1.002934761180115,45.74016375653757],[-1.003326076648317,45.740055180869746],[-1.003735068625785,45.73978187605145],[-1.004572300628688,45.73893252578352],[-1.006175055623268,45.73761324247728],[-1.006752501329088,45.73731950935436],[-1.007458791885073,45.737222257830624],[-1.008242801958311,45.73730887817702],[-1.008845308539466,45.73748490310596],[-1.009718063955264,45.73783614567187],[-1.010707242441883,45.73849611025998],[-1.011541146923709,45.73893257620429],[-1.013569984220148,45.739651973536084],[-1.015188002872324,45.740033430454844],[-1.016288851369096,45.740155591510245],[-1.017052487168388,45.74013828697617],[-1.019580580176137,45.73943500060264],[-1.020267176408341,45.73935009312679],[-1.021103739306993,45.73941491425395],[-1.02256645691301,45.739891073327534],[-1.023717121024212,45.74048475425628],[-1.024738872361181,45.741182211622025],[-1.02633429262428,45.742488521222526],[-1.02787450867336,45.74333693753451],[-1.02995570629569,45.74411549493215],[-1.031034851675331,45.74429149041659],[-1.03208696237931,45.744344013714965],[-1.033924141368932,45.74421333874004],[-1.035146247072879,45.74382514523898],[-1.036866314413631,45.74292047773127],[-1.040925961559324,45.74011143361418],[-1.043520623951014,45.738843472061916],[-1.044197433339304,45.73859015629315],[-1.045199659114216,45.738384663320936],[-1.047715078412943,45.73811128308595],[-1.051270198320219,45.7402512149388],[-1.055744020171762,45.743394006776164],[-1.064161641709863,45.75017431926116],[-1.06740611838787,45.752256469191245],[-1.069418259776492,45.75337856193243],[-1.077180838168835,45.757855309629306]]]]}},{"type":"Feature","properties":{"fid":2562,"ID":"COMMUNE_0000000009752188","NOM":"Le Gua","NOM_M":"LE GUA","INSEE_COM":"17185","STATUT":"Commune simple","POPULATION":2115,"INSEE_CAN":"10","INSEE_ARR":"2","INSEE_DEP":"17","INSEE_REG":"75","SIREN_EPCI":"241700699"},"geometry":{"type":"MultiPolygon","coordinates":[[[[-1.035322015330643,45.72803882125248],[-1.036566465084662,45.729265582406676],[-1.038996831077756,45.731374026783556],[-1.039739536953879,45.73218143788312],[-1.041303956558137,45.733625703506476],[-1.044226983352001,45.73591564486382],[-1.046477004725367,45.737382121706894],[-1.047715078412943,45.73811128308595],[-1.045199659114216,45.738384663320936],[-1.044197433339304,45.73859015629315],[-1.043520623951014,45.738843472061916],[-1.040925961559324,45.74011143361418],[-1.036866314413631,45.74292047773127],[-1.035146247072879,45.74382514523898],[-1.033924141368932,45.74421333874004],[-1.03208696237931,45.744344013714965],[-1.031034851675331,45.74429149041659],[-1.02995570629569,45.74411549493215],[-1.02787450867336,45.74333693753451],[-1.02633429262428,45.742488521222526],[-1.024738872361181,45.741182211622025],[-1.023717121024212,45.74048475425628],[-1.02256645691301,45.739891073327534],[-1.021103739306993,45.73941491425395],[-1.020267176408341,45.73935009312679],[-1.019580580176137,45.73943500060264],[-1.017052487168388,45.74013828697617],[-1.016288851369096,45.740155591510245],[-1.015188002872324,45.740033430454844],[-1.013569984220148,45.739651973536084],[-1.011541146923709,45.73893257620429],[-1.010707242441883,45.73849611025998],[-1.009718063955264,45.73783614567187],[-1.008845308539466,45.73748490310596],[-1.008242801958311,45.73730887817702],[-1.007458791885073,45.737222257830624],[-1.006752501329088,45.73731950935436],[-1.006175055623268,45.73761324247728],[-1.004572300628688,45.73893252578352],[-1.003735068625785,45.73978187605145],[-1.003326076648317,45.740055180869746],[-1.002934761180115,45.74016375653757],[-1.001198786179892,45.74016139979537],[-1.00020839169338,45.73999910550114],[-0.999670813927426,45.73975941779801],[-0.999252131098156,45.73927657209137],[-0.998904732449164,45.73819520882938],[-0.998632401869531,45.73795511891705],[-0.998280384738715,45.73778818444558],[-0.996590474697252,45.73772732126143],[-0.995592815565962,45.73819369027285],[-0.99503214312117,45.73829291624803],[-0.994367632305728,45.7382560663356],[-0.993828487387449,45.73801189966209],[-0.993359527188294,45.73790139070623],[-0.993226472273593,45.738055778752646],[-0.993295408332229,45.73852849988095],[-0.993206914170832,45.73867589868064],[-0.991541814911547,45.73935071895664],[-0.991305217175464,45.73956918230729],[-0.991007398229216,45.740152272473985],[-0.990773973534837,45.74025431072682],[-0.990205441015589,45.740280757343896],[-0.989573845410123,45.740628613916456],[-0.989132854293799,45.74065594879045],[-0.98888321000556,45.74080093413986],[-0.987813622350723,45.74109305558804],[-0.987722170105708,45.74134243912661],[-0.987759178971103,45.74169457110677],[-0.987409511970684,45.74189899423078],[-0.987363629019623,45.742030453625425],[-0.987695647304017,45.742669685991224],[-0.987975070606259,45.74281217366469],[-0.988101218326449,45.74298983972682],[-0.988188946023797,45.743313127506966],[-0.987007686008363,45.74419976403275],[-0.986198093832326,45.74468733945543],[-0.98604413292104,45.745105735156066],[-0.985735687468649,45.74541779197172],[-0.98566819536653,45.74560681785757],[-0.985714859553215,45.745914428556574],[-0.985925307409899,45.74613600045253],[-0.985866028107051,45.74631391632121],[-0.985125071614168,45.746646678471016],[-0.984837801733248,45.74712749103393],[-0.983636758081508,45.74747380617905],[-0.983510805479612,45.747477356958385],[-0.983006159654205,45.74721208143544],[-0.982461157598574,45.74681568979032],[-0.982025025129598,45.746696758579624],[-0.981777260318065,45.746743382110445],[-0.981830562004439,45.74778649253588],[-0.981720655101321,45.747869719747634],[-0.98157151913074,45.7477839240758],[-0.981335864582745,45.747891429670666],[-0.98103787707415,45.74775949899615],[-0.980768410177665,45.74782672272231],[-0.980678129453841,45.747967861738346],[-0.980719311729043,45.74818189739979],[-0.980360974369927,45.7483920124463],[-0.980792973327622,45.74875724240544],[-0.980162293126224,45.74917353270564],[-0.979586523061865,45.74938681599597],[-0.979447636192197,45.750283435270134],[-0.979129265113455,45.7504407414482],[-0.978939587778939,45.75023916140598],[-0.978409421270581,45.75026328851821],[-0.977956591618088,45.75007370142506],[-0.977799304861603,45.75010720386237],[-0.976005295797999,45.751055913984096],[-0.975693273394811,45.75110479030321],[-0.974829663321985,45.75161401866966],[-0.974210758014536,45.7512463413913],[-0.973043910661699,45.752070097502155],[-0.972606247245044,45.75227035970747],[-0.972510229501389,45.75217095853785],[-0.97236059487712,45.75223934686486],[-0.971900864076437,45.75172088443181],[-0.971157233194902,45.752161839025],[-0.970993655722532,45.75209006280512],[-0.970477286916017,45.75227054894813],[-0.968402087873733,45.7534670666891],[-0.968113759266522,45.75354123420804],[-0.967927790023825,45.7535342573841],[-0.96773804581059,45.75309823907691],[-0.967429868280317,45.75269884838766],[-0.965413818628803,45.751491297487085],[-0.96361443451004,45.752691543696336],[-0.962367583210684,45.754018397247165],[-0.961503408723587,45.75342665630447],[-0.961321950682678,45.7534645911907],[-0.961046331921645,45.75332100258714],[-0.96076615403063,45.75340117589431],[-0.959105389947434,45.7519736567639],[-0.956566473227526,45.752794934356146],[-0.956328891667951,45.75293040312935],[-0.955929261804654,45.75285336757926],[-0.955395454014287,45.754175844670264],[-0.946073132741303,45.75408608070481],[-0.949222048687924,45.74659065322222],[-0.94930466943092,45.74607113217091],[-0.948847797921242,45.74409367214414],[-0.948870801037413,45.743352640189705],[-0.95035161987059,45.73926420333293],[-0.9478724024536,45.738355714870565],[-0.945139923376828,45.7371449866585],[-0.944193466190279,45.73817169902352],[-0.942489232439684,45.737800374016814],[-0.940766140017632,45.73831957270817],[-0.939664641442164,45.73840136966953],[-0.938717976749324,45.73902952797578],[-0.938624768928247,45.73981718584933],[-0.938422699780323,45.74007128983413],[-0.935328978776632,45.739969308358425],[-0.934893905091867,45.73982672163708],[-0.933550543156879,45.73974920490283],[-0.933699463447389,45.73947172095066],[-0.933409869420599,45.7395819090311],[-0.932729587725846,45.73836414420377],[-0.931744393792918,45.73756544393061],[-0.931089768530507,45.73620071627914],[-0.93072625279488,45.73563366746473],[-0.930156110653743,45.73502153265821],[-0.929704658448941,45.73531767842715],[-0.926147568415723,45.73867393063029],[-0.923621867091609,45.74034962843124],[-0.920531426233782,45.742162122713864],[-0.916211906106301,45.74529480884655],[-0.91584098531298,45.74567554992412],[-0.915446701909293,45.74529074475841],[-0.914887355700953,45.74408490980016],[-0.913569777720236,45.74302712465986],[-0.913098556135786,45.742809976435325],[-0.912498058033324,45.742367408574275],[-0.910429722822122,45.74050709125483],[-0.909478549399256,45.7394753163443],[-0.907831192123601,45.737411017153434],[-0.906570541942959,45.73784602346135],[-0.905675129624375,45.738402692178155],[-0.905546381409153,45.73856673635962],[-0.905471604131329,45.73869284608702],[-0.905693972433838,45.739816633939284],[-0.904946792309628,45.74039430349252],[-0.904147329524351,45.74130736714034],[-0.903195215769657,45.74268462074557],[-0.902602582162994,45.743318227340204],[-0.901999530181849,45.743786298885155],[-0.902274243228303,45.744011199017194],[-0.900530635106739,45.745213877031745],[-0.900148464913768,45.74658579666025],[-0.900233452056227,45.746968734740776],[-0.900159907831872,45.74736797851109],[-0.896621299795501,45.74691427576789],[-0.896123595038698,45.746394139262556],[-0.894279066734949,45.74492610424774],[-0.892824699196709,45.74363930678449],[-0.89187544230431,45.743105901654],[-0.89129152351976,45.742494058154804],[-0.89023083711511,45.74193203142023],[-0.888411341721968,45.74065057584637],[-0.887232869595071,45.73996907134202],[-0.886932820897809,45.737461310471595],[-0.886827144050357,45.737313490633696],[-0.888330570375222,45.73692352531403],[-0.888627383519773,45.7369881130962],[-0.889001117580815,45.73693824916606],[-0.889422165465423,45.73664602864711],[-0.890046197115797,45.736420728124],[-0.890378451077234,45.73616582944227],[-0.890565194990673,45.73583751671214],[-0.891103472878344,45.73549165427662],[-0.891574063423619,45.734276297255825],[-0.891853565028538,45.73396731756965],[-0.892144197144439,45.73383466268608],[-0.894146511395506,45.73363835013798],[-0.894809796393613,45.73340445203398],[-0.895250886636757,45.73339731706075],[-0.895790267811892,45.73319564579898],[-0.896380367562254,45.733147290328816],[-0.898386366234197,45.73371531836053],[-0.898931503202098,45.73368653713562],[-0.899452468149827,45.73353417096156],[-0.900278085328671,45.733429859279575],[-0.900691236974015,45.73302697191771],[-0.90210591167105,45.7320394309621],[-0.902799745961701,45.731418546253934],[-0.902998748031155,45.73106454080305],[-0.904763563423912,45.730387601322164],[-0.904952305595701,45.73052621521065],[-0.905947819143894,45.730531374575975],[-0.906794680708236,45.72989073204569],[-0.906963530085814,45.72954768169868],[-0.908809177383795,45.72932317589342],[-0.909475559743127,45.72938931021341],[-0.910621761037283,45.729068231368366],[-0.911923844201277,45.7289671258331],[-0.912228230651223,45.729011552900936],[-0.91369203126116,45.72883087993794],[-0.914221139312605,45.72819490509771],[-0.914685850112728,45.72788573925741],[-0.915134303599911,45.727710572372175],[-0.915353737082298,45.72751902060095],[-0.91593422369876,45.72642774852084],[-0.916650453720269,45.72601696580529],[-0.91707496963904,45.725649681244164],[-0.917870230506253,45.72468346351034],[-0.918337604397749,45.72433992766245],[-0.918938659951421,45.723685196055484],[-0.919812913780663,45.723379789917594],[-0.920247779783754,45.72332228140245],[-0.921236237412147,45.72301198756073],[-0.923031232990299,45.72273039873666],[-0.923433973448129,45.72238368152244],[-0.923754454440743,45.72156739008932],[-0.92413429510102,45.72113401249283],[-0.924622461356461,45.720975453461385],[-0.924848184848537,45.72080079245724],[-0.925148454901505,45.720769592439716],[-0.925356398002935,45.72058022272959],[-0.926288609010638,45.72063879360048],[-0.926657752421213,45.720834195371104],[-0.927146234583002,45.720861343916475],[-0.92775955935353,45.721178059235136],[-0.927767852504983,45.72134907436205],[-0.928872634950256,45.721897487923115],[-0.929017406293582,45.722123248451375],[-0.929330642469968,45.7223467387207],[-0.92965561984587,45.72237326919717],[-0.929895950228615,45.722512747547704],[-0.93023409376174,45.72252529300564],[-0.930614701370636,45.722682415425645],[-0.930899972694432,45.72309170622085],[-0.931376521548897,45.72343932299805],[-0.931697500204521,45.72384375949109],[-0.932607852350412,45.72460719639326],[-0.933096573209862,45.72489036787854],[-0.932902756671622,45.72363218345647],[-0.933673933085454,45.72215096652954],[-0.934811538033975,45.720899474954436],[-0.935674105993342,45.72019674121658],[-0.936777543468844,45.71890043891652],[-0.935881621687874,45.71804997879515],[-0.933401999447342,45.71677517762637],[-0.932263958983093,45.715939458554935],[-0.930726407356161,45.71515013080695],[-0.929288460886353,45.71413190813482],[-0.927850751021095,45.71335168350317],[-0.92758992805802,45.7129956312467],[-0.924807738161815,45.704318259255444],[-0.923900596544877,45.702342915760866],[-0.923163858128966,45.69934102173578],[-0.92315906349229,45.69863884422156],[-0.923281935985164,45.69819458316699],[-0.92624227461604,45.69538298711327],[-0.927417053139179,45.69427992830206],[-0.92758651188071,45.69431098234004],[-0.927838332095796,45.69423367554138],[-0.92892202609233,45.693714407717486],[-0.930127415238744,45.69298892191819],[-0.930410464302384,45.69295289413258],[-0.930666735366296,45.6932459835117],[-0.930893702195438,45.69372402233442],[-0.931110746202171,45.69464148744497],[-0.931828897036058,45.6955676000678],[-0.932005369890824,45.69609518570287],[-0.932411824624322,45.696383026916536],[-0.93280074648203,45.69646050415504],[-0.933140933495128,45.696377394017624],[-0.933476008016771,45.696186269031],[-0.935320733491748,45.69497135774945],[-0.936817664534398,45.69367931690133],[-0.937080072040189,45.69394963830221],[-0.937575604739455,45.694223526841405],[-0.937957770297331,45.69438687483683],[-0.938702298847461,45.69454385638775],[-0.939893343617033,45.69441292297743],[-0.94038366897243,45.694234375243575],[-0.94063705291826,45.694450006846274],[-0.94056720040815,45.69493210685461],[-0.940904656002631,45.6950636507359],[-0.941591478670529,45.695818596549955],[-0.942053043252418,45.696030543417216],[-0.942318245059698,45.69633952527407],[-0.943932316661325,45.697142229904365],[-0.944201387307444,45.69721665390855],[-0.944667209770781,45.69714533621296],[-0.944634416588205,45.697551307934724],[-0.944753198777298,45.69775541818143],[-0.945782732386838,45.698767915486066],[-0.946171755658454,45.69891837474709],[-0.947170297032048,45.69890140554002],[-0.948019916936542,45.69822245670584],[-0.947728790050065,45.69747891741118],[-0.947686638720213,45.69642010023287],[-0.947436797259138,45.69589420468553],[-0.952160759627275,45.693565505287964],[-0.95225595370904,45.693817320212666],[-0.952499503428947,45.69405671388642],[-0.952885573806255,45.69386013156848],[-0.953349810188232,45.69416300233444],[-0.953618916209743,45.69447182235446],[-0.953636837815753,45.694992326323124],[-0.953815601186776,45.695710946921466],[-0.953983606996582,45.69615314941305],[-0.954270127330558,45.696525371490296],[-0.954615470279985,45.69674856356642],[-0.9555091142944,45.69706429326261],[-0.956771824177453,45.6973949967358],[-0.957235334695495,45.697381411304384],[-0.957529540721537,45.69728541668056],[-0.95800309437179,45.69687296014129],[-0.958190411134706,45.69634433840632],[-0.95835835960382,45.69613827467631],[-0.958712449575285,45.69587247033565],[-0.959408670293845,45.69553332321284],[-0.960140818186761,45.69589346537012],[-0.960743715987667,45.696406917257036],[-0.96164068916197,45.69807941959834],[-0.963622134779362,45.69992742976036],[-0.9643724029675,45.70138237954361],[-0.964359507948922,45.701758809654336],[-0.964126833095209,45.70203117647489],[-0.962887998287993,45.702753704163925],[-0.962438378529566,45.70319509215097],[-0.962243872296839,45.70407200022486],[-0.962445249663459,45.70461941056673],[-0.963096771020076,45.70509147194082],[-0.9646163600897,45.70539412063373],[-0.964893161976016,45.70553945358966],[-0.965512379938835,45.7060450979517],[-0.966152696310858,45.70680876193372],[-0.966870135712852,45.707463314640485],[-0.967609993190453,45.70796379754039],[-0.968817176480941,45.70857403424288],[-0.969624092654062,45.708825096522745],[-0.970241343384052,45.70892595747235],[-0.972704598849851,45.709087935091944],[-0.973321433440943,45.70923658038596],[-0.973826239969173,45.70945589608485],[-0.974530582907478,45.709872836978604],[-0.975201235847471,45.71051907500445],[-0.976097200427319,45.71161357898783],[-0.977045324075243,45.71226984666365],[-0.979939752142184,45.71259045957361],[-0.984175406173332,45.713555111242556],[-0.985153077627214,45.71370896152459],[-0.98695736509054,45.713724445312394],[-0.988127287648622,45.71361720275916],[-0.990312348731233,45.713237755697065],[-0.991861729121434,45.71310981518381],[-0.993741951811381,45.71314323584527],[-0.995622389577338,45.71326858487956],[-0.998707791276252,45.71362883123426],[-1.002453661195543,45.71395560591507],[-1.00433462028449,45.71428276128323],[-1.00563684296226,45.71472243941101],[-1.006738551321322,45.71493480890847],[-1.007779169770913,45.71544057394947],[-1.009006706481613,45.71580803604431],[-1.011474884341334,45.71672278504076],[-1.01164504657409,45.71686820125655],[-1.011983087548507,45.71696796460611],[-1.014530547871786,45.71821073220839],[-1.016369952494531,45.71890163995631],[-1.020284968313116,45.72071494711854],[-1.028778523123323,45.72394957436322],[-1.031093695070599,45.72503349366806],[-1.032584864866285,45.7259034217028],[-1.034245042477069,45.727112616122476],[-1.035322015330643,45.72803882125248]]]]}}]}