{"type":"FeatureCollection","name":"COM_24302","crs":{"type":"name","properties":{"name":"urn:ogc:def:crs:OGC:1.3:CRS84"}},"features":[{"type":"Feature","properties":{"fid":4099,"ID":"COMMUNE_0000000009754315","NOM":"Nailhac","NOM_M":"NAILHAC","INSEE_COM":"24302","STATUT":"Commune simple","POPULATION":292,"INSEE_CAN":"05","INSEE_ARR":"4","INSEE_DEP":"24","INSEE_REG":"75","SIREN_EPCI":"200041150"},"geometry":{"type":"MultiPolygon","coordinates":[[[[1.151598758363821,45.193324378811475],[1.148433251952933,45.19501832132605],[1.147628709056063,45.19515628901365],[1.146553307727838,45.19520329123774],[1.145398273124997,45.19565335999683],[1.143717707730556,45.19608567505337],[1.143328487954087,45.196374622830916],[1.143148453340501,45.19673189624838],[1.142434762215414,45.197354096118666],[1.141732165151243,45.198331339827234],[1.14156329219616,45.198429404274854],[1.140513152403711,45.19802193211835],[1.13911029169364,45.20047630381778],[1.138259653404,45.20050355596727],[1.138076629845136,45.200567154018565],[1.136316011831322,45.2017500868029],[1.135236486179332,45.2027552276748],[1.134403917226998,45.20448952558172],[1.133888471057473,45.20515911966859],[1.133169849490865,45.20569381739753],[1.133270816846127,45.20598912433336],[1.13334784228503,45.20722883650724],[1.133081845919604,45.20878165368135],[1.132773430224009,45.20958350094072],[1.132977406582849,45.210037247561516],[1.132974420672402,45.210507349127795],[1.133076083810723,45.21062973876009],[1.133138778099369,45.21111715034973],[1.133302960630077,45.21135136758069],[1.133630619521215,45.213288788131024],[1.133187381908525,45.21492060757932],[1.132768841849801,45.21550895737803],[1.132284080841548,45.2165906689823],[1.132739567339381,45.21722155105534],[1.133250509683916,45.21764260008334],[1.133779044578538,45.21829991736391],[1.133558258459481,45.21949052333706],[1.132871634781699,45.220472493519644],[1.132193518897632,45.220933111135984],[1.132096073397128,45.221331381769915],[1.131633471631039,45.221483065216916],[1.132010236087429,45.22199194315605],[1.132797725223371,45.221805158539624],[1.132741583379233,45.22340652235717],[1.132102297326607,45.22365793179005],[1.130130336299594,45.22359161739915],[1.129913894305019,45.223813163561395],[1.129820591592148,45.22408720875289],[1.130918161142737,45.227884817814626],[1.128384001247259,45.228007217309745],[1.128366479743667,45.228491488571954],[1.129462714137856,45.229591561907355],[1.129896980265989,45.23021129266357],[1.128558869223354,45.23035551259624],[1.128732884198297,45.23177969788469],[1.127825330574892,45.23394413771068],[1.12742945478433,45.23518044157327],[1.127630289067409,45.23534953217718],[1.128359161414171,45.235358140759985],[1.130669492623174,45.23576249148292],[1.131807091174514,45.23662275111751],[1.13157955353505,45.23694589304633],[1.130841185021084,45.2375243897315],[1.130513318174961,45.23817820207513],[1.130477705325117,45.238518063065236],[1.13080882362386,45.23997369630296],[1.130363847675969,45.241002034042964],[1.13040618190131,45.242249283474386],[1.130994362725756,45.24250230582481],[1.131820121818972,45.24228553933132],[1.134214708331423,45.24231473673337],[1.135473910681792,45.24217453170248],[1.135850921852201,45.24207093859363],[1.136007576715706,45.24138903601582],[1.136473161674202,45.24126710339999],[1.136841910754143,45.241257940533956],[1.13656751733998,45.24264041007877],[1.136738031138565,45.24299361718149],[1.136767618277077,45.24363449299048],[1.137076390822029,45.24439080664805],[1.13764867233353,45.246419666769604],[1.138133814414844,45.24708794775093],[1.13801003774484,45.24712911822278],[1.138046536056353,45.24721979419852],[1.137934624439971,45.24736383967945],[1.13736438180034,45.247602024114485],[1.137223786807479,45.24791762064658],[1.137133330201338,45.24848804437913],[1.137280467121001,45.24862559867848],[1.137135374624979,45.25033537243493],[1.137293169096885,45.250879310933676],[1.138242957034193,45.25229749431536],[1.138444105849491,45.252956539624364],[1.139273415030391,45.252637097147975],[1.140702866804453,45.251871889956476],[1.14096765881827,45.25199968750545],[1.141539975786908,45.251394041492425],[1.142425063116561,45.25142766919603],[1.143321953926594,45.25072383041816],[1.143631347798346,45.25004805698351],[1.144550191947342,45.24925810875116],[1.145868399124552,45.24861258320203],[1.146251658385199,45.24832171730529],[1.1464411799984,45.24879591470281],[1.146717924197748,45.24917788771506],[1.14830645041571,45.24999050811267],[1.148887017077706,45.251053916919304],[1.148847856836341,45.25119647595551],[1.150211389013507,45.25337437022347],[1.15136315278417,45.25205772221576],[1.151150691194293,45.25354302628513],[1.151671674472218,45.25398306675172],[1.152407969339063,45.25412133458122],[1.151615302793363,45.25664543604645],[1.152866168032303,45.25661117203636],[1.154423979918201,45.256280235864565],[1.154991155057431,45.256597630273305],[1.155439249993288,45.25646722209183],[1.156411889704559,45.2556681566385],[1.157332246476073,45.25536989756752],[1.158578353324602,45.25516976754311],[1.158869542142882,45.25507909269597],[1.159278149106701,45.254792202353855],[1.159568793873306,45.25479518694677],[1.159780785104299,45.25466988078758],[1.159977276343372,45.25451189480759],[1.16009292297271,45.25417604558518],[1.160861858079582,45.25301602258582],[1.161567798817678,45.252798864965754],[1.161924655567909,45.252533631222484],[1.162165850568455,45.251676553560614],[1.162344549927785,45.251245367242085],[1.162702789677014,45.250821635596594],[1.162844498149213,45.2502358255092],[1.163347739304976,45.24993876825386],[1.164352870157457,45.24907532403636],[1.164632042616657,45.2488061045113],[1.164769846642656,45.248454403264084],[1.165081761240767,45.24815870021988],[1.166889133608357,45.247440801627164],[1.167492505019811,45.24634557304532],[1.167811829531724,45.24601756029139],[1.168215493048992,45.24572245258114],[1.168961705874618,45.24551761937275],[1.169178825206811,45.24441875601029],[1.169359803684064,45.24414881767228],[1.169768120908757,45.243788932822696],[1.171820687402397,45.24309118587888],[1.175828758379323,45.240253829591516],[1.177387619571158,45.23874092619268],[1.177105923956611,45.238388673780214],[1.177134456055086,45.23774966573031],[1.176119697669989,45.23677569827802],[1.175568519264242,45.23690720441336],[1.175307363272456,45.23662913732314],[1.173656652249318,45.23627522713648],[1.173247294507726,45.235774069114434],[1.173333431814946,45.23473970982069],[1.173465856918441,45.23447167445985],[1.173849630296384,45.234430211930736],[1.17534488010684,45.23228673520846],[1.176381034161681,45.2317065099558],[1.176894252176873,45.23164283202952],[1.177429435735344,45.231140885952904],[1.177748819116126,45.231040717528685],[1.178056422785337,45.23028647315913],[1.175701393590708,45.22906366958301],[1.17467039631232,45.22711129980365],[1.175928517173291,45.226210467791255],[1.176243825912495,45.22588327012272],[1.178617134814133,45.22271652509056],[1.1793895159035,45.22208964445703],[1.181165717422851,45.22112334548413],[1.181735678142638,45.2196672464013],[1.181970735400787,45.21953237023524],[1.180820710364518,45.2178681377459],[1.178935747208329,45.215610085734866],[1.178727912516204,45.215496816360265],[1.178962848789258,45.215170103820846],[1.179575547742455,45.21478650187345],[1.180863037655829,45.214341835784744],[1.181330715215954,45.21398918711413],[1.183917123763392,45.21341161553766],[1.184008021202514,45.212341307718354],[1.18420640378392,45.21211846733035],[1.184472308389646,45.21213089579789],[1.185212240906354,45.21006599971039],[1.185346509444579,45.20926749521334],[1.185310088526899,45.20858510447227],[1.184558027593071,45.207811825231175],[1.184674516462492,45.20697250319931],[1.184103478599835,45.206510188356695],[1.184433614784646,45.20505648857083],[1.184314202133591,45.20461502579955],[1.183122525396452,45.202985266991604],[1.18282010561883,45.202217488573886],[1.18286448997142,45.20089334238242],[1.182328068423764,45.19983984867304],[1.182194287823423,45.19901897277066],[1.181990291092739,45.19851578653705],[1.180954610256639,45.19706957552318],[1.180473829097332,45.19599176060843],[1.17993427279044,45.19628738953978],[1.179160706803636,45.19688362279874],[1.176954845249781,45.199014616626336],[1.173457849198987,45.20088668514218],[1.170967770351615,45.20269858876754],[1.168878407895653,45.20394148798439],[1.167434282202219,45.2046986744078],[1.166579457063991,45.2049296242947],[1.164763556008913,45.20490249970373],[1.163036134686073,45.20520644410736],[1.160709066236893,45.205303242220914],[1.16019174736224,45.205382085518686],[1.157608953039668,45.20627800004768],[1.153400381145159,45.207133476829455],[1.15301049982883,45.20613269301914],[1.152978572905047,45.20524951127061],[1.151624089623817,45.20259985561394],[1.151252310793264,45.20209293063065],[1.150884313075728,45.2017797103348],[1.150283028505196,45.200317877285755],[1.150673173600456,45.199962271160224],[1.152175165620432,45.19896127693961],[1.153076184452495,45.19794942443652],[1.153825354165354,45.19732954624608],[1.154672081963308,45.196802242842246],[1.155305325448302,45.19622006877752],[1.155770131030225,45.195530632454755],[1.156239215148063,45.19528979586163],[1.156631827403579,45.19520441046038],[1.157275855925269,45.1952204448734],[1.157385206253959,45.19514929568778],[1.157129874446731,45.19485777006682],[1.156217933748146,45.19439148238655],[1.151598758363821,45.193324378811475]]]]}}]}