{"type":"FeatureCollection","name":"COM_40216","crs":{"type":"name","properties":{"name":"urn:ogc:def:crs:OGC:1.3:CRS84"}},"features":[{"type":"Feature","properties":{"fid":4067,"ID":"COMMUNE_0000000009759835","NOM":"Ozourt","NOM_M":"OZOURT","INSEE_COM":"40216","STATUT":"Commune simple","POPULATION":198,"INSEE_CAN":"04","INSEE_ARR":"1","INSEE_DEP":"40","INSEE_REG":"75","SIREN_EPCI":"200069631"},"geometry":{"type":"MultiPolygon","coordinates":[[[[-0.884928505195676,43.661472449732166],[-0.884216294190756,43.66182132675491],[-0.882138640514714,43.66333608680692],[-0.881957539893777,43.66361192203673],[-0.881915792019156,43.66425935229043],[-0.882305678952566,43.6654526212193],[-0.88226483349471,43.6662964149179],[-0.881795326711089,43.66674831571716],[-0.880426337976256,43.667479176013536],[-0.880152604874345,43.66770696446128],[-0.880009535976578,43.66804990656513],[-0.880014791441575,43.66832899573972],[-0.880346251829541,43.66906310257389],[-0.880896658192018,43.66936507069119],[-0.881220634473188,43.66938413300308],[-0.882121756597822,43.6690375396843],[-0.882406639175484,43.66902916606427],[-0.883540327241993,43.6694219963795],[-0.883858358020854,43.669444866891475],[-0.884055741360573,43.669408985073446],[-0.884987677757436,43.668821627914255],[-0.885491028833636,43.66879552733423],[-0.886429108593011,43.66932324780522],[-0.887279589757143,43.66956580655972],[-0.887447643697571,43.669701237149795],[-0.887571757751598,43.670012112439025],[-0.887508866664498,43.670566612469315],[-0.886816342243456,43.67228596892173],[-0.88654260557063,43.67245881955059],[-0.886200213619056,43.672571061109586],[-0.885683758704043,43.672605740378785],[-0.884364376215067,43.67229433931721],[-0.883889833808904,43.672269854910034],[-0.883149522494203,43.67242603358824],[-0.882992371828052,43.67274425884658],[-0.882891732642628,43.67358478761142],[-0.882329921420037,43.6742138613616],[-0.88226225441855,43.67444240344392],[-0.882455910247758,43.67625530193917],[-0.882350411893746,43.67671312296932],[-0.882142818519431,43.676946662490195],[-0.881903430518296,43.67704079668537],[-0.881555276999001,43.67712349873951],[-0.880841974860487,43.67714806503277],[-0.879793286946774,43.67685757116406],[-0.878880318042792,43.676243307360686],[-0.878108964236454,43.675887046453525],[-0.877514332970484,43.675720872221085],[-0.877057770040167,43.67533896105896],[-0.876176047592016,43.67395690150459],[-0.874382519232775,43.67285598736797],[-0.871601990779783,43.67174966633812],[-0.870519766107122,43.67127289882431],[-0.869627693141219,43.67063439919495],[-0.868717898230152,43.66960463794207],[-0.868318209963456,43.66894229710168],[-0.868239410577187,43.66801448582149],[-0.868431677867121,43.66722297128014],[-0.868816839647959,43.6667885484067],[-0.869864735883096,43.66631791687981],[-0.87016879580747,43.666024212079414],[-0.871029504840185,43.664914298697404],[-0.871041380387571,43.66439226291496],[-0.870728179164572,43.66396288495539],[-0.870442264618552,43.663735233713545],[-0.870118161147695,43.66360353459587],[-0.868494684846204,43.663231611708575],[-0.86789868226094,43.6628222024213],[-0.867848458008581,43.66242760147518],[-0.868036960905355,43.66152541558753],[-0.867980618480466,43.66089320001867],[-0.867302799611022,43.65976779810092],[-0.867081208524057,43.659187408452865],[-0.867031092770004,43.65853695467469],[-0.867757394311662,43.65723816458212],[-0.867736762677359,43.65684071026448],[-0.868246671446231,43.656141496078796],[-0.868584154650303,43.655810571167585],[-0.869213843565313,43.655544014303814],[-0.869323628348515,43.655405874287034],[-0.869181228663734,43.654840688257025],[-0.869501537326047,43.65480676095808],[-0.86999270186123,43.654877556224484],[-0.870239929363197,43.654790374861356],[-0.870882615268035,43.65422064947534],[-0.871535550770127,43.653949646840005],[-0.871973482111433,43.65348990967524],[-0.871956397420054,43.653347278617034],[-0.873587369117682,43.653705357794706],[-0.872724870705048,43.650949680635996],[-0.872392382789374,43.650601179045786],[-0.872286146639909,43.64970859181435],[-0.872356231219899,43.649387183596644],[-0.872523756779595,43.64913076927389],[-0.874479524316294,43.64814755778318],[-0.87536369482814,43.648526826303055],[-0.876139461656799,43.64818384703949],[-0.87723577954982,43.64797626711662],[-0.878457504383196,43.64430662757857],[-0.878216444560236,43.644300818535896],[-0.878618324085071,43.642265805492976],[-0.878796184343017,43.64056851154737],[-0.879626684566402,43.63958843328816],[-0.881565267388203,43.63672827450611],[-0.882019117624095,43.63707420885878],[-0.882747250944703,43.63786167750506],[-0.883723214002928,43.6382790312519],[-0.884402572746096,43.638712387856714],[-0.884858215824656,43.63950508339831],[-0.890271322547079,43.64273563096815],[-0.89101884300751,43.64270976244476],[-0.890550144903405,43.64304185676754],[-0.889307749717883,43.64306922286966],[-0.889058736693842,43.64316552247621],[-0.888115626765383,43.644440694241354],[-0.887585363492882,43.644926326579224],[-0.887127648596959,43.64512828515404],[-0.886574789702838,43.6452444578489],[-0.885965965603849,43.64568784790928],[-0.885495688843069,43.645759620637115],[-0.885341567595415,43.64586513009022],[-0.885462699398431,43.64642565169349],[-0.885358474486488,43.64662667214233],[-0.885361560781412,43.64711123679951],[-0.884570592233455,43.64861966957639],[-0.884875112016977,43.64908534970766],[-0.884833953132859,43.64944807581701],[-0.885577258049595,43.65047463212725],[-0.885608779484186,43.65081133694504],[-0.885225306291982,43.65187097730095],[-0.884749785811705,43.6522321170788],[-0.884553377690519,43.65257426820163],[-0.883881335227754,43.653019905389705],[-0.88365691589832,43.65333332673645],[-0.883264129757562,43.65425635820762],[-0.882427310927414,43.654706072352795],[-0.882186275214221,43.65492098669763],[-0.882011336122289,43.65541551663472],[-0.881385347093371,43.65602885876621],[-0.881381111936921,43.656332608738666],[-0.881578013025865,43.656638183437224],[-0.882578495942268,43.65755918516094],[-0.88303104624249,43.658121385922236],[-0.883220011397297,43.658108327526506],[-0.883724800419362,43.658910097652765],[-0.883739549609347,43.65918254004706],[-0.883450494777757,43.65954962195429],[-0.883498210799126,43.659667735154216],[-0.883947890978336,43.65969310588363],[-0.884009045695202,43.65986299024873],[-0.883750430747188,43.6605875394753],[-0.883600268755555,43.6607703810547],[-0.883636174610908,43.6608790065799],[-0.883968060641822,43.660923902090495],[-0.884323090252267,43.66079770104775],[-0.884315328117513,43.66123220790938],[-0.884625776865211,43.661418406757534],[-0.884928505195676,43.661472449732166]]]]}}]}