{"type":"FeatureCollection","name":"COM_16177","crs":{"type":"name","properties":{"name":"urn:ogc:def:crs:OGC:1.3:CRS84"}},"features":[{"type":"Feature","properties":{"fid":4132,"ID":"COMMUNE_0000000009753189","NOM":"Ladiville","NOM_M":"LADIVILLE","INSEE_COM":"16177","STATUT":"Commune simple","POPULATION":129,"INSEE_CAN":"09","INSEE_ARR":"2","INSEE_DEP":"16","INSEE_REG":"75","SIREN_EPCI":"200029734"},"geometry":{"type":"MultiPolygon","coordinates":[[[[-0.077687801777619,45.49551260656829],[-0.077441927080866,45.495931175458196],[-0.076657843595973,45.49681147120937],[-0.075579561775746,45.49770162630876],[-0.074894457871361,45.499513688428756],[-0.074001459265396,45.501367485969965],[-0.073993443739007,45.50173177008218],[-0.074196700897763,45.50230113650916],[-0.074830445422235,45.503007399527185],[-0.075032469272916,45.503484881323885],[-0.074987219360962,45.50400968958302],[-0.074520379700151,45.50453523339637],[-0.074514405559408,45.50569968358321],[-0.074862315980097,45.506173169816805],[-0.074927312053439,45.50642100801662],[-0.074624967763066,45.50929134590144],[-0.074847172604936,45.50973943937092],[-0.075393820765945,45.51035256616509],[-0.07822673386901,45.51144551216918],[-0.078123522452456,45.512034091858524],[-0.077927649649243,45.512338645554635],[-0.077655777633596,45.51316795121471],[-0.077105624154807,45.51392558305213],[-0.076785129212461,45.51420201012651],[-0.075996976663297,45.514528198814745],[-0.076491793626641,45.51459844633246],[-0.07670117742408,45.51476843262015],[-0.076136154270883,45.5156282968344],[-0.078015952609457,45.51644908749412],[-0.078160836709557,45.5165883983385],[-0.078179188792009,45.51689608964249],[-0.078407067804385,45.51702951990214],[-0.078727676508587,45.51707840172967],[-0.079287136190428,45.51681163556559],[-0.079440878108432,45.51687951073867],[-0.07956448846292,45.517189721603216],[-0.079717982045886,45.51725309747907],[-0.080278019276439,45.51697369428435],[-0.080882741732432,45.51710669186828],[-0.08091062211551,45.517308686561286],[-0.080477145330644,45.517581916750736],[-0.080481879234529,45.51771335543524],[-0.080607098379969,45.51775227367159],[-0.079066418275404,45.51909400469265],[-0.078567877253506,45.51941947601293],[-0.077710072410923,45.520293684286855],[-0.077108288220996,45.52116176983511],[-0.076814385964096,45.52203403086464],[-0.078466902944964,45.52240506504971],[-0.078464174347049,45.52288725743261],[-0.077917722016106,45.52357450032462],[-0.077512892150404,45.52457326240874],[-0.076693020775873,45.525740197260546],[-0.075608704118066,45.52764160019395],[-0.074636890098299,45.52872887259917],[-0.074399507247282,45.52914179249261],[-0.073419909915205,45.529071284873815],[-0.072688244792758,45.53086117261112],[-0.071613235707171,45.53078154425396],[-0.070018067099237,45.53087112609757],[-0.069288485217186,45.53080095528895],[-0.068530615037179,45.53052068353561],[-0.067482531590574,45.529977088956464],[-0.066549887046765,45.52952675568565],[-0.066011250027756,45.52950091263445],[-0.06399435643543,45.52877917530411],[-0.063675494008287,45.52878607341838],[-0.062862803126419,45.529253411388424],[-0.061100786713072,45.52996650663277],[-0.059649031784045,45.53044763521437],[-0.059205770320652,45.53054712339872],[-0.058756345018557,45.530511605723184],[-0.058356177662986,45.530160244637116],[-0.057588001919249,45.52869157020271],[-0.056979867775524,45.527939451077124],[-0.056973759747801,45.52780534670723],[-0.058175501464347,45.52746443083659],[-0.059114938944006,45.526993674153125],[-0.059635293152612,45.526479359845325],[-0.058673408145218,45.52598470421173],[-0.057774247936328,45.525813646170086],[-0.057393164171756,45.525435630022166],[-0.056186761938336,45.52492328128032],[-0.055646594149798,45.5246126699199],[-0.055391988197195,45.52429608788156],[-0.055389211525723,45.52396634464222],[-0.054382830641403,45.52268526590585],[-0.054055375439845,45.52251214269127],[-0.052445422722727,45.5223522662301],[-0.052427954526764,45.52222117430188],[-0.051517493668501,45.521167256249946],[-0.051203931810458,45.520966713361716],[-0.051266146645118,45.52074604500852],[-0.051603160941704,45.520673805291835],[-0.051067946350055,45.520055749874906],[-0.049944195210619,45.51922479240075],[-0.049226550304683,45.51892528216673],[-0.047548694264571,45.51860047212398],[-0.047596811024131,45.51823961102499],[-0.04853547899306,45.516239727120016],[-0.048956701660694,45.51557766438147],[-0.046647456586091,45.514910435744675],[-0.047151373614572,45.51370004537477],[-0.047828050343319,45.51274178666017],[-0.047858424944272,45.511871362242296],[-0.047694149820732,45.51044391194514],[-0.047790765332752,45.50907606270565],[-0.04762289603489,45.50872647295263],[-0.046917853285432,45.50795351240224],[-0.044906299443958,45.506515814072365],[-0.044671028819875,45.50617525826864],[-0.044892205095224,45.505534857606065],[-0.045822583896125,45.50432011227825],[-0.045915293899151,45.50372104314545],[-0.04659491344746,45.50321508176164],[-0.046458435411437,45.502946642656475],[-0.045195528059019,45.50183737194769],[-0.045033156768505,45.50147050890628],[-0.045135871493024,45.501217205940044],[-0.04664858509311,45.49917382419433],[-0.047323326919917,45.49939700992415],[-0.047677700535965,45.49938648596911],[-0.048093670320096,45.4995175689485],[-0.048508384582741,45.49953243769172],[-0.048635199362253,45.49992819725186],[-0.048786594584594,45.50000158252185],[-0.049127539709868,45.50000313368353],[-0.049370304841051,45.49980369410934],[-0.049885958981779,45.50020961293049],[-0.050929625980033,45.50042996060118],[-0.051080860566852,45.50061689086598],[-0.051054227587051,45.50076179724707],[-0.050720621569103,45.50080060359102],[-0.050310656735805,45.50073244643751],[-0.050161420935507,45.50083833113458],[-0.050391176993082,45.501311492879005],[-0.051311241985793,45.50170731470492],[-0.051681436363788,45.50172788826801],[-0.051855638957858,45.50184300309949],[-0.051769002689378,45.50194538544069],[-0.051819306955685,45.502137762726605],[-0.051321341614635,45.50226394460108],[-0.051348526705731,45.502502007611035],[-0.051835985623836,45.50279063586169],[-0.052565579664328,45.50272844115266],[-0.052694020474519,45.503013312751996],[-0.053378488809697,45.50280635534653],[-0.053726036961253,45.50323034856394],[-0.054532234526081,45.503372418310924],[-0.054560793862069,45.50384474037382],[-0.05477601411814,45.50398306556409],[-0.055382349380283,45.50396295666814],[-0.056053822765812,45.50361305511845],[-0.05752209623936,45.503537020636045],[-0.057765751067547,45.50326094103293],[-0.059044505268169,45.503234205496184],[-0.059347298778494,45.50282223995566],[-0.060245702480206,45.50289326853521],[-0.060703550262875,45.503108773214855],[-0.061091207695849,45.50319011770181],[-0.06194417605539,45.50074187057455],[-0.062977037305432,45.50078848169025],[-0.063407827557113,45.49946916234325],[-0.064490103895811,45.49843844245308],[-0.06456996677047,45.498237108529025],[-0.064868430936059,45.49804962994661],[-0.065299443965209,45.497269180949296],[-0.065354416474341,45.49636202814848],[-0.065493659649528,45.49605273628135],[-0.065309681678078,45.49562160740521],[-0.065768062026493,45.49508191561056],[-0.065818116013374,45.49482822740718],[-0.066431642238941,45.49447623794115],[-0.066332057816939,45.49432035747176],[-0.065969421707848,45.49427349370664],[-0.066144590872312,45.49398845138689],[-0.065568872498147,45.49381854454648],[-0.065313307683492,45.49348309070541],[-0.065390512819146,45.49302500229736],[-0.065640092007728,45.4925793265352],[-0.065520550651836,45.49217797815116],[-0.065611426129972,45.49161948901672],[-0.067763657696365,45.49212478724575],[-0.068833832754455,45.492292875996014],[-0.069518459749175,45.492578738229234],[-0.072314720611528,45.494185558785915],[-0.073408902053286,45.495202731556084],[-0.073552476927765,45.495180776316595],[-0.073764778170078,45.49491903509406],[-0.074338489701852,45.4950520087881],[-0.076348863310732,45.49528257927084],[-0.077687801777619,45.49551260656829]]]]}}]}