{"type":"FeatureCollection","name":"COM_16150","crs":{"type":"name","properties":{"name":"urn:ogc:def:crs:OGC:1.3:CRS84"}},"features":[{"type":"Feature","properties":{"fid":3997,"ID":"COMMUNE_0000000009752419","NOM":"Gensac-la-Pallue","NOM_M":"GENSAC-LA-PALLUE","INSEE_COM":"16150","STATUT":"Commune simple","POPULATION":1614,"INSEE_CAN":"07","INSEE_ARR":"2","INSEE_DEP":"16","INSEE_REG":"75","SIREN_EPCI":"200070514"},"geometry":{"type":"MultiPolygon","coordinates":[[[[-0.290421905514052,45.68530685061074],[-0.289116053378425,45.68475467575417],[-0.289045130579729,45.6846215576786],[-0.289385069235576,45.68417541415777],[-0.287303748288976,45.683188029789626],[-0.2868175733633,45.683683499033755],[-0.286492501937683,45.683601059247316],[-0.27393822999195,45.67885307248749],[-0.270801059157072,45.67743916059209],[-0.268659408020912,45.676617230635415],[-0.267992819132116,45.67793439069193],[-0.267555691489335,45.67850044958646],[-0.266514129427107,45.679347211913125],[-0.265141261205602,45.680876809590735],[-0.264177833611077,45.68289651723825],[-0.263956364991594,45.68313095499778],[-0.263095882151369,45.68299547362408],[-0.261885622323436,45.682641201611816],[-0.261027878658944,45.682181174575085],[-0.259900391666684,45.68139819254319],[-0.257883113438972,45.68043907131809],[-0.256717188013375,45.67967880215257],[-0.257265512163328,45.67920870919411],[-0.258212474163827,45.678019595207026],[-0.258848731308053,45.67686019550783],[-0.259160213110565,45.67649518426254],[-0.258661626345169,45.676237439662806],[-0.258763647951642,45.67565588338878],[-0.25874554567616,45.67480292281985],[-0.258627236490221,45.6743440058763],[-0.257821052041851,45.67327232025917],[-0.257261271840659,45.672826177733384],[-0.257033897194076,45.672457836731276],[-0.257044753409183,45.67179059772994],[-0.257483531754764,45.67114251998677],[-0.253095607882978,45.66977965041141],[-0.251943829281218,45.668598950816694],[-0.251059471257565,45.66800894518495],[-0.249874970455261,45.667407772049806],[-0.248698933263674,45.6659213198582],[-0.247218943958393,45.66437963858549],[-0.244488926310657,45.662057455567634],[-0.243526145512466,45.66109113518593],[-0.242231196950712,45.66031192198471],[-0.24059077660349,45.65896584869827],[-0.239673898487191,45.65779359574147],[-0.238753715519749,45.65689360618159],[-0.237089833638617,45.65562657065733],[-0.235705242532895,45.654848966370864],[-0.233088141658565,45.65378321895597],[-0.23111286890128,45.65270349273985],[-0.22906873012109,45.65176359934427],[-0.227898042842004,45.65099238422678],[-0.227241826381889,45.65073542853741],[-0.226795140679319,45.650435510299786],[-0.224637889426869,45.65015398114628],[-0.22367700401643,45.649916550719304],[-0.225719567283893,45.647326451027524],[-0.226052151394257,45.646683348889795],[-0.231408745428462,45.64669997389827],[-0.240409888288039,45.647360374081835],[-0.24625214558124,45.647571395638195],[-0.246445241777153,45.64560562111085],[-0.245733803225149,45.6428953816612],[-0.245736578189672,45.6424825326296],[-0.245854867756962,45.64141024669628],[-0.246255770574725,45.63968001060388],[-0.246396239973118,45.63808796834981],[-0.246314130593121,45.63734501044887],[-0.246647239227026,45.63581770567525],[-0.247367876267324,45.633888975366965],[-0.247495179530995,45.632117062855194],[-0.249339318913966,45.63261086258365],[-0.251517396891371,45.63303730144866],[-0.254091579961764,45.63336121564887],[-0.255556884730619,45.63344048635567],[-0.25588519085626,45.633714877051744],[-0.25622720318604,45.63376355851362],[-0.25819558661193,45.6337029583681],[-0.263849489413967,45.63296405819737],[-0.266880944822887,45.63269761239919],[-0.266464727403452,45.6360073782466],[-0.266197622828018,45.637141698023],[-0.269348889348914,45.63750799795655],[-0.269437033555245,45.63665104846251],[-0.271882801555437,45.63681877378646],[-0.272032565909335,45.63726594627878],[-0.273129838244004,45.637419684825666],[-0.274576470416259,45.637484835055936],[-0.275951149782323,45.63646424597227],[-0.277451810991031,45.63557605812511],[-0.279803418764104,45.633851008870174],[-0.280313842672094,45.634551724434864],[-0.281094359930906,45.63683978807936],[-0.282582287966556,45.639074764516764],[-0.283152791420482,45.64349501904551],[-0.283314786522921,45.644059888146245],[-0.284998498397061,45.64556181128487],[-0.287668154772444,45.64721966654794],[-0.289029244983919,45.64884632383431],[-0.293064591134679,45.649759343276756],[-0.299055885076243,45.650735662932874],[-0.303717412786838,45.651648875906645],[-0.303767003375282,45.65179072193785],[-0.302575767946911,45.654117620123344],[-0.301788549097048,45.65722937271204],[-0.30038485692374,45.66019967339865],[-0.298013092044336,45.66159496766456],[-0.298574426827234,45.66234369424707],[-0.297667650558557,45.665223682795336],[-0.295792348868663,45.66766426706655],[-0.293530559004809,45.67123820228943],[-0.293356477331052,45.67204992956138],[-0.293533508648353,45.672993784370576],[-0.29358453016055,45.67417475422972],[-0.293348915872107,45.67641498783825],[-0.295069491679594,45.67741371629617],[-0.292950317829741,45.677861465318045],[-0.292947272835449,45.67852308457465],[-0.29321490152221,45.67934712604334],[-0.293237172794976,45.68019636985506],[-0.292587438793199,45.68152852012861],[-0.291411316815333,45.68324196981687],[-0.291048445761629,45.6845341786391],[-0.290421905514052,45.68530685061074]]]]}}]}