{"type":"FeatureCollection","name":"COM_40320","crs":{"type":"name","properties":{"name":"urn:ogc:def:crs:OGC:1.3:CRS84"}},"features":[{"type":"Feature","properties":{"fid":4117,"ID":"COMMUNE_0000000009758665","NOM":"Uchacq-et-Parentis","NOM_M":"UCHACQ-ET-PARENTIS","INSEE_COM":"40320","STATUT":"Commune simple","POPULATION":610,"INSEE_CAN":"10","INSEE_ARR":"2","INSEE_DEP":"40","INSEE_REG":"75","SIREN_EPCI":"244000808"},"geometry":{"type":"MultiPolygon","coordinates":[[[[-0.586343501268244,43.96716953622505],[-0.577506706623816,43.96869078269472],[-0.571937266422598,43.97486217559436],[-0.570657261478128,43.97615535984956],[-0.569164267378635,43.97811224095667],[-0.568740429881964,43.97853599300787],[-0.568306513048483,43.9789582706477],[-0.567562274116862,43.979425813092234],[-0.566615025705609,43.979560337242305],[-0.565916910209363,43.979349787551165],[-0.565072160021971,43.97930798102379],[-0.564638818917081,43.97918157753964],[-0.562203328619927,43.979338474107095],[-0.561281946014156,43.97918832620086],[-0.559488877236122,43.97866476866735],[-0.557877906368208,43.97845957600261],[-0.556759205671901,43.978645542189035],[-0.556470728045554,43.97880087605768],[-0.556093061005614,43.97884649991886],[-0.555635021275263,43.9787037483318],[-0.555337987033808,43.97846206378826],[-0.554601072521713,43.97840856049198],[-0.553965280147742,43.97807609060518],[-0.553713983668886,43.97802750710773],[-0.553248591952726,43.97818678372071],[-0.552833822723397,43.97819756713411],[-0.552332371479741,43.97789855771314],[-0.55209885273756,43.977374623300186],[-0.551566383785714,43.97737841734327],[-0.551290701671414,43.97723873025036],[-0.550850752124271,43.97716564104639],[-0.550496624973991,43.97686814280036],[-0.549831287509256,43.976781652287215],[-0.549561945301636,43.9765633778327],[-0.549283947306375,43.97608592809026],[-0.548856202300639,43.97588811230579],[-0.548524528126277,43.97589077578982],[-0.548473415926437,43.975570818689924],[-0.547938078921185,43.974907131293726],[-0.547350212493105,43.97321903797734],[-0.545908047751742,43.97201451964833],[-0.545582128595982,43.971287271996495],[-0.545581964609849,43.97104403866483],[-0.545950067115104,43.970544714836606],[-0.545947578863114,43.97038443828781],[-0.54578304876787,43.970045640318794],[-0.545224526967011,43.969709717361056],[-0.544967377914057,43.96944599436445],[-0.544869572971279,43.96917710111656],[-0.544934923651377,43.968563281683814],[-0.54486640588212,43.96840424686754],[-0.544082573277296,43.96749365978406],[-0.543454011421141,43.96719423486524],[-0.542989648844936,43.96682732119808],[-0.542797105003182,43.96690023013332],[-0.542734593509979,43.96762025885156],[-0.542882895439873,43.968501015819804],[-0.542063421453071,43.968923072432865],[-0.541425695514812,43.96954012818081],[-0.541025582501267,43.96962516676529],[-0.539560211901983,43.9695897675502],[-0.538579801087696,43.96991160762249],[-0.53793130222921,43.970034407802174],[-0.536865301091235,43.96960046349894],[-0.536362850688116,43.96952393677512],[-0.5317226605627,43.96988663186197],[-0.531372591362612,43.969813264554304],[-0.521450375658011,43.970388452121504],[-0.516924756919188,43.9708107831327],[-0.511394570250331,43.97110575965981],[-0.502496534965681,43.971748092997835],[-0.502933171519146,43.96168320257836],[-0.503126158840772,43.9616779152238],[-0.503377731886877,43.95661964872272],[-0.503665821356836,43.95337364036439],[-0.503738868428372,43.94908414220863],[-0.504574610790236,43.94722319705905],[-0.504749802851569,43.94638158642047],[-0.506376320843791,43.94264130086967],[-0.50683066475604,43.94137273108559],[-0.507074627333792,43.9401298339476],[-0.508352928340142,43.93559805091693],[-0.508791021005626,43.9341480263635],[-0.509458412482992,43.93255550437441],[-0.509431490922897,43.93201676352949],[-0.509159382293897,43.93156517726849],[-0.510039777890131,43.93128734559632],[-0.510982733955502,43.93111469554868],[-0.517032318791547,43.93016869639654],[-0.517102258531804,43.9303123808817],[-0.518108170414311,43.93023132852069],[-0.522852733619453,43.924648033310596],[-0.527550478211871,43.91888676495564],[-0.529538627677111,43.91669740369522],[-0.531562475780797,43.91426181896413],[-0.535564947125981,43.91045859775686],[-0.539149585567621,43.91167838479778],[-0.541793803509431,43.91169801631708],[-0.545171694838821,43.91285585689524],[-0.545528469102128,43.91328298424147],[-0.545319793936476,43.91511849479026],[-0.548137501000366,43.91546025461718],[-0.550503200489824,43.91548693211077],[-0.550649504807775,43.914674104836806],[-0.550888344403107,43.91448706520169],[-0.551503301731247,43.91433643464304],[-0.552877420128383,43.91420973995306],[-0.554127435083038,43.91431138231603],[-0.554681700960476,43.91420685169018],[-0.556451716294015,43.91475367340416],[-0.556737832037918,43.91546503901188],[-0.557335362219209,43.91621400201904],[-0.557592939910002,43.91638758162731],[-0.560004486776653,43.91722784110077],[-0.562201791157302,43.916093141158214],[-0.562232919059609,43.91627229801536],[-0.562481587071177,43.91656236874804],[-0.562464102210837,43.917000759138745],[-0.56263132850246,43.91792229084159],[-0.569724769719483,43.92000849388244],[-0.574755289240512,43.92116816265789],[-0.576078970985411,43.91926090490743],[-0.58258547749806,43.91925386757052],[-0.581864741204283,43.92377289111468],[-0.578687164560604,43.92515544136825],[-0.578418282926963,43.926571424356304],[-0.578073099519983,43.92732776297353],[-0.579466351968782,43.92768028215589],[-0.579235275712323,43.92803019147945],[-0.579658922601192,43.92822620715619],[-0.582712597482348,43.928420633356005],[-0.583418515984207,43.928704667259574],[-0.584705502743765,43.92833720180671],[-0.585427380756807,43.928379262676415],[-0.586203035375671,43.92804748814568],[-0.587022331865693,43.92781517288723],[-0.587144801842732,43.927800338588256],[-0.587170020382883,43.927904012385945],[-0.587904338067541,43.92814384228838],[-0.588409369439779,43.92796868933098],[-0.587984724504754,43.929956480832814],[-0.587395828559842,43.930958695766584],[-0.587850964136267,43.93113923291337],[-0.588100391863176,43.931398599234775],[-0.589398240514842,43.931698278103696],[-0.589770031116576,43.93172299164242],[-0.590700119258854,43.932022133461174],[-0.590320296331144,43.93379045176942],[-0.590472723302778,43.93425119851124],[-0.59281303830296,43.93585978237785],[-0.584216231879975,43.96055646894431],[-0.584249484159611,43.960867088753645],[-0.585346794599697,43.9637977430393],[-0.586343501268244,43.96716953622505]]]]}}]}