{"type":"FeatureCollection","name":"COM_64293","crs":{"type":"name","properties":{"name":"urn:ogc:def:crs:OGC:1.3:CRS84"}},"features":[{"type":"Feature","properties":{"fid":4235,"ID":"COMMUNE_0000000009760787","NOM":"Labatut-Figuières","NOM_M":"LABATUT-FIGUIERES","INSEE_COM":"64293","STATUT":"Commune simple","POPULATION":170,"INSEE_CAN":"23","INSEE_ARR":"3","INSEE_DEP":"64","INSEE_REG":"75","SIREN_EPCI":"200072106"},"geometry":{"type":"MultiPolygon","coordinates":[[[[-0.037951314264353,43.41877498960419],[-0.037353697869158,43.418965516525894],[-0.037249254221493,43.41918632224185],[-0.037296169052034,43.41925613096118],[-0.03745227634706,43.41926525642569],[-0.037768517780504,43.419149246962746],[-0.038419575447874,43.419549624681814],[-0.038592966182815,43.41986256978554],[-0.038458646032391,43.42017244617396],[-0.038102703112928,43.42042551911964],[-0.037613589944078,43.42026188007352],[-0.037342403889982,43.42031900500456],[-0.037277340603702,43.420911436402776],[-0.037101740577797,43.42118825705309],[-0.036461780772765,43.42123231472211],[-0.035673108339403,43.42157133951371],[-0.035103966097691,43.42157649068616],[-0.034941827508646,43.421663864314596],[-0.034979583969812,43.421981517262175],[-0.03533426824014,43.422102120718435],[-0.035864138248443,43.42214848720979],[-0.035823249468102,43.42249715518122],[-0.03593117129298,43.42281013996696],[-0.035823349012933,43.42338846457785],[-0.03556647296351,43.423763895276494],[-0.034945363003762,43.42388484193699],[-0.034740425893744,43.42414447474262],[-0.034684018965156,43.42431621526267],[-0.035085204947315,43.42470921298129],[-0.035010816054025,43.42521907641638],[-0.034740025180367,43.42570563423926],[-0.034486124485914,43.425856800271],[-0.03446633258669,43.42637143582259],[-0.03407204626466,43.426741710488024],[-0.034030574351345,43.42707959110204],[-0.033678688119798,43.42759812903694],[-0.033374202706317,43.42777411771662],[-0.032983093248019,43.42780668030556],[-0.032525653533638,43.42796354213773],[-0.032518150498992,43.42810240111253],[-0.032757437173461,43.42830637422047],[-0.033686527279651,43.428730509316274],[-0.034196997940703,43.42911054720741],[-0.034413041837969,43.42962307744447],[-0.034211687090659,43.42990421699343],[-0.034253465627946,43.43076645287832],[-0.033989601837442,43.4318065127743],[-0.033510358789355,43.431878458814744],[-0.033402560704276,43.43196610841279],[-0.033264797127047,43.43275054495502],[-0.032498468521663,43.433399529407545],[-0.032363517758286,43.43365179664881],[-0.032287789773258,43.433715138808154],[-0.031770390690515,43.43364949567934],[-0.031139300727314,43.43372388090818],[-0.030859797995572,43.43367138191222],[-0.028444662895572,43.43266486395934],[-0.027978548015929,43.43237629074911],[-0.02788292990582,43.43178025273974],[-0.027118140998609,43.43098054366577],[-0.024838580607377,43.43001157702324],[-0.024467851657966,43.42979775310137],[-0.023715249037983,43.42915793880285],[-0.022782126329141,43.42882026258964],[-0.021881463350991,43.428089136559095],[-0.021379163551777,43.427839360755975],[-0.021095625429648,43.42738000942038],[-0.021151927042943,43.426664491547925],[-0.021023794161462,43.4262710290496],[-0.020591120023322,43.42579423034198],[-0.019828335921426,43.42526451541127],[-0.019126517019259,43.4250959205926],[-0.018373339998354,43.4245605266112],[-0.017811988394087,43.42473822817124],[-0.016461866409109,43.42490279021824],[-0.014965105480744,43.42479142254846],[-0.013800036089283,43.42495169891128],[-0.013012083050299,43.42528423234105],[-0.011622954418246,43.42541200588157],[-0.010016172698349,43.42680984169535],[-0.008909767827282,43.427407783048956],[-0.008488723277505,43.42771838305603],[-0.007710256459274,43.42889510088576],[-0.006372418848696,43.43050238518189],[-0.005516413616297,43.43109513955486],[-0.005144520986384,43.43159072573002],[-0.004700892407203,43.43154091389542],[-0.001378058366863,43.429463318941565],[0.000875188359085,43.42787548906377],[0.007675780174946,43.42373678463288],[0.008501144810442,43.4231617929825],[0.009650610427504,43.42219691599416],[0.00899507856376,43.42164403508426],[0.008785187505148,43.42073974290066],[0.008005066122559,43.42018431427062],[0.007711640810494,43.41981788852794],[0.007807814432349,43.41896616732461],[0.007587623617435,43.418331677171],[0.00680338144817,43.41759516681948],[0.006577377182237,43.41709645832346],[0.006619256136969,43.4160541770245],[0.00647448202253,43.415062553967104],[0.006514788149288,43.41407424824053],[0.006647299956137,43.413544939904966],[0.005710221042078,43.41313640349422],[0.005382744478198,43.4129031734921],[0.004880923149726,43.4121996690974],[0.00447473420105,43.41191294207304],[0.003749373095439,43.41116273386398],[0.001569646118259,43.408012589460185],[0.000432983752188,43.4068395336634],[-0.000973651137117,43.405682389205005],[-0.00141330084882,43.40490225400473],[-0.001473589283495,43.404637698217186],[-0.001462911791275,43.40336768834113],[-0.001282039295027,43.401864723236834],[-0.001507224652263,43.40156588625704],[-0.002361430973137,43.40118298207623],[-0.002516183935214,43.40097792570071],[-0.002390453912744,43.40043764056851],[-0.001809529691489,43.399455336484166],[-0.001835063175065,43.399092713917526],[-0.00212124196512,43.398827295407216],[-0.004088672545515,43.39817671955918],[-0.004388736885644,43.39824851630003],[-0.004815168125926,43.39858869038125],[-0.005633343689384,43.398888276048005],[-0.007158217834451,43.39924384826591],[-0.008949777540995,43.399835064127785],[-0.009921848938151,43.399960185963614],[-0.011508223547257,43.40045173284464],[-0.012691665655604,43.400557444943935],[-0.013123741512286,43.40069756711076],[-0.016753656181654,43.401071813914776],[-0.018125766933556,43.401454900889696],[-0.018457344969857,43.40203264637603],[-0.018898292047062,43.4022472233837],[-0.019841347658385,43.402406378281874],[-0.020156648686186,43.40257944095399],[-0.020239752772866,43.40338648757217],[-0.020926219628665,43.4035969072244],[-0.021130958660113,43.40408635605908],[-0.0256709876094,43.40471490052711],[-0.025674481494629,43.404804832742656],[-0.024554170939399,43.40604344164302],[-0.024557663160642,43.40613337398357],[-0.024811300201246,43.406307247143076],[-0.024766444892383,43.40702783990965],[-0.025778338133268,43.407320067914874],[-0.027198318038945,43.40738840471962],[-0.027325119471682,43.407474888870595],[-0.027299719923784,43.40832998535504],[-0.026890687748959,43.40919310869528],[-0.026056488934857,43.40988535457497],[-0.026063478548337,43.410065219679275],[-0.026761719915644,43.410544467681476],[-0.026773393608378,43.41081333195322],[-0.025960138366454,43.41204517381967],[-0.025127017207183,43.41278239761264],[-0.025138730985753,43.41305216149091],[-0.026072486046379,43.413265546991454],[-0.025906122271588,43.41371854864341],[-0.026417015777056,43.4141571218366],[-0.026134182688605,43.41448553643689],[-0.028448906083284,43.41589911662828],[-0.028573302638665,43.41643222031666],[-0.030436353071976,43.417404641273514],[-0.032123891676514,43.417951599499915],[-0.034715606944526,43.41798432433087],[-0.036204640726641,43.41818566259561],[-0.036764407662715,43.418307711745385],[-0.037951314264353,43.41877498960419]]]]}}]}