{"type":"FeatureCollection","name":"COM_64179","crs":{"type":"name","properties":{"name":"urn:ogc:def:crs:OGC:1.3:CRS84"}},"features":[{"type":"Feature","properties":{"fid":4125,"ID":"COMMUNE_0000000009760828","NOM":"Castetner","NOM_M":"CASTETNER","INSEE_COM":"64179","STATUT":"Commune simple","POPULATION":137,"INSEE_CAN":"09","INSEE_ARR":"3","INSEE_DEP":"64","INSEE_REG":"75","SIREN_EPCI":"200039204"},"geometry":{"type":"MultiPolygon","coordinates":[[[[-0.725468023418115,43.45004903898898],[-0.72530963027552,43.44937898496724],[-0.724556244857328,43.4479971516849],[-0.724431163757513,43.447955519264035],[-0.724169093585453,43.448050995798624],[-0.723558217652674,43.44640666692012],[-0.722999482689926,43.445433342464895],[-0.722574727939738,43.44544073879422],[-0.72237112203494,43.445217167140505],[-0.720715162567886,43.44459407310656],[-0.719956899377855,43.44393651928323],[-0.719390874253947,43.443728093826465],[-0.71868212236506,43.44433246118576],[-0.717861822986906,43.44399585839324],[-0.717088873529039,43.44441057775272],[-0.716083038045124,43.44433972053958],[-0.715975535566146,43.44355623166726],[-0.715694916312829,43.44340284110789],[-0.715727393588546,43.4431594490544],[-0.715473272731664,43.44194327085302],[-0.714492679837289,43.44099969689114],[-0.71475374154476,43.44018104976924],[-0.714520580238324,43.439728812133005],[-0.713568625263104,43.43903643458806],[-0.712328675297408,43.43748208963945],[-0.711634323162832,43.43681599174428],[-0.710597552679641,43.43668490476235],[-0.710183534836857,43.436493743008654],[-0.710083053760257,43.436143229384435],[-0.708160679606041,43.43439156735156],[-0.708043795436875,43.43367144748244],[-0.707144839088801,43.433549119909834],[-0.706797876307268,43.43313228994254],[-0.706529302285406,43.43258938681461],[-0.705790731311075,43.432462458738556],[-0.705777410965966,43.43225576562342],[-0.706226948523352,43.431541475664716],[-0.706923218549803,43.43114657216158],[-0.707387308329259,43.43163594522572],[-0.7082211149788,43.43189830027266],[-0.708554446831852,43.431912101421496],[-0.708953239789933,43.43186781884632],[-0.710034514942838,43.43146420829867],[-0.71218599815207,43.43130940403237],[-0.712626638984221,43.43105201993909],[-0.713383629363525,43.43081350573324],[-0.714382535562534,43.43079995554992],[-0.713984093120047,43.4292230749971],[-0.71346686098609,43.42915525541038],[-0.713206801156819,43.428400424266925],[-0.713195442276685,43.42797570744972],[-0.712583433240943,43.42695644751333],[-0.712733919584656,43.426799077283825],[-0.71276828583842,43.426546617941405],[-0.712330459940369,43.425124199384946],[-0.713386373418704,43.424521478326525],[-0.71352511580215,43.4242780477367],[-0.713586585181484,43.42373735247299],[-0.713737465781773,43.42350971690085],[-0.715528563347826,43.42151096667996],[-0.716575322133275,43.420596002779966],[-0.717069159691306,43.420264721042315],[-0.718011673722359,43.42020353202605],[-0.719762441088991,43.4204315915067],[-0.720322024705637,43.421174309342874],[-0.720652577019111,43.4211269225582],[-0.72137574771172,43.42176223990834],[-0.723567356837207,43.42188952269561],[-0.723770733966697,43.421767243589315],[-0.723820356101705,43.4215412746321],[-0.724867727299509,43.42128638190664],[-0.725064802800913,43.42150566381352],[-0.725164080532839,43.42244703085221],[-0.725302426164037,43.422713366269505],[-0.725740600416633,43.42308736833892],[-0.726017989729389,43.42300126566097],[-0.727932802782265,43.42297497070555],[-0.72867251109026,43.42350159574807],[-0.728717753498007,43.42366575784073],[-0.728548829915537,43.424166936126355],[-0.728571287971804,43.4250470032514],[-0.728075649133436,43.42515954227294],[-0.726168804838704,43.42508108713944],[-0.72556018372065,43.4252236221825],[-0.725261002709127,43.42541224719056],[-0.725354906936781,43.42600344747691],[-0.725552000447374,43.426222729262534],[-0.725866630413348,43.42634880087972],[-0.726611245899169,43.42641683969745],[-0.727978933169256,43.42715602404566],[-0.727161334716003,43.4281929101754],[-0.725892906853873,43.42952000631815],[-0.72542291367467,43.42989554192087],[-0.725066923300658,43.429989750704266],[-0.726360665781878,43.43055947815213],[-0.726852935345316,43.43180525716996],[-0.727698620500323,43.43209677837375],[-0.728672691657907,43.4322334617224],[-0.728296827846139,43.432478775610555],[-0.728144479263876,43.43312168909947],[-0.728144523218605,43.43384671946043],[-0.72866958584687,43.43411054576751],[-0.729275336176824,43.4337699486256],[-0.729460366040783,43.43376447607766],[-0.729667276206,43.43417255395688],[-0.730394116760988,43.43392685194575],[-0.730580829045111,43.43396635264863],[-0.730620073382057,43.43468553055007],[-0.731812065005582,43.43505605682742],[-0.732470965625557,43.434677582824534],[-0.732334282680838,43.43558025660069],[-0.732359926545218,43.436299003665226],[-0.733123725704678,43.4367365151472],[-0.735530617344081,43.437656848460726],[-0.737225443329742,43.43819370726547],[-0.73792297508343,43.438542507206634],[-0.739889405284234,43.43924468029346],[-0.739750689828965,43.44041854241408],[-0.740290255459034,43.44107450977629],[-0.740764390480108,43.44138957915037],[-0.741347703949321,43.44150182580927],[-0.74352002517277,43.441623996655906],[-0.744585542987521,43.44183304008678],[-0.745313781789001,43.442082560940904],[-0.746568343169931,43.442081494008555],[-0.74695290897116,43.442349199026964],[-0.747109839602729,43.44297424273615],[-0.747368799360971,43.44319225235275],[-0.749167491701456,43.44336507017693],[-0.750489037798968,43.44382188688157],[-0.750979678073304,43.44376346175867],[-0.751516858968294,43.443433218060264],[-0.75363609876776,43.4430247260127],[-0.754548072864852,43.44258510151067],[-0.754980910366918,43.4424935353773],[-0.755830998372237,43.443093630902425],[-0.757215960906752,43.443593201741926],[-0.75669272761491,43.444193195902535],[-0.757204800949552,43.44453840588194],[-0.75851234651691,43.445195566069835],[-0.757046926416024,43.44583006019418],[-0.757355096133797,43.44619495390045],[-0.757664978144305,43.44732356893313],[-0.75838935937053,43.44809824142459],[-0.757954431255921,43.44834751297756],[-0.756209654101556,43.448037861219795],[-0.755941662232539,43.44993409317829],[-0.755541640800213,43.45075588141744],[-0.755079999990109,43.45135373226785],[-0.754128409603565,43.45088593985996],[-0.753777958427849,43.451255659536315],[-0.753608011822996,43.45153085495039],[-0.753610169317794,43.45269987164737],[-0.753408606186287,43.4531157691376],[-0.752430533035462,43.45305688950831],[-0.751982181668805,43.4529499289808],[-0.751779508756228,43.45255344242124],[-0.750601214678168,43.451396341734004],[-0.750019241282898,43.451363353793376],[-0.749775353896333,43.45141503098652],[-0.748298471465776,43.45235152686838],[-0.747241824736501,43.452623169198674],[-0.747040350495229,43.45228247593705],[-0.741893006302351,43.452216351513364],[-0.740293434921715,43.45079449009082],[-0.739802932978394,43.451711206785085],[-0.739661566382354,43.45280681082889],[-0.739522041490152,43.453056613204474],[-0.739262819824791,43.4532529044361],[-0.738379403046383,43.4535085702333],[-0.736268048094288,43.454616305444084],[-0.736145864688643,43.45461961954334],[-0.734881316166314,43.45407148711442],[-0.734288493065932,43.454537763646364],[-0.734042892760395,43.45454442977238],[-0.733217502689607,43.45401896590115],[-0.732699795080389,43.45421424244438],[-0.73214284413068,43.45481437189874],[-0.731648330049737,43.45513854143229],[-0.730588160430765,43.454367155846256],[-0.730131983952011,43.45385327013667],[-0.730066644642533,43.45364656375387],[-0.73031567077579,43.45321647125298],[-0.72955277856887,43.45207186757041],[-0.728343278258094,43.45185591797075],[-0.728150681092502,43.45172654623974],[-0.728129387808993,43.45132197652338],[-0.728467957617747,43.45072848707843],[-0.727198916318772,43.450089458924374],[-0.726679526644434,43.44961016211259],[-0.726200907603051,43.44989322891405],[-0.725468023418115,43.45004903898898]]]]}}]}