{"type":"FeatureCollection","name":"COM_33020","crs":{"type":"name","properties":{"name":"urn:ogc:def:crs:OGC:1.3:CRS84"}},"features":[{"type":"Feature","properties":{"fid":4190,"ID":"COMMUNE_0000000009756084","NOM":"Auriolles","NOM_M":"AURIOLLES","INSEE_COM":"33020","STATUT":"Commune simple","POPULATION":137,"INSEE_CAN":"27","INSEE_ARR":"3","INSEE_DEP":"33","INSEE_REG":"75","SIREN_EPCI":"243301371"},"geometry":{"type":"MultiPolygon","coordinates":[[[[0.027094795539972,44.748471806880666],[0.02735158985253,44.74858861441914],[0.027558626752766,44.74849867134661],[0.028293653891096,44.748537315521844],[0.029405652700685,44.749026626314354],[0.0299372778442,44.749182331573486],[0.030406393216103,44.749444471041514],[0.03091333707587,44.74954094859527],[0.031406293837176,44.7498785008023],[0.031580040064329,44.749724592137746],[0.032863765182199,44.75031486988688],[0.033440851868739,44.75030420099483],[0.03414758829772,44.7506880084618],[0.034538918433622,44.750771462745845],[0.034937736347537,44.75128846766683],[0.035110431947372,44.75134624603595],[0.035416300378276,44.75134812674101],[0.035546034324368,44.75145340518952],[0.03573820843733,44.75128556829188],[0.035866389441679,44.75127638559301],[0.03609790415131,44.75134564681513],[0.036188999020753,44.75153638059182],[0.036535575001667,44.75170151636342],[0.036839441711869,44.7516934292094],[0.036979753574781,44.75178997950644],[0.037317442480164,44.75176387612344],[0.03763178216522,44.75189300949591],[0.038370489499043,44.751958712061615],[0.039461871904546,44.75260232834517],[0.039801725585684,44.752703307303385],[0.039888116343445,44.7528876054544],[0.040229661397889,44.75283636986078],[0.040327132889529,44.752882219407994],[0.040650261330956,44.75310887996116],[0.040776427519497,44.75333027754021],[0.041163841778511,44.75351270619909],[0.042811683708138,44.753698159690444],[0.043324733697234,44.753535272438654],[0.043869643144443,44.75358405216862],[0.044042501383395,44.75347064277706],[0.044611300171515,44.75344978342181],[0.047361789564462,44.7544520008166],[0.049413909714408,44.7546445270565],[0.049516088242919,44.75416705117271],[0.049396210706872,44.7539215067589],[0.049486953797097,44.753589677644115],[0.049347949529008,44.753443627307426],[0.049206329967986,44.75262450988693],[0.049004366281192,44.75232902872207],[0.04894980805037,44.75192305611908],[0.049214645872335,44.75092376994902],[0.049619497142451,44.75026786501918],[0.049644144794681,44.74977390977919],[0.050392357125869,44.74888659995808],[0.05093547001718,44.74848663427687],[0.051066128862265,44.74794775275237],[0.051829633800271,44.74737076229491],[0.052306377300136,44.74695821285997],[0.052383744079092,44.74678459061064],[0.054436224170152,44.74505806127007],[0.054687200891771,44.74497284149659],[0.054858709265658,44.74543957889907],[0.055571929732841,44.74509727103518],[0.055482852902538,44.74498769228951],[0.057634029067753,44.7441745702299],[0.058587980672951,44.743917921142106],[0.059392636152592,44.74334918326579],[0.0602396613299,44.74300949897014],[0.061573501255434,44.74157819288819],[0.062092103867439,44.74118473457203],[0.062056142860569,44.740856745091634],[0.061720970486258,44.74032801924519],[0.061196760883159,44.73988526908473],[0.060733087209784,44.739663047671606],[0.060362510481097,44.73908652962708],[0.057998099719325,44.73639213709118],[0.057584942435013,44.73566402342173],[0.057184193867985,44.73450559616384],[0.056860759610771,44.734068159886704],[0.056485606761655,44.73135811904936],[0.056837707600988,44.729338600697105],[0.056913078443808,44.72809102497021],[0.05640873916275,44.727150568340534],[0.055841338640223,44.7264012296212],[0.055576015376675,44.72620678179032],[0.055064087868363,44.72613640758892],[0.05499484784379,44.725575994013084],[0.054437892949223,44.724386374598154],[0.053807519041642,44.720375815390824],[0.05258227530899,44.71778548508173],[0.052448047713068,44.717694521705546],[0.052369027629125,44.7170320427932],[0.052056744621404,44.71684264165103],[0.051636501671136,44.71594043870833],[0.051520977043342,44.714383274220076],[0.051534867462819,44.71404579926984],[0.051677691834278,44.71380365258506],[0.051383927275063,44.71352645235939],[0.050524515272519,44.71350715867541],[0.049823640124654,44.71304252471887],[0.049299954201261,44.71281324543544],[0.047498371632441,44.71228140892972],[0.047249763682091,44.71193873352213],[0.04515021624868,44.714772862118465],[0.043383093266697,44.716374365255405],[0.043702677611164,44.71680903800705],[0.043833419552007,44.71715848451317],[0.043519031919595,44.71883751976771],[0.04416676636144,44.72127650367835],[0.044469980038925,44.72171073697454],[0.045851679667038,44.72280800544679],[0.038642006360041,44.723391080064815],[0.038656947457268,44.72382752910431],[0.038479652403999,44.7246029906869],[0.038083675767203,44.72521133562478],[0.037659988099067,44.72653787994188],[0.036520374851354,44.72655603142512],[0.033497757732072,44.727460701473944],[0.032854673392885,44.72752905709259],[0.032538185130253,44.728833233421085],[0.03289395743858,44.72954009034896],[0.032933005582027,44.72987808568634],[0.032161384181852,44.731136730299056],[0.032058228374424,44.73153488071417],[0.03219674071064,44.73199987166024],[0.033116635080868,44.73310654613356],[0.03339365098061,44.73317433105379],[0.033711955548837,44.7331062794701],[0.034264094566323,44.73414092661519],[0.035023913588736,44.73485679596304],[0.035773482138879,44.735359765049296],[0.033276589176869,44.73644879385874],[0.031139263895644,44.736830265263926],[0.03022355086167,44.73674534722095],[0.029905116303958,44.73772513390367],[0.029408109638523,44.738447867625524],[0.027459551480185,44.74075693748815],[0.029395674095464,44.741555769133036],[0.030097156050229,44.74196469024528],[0.028205474208095,44.74403295113943],[0.027109942724119,44.745721640707266],[0.026840092849627,44.74594774026277],[0.026669452385035,44.74676031253333],[0.027094795539972,44.748471806880666]]]]}}]}