{"type":"FeatureCollection","name":"COM_64141","crs":{"type":"name","properties":{"name":"urn:ogc:def:crs:OGC:1.3:CRS84"}},"features":[{"type":"Feature","properties":{"fid":4237,"ID":"COMMUNE_0000000009760283","NOM":"Boueilh-Boueilho-Lasque","NOM_M":"BOUEILH-BOUEILHO-LASQUE","INSEE_COM":"64141","STATUT":"Commune simple","POPULATION":391,"INSEE_CAN":"25","INSEE_ARR":"3","INSEE_DEP":"64","INSEE_REG":"75","SIREN_EPCI":"200067239"},"geometry":{"type":"MultiPolygon","coordinates":[[[[-0.351940693017674,43.55416296749052],[-0.351446841987092,43.554908565454056],[-0.350932160000721,43.55536122621707],[-0.350846241691281,43.55558631453897],[-0.350937767887507,43.55573297886125],[-0.350897721437121,43.55589541346144],[-0.350175825884691,43.55610771948137],[-0.349442302991872,43.556481577320916],[-0.349534269851379,43.55612662477095],[-0.349182621858255,43.55585110537892],[-0.348666204650753,43.55565901753136],[-0.34857824911175,43.55542488837025],[-0.348163162789132,43.55554756373582],[-0.347993751990309,43.55538168737336],[-0.347123069118712,43.55525095324443],[-0.346656165715299,43.555015903895665],[-0.346128465515815,43.55490610208741],[-0.34591502878588,43.554792010910134],[-0.345619935777693,43.554445395226075],[-0.343172276358593,43.55370674697927],[-0.341483730259296,43.552841108756645],[-0.341283721537983,43.55263834267943],[-0.340355024679798,43.552360753711966],[-0.339783731833523,43.55201182044455],[-0.339128430963302,43.551814959260206],[-0.338419348151014,43.55141712798712],[-0.33740178003677,43.551058499453944],[-0.336679326451725,43.55096274882475],[-0.336104954815887,43.550645411116285],[-0.33472807840868,43.55107046567147],[-0.333430505923803,43.551646156978286],[-0.332978127103944,43.55176631736744],[-0.332816438876783,43.55192437506746],[-0.332487595263378,43.55270083149586],[-0.332221172029477,43.552953059109754],[-0.330982558202113,43.55332969185129],[-0.329889678077962,43.55427637954468],[-0.329301678560148,43.554556478518265],[-0.328386205672083,43.55525366173088],[-0.327693207276813,43.55558109855694],[-0.326405598613122,43.55575475816808],[-0.325493715094808,43.55563862292566],[-0.324331416912718,43.55566703339823],[-0.32333969926486,43.55511296523062],[-0.322246611882522,43.555545374206226],[-0.32014915977456,43.55591125006524],[-0.319601370745165,43.556095508645626],[-0.318368731719048,43.55617103337],[-0.317274172939069,43.556557508748014],[-0.315802117818925,43.55681862786769],[-0.315629710467954,43.557092254125],[-0.315184480619277,43.557251743288006],[-0.314692382829315,43.55730730016117],[-0.314368400067359,43.55703623079553],[-0.311164680281091,43.55713763883442],[-0.310425989460808,43.55749067069671],[-0.309695480482915,43.557985731290316],[-0.309114618145755,43.55815563535026],[-0.307719692852588,43.55887536105394],[-0.307118978685532,43.55902334600093],[-0.306511611076813,43.559313813662236],[-0.304236348472613,43.55975683568935],[-0.303560062071461,43.56031323916435],[-0.303743877527952,43.56064534095162],[-0.303755483302053,43.561277157948936],[-0.303909047472437,43.56153543693499],[-0.303800420655043,43.56192867264863],[-0.303906233453844,43.561981284016184],[-0.303707465691759,43.562185451449714],[-0.303611077435772,43.562511675394845],[-0.303621595355046,43.563124615208864],[-0.303487675522837,43.56353032771961],[-0.303160275356445,43.56371589641652],[-0.303096437589076,43.56404833358029],[-0.302759952214365,43.56437736166181],[-0.302475594579825,43.56492363105194],[-0.301506968093482,43.565544749604776],[-0.301196440004032,43.56524891626953],[-0.300819771736328,43.564470609529025],[-0.299282357300352,43.563276432355],[-0.29832321345064,43.56220964711196],[-0.297683438724257,43.561053904696685],[-0.297117641583792,43.5591592844041],[-0.294782401965973,43.556380062022015],[-0.293258290550828,43.553814823713815],[-0.293004776839955,43.553518142678044],[-0.292563820725931,43.55345047749548],[-0.292108269200765,43.553063569818384],[-0.290496211623546,43.552070571206],[-0.289956595929074,43.550303014428515],[-0.289468234959769,43.550077384118424],[-0.289979974598731,43.548594031078395],[-0.289986024926466,43.547749166532626],[-0.28916916066798,43.54546322103423],[-0.28785814773344,43.542632135575644],[-0.288462545898433,43.54149178346259],[-0.289082206484477,43.53997005082098],[-0.288792259961455,43.538690216233285],[-0.28878359622709,43.53732891403668],[-0.289327959668402,43.53458027730828],[-0.289197437181745,43.53396558917063],[-0.288206638918068,43.5322261413895],[-0.288743887930879,43.5305853484991],[-0.288796636179703,43.528740424516705],[-0.288680231061767,43.52733467245868],[-0.288584379387469,43.527238523920495],[-0.28871260271525,43.526473714593926],[-0.28901121572664,43.52624223637056],[-0.288586157533614,43.52372562820357],[-0.288522476115637,43.52233269060574],[-0.293741690236933,43.52135214905968],[-0.295322959511943,43.52089528587865],[-0.295589996850666,43.52091238522471],[-0.297991404218766,43.520580039044056],[-0.301037542846646,43.5208511620239],[-0.302253215847073,43.52049357281932],[-0.304433473917622,43.52025426457062],[-0.306167677243513,43.519553946903315],[-0.30681208739374,43.51907594302352],[-0.307769141485063,43.517924729041724],[-0.308013704853829,43.51787404481809],[-0.308613169395835,43.51745413247377],[-0.311118754014808,43.51820251751251],[-0.312156602586855,43.51862557816059],[-0.313398315910351,43.51805634760726],[-0.314356045720667,43.51713377934894],[-0.314834601010586,43.516806676588445],[-0.316176799290583,43.516414442225795],[-0.317332455962508,43.51570641724079],[-0.318250312287245,43.51559458714788],[-0.319270070851493,43.5159614007955],[-0.321560469484169,43.51587595907749],[-0.322283701128786,43.516421123260635],[-0.323097922073655,43.51676358201332],[-0.32322577479793,43.51702711503314],[-0.323401735146373,43.51709556417231],[-0.323392194768985,43.51740112915321],[-0.324303684608755,43.51835474654813],[-0.324994900215799,43.518003968195245],[-0.325355690235434,43.51822973945351],[-0.325677882529032,43.518536838829384],[-0.325400110095497,43.518868640579505],[-0.325702054065673,43.5192961290809],[-0.325830345393396,43.519652399311425],[-0.32640453728169,43.5202507385595],[-0.326810323485356,43.52046251856765],[-0.327119836612351,43.52048634211011],[-0.32769405126332,43.52033724872701],[-0.328233934400647,43.52004422324588],[-0.328580608360294,43.52006870309776],[-0.328656765748786,43.52018703432483],[-0.328524017054511,43.52069359549325],[-0.328180258906305,43.521018425176834],[-0.328183377761591,43.52113629677904],[-0.328391081097818,43.52130372147816],[-0.328861936478071,43.52150629323533],[-0.329844360463846,43.52225057573576],[-0.330427600266806,43.52232091674027],[-0.330905465751214,43.52223870191128],[-0.331146155887107,43.52203589709578],[-0.331507083538406,43.521900538874014],[-0.331955620328953,43.521974109050056],[-0.332198862989656,43.522220581050995],[-0.331955861365644,43.522831393396714],[-0.332110053720312,43.52320667414007],[-0.332928418228575,43.52338324296344],[-0.335079406789594,43.52445087042139],[-0.335186799333216,43.524659189965035],[-0.334696761938994,43.52581071450983],[-0.334672264261038,43.52619869141243],[-0.334979954861886,43.526787176152716],[-0.335207899700912,43.52691884697922],[-0.335519155285668,43.526886761954934],[-0.335604146964512,43.52645369900789],[-0.335925198209704,43.5265050599344],[-0.336304355408446,43.52783337333124],[-0.336260665021535,43.529019804860816],[-0.336405192359332,43.529909578638716],[-0.33595426433585,43.53081856908815],[-0.335872803907887,43.53135508520218],[-0.335696338386892,43.53155592604051],[-0.336828835997609,43.53272689492306],[-0.336762097750566,43.53355923271659],[-0.337144988761762,43.53405625078976],[-0.337032420787464,43.53463244888717],[-0.338083864776463,43.535387157921434],[-0.338596222675841,43.53636467237391],[-0.339256740442359,43.53718633588795],[-0.339760735286167,43.53729599362412],[-0.340099477537884,43.53713967801425],[-0.34021151551464,43.536916498873495],[-0.340046505480021,43.536463210260315],[-0.340196637255827,43.53623525612626],[-0.340439608905235,43.53613501957542],[-0.340988731880821,43.53616943815022],[-0.341130790061276,43.536292037364476],[-0.341258554884409,43.53665821980798],[-0.34212932598745,43.536923166514],[-0.342304276653656,43.53714290883449],[-0.342294432269739,43.53795188917449],[-0.34269019454884,43.53907256381849],[-0.342946907033331,43.53933571342032],[-0.34413128638647,43.53943699014415],[-0.344336969802713,43.540056520117915],[-0.344546882205615,43.54015360994214],[-0.344886887192542,43.540125116098224],[-0.344982383189799,43.540213125487355],[-0.345407350616619,43.541069036825036],[-0.345301470983719,43.54167385935671],[-0.346654721601183,43.54231382656551],[-0.34691181151331,43.54256164763306],[-0.345767824953283,43.54394053564333],[-0.345938367440738,43.545528326844625],[-0.346450737058337,43.546905657090946],[-0.347003656540484,43.54757661321014],[-0.346984234354885,43.548071608833396],[-0.347198997565886,43.54869716273991],[-0.347904115291192,43.54921753271331],[-0.34846238472375,43.54910934999047],[-0.349013874653775,43.54945794833327],[-0.349731579458544,43.55021476173241],[-0.350644173022365,43.55044954161322],[-0.350685070341388,43.55059866938783],[-0.35036121985511,43.55090494888273],[-0.350348447127632,43.55104672863827],[-0.352371862149722,43.55079691596456],[-0.352685418608838,43.55078092357762],[-0.352871085949418,43.550885953221446],[-0.352842953971252,43.551697313079615],[-0.35237833994403,43.55203136284663],[-0.352359392190012,43.55217333388588],[-0.353092469544855,43.552746843100635],[-0.353182988293905,43.55300340304986],[-0.35306600473503,43.55316281273665],[-0.352577912756294,43.553328286207666],[-0.351784869088386,43.55329695302337],[-0.351518098591835,43.55339344693202],[-0.351465442328576,43.55370035840415],[-0.351940693017674,43.55416296749052]]]]}}]}