{"type":"FeatureCollection","name":"COM_64339","crs":{"type":"name","properties":{"name":"urn:ogc:def:crs:OGC:1.3:CRS84"}},"features":[{"type":"Feature","properties":{"fid":4181,"ID":"COMMUNE_0000000009762037","NOM":"Lestelle-Bétharram","NOM_M":"LESTELLE-BETHARRAM","INSEE_COM":"64339","STATUT":"Commune simple","POPULATION":795,"INSEE_CAN":"27","INSEE_ARR":"3","INSEE_DEP":"64","INSEE_REG":"75","SIREN_EPCI":"246401756"},"geometry":{"type":"MultiPolygon","coordinates":[[[[-0.19190171826592,43.10478797072982],[-0.19239630178099,43.105268400995996],[-0.192471654436494,43.10549840914104],[-0.193198495197168,43.10517890953211],[-0.193675649192907,43.10523227436699],[-0.194100107713294,43.10535471198091],[-0.19411986856785,43.105490050426056],[-0.19429432530655,43.10555688965483],[-0.194463391357881,43.105481662860164],[-0.194637898117122,43.105549400222095],[-0.194573194284328,43.10571244840133],[-0.194772728749914,43.10578844489406],[-0.195430051188878,43.105411581156794],[-0.19635395237819,43.105234740093266],[-0.196410914611407,43.10530956349528],[-0.196906125387416,43.10528946506138],[-0.197176309829257,43.10515452222264],[-0.19890065970985,43.10474595760745],[-0.199447244921642,43.1047441250944],[-0.200010419683764,43.1046202747605],[-0.201022421279837,43.1045262910571],[-0.201926758102731,43.10452911568497],[-0.2043049110494,43.10481305581057],[-0.205093837391424,43.10472837063297],[-0.207327092742887,43.104680794004764],[-0.211683858928538,43.104135988955974],[-0.213923296021312,43.1040673865614],[-0.215311972769097,43.104142061135235],[-0.217992769141822,43.10478573603908],[-0.218633565247742,43.10484310328494],[-0.219599775222349,43.10511848367382],[-0.221201718434227,43.105161503227684],[-0.222884269498027,43.10546043734477],[-0.223312172029692,43.10562136631387],[-0.223994491494939,43.10635709259496],[-0.22493985072033,43.10700662468352],[-0.22753840794166,43.107647132047624],[-0.226965060833819,43.10838085352407],[-0.226397714960036,43.108649899549285],[-0.225860895415017,43.109135871685446],[-0.225088882365224,43.110273412033706],[-0.224059396746807,43.110870443982705],[-0.223574235179107,43.11087326198514],[-0.222531001392743,43.11131225866009],[-0.222316793938782,43.111326768443924],[-0.222128926793766,43.111681657929914],[-0.221504348616342,43.111718342578136],[-0.221590891890792,43.11219104913378],[-0.221731130864091,43.11237049154425],[-0.221701294115668,43.11271705308182],[-0.220983553423131,43.113000469477726],[-0.221224453522851,43.11311208972936],[-0.221072096793895,43.1136414508442],[-0.220387758532793,43.11419391844319],[-0.22024533032315,43.114703177752176],[-0.219492964018408,43.11571136448299],[-0.219591822532617,43.115875843689714],[-0.220246308178184,43.116176745786944],[-0.220614644633591,43.11676705637308],[-0.221463899054431,43.11745370858946],[-0.221729704214146,43.117570885236255],[-0.222151332084043,43.11761768727879],[-0.222073749628254,43.11783515175931],[-0.222220937393964,43.11794057187182],[-0.222398449707116,43.118303437729494],[-0.222834313837938,43.11869368217429],[-0.223207534235761,43.11884184912849],[-0.223279778266094,43.11923396894414],[-0.223427579972949,43.1195266080324],[-0.22357692743385,43.11962656090572],[-0.22441759150363,43.119783240699086],[-0.225194438934353,43.119544842091585],[-0.225494865475413,43.119709583800706],[-0.227063026767023,43.11960230883591],[-0.228263623764468,43.119932715289515],[-0.229187079630782,43.12047125835316],[-0.229319524706734,43.12046638816644],[-0.229479429880285,43.12024915010914],[-0.229617951791353,43.12019908789984],[-0.229860178351436,43.12066352556171],[-0.229992711275235,43.121232073104444],[-0.230206909173893,43.12141469101781],[-0.230688256274012,43.12158389663646],[-0.230898597666246,43.12174142362454],[-0.231337978118213,43.121863274725634],[-0.23139558574491,43.122124402831766],[-0.231194999004703,43.12264712912799],[-0.23157513302114,43.12283016915206],[-0.23233069878596,43.123573567481586],[-0.232541996367377,43.124077637731915],[-0.232449646968689,43.12442608292786],[-0.232500327154598,43.12456319227083],[-0.233338361524421,43.12473698860326],[-0.233766743640221,43.125276851517164],[-0.233503197254465,43.12546480037042],[-0.232956727912937,43.12551630705565],[-0.2321804143448,43.12578715233369],[-0.231177427375301,43.126004476953135],[-0.230755294108688,43.12619177354136],[-0.230929391453774,43.12662404759188],[-0.230845315509289,43.12696684246533],[-0.230694401581211,43.12712530106481],[-0.231136200224186,43.12753154403168],[-0.231246691929924,43.12761734985367],[-0.232778339830944,43.127842364499685],[-0.232567782592168,43.12825287013376],[-0.231917477352428,43.12875578403849],[-0.231516544359129,43.12941055006628],[-0.231448738338943,43.13000041255338],[-0.230835942440756,43.13126286218213],[-0.230042116016241,43.13188169236296],[-0.229826631619565,43.13222662618885],[-0.229778648110427,43.13372149470225],[-0.228868004419027,43.13568241503604],[-0.229818420340382,43.13676478160147],[-0.229209211949143,43.13686135653711],[-0.229595390906908,43.13822889356294],[-0.228662924433459,43.13975657290585],[-0.226142482011685,43.14001299566891],[-0.227005524538849,43.14250232574549],[-0.226738431320603,43.143575265598336],[-0.225762841700139,43.143782710845386],[-0.224734521779909,43.14156927595799],[-0.220817099077273,43.142524510516914],[-0.220705142229642,43.14236852060781],[-0.219411507683059,43.14264842633683],[-0.218651200062275,43.14305732210207],[-0.218415678576242,43.142669167420046],[-0.217493442729825,43.142973966027874],[-0.217341843988996,43.142834459698335],[-0.217109456208704,43.14289990994768],[-0.217447359703792,43.14331651791899],[-0.217321559971361,43.14353002026944],[-0.21631348540862,43.143927390953884],[-0.216417459843769,43.144492314937146],[-0.214466918177831,43.146003432870494],[-0.214423012248278,43.145545639635],[-0.213942011681306,43.14379379108101],[-0.214022074182872,43.1430892479187],[-0.214241284601947,43.14245527163488],[-0.21425852858025,43.14172649668142],[-0.214078539625001,43.14096579621633],[-0.213894312865782,43.14068142677004],[-0.213237061003542,43.139959263159255],[-0.212707619594821,43.139656378369544],[-0.211952225823399,43.13951235893344],[-0.210153477368998,43.13937331309348],[-0.209482484791531,43.13891169456528],[-0.209205053890254,43.13834293247156],[-0.209243281515643,43.13708332420763],[-0.210366611193704,43.13522157420356],[-0.21056475358118,43.13440729901668],[-0.210318896941626,43.133521634600676],[-0.209967483553525,43.13308110820437],[-0.209431496759624,43.13272529523391],[-0.206779602461264,43.13147196988098],[-0.20601056477123,43.13101325412019],[-0.205461496887127,43.13057589559655],[-0.205063697664018,43.13000710913272],[-0.205040082066893,43.129115728205555],[-0.205212339061598,43.128565092351124],[-0.206310270302512,43.126888689799955],[-0.207046073637082,43.124799970375754],[-0.207056407322312,43.12370144070465],[-0.206943503141092,43.12321690313026],[-0.205833595930595,43.12270352533165],[-0.205246625389349,43.12226819910989],[-0.20305649043119,43.12044476130191],[-0.202925526670106,43.12003277310211],[-0.202678953690824,43.11975204692672],[-0.201822055822083,43.11927881988073],[-0.20041509016485,43.11890204473945],[-0.19962680875341,43.11886874868328],[-0.199000994978889,43.11888463309935],[-0.197064146622321,43.11945792854715],[-0.196264088358528,43.11943395894054],[-0.196075098964162,43.11934954849573],[-0.195691264242851,43.119008067182094],[-0.195171378940865,43.11818362676114],[-0.194659996254642,43.116756718331],[-0.1944765656557,43.115771970516704],[-0.194039315787597,43.11510800831637],[-0.191711234350969,43.11271055255387],[-0.191171393409991,43.111967706679096],[-0.190944091063565,43.11134432461526],[-0.191089842437652,43.11055686358142],[-0.191373441981613,43.11006327300142],[-0.191567860282592,43.10920055654655],[-0.191579662313668,43.107121730758244],[-0.19178227893095,43.1062074635039],[-0.191638553514994,43.105517698205645],[-0.191339465778879,43.10517369750261],[-0.19190171826592,43.10478797072982]]]]}}]}