{"type":"FeatureCollection","name":"COM_33509","crs":{"type":"name","properties":{"name":"urn:ogc:def:crs:OGC:1.3:CRS84"}},"features":[{"type":"Feature","properties":{"fid":4127,"ID":"COMMUNE_0000000009755191","NOM":"Savignac-de-l'Isle","NOM_M":"SAVIGNAC-DE-L'ISLE","INSEE_COM":"33509","STATUT":"Commune simple","POPULATION":603,"INSEE_CAN":"21","INSEE_ARR":"5","INSEE_DEP":"33","INSEE_REG":"75","SIREN_EPCI":"200070092"},"geometry":{"type":"MultiPolygon","coordinates":[[[[-0.248537057691422,45.00253633249423],[-0.248002490870342,45.002386133279316],[-0.246378124378825,45.00232361264345],[-0.245613861069598,45.00215487372071],[-0.244183615575561,45.002088459438916],[-0.243837254902973,45.00213911153705],[-0.243101698119448,45.00150092834787],[-0.241999930709639,45.00098695791618],[-0.240872239118833,44.99991502977229],[-0.239958776612151,44.999625343084475],[-0.238753241207088,44.99889719236145],[-0.23766462141194,44.99878470391652],[-0.237436381141516,44.99938429188816],[-0.236796295942445,44.99960477347068],[-0.235644290777423,44.99868128943657],[-0.233888783900777,44.999578503797665],[-0.232990220479823,44.99820426921116],[-0.232078687091953,44.99816677999623],[-0.23124602866923,44.99828559065182],[-0.23057406988956,44.99707326713587],[-0.230518704432715,44.99681805376104],[-0.230238431588524,44.99642879649777],[-0.229879470812399,44.995511960902235],[-0.228853915772586,44.99483976003586],[-0.228416535947204,44.99472089210214],[-0.22749422186947,44.99469359242024],[-0.22724133708854,44.99484511056671],[-0.226561143730118,44.99465578388111],[-0.226121394419317,44.99429727655584],[-0.225338822203051,44.993366583358785],[-0.224223133511011,44.99260504214691],[-0.224086260685169,44.9926099111299],[-0.222845106128822,44.99147712712043],[-0.223494850947843,44.99113839807465],[-0.224194518921503,44.9912037232838],[-0.224999016207368,44.990729835729226],[-0.225056965186044,44.990633537320306],[-0.224978817371763,44.99046729333688],[-0.225136160838923,44.99024465866229],[-0.225250233029348,44.98880766303084],[-0.226650766959372,44.9882326705579],[-0.227548569775775,44.987968721198314],[-0.228392094642172,44.98777662778728],[-0.229133749419232,44.98771184108084],[-0.229482196910063,44.98776480152169],[-0.229869860821747,44.98794728508958],[-0.23117443314884,44.98947374334249],[-0.231552565298458,44.98964478393127],[-0.231963324288071,44.989677002754284],[-0.232364767638221,44.98956981616488],[-0.232643366963791,44.989336436628456],[-0.232951199647459,44.98848763794517],[-0.23328966908471,44.98638808494617],[-0.233251206143452,44.984622094671174],[-0.232999665974794,44.98239822096828],[-0.233018119019969,44.98194802294175],[-0.233165301446733,44.98152832483579],[-0.233657581988768,44.980818341368476],[-0.234182514020027,44.98041018391993],[-0.236437220779027,44.97917582010156],[-0.237192776737618,44.97867262420527],[-0.238085342864374,44.978014043636904],[-0.238443767076085,44.97753772244048],[-0.238479946506202,44.97717531691528],[-0.238242191755962,44.97670824908021],[-0.237112260487194,44.97615902458607],[-0.236478180177511,44.9759954563418],[-0.235898638015109,44.97596276272956],[-0.234322060031027,44.97627446730216],[-0.233256264623417,44.97676954419992],[-0.232036787843323,44.97746191819996],[-0.231654256936855,44.97754332460267],[-0.231286244049018,44.97752428306363],[-0.230572826049941,44.97717375096935],[-0.229635141400103,44.97606017065654],[-0.229493037587567,44.97540107249923],[-0.229682778391091,44.97464042094537],[-0.22955786366359,44.97284811429143],[-0.229647547535301,44.97257607384889],[-0.230014990855648,44.972145476812614],[-0.230585196157703,44.9719730153887],[-0.232299118482876,44.97193130943691],[-0.234276262329513,44.97145749090771],[-0.236969421249884,44.97164404128357],[-0.2396312807082,44.97207924861834],[-0.240095891184812,44.97210085318177],[-0.241173363626362,44.971985642003425],[-0.241851673228089,44.97181717916163],[-0.242176011376408,44.97160857216589],[-0.243602410540472,44.97015309706179],[-0.244184217611152,44.96985316676989],[-0.245363291104956,44.96952048024398],[-0.24772890661993,44.96942256153686],[-0.248119062804657,44.96949586916461],[-0.248446853106174,44.96965390168879],[-0.24861457748363,44.969919339504166],[-0.248652960351317,44.9704498843203],[-0.248325131808952,44.97145160705392],[-0.247289859381892,44.97260105327529],[-0.247103597218565,44.97291377859004],[-0.246929001542017,44.973515425429845],[-0.247024548299486,44.97413441451538],[-0.247313829043646,44.97441612961851],[-0.247697275752682,44.974613991762666],[-0.25088042715747,44.97534279672271],[-0.251656141205615,44.97547420666611],[-0.252131042152101,44.97547563607391],[-0.252918630937591,44.97537419773474],[-0.253140691073295,44.97528479643206],[-0.253166685926922,44.97560123465719],[-0.252781810582102,44.9760351265012],[-0.252509676567755,44.976136805424325],[-0.251834839586743,44.97621241465123],[-0.251454786085319,44.97635779814194],[-0.25118921334035,44.976353849372444],[-0.250627951121835,44.97613326214511],[-0.249952673558249,44.97646389303982],[-0.249415652510042,44.976398486970986],[-0.249135132537682,44.97624628345947],[-0.248659212175449,44.9761835939456],[-0.248114196444848,44.976374336470926],[-0.246709457422047,44.97640815570873],[-0.246639218858224,44.97655438753536],[-0.246818761281556,44.977352051943136],[-0.246759110672814,44.9774619294572],[-0.246097423652531,44.97778673230959],[-0.244940393063153,44.97773579900586],[-0.24467249119076,44.977867071917345],[-0.244601099052809,44.97799351112072],[-0.244591922177315,44.97831728446273],[-0.244876700833661,44.97869645991985],[-0.245086565493622,44.97918505566069],[-0.245565733846259,44.97958829364595],[-0.245372845702836,44.98002826853388],[-0.245373875482203,44.98061577562741],[-0.244962864343436,44.98119187858428],[-0.245327799357812,44.98354579625902],[-0.245114303428935,44.98404674797137],[-0.245157011037414,44.984279795835846],[-0.245416842331726,44.984381249880514],[-0.245790213775414,44.98429465733648],[-0.246360047038658,44.984508713171245],[-0.246658006683258,44.984764046075895],[-0.246889006023275,44.98522228595817],[-0.247100867244805,44.98535036864047],[-0.247831179423907,44.985265962059614],[-0.248498147739903,44.985424904797725],[-0.249100339140742,44.985167610286126],[-0.249350398157667,44.985363058931696],[-0.249326386736431,44.985562009969996],[-0.249457401310361,44.98567532910472],[-0.249716180370854,44.98571462606506],[-0.250079859959689,44.98559225701777],[-0.250579430527986,44.98595162605917],[-0.249839905694986,44.98629314302993],[-0.250123567748369,44.98671739749238],[-0.250434662928394,44.98680472634101],[-0.250986816812677,44.986822829229396],[-0.251321501217205,44.986944610319576],[-0.251441664627475,44.987024001490845],[-0.250972190761024,44.987292748114456],[-0.252622897379499,44.988450199752116],[-0.252860113149446,44.98853337508492],[-0.253061222193418,44.98849775499126],[-0.253393881434354,44.98867185548622],[-0.25078046633332,44.99147151101467],[-0.250281178678917,44.992102480797946],[-0.250139920118,44.99242561106756],[-0.251019106667446,44.99260717613947],[-0.252135904737108,44.993031401602465],[-0.250722803522466,44.99428474176454],[-0.248925221539255,44.996135933930816],[-0.248275302149231,44.99655772433855],[-0.246915784054366,44.997051592328766],[-0.24696266547965,44.99788197201574],[-0.24909751344251,44.997770068497445],[-0.249177606187933,44.99814350293446],[-0.248452347285536,44.99831787989442],[-0.248059642309375,44.99901421197569],[-0.24835322318684,44.99908313641175],[-0.247565019677303,45.00036233658447],[-0.247689971396973,45.001596850554904],[-0.248061379547924,45.00182480745074],[-0.248188013056108,45.00227798637979],[-0.248462203943325,45.00229701358782],[-0.248537057691422,45.00253633249423]]]]}}]}