{"type":"FeatureCollection","name":"COM_33081","crs":{"type":"name","properties":{"name":"urn:ogc:def:crs:OGC:1.3:CRS84"}},"features":[{"type":"Feature","properties":{"fid":4238,"ID":"COMMUNE_0000000009756562","NOM":"Cadillac-sur-Garonne","NOM_M":"CADILLAC-SUR-GARONNE","INSEE_COM":"33081","STATUT":"Commune simple","POPULATION":2727,"INSEE_CAN":"12","INSEE_ARR":"3","INSEE_DEP":"33","INSEE_REG":"75","SIREN_EPCI":"200069581"},"geometry":{"type":"MultiPolygon","coordinates":[[[[-0.313148151394128,44.62743393446335],[-0.314806973712412,44.628928599838126],[-0.319672295613429,44.6319452754796],[-0.321702765807453,44.63333857922234],[-0.323176567876073,44.63419263301463],[-0.327143888589047,44.63615563204475],[-0.328867640981612,44.63692279728622],[-0.324508664584494,44.638098330413904],[-0.323625571512371,44.63823211549959],[-0.322036761071383,44.638789882040314],[-0.320463436057646,44.638668659234916],[-0.319130637630786,44.638259961298544],[-0.318546182908299,44.63834328817392],[-0.318135646940854,44.63855114382744],[-0.318008836555723,44.638969439085095],[-0.318205787736334,44.63916356239772],[-0.320462934642099,44.639902229786045],[-0.320701761907878,44.64014284745213],[-0.320787907963759,44.64051239865623],[-0.320620224372345,44.640665210757334],[-0.319874543124028,44.64094711609086],[-0.319300381550259,44.640991391362945],[-0.319252419720876,44.64111988154212],[-0.319671204196933,44.641180291143094],[-0.31992786351968,44.64129512726631],[-0.32034571813029,44.64174662404211],[-0.321167201528879,44.641808446845424],[-0.321456657653454,44.64215837313359],[-0.321282654369109,44.642460952871474],[-0.32109027358482,44.642580267278035],[-0.320261073850916,44.64281602653312],[-0.319899023697474,44.64303324467955],[-0.319638213153107,44.64301945201958],[-0.319155853895777,44.64269423596195],[-0.318884771723323,44.6426131702412],[-0.318526645816083,44.64261851602455],[-0.317998269905514,44.64301192304127],[-0.317555107294495,44.64313785736337],[-0.316213291024068,44.64450718826793],[-0.315942799249018,44.64520822005261],[-0.315994606722334,44.645616649705126],[-0.316543761668082,44.6459615016528],[-0.316982862351123,44.64636642048123],[-0.317203349027423,44.6464454054554],[-0.318035559987495,44.64651684338074],[-0.3184028930808,44.64679595999531],[-0.318983621795509,44.64761201117671],[-0.31895281130055,44.64820313406749],[-0.318544117728147,44.64855059974374],[-0.3180225722237,44.648760884807544],[-0.316805748770847,44.64888930846999],[-0.316212392421612,44.64903776366113],[-0.31554076039159,44.64963639217054],[-0.3150051830494,44.64997323227775],[-0.314861627120117,44.65027939338345],[-0.314275170569987,44.650631271268296],[-0.312363655212044,44.65083903780664],[-0.310392913998026,44.65081246602492],[-0.310099753397938,44.6510005553808],[-0.31004381551646,44.65148790279832],[-0.308926821068742,44.65101764680764],[-0.308562993694709,44.65137814763521],[-0.307936268886595,44.651732997757314],[-0.305165563055816,44.652487155540044],[-0.302246281048947,44.654024195154676],[-0.301932492264915,44.65399031623437],[-0.301515077117544,44.65382527314456],[-0.301639137378278,44.65355125065676],[-0.301502057241395,44.65338774724533],[-0.300705825807291,44.65302676945241],[-0.300316691368599,44.652719411758],[-0.300185422556863,44.652202518729105],[-0.300043708307897,44.65193823367736],[-0.299820795988843,44.651796212775174],[-0.299645527184954,44.65123918414731],[-0.299106922141909,44.65087951742728],[-0.298450621883952,44.6505792254465],[-0.298004907419956,44.65051232879728],[-0.297840018269704,44.65034784905325],[-0.297263536405581,44.650052377865464],[-0.296517918825286,44.64990791840413],[-0.296260778845562,44.64967680604268],[-0.294730004881395,44.64918631033694],[-0.294165515931341,44.64933288406405],[-0.292978792639841,44.649199742271286],[-0.292249380115764,44.64922417002818],[-0.291839958231834,44.64908678722459],[-0.291081985888487,44.64911926614562],[-0.29051295910465,44.648928962512805],[-0.289705373490322,44.648954799289754],[-0.289322789220989,44.64886616663958],[-0.289363202822697,44.648239634406906],[-0.287957223356949,44.646425296105825],[-0.287622439238874,44.64579280452203],[-0.28745140388509,44.64528429276697],[-0.287486371624303,44.644996719131655],[-0.287298850403932,44.64481127329864],[-0.287335340999522,44.644528159736865],[-0.28721475798394,44.644256925640725],[-0.287306945617498,44.64414966249734],[-0.287154195329907,44.64319729110534],[-0.286913357194323,44.64246559305792],[-0.286441547874767,44.64166867845241],[-0.286402662549115,44.64124003483818],[-0.287397344943072,44.64057251495848],[-0.287208537813328,44.639737452688294],[-0.288093264989377,44.638613661622244],[-0.288717075372197,44.637560699978124],[-0.289635913468897,44.63658995974733],[-0.289908206773051,44.63567720341512],[-0.290368589584579,44.63556528443829],[-0.292550605372715,44.634509150169436],[-0.293036817154618,44.634623514423495],[-0.293597206251479,44.63427973551379],[-0.294540093662367,44.63415431984548],[-0.296028055866034,44.6335747317951],[-0.29805886336349,44.63299964916858],[-0.299787059363594,44.63301113741672],[-0.302459795651997,44.633356601744644],[-0.301375085314868,44.63177162091276],[-0.305972539653027,44.63057545180611],[-0.306134276579092,44.63083732521674],[-0.307611487403283,44.63027141331955],[-0.309115864426163,44.629588431469436],[-0.313148151394128,44.62743393446335]]]]}}]}