{"type":"FeatureCollection","name":"COM_17229","crs":{"type":"name","properties":{"name":"urn:ogc:def:crs:OGC:1.3:CRS84"}},"features":[{"type":"Feature","properties":{"fid":4112,"ID":"COMMUNE_0000000009753911","NOM":"Mérignac","NOM_M":"MERIGNAC","INSEE_COM":"17229","STATUT":"Commune simple","POPULATION":235,"INSEE_CAN":"27","INSEE_ARR":"1","INSEE_DEP":"17","INSEE_REG":"75","SIREN_EPCI":"200041523"},"geometry":{"type":"MultiPolygon","coordinates":[[[[-0.281578925744611,45.338355716395874],[-0.279758057506638,45.33755474322662],[-0.278457792778141,45.33708726236681],[-0.27787075046926,45.33675298472483],[-0.277922443006631,45.33658925071952],[-0.283406207004919,45.33257123674293],[-0.285684288942191,45.331205698047405],[-0.286920949933267,45.33014288016925],[-0.288719074791495,45.329068951808864],[-0.290373886749124,45.32734401717614],[-0.290551352090087,45.32669352051175],[-0.290703135738636,45.325803151899656],[-0.291821946461464,45.32497625723557],[-0.292210150845069,45.32454125762838],[-0.291368995330558,45.32418659304354],[-0.292438700454067,45.32313492844745],[-0.29198467659645,45.322888737408846],[-0.293283262651213,45.32190603103733],[-0.294190939529389,45.32241373240629],[-0.294428579718661,45.32157219890831],[-0.295225078369934,45.32022303519361],[-0.295322220583591,45.31990023825374],[-0.29588621706323,45.3193284665501],[-0.296665739500844,45.318945004925226],[-0.297018318563679,45.3185137403943],[-0.297049627741037,45.31826588144632],[-0.29800639173653,45.318265614283696],[-0.298713379642732,45.318555690635016],[-0.300266064963305,45.319665265447874],[-0.301012667544962,45.31995506067487],[-0.301458837963376,45.31950840211607],[-0.302879865307008,45.31994770905169],[-0.303786498663046,45.32013542815661],[-0.304221832313514,45.320324445412226],[-0.30465955050779,45.32066119245001],[-0.305350873709644,45.32042807648179],[-0.306838859181322,45.3202516175185],[-0.308051289540531,45.32025362072306],[-0.308993653595131,45.32016085952763],[-0.309132155754829,45.32081466227687],[-0.309398157146993,45.32096991619227],[-0.309258810255406,45.321183124668195],[-0.309486914224207,45.321302549008735],[-0.309603275124229,45.321562266466096],[-0.310305084581805,45.321935339490906],[-0.310327707736571,45.322036509415504],[-0.310124510899959,45.322164188829774],[-0.310179291466718,45.322290542999134],[-0.310544400850038,45.32230767673195],[-0.311147191813587,45.321939255981626],[-0.311303139193247,45.32204819536114],[-0.311312476813645,45.322269622544276],[-0.311423077375557,45.32232492881724],[-0.312176652651985,45.322300816455716],[-0.312707418765022,45.32250409991668],[-0.312907563402124,45.32245401226014],[-0.31360670066911,45.322953317713484],[-0.313859629430267,45.323403652991594],[-0.314282346598215,45.32352992023527],[-0.314321152706654,45.3239027833754],[-0.314474550982125,45.32399016458279],[-0.314442214306221,45.32415514759937],[-0.314810454515669,45.32424607642399],[-0.315106261996745,45.32421477995916],[-0.315056971575987,45.32448120407756],[-0.314817468202004,45.32457842473701],[-0.314783665208721,45.32467585862515],[-0.31513976390999,45.325034813461016],[-0.315555830563615,45.325113507924804],[-0.3157837176236,45.32527168000449],[-0.316151174391003,45.325370739073975],[-0.316248369400386,45.32558685849952],[-0.317036863238823,45.32569776638343],[-0.317237675574782,45.32589459046567],[-0.317603400517325,45.32592159731095],[-0.31773237491102,45.326027723456704],[-0.317691295187215,45.326324547734764],[-0.317480371092269,45.32640830914804],[-0.31749816435586,45.326492497854005],[-0.318163250417873,45.32654757604455],[-0.318416326147082,45.326485093971264],[-0.318513354003734,45.32656963596083],[-0.318460920264229,45.32669736465927],[-0.317844483957992,45.32709416808394],[-0.317475774769924,45.327167287685924],[-0.317445502012343,45.327302469821966],[-0.317739884011035,45.32746137031284],[-0.317751722327877,45.32763856313677],[-0.317463829896468,45.327695767311056],[-0.317191013142739,45.32762004176339],[-0.317290563557535,45.327446756011874],[-0.317178713977858,45.32737076357652],[-0.316985575691326,45.32743146562571],[-0.316848578029918,45.32764100958091],[-0.316921002249296,45.32793446830975],[-0.317108058414305,45.32802895966139],[-0.317630896634196,45.32807654300709],[-0.317614028125651,45.32843663724372],[-0.317949864788396,45.32839062823742],[-0.318268428283721,45.32844066180925],[-0.318524242500506,45.328316814275354],[-0.31881444343962,45.328298292212466],[-0.318734844789111,45.32812040574939],[-0.318936434457456,45.32796572114205],[-0.319392918669306,45.32814324067243],[-0.3196028490581,45.32789277600366],[-0.319845379692571,45.327781936802296],[-0.319837373115694,45.32762626002955],[-0.32001428801359,45.32763633108928],[-0.320235325751696,45.327764957224225],[-0.320541280025704,45.327517949481276],[-0.320873146963176,45.3275126050816],[-0.320781720235362,45.32720078635876],[-0.321238988243919,45.3271772986062],[-0.3219561054856,45.327397539353356],[-0.322371515286256,45.327400524648446],[-0.322441241106838,45.32801219863311],[-0.323330297975185,45.32833006621675],[-0.323795950949946,45.32827567698123],[-0.32391919108547,45.32811429829767],[-0.324155766937822,45.32801083637793],[-0.324173323666204,45.32787693101356],[-0.324368565029215,45.327872932080155],[-0.324433206672155,45.32831352075044],[-0.324518216879856,45.32836777282621],[-0.324912562057621,45.32816769425815],[-0.325063652858325,45.328258735407985],[-0.324828255045686,45.328617215639525],[-0.324956675974965,45.32882068466297],[-0.326778254763071,45.32958396010354],[-0.327126120432178,45.330401857857765],[-0.326868332603689,45.330578056156995],[-0.326526495004713,45.33071619695454],[-0.325075671037913,45.33091974561325],[-0.323171516516127,45.3318982900563],[-0.32250916571142,45.332254124235],[-0.318293926180699,45.333240804992776],[-0.317126751306795,45.33393872640062],[-0.314843365068243,45.3342821772065],[-0.313262962070764,45.33501573020874],[-0.312340399790638,45.334393253504615],[-0.311502565585764,45.33463615266152],[-0.311169558156308,45.33481634155633],[-0.310542377818861,45.335679358063835],[-0.30943858649908,45.33544704739257],[-0.307778590145969,45.33488599756323],[-0.305312944061628,45.3337755424876],[-0.304876878387169,45.333812756879354],[-0.304757550897725,45.33395507130284],[-0.304618570709581,45.33396007740333],[-0.303326178306956,45.3335845751661],[-0.30264468240461,45.3340508030975],[-0.30204477699443,45.333738658310075],[-0.301651741771872,45.333704294110355],[-0.301245623787643,45.33385867187037],[-0.300328759615146,45.33380370807175],[-0.300022458636622,45.33400380341342],[-0.299465339582238,45.334154516941446],[-0.299346137430666,45.33473031330253],[-0.299149078435089,45.334811827240586],[-0.298344561831909,45.33624326741014],[-0.298122545444398,45.337089758230036],[-0.29771783435709,45.33759195561817],[-0.297084041070426,45.338153172946676],[-0.29643770342929,45.33951685039992],[-0.29514122943692,45.34110244632798],[-0.294201446721331,45.34102917800231],[-0.293567322134081,45.34113255912021],[-0.291930917372888,45.34058139384178],[-0.290801824673384,45.34076420753437],[-0.290568209593096,45.34072511481175],[-0.289762912387982,45.34039731381794],[-0.288031474739559,45.340031836048375],[-0.287431585624384,45.33980613031619],[-0.286996477351729,45.33953592739119],[-0.286761281230956,45.339275172008435],[-0.285383591085648,45.33860185985543],[-0.283819683619629,45.33802051431548],[-0.28244054920924,45.338079904634704],[-0.281578925744611,45.338355716395874]]]]}}]}