{"type":"FeatureCollection","name":"COM_19008","crs":{"type":"name","properties":{"name":"urn:ogc:def:crs:OGC:1.3:CRS84"}},"features":[{"type":"Feature","properties":{"fid":4046,"ID":"COMMUNE_0000000009753137","NOM":"Ambrugeat","NOM_M":"AMBRUGEAT","INSEE_COM":"19008","STATUT":"Commune simple","POPULATION":209,"INSEE_CAN":"12","INSEE_ARR":"3","INSEE_DEP":"19","INSEE_REG":"75","SIREN_EPCI":"200066744"},"geometry":{"type":"MultiPolygon","coordinates":[[[[2.040129456483985,45.52543604676394],[2.039538174819461,45.527399565705714],[2.039147711447487,45.527678094583464],[2.039705466399415,45.528615820004156],[2.039686124411467,45.52891913557677],[2.039040643776709,45.53008791613602],[2.03867877360569,45.53122940288179],[2.039130980511302,45.53278849940072],[2.039103676674903,45.532959367974286],[2.038843217990425,45.53305349747298],[2.038609040481213,45.53325771684961],[2.038697850842833,45.53397440411666],[2.038909324316652,45.534563363865],[2.039370968432954,45.53454299753153],[2.039803431706629,45.53495013521488],[2.039756767270482,45.535055099278104],[2.039894516068498,45.53516614209002],[2.039837228172217,45.53529262830583],[2.039917460379687,45.535321230614066],[2.039962675720195,45.53559628093583],[2.040278148134782,45.53587814282067],[2.040788700689725,45.53599416949794],[2.041362241164901,45.53595043563782],[2.041618919208064,45.53555638900628],[2.041568893870441,45.535410975760705],[2.041844282451552,45.53534308276891],[2.041811873168919,45.535290575208826],[2.042018402946185,45.53520318323053],[2.042199299548383,45.53519031694303],[2.042399769891996,45.53530549347859],[2.042844499364453,45.535300277790626],[2.043163725824484,45.535216545378404],[2.043511256245474,45.53534918192034],[2.044284561101338,45.535312536940815],[2.045023842469099,45.53576368842265],[2.045276046371192,45.53614946054039],[2.045880086306238,45.53612037139012],[2.046199674277438,45.53623925418055],[2.046573022680925,45.536510782982305],[2.046993051094226,45.53689977625237],[2.047317464205856,45.537559018773166],[2.047520267359061,45.53776335895936],[2.048092181873616,45.5379645228166],[2.048889972302801,45.53799649406967],[2.049761185155875,45.53823080080397],[2.050441331656482,45.53862288108876],[2.051303507942452,45.538712113024495],[2.052045238876033,45.53917584581577],[2.053290933803138,45.53947001753635],[2.054228722463976,45.540161422026486],[2.05403276535065,45.540380403779025],[2.05388067732596,45.541558825685364],[2.053286261909998,45.542147272517354],[2.052624870911727,45.54327997633312],[2.051894193585587,45.54411581544111],[2.051682202881815,45.544896593134325],[2.05142777792177,45.545010614965896],[2.050482606347762,45.545197148367414],[2.049512299016912,45.54572836705455],[2.048449628736812,45.5469359997213],[2.047572708013009,45.54762378594856],[2.047745101111882,45.54788460179228],[2.047830120317085,45.54830767442272],[2.048490644254952,45.548804062169594],[2.048648222588016,45.54963028890559],[2.048336453309786,45.55017157408736],[2.047456590599882,45.55095299116596],[2.047361067974815,45.55129078383794],[2.047492196808694,45.55164130412196],[2.048612335741126,45.552545026605664],[2.049566128050955,45.55313484435991],[2.050388864821098,45.55336963518574],[2.051743660572765,45.55352335927645],[2.052123646722189,45.55393991156633],[2.052646058604987,45.55419826798449],[2.052835006290272,45.55491848966072],[2.052827356565284,45.55649256544235],[2.05224951095181,45.55662637715054],[2.052121582211848,45.556761279583725],[2.052382410146016,45.55740105995578],[2.052996814228456,45.557453966898045],[2.054826750232639,45.55786560700533],[2.05561872011714,45.55818114856553],[2.058062724737744,45.559952301940896],[2.059142211129603,45.56123200151218],[2.060356744805057,45.56150511799548],[2.060675992498652,45.561730219050446],[2.062483692521296,45.564834153985416],[2.06399858135457,45.56501607913498],[2.064743939052166,45.56559592519663],[2.065413368308524,45.56626969140423],[2.066041767444756,45.56671617728141],[2.067625389008366,45.56708413472138],[2.067825142881978,45.566336544541215],[2.069370720993958,45.5645401722938],[2.07381982779008,45.558298383348486],[2.072967290593966,45.55768889683004],[2.081123607478759,45.55771084657729],[2.084456884878491,45.55652412820052],[2.085163242015512,45.556210190413836],[2.090357156509585,45.554422464029656],[2.092151651943102,45.55411188147097],[2.094523860351636,45.553352058171974],[2.095036739814523,45.553263434328954],[2.095868397634537,45.55335567842758],[2.097468020795095,45.5536738158619],[2.097849991309111,45.55398936711369],[2.098231969696167,45.55462010320537],[2.098840208230671,45.55513198111557],[2.099505223258231,45.554515944481295],[2.099889884879815,45.55466671298445],[2.100118424479055,45.554406488416646],[2.101011841136822,45.554169594266334],[2.100952234095689,45.55405114785899],[2.102699150734304,45.553349186401405],[2.102616602923876,45.55322245296946],[2.10374689633725,45.55284064197512],[2.104198619270247,45.55280732166858],[2.104754640136339,45.55298285300307],[2.105212299861392,45.55281989949592],[2.105386951095642,45.55287892383684],[2.105596339168564,45.552691478973586],[2.106359938762453,45.55239407455537],[2.107416541497766,45.55149113457283],[2.10766656660741,45.551007734304775],[2.107957547171882,45.55076690122113],[2.108483304431458,45.55059186774428],[2.109439343298113,45.549960972182184],[2.109510888106588,45.549815653290715],[2.109456133820043,45.54923437772769],[2.104137223280484,45.5477989821122],[2.10351575718153,45.5467593168026],[2.103579449997203,45.546624745372384],[2.104802602401823,45.54603924558193],[2.105854611990534,45.54621061717689],[2.106288919459641,45.546141129167616],[2.106895597506154,45.54531566411108],[2.106798564894104,45.5448150989389],[2.106948809425027,45.54439844737697],[2.108251509724902,45.54348304880732],[2.108736231139025,45.54258726586953],[2.108931502911942,45.542397902389055],[2.110788171387091,45.54145534846414],[2.11142482624271,45.54099120953099],[2.112565779116964,45.54088495883537],[2.113462372098557,45.5399509844499],[2.114636285971006,45.53994583214688],[2.116105006993106,45.54025817185066],[2.116996036296666,45.53958888126763],[2.11745986927044,45.539592525426656],[2.117763510548198,45.53846834999552],[2.118126301093356,45.538781880024786],[2.118577574301123,45.538930405961786],[2.118631836895822,45.53922530410271],[2.118813452385253,45.53924744071105],[2.118909522303912,45.5396534314639],[2.119542907019613,45.539308991827866],[2.119756725362028,45.538270558098105],[2.119677655329025,45.537762041262724],[2.119762203002558,45.537521362387956],[2.120066558255469,45.53723737878507],[2.12009760141044,45.53705751648726],[2.119901831492868,45.53695872623335],[2.120038597557905,45.53665722037928],[2.120408907600211,45.53657727156085],[2.121503049281524,45.53691182268925],[2.122273064241089,45.53683769387115],[2.122205363904097,45.53609513094571],[2.12331911057995,45.53526993936998],[2.124278567570795,45.534394906159726],[2.125315958576449,45.53288199894538],[2.1257554359904,45.533126760607665],[2.126870900127379,45.53259241816103],[2.12855031673615,45.532371321007105],[2.131392184775369,45.531637788439475],[2.132189385268953,45.53055701574834],[2.132574558394675,45.530178167938494],[2.132935148356174,45.52997833353902],[2.134190740916408,45.52956927347571],[2.134803632805465,45.529293031769456],[2.135239941983074,45.5290019197597],[2.135767536999566,45.52844315220969],[2.136057464744127,45.52784293168295],[2.136678797455944,45.52463373901052],[2.137056353095366,45.523586629692296],[2.137026639551886,45.52343781505112],[2.136200653608301,45.523335110261016],[2.135209782412545,45.52296187351086],[2.134286959412833,45.522744042486316],[2.133737034825018,45.52268397033943],[2.133282633336174,45.522741700690815],[2.13058930714053,45.521874393894855],[2.127440276921071,45.52123491760361],[2.126027332783679,45.52074395299843],[2.126112445734337,45.520382604382206],[2.126470320879206,45.51978293734627],[2.127122773742936,45.5182084902434],[2.12691781153967,45.517231629632725],[2.126364831882999,45.517369612498136],[2.126723243231609,45.51681587594883],[2.126630170570001,45.51638109969238],[2.125948766666854,45.51654059481663],[2.125220483868659,45.51642325981473],[2.125381282694504,45.51564826037355],[2.12417303003861,45.515021085188565],[2.123932206325288,45.51494086133248],[2.123596254733604,45.51496345495416],[2.123397313587173,45.5149889180913],[2.123164504821705,45.51513118462121],[2.123286588762853,45.516484725187944],[2.121716986616805,45.51643283894775],[2.121335819077169,45.51623624481671],[2.121753829630887,45.514751847864055],[2.121679374936797,45.51403354771607],[2.121481073686138,45.513533106249675],[2.122093739553684,45.51310204340434],[2.123281472108871,45.51186139444074],[2.12455976228971,45.51015406778922],[2.124648128336286,45.50982966763871],[2.124566736920789,45.50938687618178],[2.124629946525946,45.507489966350896],[2.124546570956947,45.50717323275745],[2.124314941081004,45.506999426806836],[2.124536361539204,45.50652117442992],[2.123773298857549,45.50577589337323],[2.122723280145425,45.50503737078694],[2.122021760931859,45.50493823353707],[2.122281222353517,45.5046466913631],[2.122222249451166,45.50448863883452],[2.121595511724323,45.504762900030315],[2.119767031321639,45.50433974399016],[2.119047167034796,45.504106266246794],[2.118472430176351,45.50368571385632],[2.117917415411591,45.50266916685092],[2.11749312697165,45.50269464973193],[2.117237153721983,45.50308796748381],[2.114984717965774,45.50235341999981],[2.113188185926819,45.50114064826273],[2.112092721901727,45.50013511089775],[2.111825624838084,45.50002133343275],[2.110812776480428,45.50241591550695],[2.109492370820213,45.50417858444439],[2.108720573680635,45.50486946730135],[2.108028034458012,45.50572757180859],[2.108765358613722,45.5059090285625],[2.109063768545778,45.506068087910975],[2.109223544934587,45.50632690561771],[2.109051302549059,45.50700453505983],[2.108288245919582,45.50794583093249],[2.109112087359908,45.50816489372639],[2.109581184381359,45.508382939235496],[2.109654731746449,45.50850869537866],[2.108556136411972,45.50880976058767],[2.107280210609145,45.50858890184086],[2.106457848264344,45.50827798374747],[2.106293377185293,45.507993009378865],[2.105428033515244,45.50748902909198],[2.104121915633119,45.508586263482],[2.10336963211481,45.508933265681286],[2.103108884479524,45.5088213192959],[2.102481102777233,45.508755067867284],[2.101321519207138,45.508469332585214],[2.100825031259048,45.50844194458209],[2.100738476859009,45.50880416362781],[2.099192441221791,45.50873503946866],[2.099356118986549,45.51001419959947],[2.097078082869059,45.510299384395786],[2.09587574544827,45.510672435015856],[2.09500810602504,45.51062672376669],[2.094667064099996,45.51072663506286],[2.094002615215117,45.51055197741631],[2.09158238345374,45.51052252022843],[2.090688333565751,45.51076022821213],[2.090298775080419,45.511006519529005],[2.088061780384534,45.51128284933988],[2.086956907255822,45.511254060341365],[2.086586630759091,45.51118350967918],[2.086164984091902,45.51096575363448],[2.085961388538991,45.51111808712587],[2.08543449512666,45.51091388011238],[2.084332217122256,45.51111652225705],[2.083861969253958,45.51198169748088],[2.083307927926592,45.51233558701662],[2.083708478755591,45.512744994406034],[2.084072536868612,45.51280469745316],[2.083998619803313,45.512937372888025],[2.084418271685505,45.51335413772337],[2.084046296826747,45.51354111623385],[2.082995635162948,45.512941795200035],[2.083057921079418,45.51266043813012],[2.082769779509793,45.51242484811662],[2.081591128376632,45.51244133089362],[2.082328562615192,45.51300388613118],[2.082622725044861,45.51349527678491],[2.082080140956168,45.513464728054146],[2.081635710305932,45.51323055918681],[2.080559998619374,45.51344959162558],[2.079920484760037,45.5138576973441],[2.079505106583896,45.514498172414186],[2.079138921304239,45.51456631240181],[2.077602770716678,45.51512734420912],[2.077110719238729,45.51560058299119],[2.076956221298128,45.51564794197779],[2.076207800932974,45.51566970496777],[2.075642911883806,45.5159775412771],[2.075438837123786,45.516001976894515],[2.074743882855599,45.515966536336556],[2.074251481059797,45.51561397335869],[2.073332574298716,45.51610348835497],[2.072869186127071,45.51623834584154],[2.072168967589579,45.51674766718334],[2.071811607503206,45.5171292412399],[2.071435782787038,45.517312544690796],[2.070620872096007,45.517402161314585],[2.070225408628146,45.51753396797179],[2.069381577988977,45.51759091710459],[2.068984585635119,45.51819548587144],[2.068546961044885,45.51778571766858],[2.068115179389375,45.51756240626843],[2.067619849912795,45.51700446839211],[2.06675325778841,45.51666317371354],[2.066568331051321,45.51646261942336],[2.066103678388185,45.5163669025008],[2.065945249874217,45.51626652653292],[2.064781811959039,45.5163631075004],[2.064084480634465,45.516316774789175],[2.063503785864448,45.5161903624524],[2.063082649172864,45.5162489868245],[2.062941481025612,45.5163405639287],[2.061637774385461,45.516323375443456],[2.061432483690599,45.516191983399956],[2.061387326287932,45.515756648856325],[2.061211569876195,45.515545355831904],[2.06084635725377,45.515327075242794],[2.060281814038958,45.51576091240836],[2.060076162814101,45.515726772352835],[2.059855250746968,45.515307976758145],[2.059901830237568,45.51512916068399],[2.061020261995024,45.514436101745886],[2.060863076264171,45.513884562222636],[2.060649974233324,45.51368556345776],[2.06033143054684,45.513586541723],[2.059749429377115,45.51384192451285],[2.05956967356112,45.51386743541242],[2.059262443434595,45.51378111282639],[2.057904953135266,45.51482335698479],[2.057796397268912,45.51480443567128],[2.057404588747484,45.51509742328918],[2.057394722576416,45.515452150445874],[2.057307112492539,45.51548203323702],[2.057602240300783,45.5159798031349],[2.057601331837879,45.51618421649425],[2.056621468215037,45.517085528813496],[2.054099151841259,45.51746775346702],[2.050990551933488,45.51782425725095],[2.050421128050686,45.517938314982366],[2.050272188321044,45.51803341282578],[2.047888064664577,45.518494113193725],[2.047327935012971,45.51851367801435],[2.045915999960993,45.5192752525909],[2.044834333445289,45.52019721254898],[2.044564925209328,45.52059205723573],[2.044036443855064,45.520929764020565],[2.043277623166535,45.5210295663792],[2.043188342601032,45.52093244858437],[2.043000086959862,45.520929043704875],[2.042678294948585,45.521092000071484],[2.042448912583807,45.52094776018912],[2.042185865776672,45.52126971022435],[2.042101616969664,45.52117803767138],[2.041760586054944,45.52126788398241],[2.041232286955897,45.521222851638356],[2.040816512650465,45.521338172616],[2.040375893135816,45.5213344090681],[2.040280570893038,45.52121652497606],[2.039892826178007,45.52119249896426],[2.039526476110904,45.521042579518074],[2.03922656699278,45.52105082100894],[2.039321341267774,45.521200220089575],[2.039281609041418,45.521349369245016],[2.03950876265643,45.52139994085072],[2.040033313115758,45.52232837510639],[2.040177809058187,45.52241786246082],[2.040187948140527,45.522720529223605],[2.041022184208651,45.5230770625715],[2.041062763903868,45.52324941139218],[2.041534972817391,45.523501989600874],[2.042185361143861,45.523600292552075],[2.042278587145226,45.52376588552438],[2.042001302375164,45.5241696627439],[2.041371202006385,45.52430567130326],[2.040826179748455,45.524559472576],[2.040129456483985,45.52543604676394]]]]}}]}