{"type":"FeatureCollection","name":"COM_33458","crs":{"type":"name","properties":{"name":"urn:ogc:def:crs:OGC:1.3:CRS84"}},"features":[{"type":"Feature","properties":{"fid":4085,"ID":"COMMUNE_0000000009754579","NOM":"Saint-Paul","NOM_M":"SAINT-PAUL","INSEE_COM":"33458","STATUT":"Commune simple","POPULATION":1032,"INSEE_CAN":"13","INSEE_ARR":"1","INSEE_DEP":"33","INSEE_REG":"75","SIREN_EPCI":"200023794"},"geometry":{"type":"MultiPolygon","coordinates":[[[[-0.575229055463481,45.16146357093207],[-0.574861125,45.1613482759198],[-0.574250402082564,45.160783783751675],[-0.57318562578572,45.16003193728498],[-0.5728072236635,45.16025046501021],[-0.572718174231055,45.160232586864616],[-0.571674702361982,45.15945480729633],[-0.571543931430461,45.15922284573059],[-0.571273819319645,45.15904311656444],[-0.570891959193357,45.158410890404966],[-0.570089954105087,45.15772271060762],[-0.568406960521495,45.15720242356826],[-0.568474192323567,45.156061891410396],[-0.56869699488326,45.154864104142284],[-0.563036977305152,45.15392202456574],[-0.560403882804392,45.15448021682338],[-0.560076401166969,45.153919230579305],[-0.558577625650585,45.15356777853772],[-0.55752161887688,45.15350773247582],[-0.55724562000471,45.1530144988027],[-0.557350705001097,45.15272452558947],[-0.55725853652623,45.15251745706534],[-0.556588642268968,45.15203949009229],[-0.556356054855038,45.15164762125614],[-0.555818518926062,45.15112757364547],[-0.556919508336593,45.15039483726377],[-0.556753076621138,45.150121636737325],[-0.556969874336484,45.149885785532106],[-0.557092314751869,45.14932846725859],[-0.556974987961246,45.148746349527606],[-0.557176454006468,45.14820994483289],[-0.55735178016657,45.14804301489455],[-0.558015795861231,45.14784967686516],[-0.558225141595257,45.14769698246066],[-0.558555623094421,45.14712671425761],[-0.558512835443158,45.14673510256471],[-0.558206007990077,45.14669712372633],[-0.558458466958607,45.14548219518791],[-0.558940897383898,45.145337909026665],[-0.559569290565311,45.14406681303332],[-0.560036729887351,45.14370758386275],[-0.560897287685809,45.1433817661069],[-0.561237175032814,45.14309961225439],[-0.561410850948192,45.1426875677138],[-0.561570660915697,45.141758605628645],[-0.561826660185949,45.14145930015785],[-0.562158073234928,45.14070511984902],[-0.562061774103396,45.13991412985215],[-0.560998074159809,45.13954972344008],[-0.561432629271358,45.13873546787317],[-0.561671330280305,45.13846465615642],[-0.561829504143504,45.137929624754946],[-0.561554508048021,45.13709206726902],[-0.560712430664585,45.13652769701514],[-0.560344680370347,45.13497384485693],[-0.562224808385256,45.1355420075928],[-0.563775893142325,45.13638114135046],[-0.56636720949808,45.13691748795794],[-0.56776533154117,45.13753342705247],[-0.570011807482385,45.138092444007874],[-0.571052432395986,45.138453899132664],[-0.57334314658632,45.138389516944024],[-0.575822656551123,45.13823070203323],[-0.576777219998449,45.138102738340365],[-0.578221699724186,45.13910193283215],[-0.579752379563006,45.13951788429932],[-0.581451562851161,45.140257389851655],[-0.582302375398492,45.14037787524385],[-0.584790027239192,45.140463764756696],[-0.588273175655327,45.140840243760195],[-0.5900166942436,45.14137539591103],[-0.593192839801539,45.14186796721912],[-0.594038471485823,45.14174877500181],[-0.595271228584714,45.1413124402751],[-0.596526001974816,45.14102049725273],[-0.599481436707424,45.14097289433182],[-0.600525421224159,45.14084905096878],[-0.601945185352266,45.140489524732644],[-0.602789467777559,45.14003410675468],[-0.603132298146269,45.14053138675331],[-0.604665430160421,45.140507968871304],[-0.604581038062966,45.140897374878435],[-0.606263611230252,45.14082133241373],[-0.607241853651455,45.14090235528659],[-0.607263219747256,45.14103596482875],[-0.608469381096699,45.14099783561531],[-0.608488293228644,45.14134965077357],[-0.609434875073659,45.14139382285429],[-0.609276608013213,45.1418811680492],[-0.609632073214379,45.14174527435323],[-0.609888250404652,45.14249681791658],[-0.610335857171057,45.14221011741347],[-0.611907648843482,45.141602175851986],[-0.613757211582302,45.141213250141654],[-0.615556121523677,45.140671804375714],[-0.617593296075367,45.14139080162867],[-0.61872040054807,45.141606604433406],[-0.619752997950743,45.141621758307856],[-0.620733934417675,45.141802626926534],[-0.623563275545641,45.14289238810644],[-0.624285777075073,45.14350616452027],[-0.62410252968433,45.14429359759172],[-0.624933543473165,45.144891224766695],[-0.625429049358087,45.14536274933877],[-0.626417432019523,45.145578481764176],[-0.626843698960472,45.145748494569816],[-0.627036988283064,45.146194689581684],[-0.627701467534863,45.146992408997164],[-0.62629114833042,45.14763498314489],[-0.626355322016282,45.148426993647995],[-0.626265781483495,45.14877422483952],[-0.625564942618485,45.149947148255244],[-0.624219619260321,45.15184767986433],[-0.622390703715437,45.15279494227151],[-0.621918150038735,45.15360078223313],[-0.621796038061534,45.154310511572824],[-0.621574390785435,45.154605242988005],[-0.620897433711643,45.15447940219192],[-0.619813213473265,45.15453623263391],[-0.619487571568138,45.15448460849025],[-0.619317728532515,45.154753317018184],[-0.616437519748691,45.15558045830222],[-0.616068126038168,45.15518772778414],[-0.615592244365702,45.15547176100833],[-0.614989871542167,45.155651729738],[-0.614980024744251,45.15583412261825],[-0.614659314796636,45.15629158988176],[-0.614155295766428,45.158266568844],[-0.613132294368037,45.15805004025747],[-0.612944092482298,45.158075065691726],[-0.612801208737502,45.158623211013364],[-0.611083668637398,45.15883657186485],[-0.611056667188709,45.159069093980314],[-0.609183102129864,45.1590567302613],[-0.608853330908476,45.15971006577759],[-0.607144852193032,45.1601826605994],[-0.606654781385866,45.16046530939454],[-0.605943836038783,45.160425202609915],[-0.605450857394092,45.16050513591138],[-0.605189071407643,45.16033783481973],[-0.604889255881519,45.1603313014136],[-0.602444027349562,45.16105567430042],[-0.599900250271964,45.161497445067084],[-0.59834991315324,45.16104542256782],[-0.598109354679406,45.16144436803282],[-0.59742418032732,45.16202169945146],[-0.597009503764791,45.162842680356356],[-0.597439838083747,45.164716223106],[-0.597427887340416,45.165084358402346],[-0.597169724841572,45.16542798564194],[-0.596288480361145,45.16585029045343],[-0.594969595754869,45.16590722658149],[-0.594686964772704,45.16583160865683],[-0.594166997003872,45.16553289319175],[-0.593279456087108,45.16520455540594],[-0.592913161080926,45.16475937272804],[-0.592436684249187,45.16456200231142],[-0.592123611945592,45.16454774878571],[-0.591361266952236,45.16475887545027],[-0.590888939139121,45.16510127023871],[-0.590370343295434,45.16504135001192],[-0.590426658346853,45.1627672494594],[-0.58414873485449,45.16285649297637],[-0.584141348295065,45.1626223818457],[-0.583951446320243,45.16256178481191],[-0.583489632479914,45.16152025267492],[-0.585019683496824,45.160408403166244],[-0.581886361188476,45.15857299862258],[-0.581277263165951,45.15811394831165],[-0.579982446528863,45.158364628629],[-0.578624532846722,45.15967819149859],[-0.577921560482676,45.159841353418415],[-0.577415623899236,45.16013699681288],[-0.576313286165996,45.16138464558439],[-0.57593210988713,45.16132115490878],[-0.575732706224609,45.161450129468086],[-0.575229055463481,45.16146357093207]]]]}}]}