{"type":"FeatureCollection","name":"COM_33055","crs":{"type":"name","properties":{"name":"urn:ogc:def:crs:OGC:1.3:CRS84"}},"features":[{"type":"Feature","properties":{"fid":4086,"ID":"COMMUNE_0000002200276534","NOM":"Blaignan-Prignac","NOM_M":"BLAIGNAN-PRIGNAC","INSEE_COM":"33055","STATUT":"Commune simple","POPULATION":449,"INSEE_CAN":"22","INSEE_ARR":"4","INSEE_DEP":"33","INSEE_REG":"75","SIREN_EPCI":"200069995"},"geometry":{"type":"MultiPolygon","coordinates":[[[[-0.862754004624454,45.337854946555865],[-0.862557965837645,45.33736948390054],[-0.86137196183059,45.33672797451999],[-0.86085488772169,45.336607888191516],[-0.860472205704371,45.336619291652966],[-0.85947274108116,45.33700807504678],[-0.857391914344433,45.335221811280675],[-0.857202419571427,45.33527251971388],[-0.856897750284285,45.33550569959096],[-0.855055482607943,45.334559500634064],[-0.854545236303138,45.33457437873239],[-0.8538039751753,45.33500019148791],[-0.852171486075869,45.33346434087841],[-0.851025813764243,45.33382743178226],[-0.850930177237648,45.333793761967364],[-0.849241982141039,45.33272587358281],[-0.846774037498696,45.331378265366446],[-0.848323985116568,45.33017101565561],[-0.850056431067203,45.32709493278153],[-0.848937025722305,45.32637618730973],[-0.847381130908706,45.32518472891206],[-0.846622667247587,45.32517565734889],[-0.844631574207086,45.324509385432634],[-0.843562234900172,45.32373658216199],[-0.842674983150391,45.32326853452774],[-0.842056005366493,45.32250278211407],[-0.841031488280104,45.32282284862866],[-0.840978537670183,45.322574047820716],[-0.840194342506023,45.322302577392634],[-0.840277108096946,45.3217426037764],[-0.843398541038742,45.319959473936066],[-0.844373394626701,45.31890275453915],[-0.844404598726498,45.31866999395241],[-0.84464131324977,45.318563591913076],[-0.846345271717814,45.317056273097506],[-0.847751024628548,45.316412015806065],[-0.848578519993471,45.3152773866451],[-0.850699078925409,45.31342299879643],[-0.851285333410434,45.313419938104545],[-0.853495793711956,45.31412179286388],[-0.854004578302001,45.31410696353594],[-0.854949811651829,45.31277439867118],[-0.855787279275477,45.31293033534023],[-0.855970532190121,45.31279059219604],[-0.857597886719648,45.31333757840231],[-0.857915401754675,45.31332842760087],[-0.858147508440433,45.312916540423096],[-0.858927488730325,45.31316458907065],[-0.859428206391721,45.31312567216425],[-0.860784007088971,45.311082910508844],[-0.862536331654849,45.3112396599013],[-0.862884613282923,45.31136105349921],[-0.863452234150273,45.311752535755765],[-0.864395118661418,45.31208326686535],[-0.864723234593132,45.3123189434645],[-0.865134172121575,45.31244086953874],[-0.867214087796282,45.31367075393719],[-0.867491137841917,45.31416422134428],[-0.867548846983094,45.31501326189598],[-0.867792289152776,45.31539069348443],[-0.870199175054927,45.31411650779383],[-0.870774928828621,45.31372334902931],[-0.871192400573757,45.313259037226935],[-0.871376247571859,45.313220217623524],[-0.872183051145685,45.31337529198678],[-0.873579239962415,45.31168075216533],[-0.874254392324774,45.311211107094294],[-0.875682076329613,45.31053957930737],[-0.877216612098852,45.31043048569763],[-0.878436515794158,45.30888623532058],[-0.878862674101836,45.30880473952199],[-0.881392171269547,45.30867368799431],[-0.883478421030776,45.30834250904844],[-0.884036562085863,45.30806528470583],[-0.884679812994084,45.307982535546515],[-0.886592897213471,45.30842902396413],[-0.887654553527517,45.308538163959426],[-0.890300492222335,45.30835507998486],[-0.892121288683126,45.308339495081846],[-0.894330614028576,45.30810660193922],[-0.897130855963966,45.30724453234764],[-0.898248218978581,45.30672596294679],[-0.899475492324694,45.305879896253735],[-0.900727401483608,45.305258340107734],[-0.901956225678641,45.30487287648958],[-0.908994355844038,45.30405544648135],[-0.912234902959366,45.304611045439316],[-0.913173931110842,45.30484774514542],[-0.912979028824567,45.30571013345308],[-0.912566597500709,45.30642236323625],[-0.914136849007554,45.30649632414282],[-0.915089391667717,45.30679744753276],[-0.918645194540589,45.3075086160258],[-0.918859818292185,45.30790769254747],[-0.918835861421735,45.308583792787665],[-0.918220481882336,45.31004242895967],[-0.918312649728906,45.310535051399405],[-0.918123386425474,45.31065978653486],[-0.919125881476572,45.311596524633984],[-0.919281714600123,45.31224919443388],[-0.919547116260717,45.31258879176589],[-0.920370463951653,45.312795233113626],[-0.921439352507429,45.31318599004167],[-0.921356259854489,45.31331241659106],[-0.921542254748455,45.31354029740179],[-0.921611452193915,45.31479463421728],[-0.921968771072756,45.315314018510286],[-0.92231612807523,45.31558311970548],[-0.922587365652888,45.31607757365069],[-0.922701992929965,45.316307956525435],[-0.92265396044965,45.31673246980455],[-0.923017984452758,45.317600517682116],[-0.922976291463967,45.31811496420477],[-0.922650875903748,45.318556420205226],[-0.92171401308119,45.3188985109152],[-0.921364266424744,45.31926688863353],[-0.924498861108728,45.32089693149548],[-0.925215445627309,45.32114585578842],[-0.925287486950964,45.32127946211312],[-0.925302626135144,45.32154849580451],[-0.925183321713516,45.3216870148964],[-0.924346790031952,45.32156761527242],[-0.924110071189268,45.32188966252815],[-0.924072870453908,45.322340843648],[-0.923521759243313,45.32271719473895],[-0.92334883564306,45.323037903607904],[-0.923555318142066,45.32330202794374],[-0.924415887248108,45.323816373665835],[-0.924559842029335,45.324444214207816],[-0.925576104724082,45.32586095578099],[-0.925608418405395,45.3264278021072],[-0.926213747814321,45.326584161146776],[-0.927584553928064,45.32912981412735],[-0.92600082868842,45.33057741844073],[-0.926034574738475,45.33145435085408],[-0.930574098139996,45.333219756953625],[-0.930980477372014,45.3328746039651],[-0.936147180136766,45.33495493727759],[-0.935835360195803,45.33533555001914],[-0.93610839022644,45.33594261300165],[-0.935901491910424,45.336017510082776],[-0.934098564234591,45.336606541572856],[-0.933460697584335,45.336226875316726],[-0.930719868624445,45.33510250248604],[-0.930301332141268,45.33505860705158],[-0.929543159647814,45.33530973121331],[-0.92583827899791,45.3344697380734],[-0.923876221224805,45.3338903605075],[-0.923644285465067,45.334063480962065],[-0.923414523945461,45.334049902459654],[-0.923210835196975,45.3342067047594],[-0.92268219107517,45.3338880621352],[-0.922102096194462,45.33374612302272],[-0.921195268565096,45.33361112708059],[-0.920254485451526,45.33357468184138],[-0.918574168128793,45.33381837576985],[-0.918551354595847,45.3342023352236],[-0.917316847581583,45.333915605030526],[-0.916487775489335,45.334594654820464],[-0.916243218661261,45.33458879200731],[-0.914384366901362,45.33560228566765],[-0.913871582249855,45.33618099273727],[-0.913236922029836,45.33624466716602],[-0.912741255073868,45.33552183209428],[-0.91143967730698,45.335662914508575],[-0.909920998296656,45.335206630525],[-0.909450639182578,45.334770492255196],[-0.908946538786824,45.333380791880664],[-0.90888872640175,45.333067270299104],[-0.909024082251619,45.332555870305946],[-0.907569350360333,45.33215321952493],[-0.907565733969558,45.33155562017148],[-0.907834537182925,45.33112430557469],[-0.908839301855768,45.33072587475987],[-0.908675821324429,45.330472843409126],[-0.908147090694121,45.330078409583294],[-0.907871394780024,45.32995641609519],[-0.907329140397425,45.32996995034356],[-0.907129146147257,45.32961541630171],[-0.907190659503272,45.32848903925774],[-0.907512198065203,45.327443733119615],[-0.907435215328194,45.32722103597079],[-0.906681287127589,45.327423173322764],[-0.90642429075514,45.32738526904969],[-0.906522291253674,45.326887799228224],[-0.90624702958314,45.32653499168726],[-0.905468595105634,45.32633318319412],[-0.903669248603207,45.325515189754356],[-0.905283036719032,45.323907294909205],[-0.904772015728082,45.32338150635223],[-0.902514135287485,45.32218282802143],[-0.901524421173402,45.321153539249295],[-0.897622234322214,45.32249405902263],[-0.889427309863827,45.324476942264866],[-0.888931112542118,45.325075686940544],[-0.888002082013222,45.32555244274329],[-0.886734808610161,45.3257245063504],[-0.886540447975598,45.32640019871673],[-0.885342360049347,45.326648275090946],[-0.883779904492854,45.32735254510542],[-0.882761908028762,45.327562785691384],[-0.881754382294648,45.328033196080746],[-0.880720815101417,45.32824035167975],[-0.879687576521742,45.32826898298875],[-0.878014801630619,45.32816201211183],[-0.874811257300055,45.329399946089254],[-0.87499307470498,45.329698364085175],[-0.874952138281318,45.329807965635226],[-0.874214136239461,45.33130572473488],[-0.873752158075773,45.33194017256249],[-0.872830098043199,45.33270414048029],[-0.87235684335734,45.33277281295499],[-0.871744245513366,45.333263713443124],[-0.87105843422989,45.3336210132945],[-0.870639408500804,45.334083571726886],[-0.87038685562588,45.33453225502683],[-0.869489729226573,45.335508991751254],[-0.865632413301008,45.33395018946734],[-0.864890206482964,45.33465558374489],[-0.86510767294987,45.33509973353858],[-0.864039477544517,45.335399880500816],[-0.862754004624454,45.337854946555865]]]]}}]}