{"type":"FeatureCollection","name":"COM_16252","crs":{"type":"name","properties":{"name":"urn:ogc:def:crs:OGC:1.3:CRS84"}},"features":[{"type":"Feature","properties":{"fid":4090,"ID":"COMMUNE_0000000009754144","NOM":"Orival","NOM_M":"ORIVAL","INSEE_COM":"16252","STATUT":"Commune simple","POPULATION":150,"INSEE_CAN":"17","INSEE_ARR":"1","INSEE_DEP":"16","INSEE_REG":"75","SIREN_EPCI":"200070282"},"geometry":{"type":"MultiPolygon","coordinates":[[[[0.064043252560501,45.298379909282836],[0.064220888176257,45.297795279181734],[0.064494350214078,45.297330302262615],[0.064938184633463,45.297048206447414],[0.065585181692325,45.296859744101084],[0.066746331818944,45.295974731060475],[0.067039398879806,45.295015581878516],[0.067306799357244,45.29471353191144],[0.068838700225664,45.29430226697626],[0.070182861280673,45.294134754734436],[0.070686391923683,45.29366317770427],[0.070784348062283,45.293402635141376],[0.071552747323064,45.29296772753695],[0.071797396460757,45.292733552295424],[0.072859420707438,45.292200901431976],[0.073365784256532,45.29184472282379],[0.073877705530468,45.29162564794429],[0.074419409603706,45.291544310424264],[0.074781272470865,45.29138708239418],[0.075888624745758,45.2903059470963],[0.075863510229283,45.29010345419781],[0.07867185851941,45.28912983798737],[0.07904978882151,45.28886038516949],[0.079939539980896,45.288445713754285],[0.08058555018294,45.28776156468242],[0.082060257208797,45.287193652665515],[0.082358186124797,45.28696445106459],[0.082949809978411,45.28670867160218],[0.085368753664965,45.28602388371657],[0.085756788749833,45.28580423091483],[0.086893062163229,45.285628402917894],[0.086712420404364,45.28527499033101],[0.087219825171435,45.28523775171714],[0.087435104262386,45.285001879025224],[0.087356644974627,45.28476916673804],[0.08771699254804,45.284517249641596],[0.089971980000419,45.28428042124783],[0.090580469804426,45.28414037619346],[0.092083229054802,45.283642448130884],[0.092938276985311,45.28317992144524],[0.09235695381849,45.28147894779911],[0.091785583728561,45.28032156020045],[0.091671143140131,45.27938419882329],[0.091245769106404,45.27934249637398],[0.090851123487488,45.27910336183039],[0.089954643283353,45.277231984189875],[0.089375329030582,45.2766438370702],[0.089046284398505,45.27666410280308],[0.0884649095271,45.276530925378694],[0.087512600647299,45.27653585299851],[0.087030570066153,45.27628451592699],[0.084047124297715,45.27861974124521],[0.083231797219377,45.27971306932058],[0.082450353217599,45.28054867551562],[0.080807975072648,45.281323956099264],[0.079886928015592,45.28216761459614],[0.079236232765256,45.28238218726544],[0.079101318674547,45.28249670029937],[0.079054289987732,45.28224948458564],[0.079191634428282,45.28157728440117],[0.079117552923401,45.28123745474982],[0.078490869527984,45.280653417588184],[0.077013601884736,45.27952092636525],[0.076368408921103,45.278876923041125],[0.075318697249632,45.27808627455884],[0.076222279941972,45.277332302715806],[0.076934431900081,45.27652916740883],[0.077664739332779,45.27593915084751],[0.077883980273863,45.27531144338061],[0.07769488826048,45.275120883859095],[0.077665525671225,45.2749020619935],[0.078019097302819,45.27436526807368],[0.078546131229324,45.274097915582765],[0.078943590480656,45.2736974236648],[0.079035008946774,45.272318503282754],[0.076478014182495,45.27131456360422],[0.073868438981285,45.271216545665155],[0.073401168660563,45.270613222478055],[0.073403419161377,45.27008436408763],[0.073504657234029,45.27007620212142],[0.073391568170534,45.26938663990442],[0.072627814797228,45.26903505269297],[0.072223188944981,45.26862438767541],[0.067712716816923,45.26903056213875],[0.065982791868115,45.269265393372436],[0.065344360708226,45.26929728991158],[0.064649096590773,45.26914838034168],[0.064009570165721,45.269225293251786],[0.062784789665862,45.269559844578346],[0.061801713461653,45.26998093082019],[0.062161351077462,45.27071122907535],[0.062362118959688,45.27075164691618],[0.061188023354764,45.271793942749504],[0.058670950089901,45.27463365027662],[0.058015430425425,45.27503629338868],[0.054836872360011,45.2763077887754],[0.053538266034362,45.27704487629987],[0.053330650609606,45.27708535802195],[0.052674355138196,45.27759788087974],[0.052491570560615,45.27784445787992],[0.052255279660524,45.27857169196529],[0.051670926362141,45.279123050314524],[0.051200534350564,45.27942601551093],[0.050180198217054,45.27972618308329],[0.052231524198412,45.28213296530178],[0.052094942941505,45.28215729695735],[0.052011911337181,45.28309942148073],[0.052075581137391,45.28334348627015],[0.052198006471099,45.28341789824001],[0.052821433416466,45.283431630880166],[0.052892723532011,45.28374888207481],[0.053068707532894,45.283993203564634],[0.053822976543509,45.28418788845151],[0.054497989980255,45.28496436843942],[0.05430371440888,45.2854521311753],[0.054965118722075,45.28583448520115],[0.055131082339917,45.285906436315656],[0.056005983004546,45.28553391082815],[0.056336102142314,45.28559126016226],[0.056560371928158,45.28579179389079],[0.056661366540845,45.2861512730219],[0.05689622612835,45.28632054763443],[0.057020163959243,45.286825701227635],[0.057574293683958,45.28706464975785],[0.057696796218801,45.28723456988314],[0.057685257174825,45.28742889547257],[0.058657492810887,45.28842852303464],[0.058520645073313,45.28865108934768],[0.057621064506793,45.289031095672556],[0.057320885617564,45.289566536247456],[0.057290058851303,45.28969097255515],[0.057737332957216,45.29060020054269],[0.057602827299486,45.2908507606125],[0.057217675827937,45.291182127394265],[0.057118891057844,45.29148138339888],[0.057211787757132,45.29168025984957],[0.057647012593518,45.29197194344925],[0.057909356877335,45.29234647971201],[0.058498306933798,45.29226556050675],[0.059299752990533,45.292850704946865],[0.059849652984463,45.29309854003044],[0.060075985647367,45.293333360445864],[0.060206232699034,45.29388913533936],[0.060468259002862,45.294149221900916],[0.060398437546666,45.294746592287105],[0.060182342259032,45.29530948128186],[0.06025810673886,45.29585751642897],[0.060657804081924,45.29621853611152],[0.061260774312978,45.29645334132425],[0.061437146748602,45.296594937442535],[0.061534031140901,45.29749313829397],[0.061454328350173,45.29781812929711],[0.061572628538373,45.29811678597178],[0.061496655020274,45.29844367717316],[0.062413490234102,45.29865878935457],[0.063703366118287,45.29833674526628],[0.064043252560501,45.298379909282836]]]]}}]}