{"type":"FeatureCollection","name":"COM_40161","crs":{"type":"name","properties":{"name":"urn:ogc:def:crs:OGC:1.3:CRS84"}},"features":[{"type":"Feature","properties":{"fid":4135,"ID":"COMMUNE_0000000009758232","NOM":"Lubbon","NOM_M":"LUBBON","INSEE_COM":"40161","STATUT":"Commune simple","POPULATION":80,"INSEE_CAN":"08","INSEE_ARR":"2","INSEE_DEP":"40","INSEE_REG":"75","SIREN_EPCI":"200035541"},"geometry":{"type":"MultiPolygon","coordinates":[[[[-0.003795233033925,44.14991425658826],[-0.003440603455247,44.149855519446604],[0.01587518480823,44.14214609988463],[0.02704833672748,44.13774989352779],[0.028720117157355,44.137159339077265],[0.030030939720782,44.13564927627728],[0.030549129613773,44.135210268733715],[0.03165560243249,44.133755900369614],[0.034593749983922,44.13065420227226],[0.031819133175365,44.117763177634146],[0.026111383247073,44.11612045434509],[0.025447689929199,44.1144442703691],[0.02332751248112,44.111743164713836],[0.019008449999231,44.105135367779994],[0.017648946349452,44.10281422174894],[0.014591086302894,44.09853822770015],[0.009422361125438,44.09046848835744],[0.005273443287448,44.08360899216864],[0.003569075575942,44.081071079598246],[0.003010779414139,44.078552809700085],[0.002047644441152,44.07288279107264],[0.001880038000498,44.07205678385624],[0.001769679821189,44.071898845024485],[-0.004189098454221,44.07023855265359],[-0.010715944059208,44.068578517520415],[-0.030553580868676,44.077310014090216],[-0.036016282798131,44.08096860750692],[-0.040330151697203,44.08402026454565],[-0.040610721553569,44.08433672574853],[-0.042862985246534,44.08806161274822],[-0.053095642880873,44.10076143455716],[-0.053966615211767,44.10138566634561],[-0.053933417230151,44.101745076766235],[-0.05561222559476,44.10372486507022],[-0.058358889010857,44.111844759234366],[-0.058292826727857,44.11700865052723],[-0.056528925323142,44.1207346372062],[-0.056423191109335,44.121140211455604],[-0.058422580559892,44.13731828683054],[-0.058265541090108,44.13751452582882],[-0.058992443621259,44.143700312908216],[-0.059846966220482,44.150673408530984],[-0.060011741306474,44.15085256013443],[-0.058429080375545,44.1507111773502],[-0.02093916320656,44.150251968823675],[-0.020584513817596,44.15019328711028],[-0.015296696423775,44.1501722375011],[-0.015047828404996,44.150032265394536],[-0.014859003183356,44.14979786704584],[-0.014448211486692,44.14957677860404],[-0.014383220904165,44.1494128331514],[-0.014209653964396,44.14937166930756],[-0.013830263570158,44.14934156880229],[-0.013370084781301,44.14962803949093],[-0.012678497195752,44.149254335298025],[-0.012089241596338,44.1492534153525],[-0.011349750052034,44.14948630321529],[-0.010550389054367,44.14939206763155],[-0.009940272498567,44.149516909016825],[-0.008855318164389,44.149061208290355],[-0.008351636886084,44.149046209970415],[-0.008070836822924,44.14891700699063],[-0.007389910831461,44.14902756438121],[-0.007064739074487,44.148958122925855],[-0.006685652701356,44.149004550545335],[-0.006465480910398,44.149170016592464],[-0.00615389448113,44.14921549165832],[-0.006073231242536,44.14958249440348],[-0.005788978258129,44.14981366731447],[-0.005617794871506,44.149817460517355],[-0.005307681838769,44.14925220636651],[-0.005112460827977,44.14910894027364],[-0.00448101943743,44.14946942273819],[-0.004572512032159,44.14961463252029],[-0.004755815583922,44.14967445961128],[-0.004732969195614,44.14981019343727],[-0.0043923141414,44.14985015517203],[-0.004124352339631,44.149798051941914],[-0.003997192193654,44.14994835366783],[-0.003795233033925,44.14991425658826]]]]}}]}