{"type":"FeatureCollection","name":"COM_86090","crs":{"type":"name","properties":{"name":"urn:ogc:def:crs:OGC:1.3:CRS84"}},"features":[{"type":"Feature","properties":{"fid":4161,"ID":"COMMUNE_0000000009747113","NOM":"Curçay-sur-Dive","NOM_M":"CURCAY-SUR-DIVE","INSEE_COM":"86090","STATUT":"Commune simple","POPULATION":230,"INSEE_CAN":"08","INSEE_ARR":"1","INSEE_DEP":"86","INSEE_REG":"75","SIREN_EPCI":"248600447"},"geometry":{"type":"MultiPolygon","coordinates":[[[[-0.086482944829914,46.98546325698128],[-0.084858644668293,46.98890630349881],[-0.085673456437936,46.99021532861123],[-0.086735375403195,46.991607838763024],[-0.08810611822365,46.99390932094485],[-0.089061363894308,46.99617416121923],[-0.089245921736129,46.997098180289335],[-0.090986994368922,47.00181528380448],[-0.091725403236769,47.00452110935342],[-0.09213753104119,47.00541559794512],[-0.092697247460318,47.00709272670558],[-0.094048400931789,47.0134078457161],[-0.092188056248184,47.012736893031196],[-0.089554795560845,47.01207129198106],[-0.087442948546274,47.01100874634686],[-0.084826635369122,47.011904962088025],[-0.082638258501996,47.00952347781954],[-0.07933451423156,47.00695908813432],[-0.078921894463383,47.00709173802433],[-0.078908477434543,47.007202921774144],[-0.077199308315585,47.00827568358616],[-0.076671017775021,47.00838978539138],[-0.077295193877007,47.009287675649944],[-0.078578276151157,47.009958947287025],[-0.079993144643355,47.01157726509626],[-0.080622788938689,47.01194609344448],[-0.080755446444935,47.012562454306654],[-0.081248814293892,47.012989880223415],[-0.081385281825,47.01367281424059],[-0.081940959068093,47.01470676285106],[-0.082588503432042,47.01506519211832],[-0.083549427437691,47.01615858701925],[-0.083710681288109,47.01702106050025],[-0.084636687336877,47.017709920640414],[-0.084723461510694,47.018490588681345],[-0.085327287707494,47.01905110021234],[-0.085623019272921,47.01975319814787],[-0.0861526418555,47.02025982642426],[-0.085683542162173,47.02074270315938],[-0.085531638649881,47.02324799771675],[-0.086938951506671,47.023042774501064],[-0.087694647308916,47.02312437446823],[-0.088238175486071,47.02527768847167],[-0.084885063926553,47.02535204356262],[-0.082931670614657,47.025317740477035],[-0.081134596492003,47.02582885213049],[-0.080338808031835,47.02594560134017],[-0.07923192621801,47.025898550913524],[-0.078371732420268,47.02546378069803],[-0.077903411554102,47.02573125832963],[-0.076983954821094,47.02652163770031],[-0.074260052028454,47.02806647984495],[-0.073366830614466,47.02837048244747],[-0.071785301056109,47.02873604657975],[-0.070108195380816,47.02892753237715],[-0.069132395640779,47.029147200490094],[-0.068617113970702,47.02863651225971],[-0.067781662956379,47.02812622295384],[-0.067179274335784,47.02763586413223],[-0.066430424086025,47.027280941133476],[-0.063369054653932,47.028550664061996],[-0.063158186400052,47.02875898731678],[-0.061615750411138,47.02651675575493],[-0.06118989206878,47.02560631958282],[-0.059211613586528,47.02385405303328],[-0.057928445510194,47.025508069771426],[-0.051728463327836,47.023727800682174],[-0.048657126534877,47.02330711208648],[-0.048694583664847,47.02294391907101],[-0.048545062396281,47.02253610989503],[-0.047979718983625,47.0214842532588],[-0.047102177912627,47.02241653864369],[-0.046116795881671,47.022932696314086],[-0.044072790284046,47.02322809504398],[-0.04408220499924,47.022927813098015],[-0.043448137899688,47.02296886243153],[-0.040486896792211,47.02457050428675],[-0.036687414820831,47.02514085544313],[-0.035561156503111,47.02523985925117],[-0.029255040061786,47.029417668880455],[-0.024724660317552,47.03139071493411],[-0.022095372921978,47.033972441438024],[-0.019610415203693,47.03353291673159],[-0.017554257805841,47.033266833584186],[-0.016837179840863,47.03307474528403],[-0.016430198298043,47.032866441032766],[-0.015998136039844,47.032327227579145],[-0.015708415903678,47.03214198574935],[-0.014552036553501,47.031657727381244],[-0.01293010266746,47.030764850129636],[-0.011013008492976,47.030036422494376],[-0.008965565383975,47.02959246943391],[-0.007590964716022,47.029540898830476],[-0.004232832028848,47.0287246640225],[-0.002411561536259,47.02850716375752],[-0.004619954358649,47.02777306027012],[-0.006228641167893,47.02701308873127],[-0.007693938255225,47.0265181156785],[-0.00830078358716,47.026105867110495],[-0.009601714913943,47.02564128110112],[-0.011160084968705,47.02473748998502],[-0.012300368607539,47.023992350889394],[-0.012587962493994,47.02369202337515],[-0.012684888557831,47.023752562498764],[-0.013235343603616,47.02334626271831],[-0.015767602586285,47.02197729149562],[-0.015218230320327,47.021341131136886],[-0.01573373915953,47.021182602276696],[-0.018473636250421,47.02093798363594],[-0.019509945329266,47.02076311197944],[-0.020802705621545,47.020862628115545],[-0.021793660203973,47.02072496258148],[-0.021897911497221,47.01884546417083],[-0.021800707770749,47.016685624609806],[-0.022065767347814,47.01487849676691],[-0.022268452896209,47.01421636325386],[-0.023567146497111,47.01402466772974],[-0.025006770886654,47.014138304644206],[-0.026871458048958,47.01405607041639],[-0.028191641110913,47.01417730579753],[-0.029292729357483,47.01417363336651],[-0.02968429951204,47.01382728090605],[-0.029638695383633,47.01355457476651],[-0.030077511369636,47.01320517826321],[-0.030119682020956,47.012923860291586],[-0.029482706618053,47.011878307915524],[-0.028822770467182,47.01138566723676],[-0.028769414652968,47.01125642296949],[-0.029530440275039,47.01026426640325],[-0.029476531132749,47.01010169995472],[-0.030116893240005,47.00944787838892],[-0.030478396392765,47.00887165524994],[-0.032621876554549,47.00887840732594],[-0.0345036233374,47.008657742929636],[-0.035399012951765,47.008722489098304],[-0.039088416551967,47.00778473402585],[-0.04132263403158,47.00757899916628],[-0.043106050628446,47.00727428764072],[-0.043221881676495,47.007202756055335],[-0.043758140390908,47.007205729479075],[-0.043891010295087,47.00708599434876],[-0.044153546599377,47.007070057742666],[-0.044648434614074,47.00682994566363],[-0.04521698262439,47.00637795249314],[-0.045274914850716,47.00616738971632],[-0.046618968789772,47.005523725796785],[-0.046960102713735,47.0055003010142],[-0.047860939991002,47.00477552200978],[-0.049739687742724,47.00354915564379],[-0.050738226197773,47.002992961159286],[-0.051590899629873,47.002373039937694],[-0.051855516984218,47.00246425043222],[-0.052566647840929,47.001693992550635],[-0.052525362050648,47.00117339904136],[-0.053321010218585,47.00017474493338],[-0.053543961399829,46.9994128939947],[-0.053350315755972,46.9985503440046],[-0.053591121558648,46.99735913734909],[-0.054341464640117,46.99660855014836],[-0.055593764450895,46.99700246598759],[-0.05691741829256,46.99528339880023],[-0.05610523995978,46.99501028739707],[-0.055730994513725,46.99474989747488],[-0.056374973378073,46.99454091976143],[-0.056752064404973,46.99431648574095],[-0.059163913236176,46.994537267861055],[-0.059984180637644,46.994674089821096],[-0.060752802681583,46.99445727552849],[-0.062203491235715,46.99421604378209],[-0.065169286046562,46.99424269089358],[-0.065970223002635,46.99434033939363],[-0.06738440387956,46.993897282528906],[-0.068489795723115,46.99383724740928],[-0.069971047651314,46.99306890669428],[-0.070389720645387,46.993044247481464],[-0.070945834237339,46.99284293129539],[-0.072867024296694,46.99182316531683],[-0.074796337296001,46.99115544926068],[-0.077662293900449,46.98903998973209],[-0.079456782031807,46.988181166601834],[-0.083309727346556,46.9865005250606],[-0.086338133449303,46.98541757566096],[-0.086482944829914,46.98546325698128]]]]}}]}