{"type":"FeatureCollection","name":"COM_40141","crs":{"type":"name","properties":{"name":"urn:ogc:def:crs:OGC:1.3:CRS84"}},"features":[{"type":"Feature","properties":{"fid":4076,"ID":"COMMUNE_0000000009759593","NOM":"Lahosse","NOM_M":"LAHOSSE","INSEE_COM":"40141","STATUT":"Commune simple","POPULATION":286,"INSEE_CAN":"04","INSEE_ARR":"1","INSEE_DEP":"40","INSEE_REG":"75","SIREN_EPCI":"200069631"},"geometry":{"type":"MultiPolygon","coordinates":[[[[-0.809206740399559,43.70833117865986],[-0.807304880179531,43.708397768137154],[-0.807679583457905,43.70891526780379],[-0.807723525042144,43.70950110143606],[-0.806846923406117,43.70991465801757],[-0.806790183963612,43.71014456573869],[-0.80756194047343,43.71114185104049],[-0.808148809527824,43.71221587403323],[-0.808225743009413,43.7128681199325],[-0.808707139239282,43.71368187669529],[-0.808902781605787,43.71391556142903],[-0.810282922305948,43.71488972697054],[-0.810957541945654,43.71562013320294],[-0.811201807237389,43.71602417988813],[-0.811824321071067,43.718153679232664],[-0.812075943888638,43.71870521257554],[-0.811945858374083,43.71917642949684],[-0.811946221474949,43.71992775536546],[-0.812369576201988,43.72040930848757],[-0.813168527404917,43.72097228924742],[-0.813494623236999,43.72137346532667],[-0.813547664134979,43.72202024522843],[-0.813449536721535,43.72233719390949],[-0.813174243384175,43.7227171082357],[-0.811158809613317,43.72351024134525],[-0.810229696632867,43.72369773734641],[-0.809759894202083,43.724123192415234],[-0.808442935911876,43.72454947495791],[-0.808081056858576,43.72497294619827],[-0.80813042136616,43.72526670922091],[-0.807720259766011,43.72569277005644],[-0.806744563867195,43.72598366540324],[-0.806617538420469,43.725829553755574],[-0.806180272884389,43.72577368168027],[-0.805497851009309,43.726010162059595],[-0.804909506709979,43.72611091782214],[-0.804554772696067,43.72608188211881],[-0.804190458076017,43.725740573141735],[-0.804146801213824,43.72540156512936],[-0.804281336687553,43.725295061036455],[-0.805154831010741,43.725167219081236],[-0.805349909645554,43.72498111999289],[-0.805305812226439,43.72461690302441],[-0.805095298458794,43.72455219498611],[-0.804850341287179,43.72458598665944],[-0.804063868524699,43.724882852680494],[-0.803770275609665,43.72491383795182],[-0.80330963606864,43.72484255600695],[-0.802823283559881,43.72457127386786],[-0.802414671511981,43.72386214629153],[-0.802729238387359,43.72371692017694],[-0.803492118325483,43.72388754609578],[-0.803744501055791,43.72347963114792],[-0.803784437785089,43.723239500769544],[-0.80374152083195,43.72307974316782],[-0.803486322730528,43.722922001905346],[-0.801086662547762,43.72294460832903],[-0.799315604982693,43.723473127754694],[-0.798550925677019,43.72389261287218],[-0.798370578614483,43.723907918227255],[-0.797047060997276,43.72290729547957],[-0.796350645957358,43.722015405191264],[-0.796077901564754,43.721967266101686],[-0.795734312278997,43.72214321414077],[-0.79542604868534,43.72219631011369],[-0.79474854381544,43.72183256644587],[-0.794597739804329,43.722255833640574],[-0.794099111058345,43.722435382057164],[-0.793883946592705,43.72235640130906],[-0.793677146857543,43.7220663232381],[-0.793415367411144,43.72190248295831],[-0.792277332666831,43.72184306185983],[-0.791756465358217,43.721555820002386],[-0.791181689428489,43.72171098254808],[-0.790492791136425,43.72179354381494],[-0.790231743573773,43.722165691424514],[-0.790166867142108,43.72244271857191],[-0.78916065798374,43.72236696062516],[-0.788164408522487,43.722479129391296],[-0.787326877866185,43.723319075245435],[-0.78674700565275,43.72349150753958],[-0.785673069491442,43.72361266278308],[-0.78552999112314,43.72357169668973],[-0.785575675179653,43.723342186144905],[-0.785705195372697,43.72317822479828],[-0.786481550360075,43.72268996029862],[-0.786483963060237,43.72244483876522],[-0.785764948701552,43.72252301253267],[-0.785063314395741,43.72230058626386],[-0.784728168035305,43.72243566536561],[-0.783884540772168,43.723090215369865],[-0.783622293305299,43.723012852242746],[-0.782875188970131,43.72232804443274],[-0.782565908076996,43.721576661211124],[-0.78174732332932,43.721200628435525],[-0.781600376949628,43.72106339893175],[-0.78157700538255,43.72050296952902],[-0.780811145756113,43.72056742465406],[-0.780524781559701,43.720500802423935],[-0.779916241868051,43.720239074987624],[-0.779529989885993,43.71992007425865],[-0.779399621926199,43.71990208166755],[-0.779007543465592,43.72007785811026],[-0.77885958825308,43.720527125347104],[-0.778243374018335,43.72088274976769],[-0.777966939213487,43.72085361244889],[-0.777789157963067,43.720606642262865],[-0.778108630183761,43.72019646376114],[-0.778079346050125,43.71999748819651],[-0.77751096741171,43.71977939658515],[-0.777368879865897,43.719659109730046],[-0.777102821642549,43.719071973886564],[-0.77687006764182,43.71887645906748],[-0.776741831910201,43.71887190237981],[-0.776488760440925,43.71897077441849],[-0.776174215527107,43.71930510390948],[-0.775522105338082,43.719436742087936],[-0.775076433293672,43.71960985963368],[-0.774709469738909,43.72012887925603],[-0.773974393635247,43.720735439861905],[-0.773399013109989,43.72056171224986],[-0.77287751013093,43.720583402650824],[-0.772760519541731,43.720711779149894],[-0.77294673065965,43.721218814492346],[-0.772842840379311,43.721564746170266],[-0.772497887521826,43.72153256586209],[-0.771752864732972,43.721008870226655],[-0.771679729277342,43.720709616220184],[-0.771566574708782,43.72061354318043],[-0.771373710088195,43.72058959983394],[-0.77056863242616,43.721076946209145],[-0.7702958678706,43.72108459771781],[-0.769239130399584,43.72071222292248],[-0.768796049702556,43.72041587470646],[-0.768566962344267,43.720143642449976],[-0.768254826369417,43.72008148472624],[-0.767825927290762,43.72015129250766],[-0.767688975903546,43.720259634650674],[-0.767556600869619,43.72055069307495],[-0.767561374243406,43.72117032085889],[-0.767305528790335,43.72141610740087],[-0.766955701048167,43.72149848796541],[-0.76651249435671,43.72148320373503],[-0.766327120959765,43.72144097481996],[-0.766124255804519,43.721246204656694],[-0.765670452952238,43.72099435739965],[-0.764555626790969,43.72115455570048],[-0.764214041948417,43.72109790962845],[-0.763948155971932,43.720889100764154],[-0.763469952282134,43.71971831156418],[-0.762731001321571,43.71987089327779],[-0.762385581481732,43.719717982615855],[-0.762028283710975,43.719346573138964],[-0.761631233294406,43.719201751732356],[-0.761291913173011,43.71925492339423],[-0.760947685932444,43.71917673842737],[-0.76070467607225,43.719259009532806],[-0.759666688933278,43.71903814218775],[-0.76025443867012,43.71872054565066],[-0.760420771578011,43.71830310471072],[-0.759938079212912,43.717572978882586],[-0.759503336605467,43.71738350958919],[-0.759291832462549,43.7171322731758],[-0.760008733942249,43.71672012902285],[-0.760198312443968,43.71629738109171],[-0.760647884000441,43.71588095972134],[-0.761106991656471,43.715212868052596],[-0.761657828802235,43.71509022324985],[-0.762590263754466,43.713612102721996],[-0.763928177415742,43.71248388960102],[-0.764544998156748,43.71226976140419],[-0.765394952542561,43.71127642741794],[-0.765404056404207,43.710565337671824],[-0.76623112050778,43.710602466507204],[-0.767460859381191,43.70981397185931],[-0.768421123065465,43.7088375116768],[-0.768928470877221,43.70848931904724],[-0.769679844581423,43.708150683921204],[-0.77010417746211,43.70786211649989],[-0.770890533242888,43.70756460030723],[-0.771327973809699,43.7071170227664],[-0.773145345688947,43.7062026832971],[-0.774226098449344,43.70321398108232],[-0.776881186003038,43.70101560907786],[-0.777743071324778,43.70030282534228],[-0.778342815142508,43.70050990717216],[-0.778928055195352,43.700572451979355],[-0.782049985540788,43.699994581429635],[-0.783040230405331,43.69996644576168],[-0.785486566550435,43.7002326562522],[-0.78707225781857,43.70025222147503],[-0.787497019696384,43.700047347768376],[-0.788017498962116,43.7001256121507],[-0.789039273988407,43.69993597029489],[-0.790130346671974,43.70013667940117],[-0.790942934082854,43.70046329697678],[-0.792117707917273,43.70052143529186],[-0.792555403846816,43.70103678126845],[-0.793886187786471,43.70075073529813],[-0.795642478737006,43.700552521381745],[-0.796071868438524,43.699818643700915],[-0.796514062734084,43.699708616860136],[-0.797179190107442,43.69934666990213],[-0.797512078732384,43.69925486917104],[-0.799124330140188,43.69900126885188],[-0.799409089125788,43.699568776200906],[-0.799488572776683,43.70031732248577],[-0.800212800283437,43.70129468400355],[-0.800695940036112,43.70165166113573],[-0.801199809070969,43.70241420401138],[-0.802850801069699,43.70360239136644],[-0.80352793206048,43.70392554837172],[-0.805178457010301,43.70465697843283],[-0.806169417154481,43.704694373408984],[-0.805556056572598,43.70516266992051],[-0.805693226596097,43.70634792483387],[-0.808353824907941,43.70609534176161],[-0.808485334465122,43.706821347268246],[-0.809241934809937,43.70790833548642],[-0.809206740399559,43.70833117865986]]]]}}]}