{"type":"FeatureCollection","name":"COM_40175","crs":{"type":"name","properties":{"name":"urn:ogc:def:crs:OGC:1.3:CRS84"}},"features":[{"type":"Feature","properties":{"fid":4230,"ID":"COMMUNE_0000000009759120","NOM":"Maurrin","NOM_M":"MAURRIN","INSEE_COM":"40175","STATUT":"Commune simple","POPULATION":457,"INSEE_CAN":"01","INSEE_ARR":"2","INSEE_DEP":"40","INSEE_REG":"75","SIREN_EPCI":"244000824"},"geometry":{"type":"MultiPolygon","coordinates":[[[[-0.335712087169634,43.83791771987329],[-0.335909341586631,43.837864847721306],[-0.336530957441782,43.83794040021113],[-0.336710190968481,43.83787726959476],[-0.337796616504372,43.83798542521806],[-0.338441041857512,43.83845117631784],[-0.338815660662345,43.83862254856457],[-0.341901504788234,43.838555025008795],[-0.342205078041406,43.83840520842585],[-0.342420796285343,43.83817882184564],[-0.342459348996583,43.838008306281495],[-0.342526288518646,43.8361751100431],[-0.342951395050365,43.83529559294534],[-0.342972498013343,43.83474191031437],[-0.34315236351847,43.8341158061614],[-0.343700258699183,43.8334000527397],[-0.344847711149566,43.832702831244134],[-0.345336434561952,43.83220955837835],[-0.345401790979549,43.831944545760464],[-0.345791965931671,43.8318082735373],[-0.345932106708111,43.831651752485975],[-0.346455259772909,43.830429645007364],[-0.346272223840085,43.82936522259028],[-0.346763080271661,43.828569239855945],[-0.346987964544225,43.82875508662142],[-0.347902412397682,43.828351410090626],[-0.349153053961073,43.828334609160585],[-0.350401889926333,43.82818094157507],[-0.351155517453697,43.82842978983949],[-0.351667141809386,43.827670974486615],[-0.352098967889682,43.82729110716588],[-0.353339477536465,43.82775915113145],[-0.355047806200267,43.82587543966529],[-0.354642122888068,43.825704180933315],[-0.355221192565584,43.82427314445254],[-0.356006051795352,43.82365631513437],[-0.356122131986717,43.82336631545589],[-0.356129017807319,43.822890529060736],[-0.356629329044573,43.82297870426789],[-0.357010057181306,43.8231489220878],[-0.357027409443568,43.82350777077742],[-0.357157084386702,43.823639783999475],[-0.358556429851055,43.823995689552916],[-0.359468525465024,43.82353343866248],[-0.359340403479665,43.823364451037094],[-0.360424584328921,43.82274016419221],[-0.359889324394735,43.82214238079393],[-0.361284904149353,43.82118693152546],[-0.361726873371808,43.82129849931611],[-0.362756683839422,43.82053355274461],[-0.36241497186107,43.81992710849011],[-0.363138015740012,43.819741771197464],[-0.363428010640825,43.81957519800567],[-0.364075513229476,43.81888868822751],[-0.364327991883503,43.81829633375649],[-0.365390541718472,43.81724392447981],[-0.367310977052924,43.81582633411945],[-0.367894100216168,43.81596954264891],[-0.368780499141781,43.81437851295067],[-0.369232397082349,43.81330891066998],[-0.36922409467946,43.81299932318447],[-0.368344449946403,43.81111701276317],[-0.369915847799031,43.810471260248974],[-0.369457306626583,43.809972035664366],[-0.370164635816052,43.809501609729104],[-0.370583493111291,43.80934904507302],[-0.371009732714451,43.80879453447646],[-0.370936770611958,43.80842209700395],[-0.371006648034203,43.80823619092055],[-0.372248570975226,43.80660351110122],[-0.372636980762639,43.80637802226082],[-0.373675781950476,43.80629902803886],[-0.375388444345114,43.80604783274218],[-0.376596014115915,43.80448912187097],[-0.376368334906701,43.804403404188356],[-0.376884923477216,43.80346416952613],[-0.376933499677177,43.80203414169593],[-0.377629516397795,43.802006262708176],[-0.377766724692321,43.80192905189682],[-0.3777716302969,43.80106512146396],[-0.377931974523306,43.80053774036234],[-0.378871310134736,43.80069235821148],[-0.379810288493645,43.80058847605195],[-0.382065872225432,43.799722257015375],[-0.384851820623119,43.79825855637102],[-0.385598417040654,43.798014684801636],[-0.390352228859288,43.79744532338105],[-0.391026276957386,43.79725771400244],[-0.392369512142535,43.7965493703979],[-0.393604646975794,43.796219973770874],[-0.394171873934841,43.79595100473568],[-0.394418003498675,43.79594964131877],[-0.395398938013144,43.79623972761703],[-0.395675711155479,43.797214680406235],[-0.39632957591328,43.79850844105695],[-0.39646480317958,43.80076321983881],[-0.396423373852832,43.802786620192876],[-0.396545603737526,43.80289720108113],[-0.396266559612714,43.803370669512326],[-0.39496276656346,43.8043471462447],[-0.394291532448636,43.80508592994139],[-0.392774146994964,43.80816410240455],[-0.391678979431959,43.811946087391355],[-0.391686690948973,43.813920227022756],[-0.391797900226664,43.81422211038104],[-0.3915026899225,43.81522119093142],[-0.39187082649474,43.81674996921627],[-0.391879764950316,43.81725679809251],[-0.392301021861612,43.818422734001835],[-0.392859205093197,43.818940388969416],[-0.393050922318392,43.819487465566255],[-0.392911060950907,43.819625126960744],[-0.392744242702946,43.820272537027556],[-0.392720900270655,43.820947907030614],[-0.392614041528289,43.82105481676582],[-0.39294833159481,43.82316472070023],[-0.392927723135187,43.82468218723215],[-0.392745276331122,43.82550662809983],[-0.392294132264177,43.82668801351049],[-0.392463481065862,43.82752852752885],[-0.392007647414381,43.828191238304896],[-0.391778403275115,43.82887752170309],[-0.391253057473742,43.8289983514729],[-0.39107225864757,43.829264286905975],[-0.390922463002378,43.82982199475563],[-0.390996578823685,43.830777165257686],[-0.390761068523359,43.8313582563654],[-0.3905193101762,43.83183415586018],[-0.389491697658275,43.8329271727906],[-0.389308363989531,43.833234617742335],[-0.388904688809368,43.83452620558132],[-0.38898695331477,43.835598221235756],[-0.388608007138506,43.83642606392341],[-0.388543871595833,43.83712792654115],[-0.387960688058339,43.83778557134346],[-0.387443277777515,43.83814662965157],[-0.387512941386102,43.83850295679392],[-0.387386268759135,43.83875909783537],[-0.386278763172515,43.83964109193586],[-0.385204074389742,43.839964501690154],[-0.384754636934123,43.84017121225507],[-0.384656481529673,43.84040484698938],[-0.383309789385959,43.84164101653225],[-0.382626089991064,43.84192704563886],[-0.381880185558236,43.8419402764545],[-0.380433167035243,43.842555313247125],[-0.377314289194921,43.84432012011423],[-0.376886072492657,43.84446579058589],[-0.37596326006223,43.84592923128858],[-0.375193489508049,43.84383364288247],[-0.374745410051447,43.84330617398875],[-0.374314082053294,43.84245122071076],[-0.37351713996933,43.84288571303495],[-0.372776848704422,43.8429941846836],[-0.371216114891629,43.84284429263629],[-0.370378771117346,43.84223606788406],[-0.369592835261441,43.842203614158606],[-0.369009095053759,43.84232883937777],[-0.368266901045332,43.84274268519508],[-0.366615134656759,43.84277928802382],[-0.365243445086455,43.84319723543611],[-0.364598853914237,43.8431982132136],[-0.3632340385211,43.843035856458116],[-0.361349249052284,43.84308857400404],[-0.360591024730687,43.84348484551737],[-0.359846262389212,43.84364470744563],[-0.359086833125938,43.84416890777612],[-0.358458302266289,43.84435850577547],[-0.358071798663343,43.84436770779862],[-0.356985480927045,43.84409491345271],[-0.356713953931618,43.84411228011756],[-0.355621514585764,43.84447647047511],[-0.354552438754806,43.844645375164546],[-0.353890019937187,43.84459729803908],[-0.351516639408763,43.84419289494754],[-0.350645263765357,43.844146717460454],[-0.348083185866255,43.84432269691989],[-0.347755022212011,43.84443545481092],[-0.346429004675421,43.84463738784956],[-0.346085090523027,43.844587594341675],[-0.345749636979857,43.84440603563001],[-0.345485273765747,43.84439703362561],[-0.345102496946441,43.844512359729954],[-0.344757536612318,43.84476343318902],[-0.344212511196922,43.844913456602825],[-0.343806546265723,43.844717841724666],[-0.34330103179528,43.84467119370165],[-0.342789018967547,43.84481119052028],[-0.342318151143187,43.844782390763974],[-0.340239670527854,43.84560988786772],[-0.339552988144258,43.84580656036345],[-0.339355549067925,43.846026977027094],[-0.338150899442119,43.84598550093569],[-0.335231474970066,43.84509486334176],[-0.334787115745055,43.84488057453742],[-0.334371823452044,43.84399166382356],[-0.333924851933999,43.843732416407505],[-0.33305115817593,43.84347540396055],[-0.333354996830243,43.84300945600127],[-0.333617072175844,43.84216918845202],[-0.333597672536877,43.841922086682416],[-0.334634804625732,43.83956474265447],[-0.335232754327343,43.83878715583482],[-0.335427415280756,43.83828491085331],[-0.335712087169634,43.83791771987329]]]]}}]}