{"type":"FeatureCollection","name":"COM_19188","crs":{"type":"name","properties":{"name":"urn:ogc:def:crs:OGC:1.3:CRS84"}},"features":[{"type":"Feature","properties":{"fid":4194,"ID":"COMMUNE_0000000009754094","NOM":"Saint-Bonnet-l'Enfantier","NOM_M":"SAINT-BONNET-L'ENFANTIER","INSEE_COM":"19188","STATUT":"Commune simple","POPULATION":413,"INSEE_CAN":"01","INSEE_ARR":"1","INSEE_DEP":"19","INSEE_REG":"75","SIREN_EPCI":"200043172"},"geometry":{"type":"MultiPolygon","coordinates":[[[[1.561215447914641,45.30236624033268],[1.559375078748023,45.302520874054416],[1.557203128573295,45.303011624632795],[1.557767559406213,45.30398343275763],[1.557489606245563,45.30417077426712],[1.55529830192873,45.30422355302222],[1.553963141617015,45.30393882932836],[1.553406136752394,45.30445307034057],[1.552298850156662,45.30419018521273],[1.55238558344888,45.30384818265544],[1.551888261266604,45.303685944676346],[1.550723624201312,45.30450030809294],[1.549738600989447,45.30419845458403],[1.549833975645506,45.30386827349133],[1.549410359388336,45.30376731930731],[1.549674524064005,45.30327722039713],[1.548405949960605,45.30303472010818],[1.548813320156751,45.30273020166931],[1.548446086648384,45.3022778441183],[1.546940814894745,45.30225560215456],[1.546379576755074,45.30165842435471],[1.545392525134127,45.30153482247128],[1.546588832059419,45.29980052260673],[1.547496271862099,45.29994199304887],[1.548979163294097,45.29940016870154],[1.550065019323553,45.29950160455543],[1.551538201175114,45.29746644399852],[1.55341749857347,45.295708496372036],[1.553629822834603,45.29475481707238],[1.550858326121145,45.29470904128124],[1.550392350087968,45.29574858756585],[1.547683885189575,45.296024160430946],[1.546877802810589,45.29576603020106],[1.546516324918804,45.29578024641962],[1.546128078836597,45.29496196851859],[1.546951181773822,45.29495825380162],[1.546978820660323,45.29468123121131],[1.546841469537204,45.294125584442845],[1.545862657732606,45.29354459265242],[1.545501321148304,45.293798364106514],[1.544452243389788,45.294296253442134],[1.543032162789499,45.29463530073009],[1.542585125746184,45.29509148030412],[1.542220114648885,45.29519209326927],[1.541807209970557,45.29512367028612],[1.541277574620675,45.29473761625519],[1.540728239082856,45.294665608873494],[1.54027929082115,45.29451205442887],[1.540202671952692,45.29412470106357],[1.538889308995899,45.294237239059214],[1.537330633413829,45.29475091998274],[1.536172164405212,45.293872098804805],[1.536213369649245,45.29351780488824],[1.536105835723523,45.29319128407762],[1.535434330005414,45.29213690721218],[1.534879812629205,45.29240882890524],[1.534519487056555,45.293204734966274],[1.533348927676558,45.2932245163664],[1.533452597523541,45.29233969294499],[1.534131546883605,45.29247917827981],[1.534355245886375,45.29222093792696],[1.534302886458213,45.29212568971961],[1.534428851501954,45.291750892842614],[1.534399477522791,45.29160641329885],[1.533752082212937,45.29162584727186],[1.533550995475687,45.29117021348483],[1.533760343212671,45.291069389825275],[1.53378888833258,45.289935919114285],[1.532632315299802,45.29063852407292],[1.532439789768662,45.29068192844495],[1.531559323959987,45.289911173924374],[1.530562305339103,45.28964231213611],[1.529771239043692,45.28978861995332],[1.529935411223156,45.29014290938151],[1.530338881361079,45.29008336871948],[1.53040123422995,45.29062184159501],[1.530061796859245,45.290817312916325],[1.529939599111131,45.29158031009681],[1.529438840788522,45.29155481536574],[1.529557328572814,45.29069090350561],[1.527873539883793,45.29009687922935],[1.527978756377484,45.2897362256587],[1.528504794651089,45.28933517882272],[1.528617705055945,45.2891178202028],[1.528731779606149,45.28856635701693],[1.528709156395455,45.28797346967291],[1.528213067096842,45.28777241494386],[1.527763219445295,45.287994344515056],[1.527632286091057,45.28821776913776],[1.5273784366874,45.28821622840976],[1.526746232538149,45.28780713921635],[1.52695005067174,45.28699838979068],[1.527397600777618,45.28691152220085],[1.527398680370478,45.28682237777024],[1.526747830038595,45.28596094560688],[1.526479557631207,45.285974522790674],[1.525858132970614,45.285448493330755],[1.525801645643217,45.285317162889854],[1.52597920812741,45.28516370069143],[1.525968853765763,45.28487987763662],[1.525381064314679,45.28472263099599],[1.525200002516927,45.28447798422637],[1.525041094630198,45.28392652731722],[1.524810815704791,45.28390277653969],[1.524527700603071,45.28360995170649],[1.524733148720749,45.28327043683445],[1.52472320698542,45.28306767242787],[1.524509712552355,45.2829883056661],[1.524306945458377,45.28308199376686],[1.524044836339002,45.28305602018512],[1.523824777272023,45.28279104342711],[1.523666538121834,45.28274482566625],[1.523373274611015,45.2828355162543],[1.522749825177883,45.28243642581862],[1.522504976731818,45.28243319138993],[1.522380850880608,45.282351398746044],[1.522583958356207,45.282052383533305],[1.52225950780561,45.28177972034722],[1.522392789621828,45.28137171177752],[1.522342908789088,45.28113599809474],[1.521651125655958,45.28071708597142],[1.521523179038067,45.280394783629674],[1.521662333042362,45.280102129472574],[1.522479061736163,45.27956085989811],[1.522120098073894,45.27905088451711],[1.521936162577065,45.27848288176712],[1.521656214224335,45.27840893514598],[1.520893456993665,45.27855104933026],[1.520622723630917,45.27808186196645],[1.520701180780969,45.27743267227402],[1.520212627478334,45.27738478122268],[1.518560295008196,45.27672978763683],[1.518254891832589,45.276558231140605],[1.518062644530443,45.27625668690368],[1.516836564312992,45.276218817693156],[1.516197946952891,45.27639406672652],[1.512146641908695,45.27888351461713],[1.510913330690228,45.280403513660616],[1.510210742279164,45.28048781824179],[1.508554951497392,45.28043963121095],[1.508491237992941,45.28048471185339],[1.508419399163144,45.28102411094563],[1.509050187810668,45.281478316879365],[1.508633678823109,45.281978898044706],[1.508763155016172,45.282718212328476],[1.50807201533418,45.28270719344682],[1.508051483012029,45.28290234883191],[1.50763598750318,45.282935530902265],[1.507757599452333,45.28334872594869],[1.506931002639177,45.28344126242013],[1.506019712390032,45.28469443094786],[1.505966485733916,45.28501433233141],[1.505406501439732,45.28505908509234],[1.504996943350132,45.2857263571829],[1.504070533685386,45.286541619059236],[1.504588465842912,45.287256414608756],[1.503932848049918,45.28777359595279],[1.504434832974493,45.28851249508353],[1.50359544853527,45.288603035914214],[1.503084862678652,45.28913476135319],[1.501736056433057,45.28919055105068],[1.501563173041289,45.28968896780711],[1.500083207550979,45.29049317942283],[1.499598631310583,45.29090996191875],[1.499125865739892,45.291077434944185],[1.498227035782646,45.29119415649499],[1.497303672053456,45.2916527691505],[1.497065519165687,45.29267715388827],[1.496196760579591,45.292907739219395],[1.496231042288444,45.293812402693995],[1.495964121669139,45.29382142248984],[1.496005714461836,45.294171414665335],[1.49540725969682,45.293888683558954],[1.494937130890157,45.293957108888094],[1.494934898962581,45.29437045454389],[1.493862391828406,45.294159688101466],[1.492928558990273,45.2945775980409],[1.495360765988947,45.296839326797325],[1.49894247154612,45.298596784102855],[1.499667126516508,45.29931347643484],[1.50010547936595,45.299621055574775],[1.50143068024514,45.30021519916429],[1.502626561141116,45.30063648193039],[1.509218779847353,45.30355420274197],[1.511843345222968,45.30706275375818],[1.513870337561394,45.308439693198636],[1.514194040485994,45.309127546800845],[1.514509779356959,45.30944424691442],[1.516154208098539,45.30995148921336],[1.521703468751897,45.31034465427913],[1.522312041564696,45.31044995739622],[1.522747771326988,45.310671854253634],[1.525686188604619,45.31288014750297],[1.527591577325492,45.31371126980165],[1.528010582160027,45.31403649426131],[1.528249747898643,45.31450164628784],[1.52845031832621,45.31531662248803],[1.530774848857304,45.31719969366782],[1.531934076626206,45.318258698655505],[1.53412832087368,45.321657494408385],[1.53529406051702,45.32174660604202],[1.538087211304268,45.321115784888924],[1.539110122042446,45.32056626986784],[1.538734080783145,45.320010195970305],[1.539697911539987,45.31952204567606],[1.539617507834507,45.31922920360024],[1.539168089100781,45.31942687259772],[1.538764909579399,45.31932164290092],[1.538738649529135,45.31896016123351],[1.539544512557888,45.31850777482053],[1.540095913880343,45.31889952350782],[1.541147781014354,45.31831434482813],[1.541347783873591,45.31852498928202],[1.541728471190251,45.31836784351457],[1.541813543316819,45.31736118666371],[1.542684517192782,45.3172968823521],[1.542867029822763,45.317444254653736],[1.543220544234778,45.31842330020527],[1.543917899921816,45.31865302140672],[1.544238145394157,45.318610356806666],[1.545648500086474,45.31808023253447],[1.54656599517953,45.31867933945164],[1.547055284514902,45.31842001788965],[1.548476638754448,45.31736855777004],[1.548671542545547,45.31674697466071],[1.54769946476991,45.3163813309519],[1.546297550074274,45.31605242358519],[1.546907045476082,45.315637060749296],[1.547164429157949,45.31482266412139],[1.54822024538502,45.31481475258015],[1.548849308832309,45.31467611541378],[1.548989657451791,45.31438434219254],[1.54960311496448,45.314452634777496],[1.549737503794913,45.31404640821702],[1.549970610502825,45.314064739148876],[1.550350996179852,45.31396609947637],[1.550656984301994,45.31412676607729],[1.551966919901854,45.31421216960651],[1.552351768202155,45.31438375845054],[1.553132739947343,45.313850802209565],[1.553767747265195,45.31417061562337],[1.555258471415944,45.312797558219806],[1.555675491649611,45.312712882556625],[1.555893055296084,45.3119519895839],[1.555294493407995,45.311851502303554],[1.555246115240111,45.31022260977886],[1.555503458401532,45.310044012981905],[1.556263606983789,45.310409556756944],[1.555824292593053,45.31076412374122],[1.556193249399304,45.31085894412733],[1.557286470154267,45.310192198694644],[1.55679371937515,45.30950589873268],[1.557438999154949,45.30908283722551],[1.557153719381331,45.30886211672919],[1.557632776788661,45.30864764869443],[1.558343591556065,45.30889726687275],[1.558572627213501,45.308628239581935],[1.558428847190682,45.308216619005194],[1.558806328550297,45.308080089235176],[1.558759654800868,45.307861545408926],[1.559287114339534,45.30784762479526],[1.559394207126288,45.30819753174861],[1.560009408969474,45.30809738020692],[1.559719625774578,45.30731013783166],[1.559268069533902,45.30735025431024],[1.559249025068266,45.30685288386855],[1.559568360304864,45.30649675982616],[1.559360667254501,45.30613835313035],[1.559734886669856,45.3059792637696],[1.56049693414618,45.30567746707487],[1.561843517139946,45.305374174551496],[1.562461679910815,45.30515787222463],[1.562729616364224,45.304467861686774],[1.562326299173385,45.30417269049965],[1.562006714775373,45.30404520284464],[1.561867038986126,45.30436401690228],[1.561615599452918,45.30431575521192],[1.561215447914641,45.30236624033268]]]]}}]}