{"type":"FeatureCollection","features":[{"type":"Feature","properties":{"fid":92,"ID":"COMMUNE_0000000009755006","NOM":"Prignac-et-Marcamps","NOM_M":"PRIGNAC-ET-MARCAMPS","INSEE_COM":"33339","STATUT":"Commune simple","POPULATION":1457,"INSEE_CAN":"13","INSEE_ARR":"1","INSEE_DEP":"33","INSEE_REG":"75","SIREN_EPCI":"243301223"},"geometry":{"type":"MultiPolygon","coordinates":[[[[-0.491040811956199,45.00434412727516],[-0.492254780027276,45.00443760305633],[-0.49385894265573,45.002559476081],[-0.494746290424956,45.00297682059113],[-0.498550981465525,45.004948136398895],[-0.500451020050769,45.006037466768724],[-0.505921044635909,45.00722700426091],[-0.509849457930782,45.00836399134338],[-0.511513885533829,45.0089324352312],[-0.515966852406353,45.01083135233311],[-0.520424545819485,45.013325694003555],[-0.52257113480956,45.01511076520267],[-0.524758543975543,45.01721896654464],[-0.519228433809101,45.020169056685404],[-0.518997396093872,45.02021331654371],[-0.518326503487584,45.020558091223265],[-0.517016795154212,45.02092936548434],[-0.515173984604406,45.02159415838354],[-0.512573321944061,45.02298133274276],[-0.506801829209911,45.02536338155834],[-0.506455645381555,45.025679821614006],[-0.506306786712695,45.02620454489208],[-0.506671830405107,45.02939345147349],[-0.50664831183807,45.030518978295056],[-0.506478382349491,45.03608247313178],[-0.50570656354016,45.038127439605],[-0.505320218774269,45.039751984144196],[-0.505418003632833,45.04031850857755],[-0.505323032657698,45.04079106262075],[-0.504817922118922,45.04127112466069],[-0.504375852770496,45.04216919228302],[-0.504065506871278,45.042349303445995],[-0.502794081596882,45.0426308637047],[-0.500932583135436,45.04290933987299],[-0.499269637178917,45.04302922778068],[-0.498302830060974,45.04324257602428],[-0.496675183556532,45.04388675501045],[-0.495750800747148,45.04402664615714],[-0.493420045845975,45.04511825369806],[-0.49319685618421,45.04553443360981],[-0.493044205336931,45.04563475838463],[-0.491021530756095,45.04561439535292],[-0.49038028531155,45.04658443928621],[-0.489678447560128,45.04692999864152],[-0.488206656208642,45.04793597702928],[-0.488077007295838,45.048425821791525],[-0.487929288925855,45.048564738962575],[-0.487215297241687,45.048879118258924],[-0.486585579535076,45.04950539478731],[-0.485793184099145,45.04994929838724],[-0.483510560781429,45.05194314721044],[-0.481608816731752,45.052888581374276],[-0.481394055453749,45.05317649177719],[-0.480861166231329,45.05268394129445],[-0.48036722791192,45.052490291376415],[-0.479174479480345,45.052468090574266],[-0.478568608284315,45.05131267980554],[-0.478110049854642,45.05117649701685],[-0.478101013607673,45.05092893249542],[-0.478346710865447,45.0508725876718],[-0.478824226428937,45.050209659309296],[-0.478899664860514,45.04997117131008],[-0.478979365544132,45.04910617344365],[-0.478718316890574,45.04881331033543],[-0.478757031873224,45.04853631460686],[-0.479817719847683,45.04823548763223],[-0.480653300833654,45.04768843456268],[-0.480565312863737,45.046764688851496],[-0.479837704489956,45.04622685291667],[-0.479413474646366,45.04574261834119],[-0.478767037462077,45.0452626234393],[-0.478814140238895,45.045120554752366],[-0.479544262326476,45.044513716978756],[-0.481184347133021,45.04347375236986],[-0.481884705206025,45.04149070207134],[-0.484436082563938,45.042021914498],[-0.485844774284114,45.041902099841245],[-0.485937367900421,45.04204159950318],[-0.486618587117664,45.04169220253873],[-0.486779748152513,45.04121849709186],[-0.487242834029392,45.04097957447452],[-0.488769170472284,45.04087135732105],[-0.489068160332965,45.04071237520642],[-0.48921752538139,45.040376027569025],[-0.48891621477,45.04004930152436],[-0.488278245528422,45.03982775928673],[-0.486930753297866,45.03958248016743],[-0.484685741104952,45.039356276672876],[-0.484325772831172,45.03914853980906],[-0.483709138391148,45.038472970090744],[-0.482347047194952,45.03789012160694],[-0.482830290313249,45.037566769360424],[-0.483557032015616,45.03668332084819],[-0.483720767066386,45.035475013004266],[-0.484039405895423,45.03452953005983],[-0.484070829897635,45.033523641212845],[-0.483120029830602,45.033338903845966],[-0.481481095950957,45.032839518583245],[-0.478926561053453,45.03196407222571],[-0.478248657979278,45.03164999482377],[-0.478082390207792,45.031285676290516],[-0.478871002307324,45.030395819609964],[-0.479704666597092,45.02920893577508],[-0.476989955447887,45.02861604715717],[-0.474829856252734,45.0275389273876],[-0.47336817922869,45.02708616842669],[-0.473595614538319,45.0267167652558],[-0.474509479957553,45.0260429365343],[-0.475950616060841,45.025387778919956],[-0.476109385967845,45.02244022582402],[-0.475625209417056,45.022030860856766],[-0.474349579752391,45.020601659445],[-0.476566825865836,45.02020975207275],[-0.477716930710406,45.020374788831425],[-0.478279265058175,45.01760478221719],[-0.479931159897346,45.01782981104697],[-0.480523529358156,45.016566649112825],[-0.481540785522812,45.01727294801768],[-0.483486585987131,45.015380689881056],[-0.485869851786498,45.01329263421103],[-0.486425057329732,45.013659171140894],[-0.487568034403616,45.01254904751516],[-0.488704954232608,45.01181132017358],[-0.489070432402964,45.01025510345586],[-0.489094626631064,45.00950179521463],[-0.490197419365204,45.00831990014193],[-0.491040811956199,45.00434412727516]]]]}},{"type":"Feature","properties":{"fid":103,"ID":"COMMUNE_0000000009754999","NOM":"Saint-Laurent-d'Arce","NOM_M":"SAINT-LAURENT-D'ARCE","INSEE_COM":"33425","STATUT":"Commune simple","POPULATION":1553,"INSEE_CAN":"20","INSEE_ARR":"1","INSEE_DEP":"33","INSEE_REG":"75","SIREN_EPCI":"243301223"},"geometry":{"type":"MultiPolygon","coordinates":[[[[-0.448501062379259,45.034018668446485],[-0.448836609152586,45.03375051518314],[-0.449883375585745,45.03341164874216],[-0.450169650707698,45.03296296749671],[-0.450863782801853,45.03076043778068],[-0.451408961049341,45.029646718180985],[-0.451518288847306,45.02923506436995],[-0.451920573269854,45.028648494631],[-0.452459367655429,45.02753496726758],[-0.453175502818667,45.02670072649027],[-0.453135332293429,45.026646997261615],[-0.45377418088823,45.026352291396165],[-0.454532132357631,45.02576368382192],[-0.455613861234383,45.026590784001584],[-0.456161294610373,45.026009603453055],[-0.457025509982878,45.02629819339202],[-0.456868144786704,45.02648693611462],[-0.457239529107834,45.02661509107254],[-0.457639614905007,45.026672957147504],[-0.458738966793699,45.026653211791015],[-0.459429991402383,45.02675069526292],[-0.461261298534978,45.027346249880914],[-0.461387676730983,45.027499135830816],[-0.461971734486014,45.02771619220124],[-0.463300893942893,45.02765140014922],[-0.4645694069231,45.02790031245201],[-0.46544420016975,45.0277838491676],[-0.465850273332275,45.02830744584405],[-0.466923768889095,45.02739799084869],[-0.470140669565873,45.029226397684496],[-0.470840977885321,45.02943167279972],[-0.471441742033754,45.02948683607086],[-0.472361304822109,45.02978439982852],[-0.473750629566888,45.02995103154843],[-0.473896979896092,45.029196619700755],[-0.473582081769032,45.02879187293463],[-0.47336817922869,45.02708616842669],[-0.474829856252734,45.0275389273876],[-0.476989955447887,45.02861604715717],[-0.479704666597092,45.02920893577508],[-0.478871002307324,45.030395819609964],[-0.478082390207792,45.031285676290516],[-0.478248657979278,45.03164999482377],[-0.478926561053453,45.03196407222571],[-0.481481095950957,45.032839518583245],[-0.483120029830602,45.033338903845966],[-0.484070829897635,45.033523641212845],[-0.484039405895423,45.03452953005983],[-0.483720767066386,45.035475013004266],[-0.483557032015616,45.03668332084819],[-0.482830290313249,45.037566769360424],[-0.482347047194952,45.03789012160694],[-0.483709138391148,45.038472970090744],[-0.484325772831172,45.03914853980906],[-0.484685741104952,45.039356276672876],[-0.486930753297866,45.03958248016743],[-0.488278245528422,45.03982775928673],[-0.48891621477,45.04004930152436],[-0.48921752538139,45.040376027569025],[-0.489068160332965,45.04071237520642],[-0.488769170472284,45.04087135732105],[-0.487242834029392,45.04097957447452],[-0.486779748152513,45.04121849709186],[-0.486618587117664,45.04169220253873],[-0.485937367900421,45.04204159950318],[-0.485844774284114,45.041902099841245],[-0.484436082563938,45.042021914498],[-0.481884705206025,45.04149070207134],[-0.481184347133021,45.04347375236986],[-0.479544262326476,45.044513716978756],[-0.478814140238895,45.045120554752366],[-0.478767037462077,45.0452626234393],[-0.479413474646366,45.04574261834119],[-0.479837704489956,45.04622685291667],[-0.480565312863737,45.046764688851496],[-0.480653300833654,45.04768843456268],[-0.479817719847683,45.04823548763223],[-0.478757031873224,45.04853631460686],[-0.478718316890574,45.04881331033543],[-0.478979365544132,45.04910617344365],[-0.478899664860514,45.04997117131008],[-0.478824226428937,45.050209659309296],[-0.478346710865447,45.0508725876718],[-0.478101013607673,45.05092893249542],[-0.478110049854642,45.05117649701685],[-0.478568608284315,45.05131267980554],[-0.479174479480345,45.052468090574266],[-0.48036722791192,45.052490291376415],[-0.480861166231329,45.05268394129445],[-0.481394055453749,45.05317649177719],[-0.480994156728405,45.05449402599951],[-0.480920452479363,45.05525068814194],[-0.480337713055334,45.0560620186726],[-0.480067288737729,45.05676354366179],[-0.479805515032302,45.056888890118444],[-0.479510243875753,45.056884599634834],[-0.478882512872068,45.05713674213534],[-0.478688218514161,45.057324868229855],[-0.478231121149602,45.057540131022414],[-0.477039517173303,45.05702668034653],[-0.476153836958105,45.05936877786681],[-0.475060133541853,45.05910099670019],[-0.473881838054508,45.058965626131],[-0.47268149730189,45.05900757792247],[-0.468672171250385,45.05970575801449],[-0.467150914221193,45.059391736260665],[-0.464974659019932,45.059978608157486],[-0.463818004337549,45.06013085981414],[-0.462458912506345,45.06005326582444],[-0.462212657787833,45.060101480025004],[-0.462257735518902,45.060583151246796],[-0.461588399647874,45.06055529491453],[-0.460764889689798,45.06064578488114],[-0.459656759854001,45.06045220518293],[-0.458315545986115,45.060375807574225],[-0.456878208645393,45.060780943634256],[-0.456469386569773,45.06097658997303],[-0.456001964611874,45.06106770583584],[-0.455579511314086,45.06102223623413],[-0.455339536902113,45.06106933877476],[-0.453737603841596,45.061754422662375],[-0.453111802652033,45.061875673669654],[-0.452952209549017,45.06159763010633],[-0.454706397512902,45.06090693244423],[-0.455074063852716,45.06072428614202],[-0.45536272326328,45.06045666901495],[-0.456317643318162,45.05880928216114],[-0.456582432456933,45.05766187919546],[-0.45653827763377,45.057276612937606],[-0.455908452021071,45.05455365711681],[-0.455784815681338,45.0544664686153],[-0.454972725323566,45.05449347610656],[-0.454685384266894,45.05428789536455],[-0.453934217198948,45.0516362935253],[-0.453682044711196,45.051032168950954],[-0.453780088113317,45.04804869778055],[-0.453987354923354,45.04708153614234],[-0.453949273186885,45.04597057765131],[-0.453027706946573,45.04535477717935],[-0.451486263158992,45.0429953548134],[-0.451220667061817,45.04277016754467],[-0.449992685022283,45.042317057165256],[-0.449460646544913,45.041914467801114],[-0.447717603007012,45.03991003201434],[-0.448304503720527,45.03819210535699],[-0.448405281560717,45.037476099592595],[-0.448501062379259,45.034018668446485]]]]}},{"type":"Feature","properties":{"fid":487,"ID":"COMMUNE_0000000009755002","NOM":"Saint-André-de-Cubzac","NOM_M":"SAINT-ANDRE-DE-CUBZAC","INSEE_COM":"33366","STATUT":"Commune simple","POPULATION":12786,"INSEE_CAN":"20","INSEE_ARR":"1","INSEE_DEP":"33","INSEE_REG":"75","SIREN_EPCI":"243301223"},"geometry":{"type":"MultiPolygon","coordinates":[[[[-0.405530177391295,44.975496750989656],[-0.406025634804435,44.975000329046296],[-0.405951540733596,44.974721422571065],[-0.406867269503894,44.97424636635335],[-0.406958586848808,44.97343067958016],[-0.407259278763913,44.97311415289837],[-0.407478641926104,44.972671245566865],[-0.407982552010706,44.97241878196679],[-0.408474150484521,44.97194319411336],[-0.408993718559979,44.971635271940826],[-0.409126048279977,44.97109769942834],[-0.409350276079895,44.97083938622903],[-0.410696625720042,44.970411469748285],[-0.412474762436585,44.970215411403636],[-0.412626183214237,44.97099211103795],[-0.412573230021613,44.97218603585978],[-0.412667286530761,44.97233365051994],[-0.416114454426174,44.972773911776436],[-0.417444209659653,44.97282316403434],[-0.417807666794313,44.973369840841606],[-0.419119329426212,44.974370409151504],[-0.420105516058928,44.97534222453577],[-0.421958812457394,44.976228768262466],[-0.423490982318478,44.97670069926004],[-0.424423735483082,44.97571668472504],[-0.42455475314169,44.97580367192073],[-0.424874439423734,44.97584068754642],[-0.425050623436928,44.97556579638405],[-0.425240773310218,44.975560839466446],[-0.427454278199878,44.97672999329512],[-0.428361721502588,44.975852166347224],[-0.428668912165651,44.97566425200815],[-0.429284295835413,44.976549194006225],[-0.429474448670389,44.976544229850795],[-0.429845060166533,44.97635525711582],[-0.430891694222321,44.97700428537212],[-0.430719721619144,44.977368277400394],[-0.431766384722011,44.97801729761578],[-0.432087577034481,44.978099307596615],[-0.432704767549591,44.97776933269484],[-0.43309633011041,44.97798435015974],[-0.433257459650276,44.978251543311806],[-0.43352432742441,44.97840011467161],[-0.43356654289653,44.978550216099315],[-0.436382173324285,44.97903550374995],[-0.436835915379551,44.9792494882524],[-0.437474076516737,44.97932348725723],[-0.438692784278041,44.97960843992995],[-0.44087935584468,44.98022842721793],[-0.441117403826728,44.97990743369683],[-0.441303307433221,44.97981245862825],[-0.443276109158668,44.98017675929152],[-0.445422141356867,44.980797013861014],[-0.445735124472388,44.98053857595341],[-0.446755926496094,44.980887254157174],[-0.447450894046413,44.98101711458568],[-0.447628540154541,44.9807881016663],[-0.447976551984628,44.98068628599703],[-0.452589201995773,44.98137678680186],[-0.452766922118648,44.98096391156792],[-0.453297061747654,44.98103576813797],[-0.453407229460454,44.980515940796046],[-0.455431316953825,44.980351215288344],[-0.456867166711439,44.98057244624383],[-0.460338530040211,44.98138913105387],[-0.461405853533414,44.98156409437897],[-0.46179444089741,44.98103018094761],[-0.462554404424258,44.98114260349197],[-0.465185356642126,44.98079116959087],[-0.466600844952134,44.98045684718583],[-0.467957413221214,44.98054522252205],[-0.472816297066792,44.980287216986206],[-0.472871685653777,44.986197633562554],[-0.474247363490123,44.993428602054834],[-0.474637083524976,44.994612379135525],[-0.474919072856694,44.995881535268296],[-0.476656991686869,44.99823895791059],[-0.477990503841862,44.999748313590935],[-0.478739656029183,45.00074509861696],[-0.480222663984355,45.00155128751567],[-0.482447457218639,45.002559548741154],[-0.483205913379432,45.00282600262974],[-0.480626508064644,45.00590160648158],[-0.478556634563747,45.007163216350826],[-0.478606467217685,45.00774026105034],[-0.478838666866608,45.00836928281491],[-0.47721480206423,45.00889771765077],[-0.474957840746903,45.00946122763551],[-0.473003300453858,45.00951415508748],[-0.471137061308387,45.00992569315547],[-0.470910335500349,45.00967050447885],[-0.466987443914233,45.011317742888586],[-0.465600852510989,45.010243403646285],[-0.464379424707343,45.008778173072805],[-0.461333487886928,45.00973367805087],[-0.460599875771713,45.01003318355035],[-0.459847630676127,45.01003134739405],[-0.459423496373084,45.01015809435008],[-0.457913542899199,45.010724155237426],[-0.456573761346705,45.01141288360535],[-0.454261384659832,45.0115153505462],[-0.4488185582868,45.01205282586406],[-0.448207408909601,45.011969930850015],[-0.447884849461736,45.01228184266151],[-0.443899317565305,45.01500986303789],[-0.444216072592979,45.01540831702033],[-0.443259578752874,45.01642477672005],[-0.443079172540015,45.01673497749629],[-0.443845065318467,45.0167094702214],[-0.444635799986494,45.01861543935988],[-0.443188562044936,45.01871971809673],[-0.442442150658791,45.018690543117344],[-0.441956426118634,45.01880921258097],[-0.440934664086664,45.01864164407152],[-0.440460893597503,45.01870676438267],[-0.433854339798878,45.017272420318484],[-0.431977275745984,45.0163966635558],[-0.431119738425174,45.016087855699865],[-0.430136473876959,45.01702391010859],[-0.427747035802582,45.01566459982599],[-0.427554049604862,45.015646212363926],[-0.42704285731597,45.01559797285401],[-0.424711928509547,45.01537955411623],[-0.424460674201839,45.01526021523847],[-0.423478886318027,45.01433152705833],[-0.422433535968282,45.01354718030058],[-0.422014539496819,45.01326086270066],[-0.421422963774281,45.01268695365941],[-0.42097833450784,45.0121265477942],[-0.420761385785188,45.012069232060526],[-0.420147601941766,45.01156809790687],[-0.419250872146753,45.01109368212576],[-0.418431214392872,45.01046638735],[-0.417261903240547,45.01012560218084],[-0.41689769791099,45.00965373505999],[-0.416195452160437,45.00928417293414],[-0.415559287424642,45.00883146800987],[-0.414625400244308,45.00976676462751],[-0.412892649961526,45.00947747440051],[-0.411599725511928,45.009150337237664],[-0.411976278705041,45.00851244198801],[-0.411955970236074,45.00840852360206],[-0.408398296826806,45.00758662951455],[-0.408332965353834,45.00745254764674],[-0.408480109345785,45.006906408403275],[-0.407393794263462,45.006695459550734],[-0.407741831209008,45.00590164207236],[-0.406862611089355,45.00541938711281],[-0.405475231972283,45.00541680935815],[-0.403828359269977,45.006098065031516],[-0.402567808195942,45.00611319867605],[-0.399863245580288,45.00582098956215],[-0.399770324347744,45.00606895904038],[-0.397591118509153,45.005850758428714],[-0.397224685816949,45.00573668179924],[-0.396399201242541,45.00605478243104],[-0.396304598394793,45.00694536244586],[-0.395760977819799,45.00682136992645],[-0.396022767350948,45.00650876922662],[-0.396034048965794,45.0062759127428],[-0.395089435865642,45.00569823347446],[-0.393453025485192,45.00504522424161],[-0.393357341706171,45.00493368980033],[-0.393588417869096,45.004638253814264],[-0.393605748788448,45.00444216296328],[-0.393065583807104,45.00202718392528],[-0.393349515796701,45.00107405728568],[-0.393707379660637,45.00067021274743],[-0.393473731321239,44.999728370733656],[-0.3929546951066,44.99914940904986],[-0.392852321456862,44.99875960608352],[-0.392509214244079,44.99823295325965],[-0.392489649810635,44.99782620502659],[-0.392817049248744,44.997213311573596],[-0.392926902299004,44.997055854250455],[-0.393623490563843,44.99668763742405],[-0.394319730237179,44.9967538080417],[-0.394589852362341,44.99662119736876],[-0.394407152703208,44.99649880219522],[-0.394396927603083,44.99628823200395],[-0.394592899658159,44.99583345005952],[-0.395024304934144,44.99534444493581],[-0.395265370575768,44.99460710876932],[-0.396379990403254,44.993425839289905],[-0.396468216742959,44.99318432516452],[-0.396223226920389,44.99264207113141],[-0.395804120889303,44.99220246377085],[-0.39602122306754,44.99176145313054],[-0.397506462940153,44.991331273215714],[-0.398474901282495,44.99046356023923],[-0.399242265949034,44.98996607217008],[-0.400546469005585,44.98948370605118],[-0.40102044653615,44.9889654362034],[-0.400875549765328,44.988461586544865],[-0.400245578013939,44.98812577527213],[-0.399935449153129,44.9866572786945],[-0.400127236600753,44.98655318311411],[-0.400181755655802,44.9864262483714],[-0.400149056577022,44.98615958988624],[-0.400412203982615,44.9850556762211],[-0.400216540137389,44.984301041508836],[-0.400381687204691,44.98321454423002],[-0.400658022863617,44.98234904654048],[-0.400990409666073,44.98186304370434],[-0.400973727973487,44.98152560179846],[-0.400690061274335,44.981391887500685],[-0.400548682505418,44.980945608731744],[-0.400566184569772,44.97966536211004],[-0.400738446909575,44.97934467166477],[-0.401440270394193,44.97846074995583],[-0.401918081068884,44.978111784121396],[-0.401912966830723,44.97798577186819],[-0.402242099012976,44.97786485251197],[-0.402231421389662,44.97762635983858],[-0.403079294440023,44.97714079636405],[-0.403624975501378,44.97655092571365],[-0.403894496266704,44.97638946938509],[-0.40438422776292,44.97627894677031],[-0.404767788467124,44.97603018401669],[-0.405200038627837,44.97593493607744],[-0.405530177391295,44.975496750989656]]]]}},{"type":"Feature","properties":{"fid":938,"ID":"COMMUNE_0000000009755005","NOM":"Val de Virvée","NOM_M":"VAL DE VIRVEE","INSEE_COM":"33018","STATUT":"Commune simple","POPULATION":3744,"INSEE_CAN":"20","INSEE_ARR":"1","INSEE_DEP":"33","INSEE_REG":"75","SIREN_EPCI":"243301223"},"geometry":{"type":"MultiPolygon","coordinates":[[[[-0.357820441027339,45.000426507172975],[-0.357960532372376,44.99994554874325],[-0.35927052674334,44.99806846638824],[-0.360741279574279,44.997241802771455],[-0.361858851449483,44.996266284060475],[-0.362363672400265,44.99646640821125],[-0.362764146953384,44.99653630890959],[-0.364193328776392,44.99652012405065],[-0.364900986988849,44.99673482886797],[-0.365834021617398,44.99729687777998],[-0.366037878124773,44.99732855851779],[-0.366830662858553,44.9960014379336],[-0.367471078496973,44.99558372218448],[-0.3679189494362,44.995512484315505],[-0.369534675320728,44.996106096392644],[-0.371809548910127,44.99650847802077],[-0.374030589625242,44.99730266534931],[-0.374919221244719,44.99617804650781],[-0.375667692881284,44.99473053966855],[-0.376116489221384,44.994822356848445],[-0.376506713780697,44.99512232464212],[-0.376866518318838,44.99559173877457],[-0.377618896663423,44.99599966470741],[-0.377868405110875,44.995903769680645],[-0.378171715635361,44.995626000267464],[-0.380154000922626,44.996756256281216],[-0.381151472546543,44.996994494711686],[-0.382093204923093,44.99731913228777],[-0.384678268188379,44.99873198300132],[-0.385787189850497,44.99904789831349],[-0.386267182774086,44.99927661062093],[-0.389470442816704,44.99994506449073],[-0.391051083086785,45.000456534001145],[-0.3929546951066,44.99914940904986],[-0.393473731321239,44.999728370733656],[-0.393707379660637,45.00067021274743],[-0.393349515796701,45.00107405728568],[-0.393065583807104,45.00202718392528],[-0.393605748788448,45.00444216296328],[-0.393588417869096,45.004638253814264],[-0.393357341706171,45.00493368980033],[-0.393453025485192,45.00504522424161],[-0.395089435865642,45.00569823347446],[-0.396034048965794,45.0062759127428],[-0.396022767350948,45.00650876922662],[-0.395760977819799,45.00682136992645],[-0.396304598394793,45.00694536244586],[-0.396399201242541,45.00605478243104],[-0.397224685816949,45.00573668179924],[-0.397591118509153,45.005850758428714],[-0.399770324347744,45.00606895904038],[-0.399863245580288,45.00582098956215],[-0.402567808195942,45.00611319867605],[-0.403828359269977,45.006098065031516],[-0.405475231972283,45.00541680935815],[-0.406862611089355,45.00541938711281],[-0.407741831209008,45.00590164207236],[-0.407393794263462,45.006695459550734],[-0.408480109345785,45.006906408403275],[-0.408332965353834,45.00745254764674],[-0.408398296826806,45.00758662951455],[-0.411955970236074,45.00840852360206],[-0.411976278705041,45.00851244198801],[-0.411599725511928,45.009150337237664],[-0.412892649961526,45.00947747440051],[-0.414625400244308,45.00976676462751],[-0.415559287424642,45.00883146800987],[-0.416195452160437,45.00928417293414],[-0.41689769791099,45.00965373505999],[-0.417261903240547,45.01012560218084],[-0.418431214392872,45.01046638735],[-0.419250872146753,45.01109368212576],[-0.420147601941766,45.01156809790687],[-0.420761385785188,45.012069232060526],[-0.42097833450784,45.0121265477942],[-0.421422963774281,45.01268695365941],[-0.422014539496819,45.01326086270066],[-0.422433535968282,45.01354718030058],[-0.423478886318027,45.01433152705833],[-0.424460674201839,45.01526021523847],[-0.424711928509547,45.01537955411623],[-0.42704285731597,45.01559797285401],[-0.425749376985045,45.01705093234691],[-0.424635206171875,45.018507368560385],[-0.423236241745672,45.021374863421585],[-0.423098165841277,45.022109105014806],[-0.423336077002339,45.02282006349363],[-0.423309963038243,45.02303716142132],[-0.422462590014357,45.02443309314059],[-0.422051564031601,45.0255254043977],[-0.422159425383471,45.02593845425038],[-0.422521292808044,45.02645274048311],[-0.422854523520823,45.02672727883888],[-0.420411298326557,45.03091650657339],[-0.418796000368664,45.03393388285737],[-0.416634441946568,45.03329550423549],[-0.416301204806603,45.033853679724196],[-0.415555539176394,45.033839616554225],[-0.415290958575018,45.034794023477126],[-0.414814074065477,45.03456081964921],[-0.414583286322725,45.03571516109814],[-0.414117569013543,45.03574837425696],[-0.414354679155873,45.036738757461286],[-0.412693865786149,45.03707988966639],[-0.41202081985591,45.036694072569695],[-0.411070211841959,45.03757216462122],[-0.409576814306903,45.03851283936031],[-0.409288432917846,45.038786633078374],[-0.407884251537708,45.03739488853267],[-0.406982385626446,45.03788482652075],[-0.404009405624855,45.035400102748184],[-0.402547473896943,45.03497797507554],[-0.402512206445899,45.034586121482214],[-0.401376019766915,45.03446223707735],[-0.399339504534648,45.034037801159734],[-0.399712310184651,45.032956667679116],[-0.396937641717055,45.03201220467601],[-0.396722969818569,45.03247477247074],[-0.395751328942767,45.03215024631183],[-0.393499541927967,45.03265872481297],[-0.393470452195266,45.03211617935619],[-0.393121312304675,45.03147254327222],[-0.392638024783353,45.030859131306244],[-0.391887485602064,45.03038634196874],[-0.391521664399103,45.03005412902401],[-0.389246221461382,45.0298774211419],[-0.388302178264012,45.029713309254795],[-0.387981679915859,45.0296464641013],[-0.386464983608525,45.02900770855439],[-0.386336365608528,45.02963345767847],[-0.386871383173861,45.030430969484264],[-0.386947394156546,45.03069992067528],[-0.386244464612649,45.03151708092516],[-0.386212321264328,45.0318470009755],[-0.386376300327637,45.03212048566178],[-0.386721594739148,45.032302837536676],[-0.387036875259794,45.03264020905749],[-0.38729173516065,45.03315515514088],[-0.38692911534754,45.0343035206633],[-0.386486688398786,45.034868525519194],[-0.386100143860637,45.03513893442753],[-0.385827216194382,45.03569066842523],[-0.385667059947602,45.035795575037305],[-0.385776569728252,45.036933177934266],[-0.385663803774925,45.03756925915071],[-0.386226200987309,45.03932213160982],[-0.386145777742166,45.03979951750006],[-0.385791415573537,45.040203226253865],[-0.385778958207937,45.040669532254334],[-0.385211832950293,45.04119146110383],[-0.38396756234709,45.04123650613391],[-0.382918996967913,45.04136480934728],[-0.382434038244603,45.04162738057314],[-0.381292707103945,45.04202975160404],[-0.380655199230012,45.042418612128735],[-0.379621227097489,45.04266269635277],[-0.379103852368118,45.04287306516634],[-0.378928398132305,45.04301988135455],[-0.378378139814414,45.04316996255983],[-0.377984102837773,45.043444173207064],[-0.377244871938931,45.04395956580169],[-0.375891863783432,45.04416282556951],[-0.374896708021163,45.04465081594753],[-0.374309929266317,45.044828118586835],[-0.373968341382963,45.04470779751543],[-0.373417615446974,45.044639775242146],[-0.372899207114215,45.04426436048115],[-0.372421312405312,45.044139152944574],[-0.372104077395558,45.04452817184594],[-0.371979291714496,45.044524742321556],[-0.371789240929324,45.04436647958503],[-0.371405438651797,45.044368191330825],[-0.370683351401089,45.04472620912459],[-0.370052444719562,45.0447831622753],[-0.369225327010369,45.04476944830796],[-0.368688300350925,45.044591041084416],[-0.367771680758314,45.04469537921321],[-0.365732478484407,45.044629084549776],[-0.364271933734714,45.0448417613013],[-0.363562904239035,45.04480460979754],[-0.362878298697622,45.04496227695446],[-0.362446264488934,45.04519792506413],[-0.362389659514177,45.045334815273335],[-0.362410901921338,45.047359176542905],[-0.359740309815487,45.047280296579906],[-0.357893367162563,45.04686018952803],[-0.357308377714759,45.04679312105397],[-0.357019374185642,45.047061382537116],[-0.355779655595145,45.04693023686599],[-0.353595367257664,45.04660764509491],[-0.350473119665239,45.04601224617397],[-0.35044498064348,45.04586079081305],[-0.350725741851894,45.04543328346222],[-0.352054178372651,45.043884683963064],[-0.352421591821044,45.04333380198838],[-0.353202680765769,45.041795362029866],[-0.356527178430147,45.03633663676624],[-0.357238740138056,45.03646026822335],[-0.357538240642774,45.03638905097268],[-0.357868919988796,45.03592667340328],[-0.357726916004985,45.03421687916397],[-0.357543826860002,45.0337285465022],[-0.357139615616383,45.033367644481814],[-0.357134301349411,45.033173146194414],[-0.357355698488498,45.03283843175137],[-0.358833409765387,45.031836771591124],[-0.359429529827163,45.03088513757377],[-0.359518646910813,45.03054900422147],[-0.359452127773066,45.03003372485355],[-0.359513892657988,45.029347851433315],[-0.360429679857987,45.02853525830051],[-0.360707820937985,45.028087975626114],[-0.361310921777205,45.026343966804625],[-0.361961100465198,45.02489772961118],[-0.362009887961458,45.024017588128885],[-0.361859108358326,45.02326333564931],[-0.361745894559829,45.02326134890575],[-0.361862535203509,45.022854989879875],[-0.362172871617588,45.022203960994965],[-0.362809114020134,45.02145746831217],[-0.362909106822096,45.02121833262951],[-0.36267771252419,45.0207720238464],[-0.362449450866083,45.02065275446169],[-0.362207734415877,45.0203094932805],[-0.361898482969782,45.02008993376947],[-0.362208717430513,45.019733599071486],[-0.362358273217783,45.019367699991435],[-0.362157431830412,45.01919713463518],[-0.362276174916771,45.01855099358501],[-0.360181986241687,45.018378144940534],[-0.360333881330476,45.017564284470275],[-0.359439648846456,45.017441690212294],[-0.358794327879102,45.017232269880225],[-0.358021779848689,45.01581277831759],[-0.357610921190483,45.01552958681295],[-0.357025827712056,45.01545532090485],[-0.356677066654281,45.01516935130011],[-0.356521223569951,45.01460449945337],[-0.355654950980957,45.013781708225025],[-0.354130931886164,45.01351585303769],[-0.354015437936306,45.012860564497984],[-0.354853904879931,45.012774903719084],[-0.355562478726929,45.01259943051635],[-0.356587587006511,45.01217288356465],[-0.357331230042094,45.011607926897504],[-0.356732509051752,45.01107266193411],[-0.356538411114692,45.01071714054215],[-0.356774374764603,45.010351346731085],[-0.35567281942883,45.00988351730778],[-0.355680414811577,45.00956516788709],[-0.355083283601699,45.0092677617614],[-0.355060958818815,45.00898005418048],[-0.355285184219204,45.00869392252914],[-0.355626817258568,45.00862864529662],[-0.356763463733232,45.007351611138155],[-0.356225730624823,45.00713352660783],[-0.356455043710044,45.006784155520876],[-0.356021646946406,45.006589957758585],[-0.355838758952479,45.00639991694054],[-0.35626565546374,45.00563814879807],[-0.357027379302041,45.00467702465986],[-0.358116701187475,45.00244343778663],[-0.357330954667786,45.00192283823815],[-0.357465739249257,45.001459163247254],[-0.357758391424656,45.00095918091646],[-0.357820441027339,45.000426507172975]]]]}},{"type":"Feature","properties":{"fid":941,"ID":"COMMUNE_0000000009755004","NOM":"Gauriaguet","NOM_M":"GAURIAGUET","INSEE_COM":"33183","STATUT":"Commune simple","POPULATION":1537,"INSEE_CAN":"20","INSEE_ARR":"1","INSEE_DEP":"33","INSEE_REG":"75","SIREN_EPCI":"243301223"},"geometry":{"type":"MultiPolygon","coordinates":[[[[-0.40869628483308,45.05869392917755],[-0.407616829765448,45.05867470029136],[-0.406476006451717,45.05854558635939],[-0.403686255744997,45.05921489871957],[-0.402005365266349,45.05950960120831],[-0.400520183212714,45.059614451030285],[-0.398173994341789,45.059884350478434],[-0.398087085312773,45.060065445159054],[-0.39428791264374,45.06013356204556],[-0.393718981828565,45.060040955267176],[-0.392723320762258,45.05930706290548],[-0.391722438099022,45.05873824493125],[-0.39170528392858,45.05809890123252],[-0.391278148568242,45.0571358911469],[-0.391186118458912,45.05471621697961],[-0.391033168573192,45.05424863702746],[-0.390974637473392,45.05284271638954],[-0.390517880030672,45.05201939615637],[-0.390525124786612,45.051614528663734],[-0.390173138795818,45.0515756810245],[-0.388701540851529,45.05242617290047],[-0.387809763322998,45.0527534189843],[-0.385952485956982,45.05221151385052],[-0.383794794802163,45.05248259388455],[-0.380692885002619,45.05143589554591],[-0.380958912351096,45.04961097145453],[-0.381453406719093,45.04794853538123],[-0.381541770656889,45.04709690903407],[-0.380198661511854,45.04708633156624],[-0.379104226943547,45.04437356908535],[-0.377984102837773,45.043444173207064],[-0.378378139814414,45.04316996255983],[-0.378928398132305,45.04301988135455],[-0.379103852368118,45.04287306516634],[-0.379621227097489,45.04266269635277],[-0.380655199230012,45.042418612128735],[-0.381292707103945,45.04202975160404],[-0.382434038244603,45.04162738057314],[-0.382918996967913,45.04136480934728],[-0.38396756234709,45.04123650613391],[-0.385211832950293,45.04119146110383],[-0.385778958207937,45.040669532254334],[-0.385791415573537,45.040203226253865],[-0.386145777742166,45.03979951750006],[-0.386226200987309,45.03932213160982],[-0.385663803774925,45.03756925915071],[-0.385776569728252,45.036933177934266],[-0.385667059947602,45.035795575037305],[-0.385827216194382,45.03569066842523],[-0.386100143860637,45.03513893442753],[-0.386486688398786,45.034868525519194],[-0.38692911534754,45.0343035206633],[-0.38729173516065,45.03315515514088],[-0.387036875259794,45.03264020905749],[-0.386721594739148,45.032302837536676],[-0.386376300327637,45.03212048566178],[-0.386212321264328,45.0318470009755],[-0.386244464612649,45.03151708092516],[-0.386947394156546,45.03069992067528],[-0.386871383173861,45.030430969484264],[-0.386336365608528,45.02963345767847],[-0.386464983608525,45.02900770855439],[-0.387981679915859,45.0296464641013],[-0.388302178264012,45.029713309254795],[-0.389246221461382,45.0298774211419],[-0.391521664399103,45.03005412902401],[-0.391887485602064,45.03038634196874],[-0.392638024783353,45.030859131306244],[-0.393121312304675,45.03147254327222],[-0.393470452195266,45.03211617935619],[-0.393499541927967,45.03265872481297],[-0.395751328942767,45.03215024631183],[-0.396722969818569,45.03247477247074],[-0.396937641717055,45.03201220467601],[-0.399712310184651,45.032956667679116],[-0.399339504534648,45.034037801159734],[-0.401376019766915,45.03446223707735],[-0.402512206445899,45.034586121482214],[-0.402547473896943,45.03497797507554],[-0.404009405624855,45.035400102748184],[-0.406982385626446,45.03788482652075],[-0.407884251537708,45.03739488853267],[-0.409288432917846,45.038786633078374],[-0.409582693004711,45.03915162722635],[-0.409280211033383,45.04021622651446],[-0.409938164161626,45.04031232926716],[-0.410558884331535,45.04207052723695],[-0.411364570859135,45.04223329243209],[-0.411299280007629,45.04247592075514],[-0.408856420137392,45.04586186184775],[-0.409849734934022,45.04616128744028],[-0.410189183643858,45.04618243178193],[-0.410035764184215,45.04646020326091],[-0.407662884298516,45.050122449266524],[-0.406481731311188,45.05139507995856],[-0.405949896702341,45.05166009055738],[-0.406247330751852,45.05418523771072],[-0.406911677490518,45.05415409500401],[-0.40707502592111,45.056293114923896],[-0.407762164288667,45.05644782450156],[-0.407821527506756,45.05700476861659],[-0.408513404292418,45.057341376955854],[-0.40869628483308,45.05869392917755]]]]}},{"type":"Feature","properties":{"fid":1282,"ID":"COMMUNE_0000000009755003","NOM":"Peujard","NOM_M":"PEUJARD","INSEE_COM":"33321","STATUT":"Commune simple","POPULATION":2191,"INSEE_CAN":"20","INSEE_ARR":"1","INSEE_DEP":"33","INSEE_REG":"75","SIREN_EPCI":"243301223"},"geometry":{"type":"MultiPolygon","coordinates":[[[[-0.451979354195049,45.062606553857265],[-0.451093890054767,45.06272412667737],[-0.450736947565787,45.06287488302787],[-0.450275950572212,45.06294684876485],[-0.449229804440529,45.0634902689731],[-0.44848398348427,45.06356293844676],[-0.448049892513694,45.063762038818645],[-0.447776947928773,45.06379031801908],[-0.446762765227373,45.06353241548244],[-0.444295184269976,45.063400583286935],[-0.442455087534013,45.06302939508196],[-0.441157547752625,45.06298118054386],[-0.440889381841897,45.06288041709414],[-0.440727599221487,45.06268984619364],[-0.440534221699449,45.06264715433126],[-0.439613427568847,45.06285224631026],[-0.438681451306974,45.06285489583432],[-0.438048458516267,45.062756379433466],[-0.437561962443457,45.062930919961794],[-0.437335459625134,45.063238927802665],[-0.436564859374299,45.06342583871692],[-0.435655281851239,45.06346201856511],[-0.434745633993723,45.06329000610501],[-0.434641605640314,45.06325265909163],[-0.434570402300787,45.06304576717481],[-0.434128862982626,45.06310354660784],[-0.43379409316023,45.06287053554454],[-0.433444008127499,45.063175135902235],[-0.431191535370147,45.06345996498315],[-0.430407835001926,45.06339218524772],[-0.429921924346916,45.06316201670269],[-0.429703055149387,45.06322193158449],[-0.428354152878124,45.0629786800164],[-0.42702420516098,45.063314325523585],[-0.425879130753857,45.06349195762407],[-0.424820666258098,45.063401950025586],[-0.424183698431444,45.063466601608845],[-0.423604607294544,45.06362500113868],[-0.423372447787669,45.06355102765758],[-0.422222652247692,45.06346470458739],[-0.42132929987377,45.06312174946777],[-0.420973519261916,45.06279381613642],[-0.419075820501242,45.06189318989251],[-0.418089921690113,45.06151249655197],[-0.417820142800931,45.06096832170148],[-0.41758436908727,45.06085569468964],[-0.41596326274139,45.06075493495967],[-0.415561200063326,45.06033467771743],[-0.415509611833857,45.05990637246356],[-0.414949433308909,45.05958288927313],[-0.414794643803795,45.05940108172451],[-0.414149686589611,45.059355070491144],[-0.413234826909243,45.05915781202808],[-0.412605687502912,45.0591834055212],[-0.411647325469755,45.059064973407224],[-0.4111856442512,45.05883398450398],[-0.41030765970734,45.05894920064723],[-0.409282313339312,45.058837306286435],[-0.408929980801413,45.058689478000616],[-0.40869628483308,45.05869392917755],[-0.408513404292418,45.057341376955854],[-0.407821527506756,45.05700476861659],[-0.407762164288667,45.05644782450156],[-0.40707502592111,45.056293114923896],[-0.406911677490518,45.05415409500401],[-0.406247330751852,45.05418523771072],[-0.405949896702341,45.05166009055738],[-0.406481731311188,45.05139507995856],[-0.407662884298516,45.050122449266524],[-0.410035764184215,45.04646020326091],[-0.410189183643858,45.04618243178193],[-0.409849734934022,45.04616128744028],[-0.408856420137392,45.04586186184775],[-0.411299280007629,45.04247592075514],[-0.411364570859135,45.04223329243209],[-0.410558884331535,45.04207052723695],[-0.409938164161626,45.04031232926716],[-0.409280211033383,45.04021622651446],[-0.409582693004711,45.03915162722635],[-0.409288432917846,45.038786633078374],[-0.409576814306903,45.03851283936031],[-0.411070211841959,45.03757216462122],[-0.41202081985591,45.036694072569695],[-0.412693865786149,45.03707988966639],[-0.414354679155873,45.036738757461286],[-0.414117569013543,45.03574837425696],[-0.414583286322725,45.03571516109814],[-0.414814074065477,45.03456081964921],[-0.415290958575018,45.034794023477126],[-0.415555539176394,45.033839616554225],[-0.416301204806603,45.033853679724196],[-0.416634441946568,45.03329550423549],[-0.418796000368664,45.03393388285737],[-0.420411298326557,45.03091650657339],[-0.421971928229821,45.0313515874065],[-0.421793851745639,45.03157786394811],[-0.423307419717177,45.03192875727224],[-0.424577268772824,45.032325883560034],[-0.425136230433866,45.03271603781741],[-0.426603333130341,45.033324267758836],[-0.427351388002723,45.033854589015746],[-0.430870800028793,45.033957938265],[-0.431133238203392,45.03394714383853],[-0.431248185552563,45.03387330369254],[-0.4331664522059,45.03414760123057],[-0.434226563968496,45.03294779390738],[-0.435194127866237,45.03311890750122],[-0.435365027637316,45.03273511324436],[-0.436620730954833,45.03294148007413],[-0.437786250177389,45.03259004967686],[-0.438323265717444,45.03272486731492],[-0.440414682432399,45.03147420302862],[-0.442075551824818,45.0306018164641],[-0.442438381129289,45.031541400085246],[-0.443355335856507,45.032562975649185],[-0.443570045027636,45.03324307670766],[-0.443540129968719,45.033645054026124],[-0.44547215359521,45.035297614197965],[-0.445628155598394,45.03556045314445],[-0.446835793929925,45.03494355987315],[-0.44755596821439,45.03466710276985],[-0.448501062379259,45.034018668446485],[-0.448405281560717,45.037476099592595],[-0.448304503720527,45.03819210535699],[-0.447717603007012,45.03991003201434],[-0.449460646544913,45.041914467801114],[-0.449992685022283,45.042317057165256],[-0.451220667061817,45.04277016754467],[-0.451486263158992,45.0429953548134],[-0.453027706946573,45.04535477717935],[-0.453949273186885,45.04597057765131],[-0.453987354923354,45.04708153614234],[-0.453780088113317,45.04804869778055],[-0.453682044711196,45.051032168950954],[-0.453934217198948,45.0516362935253],[-0.454685384266894,45.05428789536455],[-0.454972725323566,45.05449347610656],[-0.455784815681338,45.0544664686153],[-0.455908452021071,45.05455365711681],[-0.45653827763377,45.057276612937606],[-0.456582432456933,45.05766187919546],[-0.456317643318162,45.05880928216114],[-0.45536272326328,45.06045666901495],[-0.455074063852716,45.06072428614202],[-0.454706397512902,45.06090693244423],[-0.452952209549017,45.06159763010633],[-0.453111802652033,45.061875673669654],[-0.45286197178069,45.062133969162076],[-0.451979354195049,45.062606553857265]]]]}},{"type":"Feature","properties":{"fid":1391,"ID":"COMMUNE_0000000009754777","NOM":"Teuillac","NOM_M":"TEUILLAC","INSEE_COM":"33530","STATUT":"Commune simple","POPULATION":882,"INSEE_CAN":"13","INSEE_ARR":"1","INSEE_DEP":"33","INSEE_REG":"75","SIREN_EPCI":"243301223"},"geometry":{"type":"MultiPolygon","coordinates":[[[[-0.529361508489456,45.10830971457156],[-0.528484974390726,45.10829601336535],[-0.527812986525043,45.10769178769956],[-0.527128425887029,45.107251091627575],[-0.526567455182234,45.10657034016141],[-0.526979813923571,45.10638874602871],[-0.527824864547282,45.106226800223965],[-0.528078025420027,45.106063761414156],[-0.528213147710169,45.104494827708606],[-0.53006245430834,45.104576858028366],[-0.529997632723764,45.103711861188565],[-0.529847937355596,45.10325603946471],[-0.529809597616524,45.10156100870037],[-0.530304679931969,45.10087655913271],[-0.53133990921428,45.099899190861514],[-0.531455339912345,45.099631451447266],[-0.531509563075083,45.09932148832185],[-0.531076106125851,45.09832216642243],[-0.5310416830779,45.09642782596065],[-0.529477721097838,45.09552020539384],[-0.529547497798971,45.09344140555357],[-0.529948716338947,45.09139266295871],[-0.530372314016183,45.087381988741235],[-0.530212738659854,45.0870914209737],[-0.530487079330624,45.084827683746276],[-0.53215326014578,45.08502181563093],[-0.532887849454724,45.08498950593984],[-0.534250185792493,45.085186934492434],[-0.535536926477613,45.08513438265961],[-0.537697455892171,45.08517844673135],[-0.53852307541115,45.08505668388162],[-0.54050694820117,45.08454118972796],[-0.541843317195872,45.08410753906103],[-0.542399481961769,45.08403036669219],[-0.544684190775707,45.08442816197514],[-0.546418971949843,45.08453968260934],[-0.547270788161821,45.08471084517125],[-0.548970995695425,45.084678317459236],[-0.550273240123058,45.08452956230618],[-0.551785940639765,45.08448944824022],[-0.55262441171477,45.084330216270644],[-0.553490053896882,45.08427826789444],[-0.55532777120065,45.08362746473967],[-0.557527996584503,45.08349592326014],[-0.558212859692727,45.08358220404375],[-0.558357616979421,45.083657796138496],[-0.55978386560964,45.08451803974748],[-0.561611664338966,45.08588908993276],[-0.562220554494554,45.0862400583555],[-0.562750356259503,45.08638805410379],[-0.565746348540851,45.08676267309034],[-0.565892487033478,45.08751780289585],[-0.564850497092911,45.08813700885784],[-0.564175824931194,45.088949951764604],[-0.56365086961753,45.08929752927464],[-0.565828420302719,45.089226042438014],[-0.567503462841367,45.089395035005],[-0.569683796841899,45.08946669305936],[-0.571536295076931,45.09000308446893],[-0.571549075599541,45.090123451310525],[-0.571141750118311,45.090798077510165],[-0.570999599932073,45.09138128056458],[-0.574638685107621,45.09169900164437],[-0.574278723768341,45.093113906914475],[-0.574360336782086,45.09391256202586],[-0.574193358845496,45.094385704618844],[-0.573353597884013,45.095461780229115],[-0.572420794900769,45.09705368336139],[-0.572103325775113,45.09809947946906],[-0.571749928845216,45.098105401736454],[-0.57127082371801,45.098255057065934],[-0.570688370342082,45.098261107503006],[-0.568605714825044,45.09888755492805],[-0.567626962100767,45.09974270526282],[-0.56678043173255,45.09995818438384],[-0.56571529664484,45.10043752870417],[-0.564425973175479,45.10065454103234],[-0.562266699608061,45.10068033624438],[-0.561362363273389,45.10060829918034],[-0.559633274243813,45.09921604466896],[-0.557907635581984,45.098576252570744],[-0.557472386670921,45.09823593532816],[-0.557172129155,45.09817702264369],[-0.555857186035518,45.10029111478104],[-0.555642664951807,45.100299763667294],[-0.554903557654566,45.101144443553906],[-0.553687094963892,45.10222786937662],[-0.552768689602731,45.10191465950777],[-0.552592326560664,45.10210324907763],[-0.551324412011525,45.101737178084264],[-0.551257416158292,45.10178437897074],[-0.550675819473903,45.101744329510545],[-0.550102651800303,45.101616581446194],[-0.54912140366318,45.1016559540791],[-0.548007007110507,45.10156255917415],[-0.546745029189569,45.1013494707709],[-0.545799106349531,45.1010830478819],[-0.545594635184022,45.10147080777277],[-0.545620139447851,45.102193745926606],[-0.545428214394921,45.10293982655774],[-0.545245255733863,45.103265612260365],[-0.544729172466014,45.10345598413252],[-0.544665774947136,45.10408170561336],[-0.544368529096589,45.10429125152206],[-0.544321041525091,45.10448564181605],[-0.544658866206175,45.10543749181741],[-0.545516818604562,45.10640253594275],[-0.545674553123304,45.10710324140982],[-0.546179402825516,45.10755765924811],[-0.547601295407922,45.10856332683824],[-0.5485066293553,45.10987204534599],[-0.548496612402952,45.11033563798167],[-0.548089805216349,45.11156626196005],[-0.547381266348437,45.11249553720709],[-0.54595385920498,45.113931686757994],[-0.544840985955479,45.114568264660385],[-0.544377254545313,45.11472271709035],[-0.543788384857771,45.115111881972815],[-0.542983794838335,45.11533124511731],[-0.542349212320928,45.115601981125955],[-0.541987565529087,45.11596138063167],[-0.540953388613913,45.116575587454456],[-0.540583231462804,45.11722276968273],[-0.539365187955276,45.11738674001261],[-0.539718629199512,45.11569187260288],[-0.540055916492947,45.11464645844005],[-0.540141650121167,45.1139704585408],[-0.534862783547939,45.11227863195531],[-0.535239116323701,45.11160784074215],[-0.532597159312951,45.110447823727284],[-0.531690184955279,45.10959059161685],[-0.53113516513755,45.108884435190745],[-0.529765743284373,45.10834197572941],[-0.529361508489456,45.10830971457156]]]]}},{"type":"Feature","properties":{"fid":1397,"ID":"COMMUNE_0000000009755205","NOM":"Cubzac-les-Ponts","NOM_M":"CUBZAC-LES-PONTS","INSEE_COM":"33143","STATUT":"Commune simple","POPULATION":2637,"INSEE_CAN":"20","INSEE_ARR":"1","INSEE_DEP":"33","INSEE_REG":"75","SIREN_EPCI":"243301223"},"geometry":{"type":"MultiPolygon","coordinates":[[[[-0.412474762436585,44.970215411403636],[-0.41363119380239,44.97004652775714],[-0.414188931876477,44.96980319623796],[-0.415060723928287,44.969088795119475],[-0.417971557535178,44.966359688673684],[-0.420746667857983,44.96532084226357],[-0.431965828551405,44.96069514151274],[-0.434804512145668,44.95958367147136],[-0.442023787990194,44.957402884602736],[-0.443774860013358,44.95675383478126],[-0.445409932179317,44.956262461242474],[-0.446376146810087,44.955813435413404],[-0.44675226360331,44.95571705658404],[-0.447497611392445,44.95572187621191],[-0.448109174632629,44.95592460447854],[-0.449586474785436,44.95555161670924],[-0.451807734029548,44.9544813889534],[-0.454995619471661,44.9532395750469],[-0.457372245568681,44.95713827037354],[-0.458686042385927,44.959010700139906],[-0.460352294099095,44.96075138090202],[-0.466842082563487,44.96691726125664],[-0.467924271630331,44.9682182339264],[-0.470180334851454,44.97155991145153],[-0.471392044834001,44.97345253292483],[-0.471888605051269,44.975216072341055],[-0.472417009535373,44.97767707791398],[-0.472816297066792,44.980287216986206],[-0.467957413221214,44.98054522252205],[-0.466600844952134,44.98045684718583],[-0.465185356642126,44.98079116959087],[-0.462554404424258,44.98114260349197],[-0.46179444089741,44.98103018094761],[-0.461405853533414,44.98156409437897],[-0.460338530040211,44.98138913105387],[-0.456867166711439,44.98057244624383],[-0.455431316953825,44.980351215288344],[-0.453407229460454,44.980515940796046],[-0.453297061747654,44.98103576813797],[-0.452766922118648,44.98096391156792],[-0.452589201995773,44.98137678680186],[-0.447976551984628,44.98068628599703],[-0.447628540154541,44.9807881016663],[-0.447450894046413,44.98101711458568],[-0.446755926496094,44.980887254157174],[-0.445735124472388,44.98053857595341],[-0.445422141356867,44.980797013861014],[-0.443276109158668,44.98017675929152],[-0.441303307433221,44.97981245862825],[-0.441117403826728,44.97990743369683],[-0.44087935584468,44.98022842721793],[-0.438692784278041,44.97960843992995],[-0.437474076516737,44.97932348725723],[-0.436835915379551,44.9792494882524],[-0.436382173324285,44.97903550374995],[-0.43356654289653,44.978550216099315],[-0.43352432742441,44.97840011467161],[-0.433257459650276,44.978251543311806],[-0.43309633011041,44.97798435015974],[-0.432704767549591,44.97776933269484],[-0.432087577034481,44.978099307596615],[-0.431766384722011,44.97801729761578],[-0.430719721619144,44.977368277400394],[-0.430891694222321,44.97700428537212],[-0.429845060166533,44.97635525711582],[-0.429474448670389,44.976544229850795],[-0.429284295835413,44.976549194006225],[-0.428668912165651,44.97566425200815],[-0.428361721502588,44.975852166347224],[-0.427454278199878,44.97672999329512],[-0.425240773310218,44.975560839466446],[-0.425050623436928,44.97556579638405],[-0.424874439423734,44.97584068754642],[-0.42455475314169,44.97580367192073],[-0.424423735483082,44.97571668472504],[-0.423490982318478,44.97670069926004],[-0.421958812457394,44.976228768262466],[-0.420105516058928,44.97534222453577],[-0.419119329426212,44.974370409151504],[-0.417807666794313,44.973369840841606],[-0.417444209659653,44.97282316403434],[-0.416114454426174,44.972773911776436],[-0.412667286530761,44.97233365051994],[-0.412573230021613,44.97218603585978],[-0.412626183214237,44.97099211103795],[-0.412474762436585,44.970215411403636]]]]}},{"type":"Feature","properties":{"fid":1807,"ID":"COMMUNE_0000000009755008","NOM":"Bourg","NOM_M":"BOURG","INSEE_COM":"33067","STATUT":"Commune simple","POPULATION":2264,"INSEE_CAN":"13","INSEE_ARR":"1","INSEE_DEP":"33","INSEE_REG":"75","SIREN_EPCI":"243301223"},"geometry":{"type":"MultiPolygon","coordinates":[[[[-0.568028292439265,45.05828925616556],[-0.567922866259608,45.058570237940614],[-0.566336975934076,45.05910685487539],[-0.565100651947803,45.0588436113037],[-0.564543534763578,45.05955996277307],[-0.564068737620978,45.060949656452266],[-0.563788554938312,45.06136241072344],[-0.563185625973988,45.06185940061025],[-0.562154887147952,45.062049209564925],[-0.560878241645648,45.061932317758476],[-0.559491225450105,45.06138000442411],[-0.557316581977535,45.060600477537065],[-0.55726885989933,45.06041002457147],[-0.553867108256475,45.06105132883174],[-0.553891692945907,45.06083783679771],[-0.549736333127461,45.06064682994089],[-0.549364897762548,45.06054510779859],[-0.549333297820275,45.06026761357345],[-0.549122685228002,45.06009496888433],[-0.549085412776761,45.05984829967216],[-0.54887287873097,45.059705458730484],[-0.547838937804568,45.05934364210378],[-0.547617881313428,45.059186649750316],[-0.546871872775298,45.05889316124539],[-0.545983134397559,45.0586348581383],[-0.544691974482587,45.05794592335446],[-0.544398906928539,45.05669253753509],[-0.543794485334384,45.05604391837114],[-0.543905448571096,45.054784881267004],[-0.543636929658096,45.054279690410425],[-0.54368174029894,45.05406375574865],[-0.54291624684859,45.05328055987452],[-0.54150615103243,45.05243765299243],[-0.539553242763166,45.05165615365232],[-0.539251329266213,45.051486395643366],[-0.539115203156703,45.05122394092863],[-0.53843324638982,45.0511365633755],[-0.536820294487438,45.05076331295069],[-0.536365508279072,45.0507696497562],[-0.53550951829603,45.05040297540469],[-0.535071576567342,45.04997164640838],[-0.534292967262038,45.04829383407526],[-0.533888827981183,45.047028637494144],[-0.53298206261601,45.04682308638823],[-0.532291252862406,45.04653406589153],[-0.53162164582884,45.04609745883471],[-0.531016432554686,45.04529108043744],[-0.529868645220472,45.04428740125701],[-0.527680740216862,45.04315895707991],[-0.52629998867497,45.04261236888776],[-0.525504416935419,45.0421725089438],[-0.525293735427339,45.04135090301323],[-0.524579487535272,45.04086970644299],[-0.524375110362675,45.04041021540437],[-0.523573287792432,45.04003182848315],[-0.523428179269736,45.03984715319286],[-0.522381473031814,45.039213336343906],[-0.522247562051831,45.03902470023958],[-0.521421406808576,45.03872367793115],[-0.51974188083589,45.03833517844575],[-0.52021483327728,45.03795249827137],[-0.520609754272231,45.03738031180521],[-0.520821503662408,45.03668503570648],[-0.520873121276064,45.03599031890073],[-0.520651094655535,45.035673783620275],[-0.517993905320817,45.033036854625486],[-0.516977767745176,45.03171345263064],[-0.514990411281541,45.03236928213369],[-0.513077800325365,45.03253602701832],[-0.513418106642514,45.03129594517828],[-0.513224899564522,45.031295736035716],[-0.512848231303939,45.03177448693068],[-0.511647493668165,45.03153749528473],[-0.511634758686953,45.031618110491976],[-0.510300665213575,45.03134205159686],[-0.50969771702355,45.03103030236066],[-0.50664831183807,45.030518978295056],[-0.506671830405107,45.02939345147349],[-0.506306786712695,45.02620454489208],[-0.506455645381555,45.025679821614006],[-0.506801829209911,45.02536338155834],[-0.512573321944061,45.02298133274276],[-0.515173984604406,45.02159415838354],[-0.517016795154212,45.02092936548434],[-0.518326503487584,45.020558091223265],[-0.518997396093872,45.02021331654371],[-0.519228433809101,45.020169056685404],[-0.524758543975543,45.01721896654464],[-0.529307397535242,45.02039867503472],[-0.530634639327894,45.021535440520644],[-0.53256680997583,45.022993672508306],[-0.534171465777064,45.02395305294412],[-0.538929319846116,45.026360578148434],[-0.543331764714281,45.028367343315516],[-0.547046518019885,45.029726208591896],[-0.552142181718201,45.0321521809958],[-0.556043477923689,45.03411859096821],[-0.559819802386893,45.03477567881075],[-0.566113057553592,45.0360505270995],[-0.571655816642118,45.03651631100621],[-0.57403111788643,45.036886201493644],[-0.575414359292722,45.03356732236312],[-0.585099886513722,45.03627961839265],[-0.587044761633195,45.0367352038537],[-0.590566386738807,45.037890692832455],[-0.587884941235737,45.04155088322432],[-0.587776715058682,45.042361049021494],[-0.586625544674095,45.043303070901324],[-0.586024043537161,45.044391411243105],[-0.585306611599157,45.04502020647274],[-0.584731653157059,45.04610678263986],[-0.583650613104826,45.0457639421286],[-0.583209786979871,45.046444204883386],[-0.582836799232122,45.04675454611487],[-0.581866040337238,45.04825312681765],[-0.579173335668705,45.04710404218965],[-0.577805346213653,45.04630980186419],[-0.577335670007783,45.047653429942635],[-0.576906267618073,45.04811608206373],[-0.576216196029138,45.04843929232263],[-0.575523166290884,45.04909427534082],[-0.574238127415015,45.04902107808137],[-0.574247102237667,45.0491217366053],[-0.573486400252331,45.04923538927692],[-0.572950829411763,45.04946979663617],[-0.572218457873309,45.049509525065794],[-0.571748898677974,45.04938398849435],[-0.571281266623918,45.049806383692825],[-0.569518512018097,45.05097423526626],[-0.568882364002151,45.05106763792304],[-0.568292453903629,45.05138758549032],[-0.568366176325319,45.05170608775448],[-0.56810506192961,45.05259593608412],[-0.568056910785779,45.053774587148055],[-0.567520133130898,45.05514735680358],[-0.567419690542393,45.05570578109195],[-0.567527049042335,45.05617282358706],[-0.567912557153676,45.0566345575017],[-0.567775207949376,45.05665428144167],[-0.567379859959291,45.057294260879274],[-0.567294092419234,45.05760435519447],[-0.567323799398811,45.05777104666093],[-0.567913001788741,45.05805680808535],[-0.568028292439265,45.05828925616556]]]]}},{"type":"Feature","properties":{"fid":1859,"ID":"COMMUNE_0000000009754781","NOM":"Mombrier","NOM_M":"MOMBRIER","INSEE_COM":"33285","STATUT":"Commune simple","POPULATION":465,"INSEE_CAN":"13","INSEE_ARR":"1","INSEE_DEP":"33","INSEE_REG":"75","SIREN_EPCI":"243301223"},"geometry":{"type":"MultiPolygon","coordinates":[[[[-0.565746348540851,45.08676267309034],[-0.562750356259503,45.08638805410379],[-0.562220554494554,45.0862400583555],[-0.561611664338966,45.08588908993276],[-0.55978386560964,45.08451803974748],[-0.558357616979421,45.083657796138496],[-0.558212859692727,45.08358220404375],[-0.557527996584503,45.08349592326014],[-0.55532777120065,45.08362746473967],[-0.553490053896882,45.08427826789444],[-0.55262441171477,45.084330216270644],[-0.551785940639765,45.08448944824022],[-0.550273240123058,45.08452956230618],[-0.548970995695425,45.084678317459236],[-0.547270788161821,45.08471084517125],[-0.546418971949843,45.08453968260934],[-0.544684190775707,45.08442816197514],[-0.542399481961769,45.08403036669219],[-0.541843317195872,45.08410753906103],[-0.54050694820117,45.08454118972796],[-0.53852307541115,45.08505668388162],[-0.537697455892171,45.08517844673135],[-0.535536926477613,45.08513438265961],[-0.534250185792493,45.085186934492434],[-0.532887849454724,45.08498950593984],[-0.53215326014578,45.08502181563093],[-0.530487079330624,45.084827683746276],[-0.529591104861459,45.08488311758174],[-0.529546985458812,45.08434554110471],[-0.529413404924628,45.08404333356739],[-0.528681129579652,45.083023736717706],[-0.52841982758036,45.08279407292807],[-0.528925876295069,45.08123772912987],[-0.528765208841476,45.08046590421296],[-0.527954606645852,45.080179735827855],[-0.528106559826679,45.0795638456321],[-0.527668092911761,45.0779373812076],[-0.52819824709792,45.07587645584936],[-0.528461131533806,45.07538593580133],[-0.530042363817508,45.07365491503476],[-0.530165690626056,45.073291389880644],[-0.530215959630056,45.07219382436967],[-0.530727514726585,45.07133129276037],[-0.531080603258303,45.07112181293547],[-0.532249064868295,45.07109467055168],[-0.532448014978553,45.07126411206129],[-0.533081174908519,45.07140085094755],[-0.533522129488507,45.07173656223118],[-0.534783847299761,45.07207776803921],[-0.534956987758507,45.07109436717292],[-0.53518195528045,45.07115211889522],[-0.535315419216508,45.07032590096393],[-0.53571171979121,45.06971395765543],[-0.536080802149307,45.06977794702583],[-0.536469222734359,45.068739938374314],[-0.537530655019489,45.06905232127302],[-0.538365456539283,45.069179919865256],[-0.540822161487392,45.069994114503174],[-0.542091646292261,45.07029713608678],[-0.543984208023796,45.071139121554154],[-0.545083184048458,45.07136011065887],[-0.54614131074542,45.070796455937895],[-0.547162368312997,45.07073148948001],[-0.547297643352735,45.07035764699309],[-0.548159412526671,45.070428433839055],[-0.549268530054531,45.07032819506007],[-0.549920299122136,45.07037681975458],[-0.552882150718368,45.06992904954037],[-0.554651924376336,45.06953728467689],[-0.555882330243533,45.07030466954468],[-0.557089477327266,45.070385989776625],[-0.559314563806658,45.0703734764097],[-0.55978624686077,45.07047016109228],[-0.562024097168761,45.07095741196235],[-0.561387321209706,45.07318147827943],[-0.561085823780349,45.073720188037754],[-0.560710159141503,45.07429281407996],[-0.56037126924372,45.07456412721683],[-0.559588459525007,45.074755893068996],[-0.559981159543169,45.075029956596225],[-0.560757617328713,45.076096618599216],[-0.56173506608353,45.07682336405063],[-0.562507982507934,45.07727453442843],[-0.563152078878008,45.0774008429293],[-0.562892763094402,45.078062589322094],[-0.562567338897152,45.078525457404396],[-0.562910160007109,45.078674924151855],[-0.563075233457802,45.07940871830116],[-0.563783432423772,45.07990160972506],[-0.563644476677446,45.08017644940843],[-0.56438681096032,45.080486180313635],[-0.564193323411777,45.08090337061155],[-0.565071195688251,45.08114386550338],[-0.564953348720678,45.08131077514735],[-0.565154503041167,45.081353007384315],[-0.564517119430121,45.082071023639756],[-0.565370988275498,45.08235374545429],[-0.566623378346193,45.08319963986687],[-0.56640460020237,45.08684975716867],[-0.565746348540851,45.08676267309034]]]]}},{"type":"Feature","properties":{"fid":1929,"ID":"COMMUNE_0000000009754780","NOM":"Pugnac","NOM_M":"PUGNAC","INSEE_COM":"33341","STATUT":"Commune simple","POPULATION":2417,"INSEE_CAN":"13","INSEE_ARR":"1","INSEE_DEP":"33","INSEE_REG":"75","SIREN_EPCI":"243301223"},"geometry":{"type":"MultiPolygon","coordinates":[[[[-0.529477721097838,45.09552020539384],[-0.52821832730689,45.09480030346822],[-0.528115911808741,45.09487114415661],[-0.526243648926598,45.09512600196485],[-0.525285278282316,45.09518337091316],[-0.524638025023322,45.09508938573343],[-0.52373923736647,45.095082666963776],[-0.522324421867788,45.09536805316501],[-0.520175591955308,45.095212450250855],[-0.518478219029902,45.09543641382994],[-0.517989642332726,45.095821372567684],[-0.517752794153664,45.09634439023026],[-0.517767455981833,45.0967188647036],[-0.517349869299825,45.097099776167255],[-0.51682014496194,45.098105215667374],[-0.516561798415421,45.09812508699916],[-0.515665439297497,45.09844088721966],[-0.515205120488178,45.09840584059686],[-0.514929025664459,45.09826493699545],[-0.514585108479606,45.09830012135694],[-0.514082464901162,45.09809786399893],[-0.513019337574512,45.098007914212126],[-0.511343585008271,45.09863846666659],[-0.511051817768502,45.098653069352224],[-0.510750129274975,45.09887437903317],[-0.510559029811609,45.098850657986134],[-0.51034036284849,45.09893505853287],[-0.50985282509931,45.0986692162544],[-0.507700623779921,45.09797450634988],[-0.507116416930258,45.097708992432636],[-0.506666551080765,45.097759204093485],[-0.505509887521868,45.097577492229604],[-0.504659216495044,45.09677597336614],[-0.504194300169166,45.096545447721574],[-0.502100998334709,45.09658513118007],[-0.501940581654085,45.09662442239967],[-0.501855424600213,45.09674787110846],[-0.502030800185637,45.09700823737366],[-0.501980868305492,45.09708461345138],[-0.501219909159332,45.09714548248192],[-0.500819912277134,45.09693543500243],[-0.500288618875119,45.097046762950804],[-0.499642363602917,45.097029210933655],[-0.498105759113792,45.09683502284496],[-0.496910580692352,45.096402975086676],[-0.495884720747762,45.0962567159632],[-0.495658262414266,45.09615566795778],[-0.495225029701893,45.09616655655533],[-0.494415622270968,45.09571697223406],[-0.493226892202088,45.09532614333316],[-0.492364651231901,45.09521167480066],[-0.49169697767803,45.09639885694548],[-0.491378127238603,45.09730381909302],[-0.490508722500216,45.09831796027988],[-0.488552897137549,45.101091161845545],[-0.488320362718919,45.1009947952457],[-0.486914354545245,45.100753100460864],[-0.485824400597339,45.1006817561584],[-0.484067982968202,45.10092235552475],[-0.483576413338076,45.10083498021377],[-0.481496572027148,45.1012361628726],[-0.481532322708583,45.10156491230357],[-0.480946482396108,45.101537251204476],[-0.480718371752571,45.101062195728545],[-0.480013891976616,45.10037579990013],[-0.480273059448899,45.09969445345298],[-0.480230387386966,45.09939746480977],[-0.480086105310126,45.09934879637181],[-0.479774975360123,45.09939997255453],[-0.478589414504588,45.09848705218376],[-0.477221408189988,45.09772942596854],[-0.47733982904579,45.0965648922401],[-0.476111376117622,45.09465377904646],[-0.475778512591495,45.093945852109975],[-0.475654310725034,45.09385148858048],[-0.475289020923653,45.093808808061866],[-0.475111505881365,45.09367554990584],[-0.474953702570939,45.09347047636271],[-0.475085349168407,45.09327530084131],[-0.475041425732932,45.09310092338587],[-0.474827917347244,45.09304359297686],[-0.474477735068619,45.09275258975653],[-0.474120671868992,45.0926988338749],[-0.473867024081925,45.092568849398525],[-0.473751638657105,45.092370563159115],[-0.473726632675591,45.09223435004833],[-0.473812938838952,45.09216947132558],[-0.474133897843864,45.092236070485285],[-0.473907880122582,45.09162935468788],[-0.474178366753016,45.09104771279889],[-0.474049413982794,45.0909381744332],[-0.474109441650019,45.090737122110504],[-0.473994538256106,45.090587489765504],[-0.473835678004952,45.09028330865135],[-0.474063335197528,45.090015742723565],[-0.47395881756118,45.0891528834408],[-0.473839989545596,45.08877625398309],[-0.473595313414757,45.08858560487708],[-0.473513623261399,45.08839708338494],[-0.474086336653459,45.087335555632855],[-0.473567192285539,45.08616747993044],[-0.473697559455974,45.0844573160651],[-0.473347968104795,45.083847244995525],[-0.472679860648554,45.08370044083966],[-0.472559887019388,45.08361225201906],[-0.472834384437213,45.083259410352525],[-0.472968432239408,45.082755028171285],[-0.472706625535122,45.08220620863255],[-0.472377247750761,45.08179829016875],[-0.472190401878076,45.08122730507864],[-0.471746336366976,45.08114381071752],[-0.471648529342666,45.08085935575243],[-0.47123349084699,45.08083353693344],[-0.470777825237915,45.08011230515225],[-0.470827546430992,45.08001161666608],[-0.471149556636039,45.079952913399204],[-0.47150258988771,45.079512908571026],[-0.472248557689321,45.07931661253742],[-0.472319319308478,45.07885836645557],[-0.472572263735616,45.07865039951245],[-0.47252495160807,45.07842115081272],[-0.472194820551757,45.07808265380157],[-0.472450991071839,45.07776282968323],[-0.472298701040825,45.077399861727095],[-0.472513500087464,45.07704888170972],[-0.472460027486816,45.07647464092945],[-0.47240251093044,45.07632682432717],[-0.471984631966743,45.076070374329696],[-0.472248584555303,45.07583502681407],[-0.472188438564151,45.075562917703046],[-0.471443121211667,45.07521573244701],[-0.471575686556768,45.074503207108236],[-0.471172932454506,45.07422375167656],[-0.471113508123247,45.07402462213578],[-0.470155678465967,45.07299909316248],[-0.470012554760187,45.072680900884365],[-0.470664884247317,45.07202247929706],[-0.471178368109511,45.07195510339763],[-0.471724411139294,45.07165418424549],[-0.471730694981338,45.07126374153246],[-0.472227685642341,45.069947724354506],[-0.472773442973692,45.069519730264865],[-0.473772892141817,45.06847193257941],[-0.473994721192989,45.06798914542843],[-0.474466622880742,45.06737598356108],[-0.475208420928023,45.065682794507275],[-0.476355260482306,45.06434827550467],[-0.476692013610345,45.063403151097646],[-0.477378923705919,45.06361062193405],[-0.480138195011036,45.06411564557261],[-0.480638432748815,45.06426584261403],[-0.482229136404751,45.065038062539344],[-0.482397021474114,45.06522207818321],[-0.482413503366561,45.06622196896776],[-0.482786111679521,45.06732428185086],[-0.483059360722212,45.067505001411476],[-0.483139315641217,45.06766562992788],[-0.483005908501176,45.06783112967908],[-0.483301638324919,45.06808685211008],[-0.483948254755194,45.068319879913275],[-0.484439905174217,45.06827024860029],[-0.485414176225052,45.068536275968],[-0.486457286678854,45.06864151641381],[-0.487286935471261,45.06815859406264],[-0.487857442493184,45.068047895421415],[-0.488294594590843,45.067817897281365],[-0.490621328701029,45.067358340496725],[-0.491566070616994,45.0673548585034],[-0.491895060718559,45.0667983715332],[-0.494237362178367,45.0666500893966],[-0.496376617281708,45.06636663329427],[-0.496758326439142,45.06840324419747],[-0.498950143894622,45.06841010306381],[-0.498922069374708,45.06942492066509],[-0.500250544502465,45.06955711773676],[-0.500149650198199,45.06995685082768],[-0.502042841144393,45.07014968706206],[-0.502516438464614,45.07009603731532],[-0.502811396059166,45.06997229744438],[-0.505135963613342,45.07010734889832],[-0.506318495538651,45.0698790498389],[-0.506564130210255,45.070266977288526],[-0.506869766034196,45.07114511397399],[-0.507076932083467,45.072136307679465],[-0.507808619180441,45.07352016295256],[-0.509019200628483,45.074244510028436],[-0.513164690693794,45.071371206365455],[-0.517088280615254,45.07015319677109],[-0.518465201014559,45.071296694360726],[-0.519292252851901,45.07176626819731],[-0.520318533847845,45.07259185629745],[-0.521161966232448,45.07299780953045],[-0.521383353268332,45.07320080956351],[-0.52172405367789,45.073662311182176],[-0.522181588607076,45.074787070830645],[-0.523286868929031,45.07559301234781],[-0.52428331405943,45.076588955343055],[-0.525011252596839,45.07814768366758],[-0.526329103494035,45.079175799302874],[-0.52722182287281,45.07949362726749],[-0.527679498712429,45.08003342726632],[-0.527954606645852,45.080179735827855],[-0.528765208841476,45.08046590421296],[-0.528925876295069,45.08123772912987],[-0.52841982758036,45.08279407292807],[-0.528681129579652,45.083023736717706],[-0.529413404924628,45.08404333356739],[-0.529546985458812,45.08434554110471],[-0.529591104861459,45.08488311758174],[-0.530487079330624,45.084827683746276],[-0.530212738659854,45.0870914209737],[-0.530372314016183,45.087381988741235],[-0.529948716338947,45.09139266295871],[-0.529547497798971,45.09344140555357],[-0.529477721097838,45.09552020539384]]]]}},{"type":"Feature","properties":{"fid":2013,"ID":"COMMUNE_0000000009754784","NOM":"Saint-Trojan","NOM_M":"SAINT-TROJAN","INSEE_COM":"33486","STATUT":"Commune simple","POPULATION":368,"INSEE_CAN":"13","INSEE_ARR":"1","INSEE_DEP":"33","INSEE_REG":"75","SIREN_EPCI":"243301223"},"geometry":{"type":"MultiPolygon","coordinates":[[[[-0.59059522076708,45.100635364020675],[-0.588563493365459,45.09925869576112],[-0.587756706553232,45.09931892965274],[-0.586982188102821,45.099564693680605],[-0.58649381771223,45.09958942911093],[-0.586118173025314,45.10095441389436],[-0.584929350556167,45.099820946418106],[-0.583283604497755,45.09888423275666],[-0.582498013432864,45.098044223963896],[-0.580709548390556,45.09765916884177],[-0.581034421129357,45.097128662693976],[-0.579007889435483,45.09670166085796],[-0.578527090900875,45.09680453392589],[-0.578015617654986,45.09704448978267],[-0.577491470482595,45.097802209402445],[-0.576766443508982,45.09844379560689],[-0.574351273964808,45.098347351179946],[-0.57346368905024,45.098079288981964],[-0.572103325775113,45.09809947946906],[-0.572420794900769,45.09705368336139],[-0.573353597884013,45.095461780229115],[-0.574193358845496,45.094385704618844],[-0.574360336782086,45.09391256202586],[-0.574278723768341,45.093113906914475],[-0.574638685107621,45.09169900164437],[-0.570999599932073,45.09138128056458],[-0.571141750118311,45.090798077510165],[-0.571549075599541,45.090123451310525],[-0.571536295076931,45.09000308446893],[-0.569683796841899,45.08946669305936],[-0.567503462841367,45.089395035005],[-0.565828420302719,45.089226042438014],[-0.56365086961753,45.08929752927464],[-0.564175824931194,45.088949951764604],[-0.564850497092911,45.08813700885784],[-0.565892487033478,45.08751780289585],[-0.565746348540851,45.08676267309034],[-0.56640460020237,45.08684975716867],[-0.566623378346193,45.08319963986687],[-0.568211118391181,45.08313977348084],[-0.569019568168716,45.08298948968086],[-0.569817754655995,45.083176620815],[-0.570075653515494,45.083589269215516],[-0.573642612616556,45.083145000240684],[-0.574430934191846,45.08339640899776],[-0.576036987575515,45.08352331763876],[-0.576683677754106,45.08295274849035],[-0.578441727919621,45.08193637425184],[-0.578755989089897,45.08167841411369],[-0.579262369416782,45.08090413212043],[-0.579219599978387,45.08053416280886],[-0.579313605804802,45.080094903003165],[-0.580406166949278,45.07808499334162],[-0.581258906774698,45.07830994556508],[-0.581789326435205,45.07836859911023],[-0.582629719501095,45.078698491504205],[-0.58253675574571,45.079471210187705],[-0.583747940508775,45.07969092311722],[-0.583478049748082,45.08064058724971],[-0.584875249986423,45.081022851193595],[-0.586529097033349,45.08163748760168],[-0.587855127488524,45.0818814008559],[-0.58793522336691,45.08170216106782],[-0.590090351607557,45.081741775261946],[-0.590281108575205,45.08221603303278],[-0.589885568403095,45.08217830824593],[-0.589348787373238,45.08402259509265],[-0.589800841895382,45.08410807373368],[-0.591424197145651,45.08412694692082],[-0.591525739363653,45.08513315909079],[-0.590635651866888,45.08522044203389],[-0.590586093619541,45.0879746924191],[-0.591569506328245,45.09005209626082],[-0.591458230217723,45.09008272381007],[-0.591658681053782,45.09072702007396],[-0.592616867879784,45.09084664370332],[-0.592073405436108,45.09155729142756],[-0.59212268476434,45.092027097460985],[-0.59278339702276,45.092031928869176],[-0.592814828684129,45.093391922842905],[-0.592423607536508,45.09348205385629],[-0.592535112681421,45.093930024192986],[-0.591882233884272,45.09398803107637],[-0.591185208669538,45.096369281553095],[-0.591270209830777,45.0974742757873],[-0.590868722917157,45.098890587548674],[-0.59089798549645,45.09960349782272],[-0.59059522076708,45.100635364020675]]]]}},{"type":"Feature","properties":{"fid":2837,"ID":"COMMUNE_0000000009755000","NOM":"Saint-Gervais","NOM_M":"SAINT-GERVAIS","INSEE_COM":"33415","STATUT":"Commune simple","POPULATION":1981,"INSEE_CAN":"20","INSEE_ARR":"1","INSEE_DEP":"33","INSEE_REG":"75","SIREN_EPCI":"243301223"},"geometry":{"type":"MultiPolygon","coordinates":[[[[-0.453135332293429,45.026646997261615],[-0.450947314981522,45.02712764340787],[-0.449038602559864,45.02727424080713],[-0.447565860060758,45.027277520373275],[-0.448003542029919,45.02693500661897],[-0.44823446327635,45.026598898328665],[-0.448521794030987,45.02536340595817],[-0.448091383390101,45.025266792860926],[-0.44816906070646,45.024279330581585],[-0.448475993821731,45.02280530405885],[-0.447665436495589,45.02274660693813],[-0.447829186142334,45.021897973184466],[-0.448511145699939,45.02094225407671],[-0.444853293797615,45.01911429936719],[-0.444635799986494,45.01861543935988],[-0.443845065318467,45.0167094702214],[-0.443079172540015,45.01673497749629],[-0.443259578752874,45.01642477672005],[-0.444216072592979,45.01540831702033],[-0.443899317565305,45.01500986303789],[-0.447884849461736,45.01228184266151],[-0.448207408909601,45.011969930850015],[-0.4488185582868,45.01205282586406],[-0.454261384659832,45.0115153505462],[-0.456573761346705,45.01141288360535],[-0.457913542899199,45.010724155237426],[-0.459423496373084,45.01015809435008],[-0.459847630676127,45.01003134739405],[-0.460599875771713,45.01003318355035],[-0.461333487886928,45.00973367805087],[-0.464379424707343,45.008778173072805],[-0.465600852510989,45.010243403646285],[-0.466987443914233,45.011317742888586],[-0.470910335500349,45.00967050447885],[-0.471137061308387,45.00992569315547],[-0.473003300453858,45.00951415508748],[-0.474957840746903,45.00946122763551],[-0.47721480206423,45.00889771765077],[-0.478838666866608,45.00836928281491],[-0.478606467217685,45.00774026105034],[-0.478556634563747,45.007163216350826],[-0.480626508064644,45.00590160648158],[-0.483205913379432,45.00282600262974],[-0.484544756673713,45.00321216253759],[-0.487060462908466,45.00374887921055],[-0.489157951733366,45.004117507989264],[-0.491040811956199,45.00434412727516],[-0.490197419365204,45.00831990014193],[-0.489094626631064,45.00950179521463],[-0.489070432402964,45.01025510345586],[-0.488704954232608,45.01181132017358],[-0.487568034403616,45.01254904751516],[-0.486425057329732,45.013659171140894],[-0.485869851786498,45.01329263421103],[-0.483486585987131,45.015380689881056],[-0.481540785522812,45.01727294801768],[-0.480523529358156,45.016566649112825],[-0.479931159897346,45.01782981104697],[-0.478279265058175,45.01760478221719],[-0.477716930710406,45.020374788831425],[-0.476566825865836,45.02020975207275],[-0.474349579752391,45.020601659445],[-0.475625209417056,45.022030860856766],[-0.476109385967845,45.02244022582402],[-0.475950616060841,45.025387778919956],[-0.474509479957553,45.0260429365343],[-0.473595614538319,45.0267167652558],[-0.47336817922869,45.02708616842669],[-0.473582081769032,45.02879187293463],[-0.473896979896092,45.029196619700755],[-0.473750629566888,45.02995103154843],[-0.472361304822109,45.02978439982852],[-0.471441742033754,45.02948683607086],[-0.470840977885321,45.02943167279972],[-0.470140669565873,45.029226397684496],[-0.466923768889095,45.02739799084869],[-0.465850273332275,45.02830744584405],[-0.46544420016975,45.0277838491676],[-0.4645694069231,45.02790031245201],[-0.463300893942893,45.02765140014922],[-0.461971734486014,45.02771619220124],[-0.461387676730983,45.027499135830816],[-0.461261298534978,45.027346249880914],[-0.459429991402383,45.02675069526292],[-0.458738966793699,45.026653211791015],[-0.457639614905007,45.026672957147504],[-0.457239529107834,45.02661509107254],[-0.456868144786704,45.02648693611462],[-0.457025509982878,45.02629819339202],[-0.456161294610373,45.026009603453055],[-0.455613861234383,45.026590784001584],[-0.454532132357631,45.02576368382192],[-0.45377418088823,45.026352291396165],[-0.453135332293429,45.026646997261615]]]]}},{"type":"Feature","properties":{"fid":2902,"ID":"COMMUNE_0000000009754782","NOM":"Lansac","NOM_M":"LANSAC","INSEE_COM":"33228","STATUT":"Commune simple","POPULATION":671,"INSEE_CAN":"13","INSEE_ARR":"1","INSEE_DEP":"33","INSEE_REG":"75","SIREN_EPCI":"243301223"},"geometry":{"type":"MultiPolygon","coordinates":[[[[-0.527954606645852,45.080179735827855],[-0.527679498712429,45.08003342726632],[-0.52722182287281,45.07949362726749],[-0.526329103494035,45.079175799302874],[-0.525011252596839,45.07814768366758],[-0.52428331405943,45.076588955343055],[-0.523286868929031,45.07559301234781],[-0.522181588607076,45.074787070830645],[-0.52172405367789,45.073662311182176],[-0.521383353268332,45.07320080956351],[-0.521161966232448,45.07299780953045],[-0.520318533847845,45.07259185629745],[-0.519292252851901,45.07176626819731],[-0.518465201014559,45.071296694360726],[-0.517088280615254,45.07015319677109],[-0.515053792137064,45.06852301993802],[-0.515108350679907,45.06835906659243],[-0.514791650384137,45.06805541653292],[-0.513952664674408,45.066807480585645],[-0.513501462263687,45.06551666094613],[-0.513452773223849,45.06472146357334],[-0.513265008450074,45.06395949569588],[-0.513350876054339,45.063544900412204],[-0.513497996504095,45.063315838906355],[-0.513772812608032,45.063196309038624],[-0.514203828872685,45.062648245980206],[-0.514220832206473,45.06194741307189],[-0.514661789059514,45.06159821759687],[-0.514751021386867,45.06093385967799],[-0.515163394414769,45.060372861671794],[-0.515170615658813,45.06018426570839],[-0.514868784100762,45.05979272418119],[-0.515010584707614,45.058750872119056],[-0.515315646562935,45.05850600598364],[-0.516057297304094,45.05818696606148],[-0.516151090368731,45.057959584697386],[-0.516791555027817,45.05773025827889],[-0.517366058454097,45.05724073871849],[-0.5179019685237,45.057027326676554],[-0.518284866342496,45.056605143431334],[-0.518434254883724,45.057463851578525],[-0.518594121482144,45.05782201642886],[-0.519113407522265,45.05833465727598],[-0.519625674829134,45.058695200940306],[-0.520232000266899,45.05879229740527],[-0.521304222936255,45.0587151289377],[-0.522619578873999,45.058843862368626],[-0.523503659361045,45.057516232659744],[-0.524176370559331,45.05771845948205],[-0.524381597927115,45.057625439515085],[-0.524583691036773,45.057341445677515],[-0.524830351528834,45.05717951664879],[-0.52568776118274,45.05696309724452],[-0.527134571090798,45.05679739877616],[-0.527165287198547,45.05633676906324],[-0.527609426996993,45.054931109247335],[-0.527666474038303,45.05438402283799],[-0.527579525082247,45.0541344176061],[-0.52706244711788,45.053516295071056],[-0.526612763450881,45.05326105660772],[-0.526825895735431,45.0529307428578],[-0.528871493628084,45.05302724859786],[-0.528971203352198,45.05265275742369],[-0.529445169937685,45.052688203735144],[-0.529535959593295,45.051104466961405],[-0.530890920187801,45.05097677718455],[-0.532601273102444,45.05049710620556],[-0.533801423020827,45.05035446465405],[-0.535071576567342,45.04997164640838],[-0.53550951829603,45.05040297540469],[-0.536365508279072,45.0507696497562],[-0.536820294487438,45.05076331295069],[-0.53843324638982,45.0511365633755],[-0.539115203156703,45.05122394092863],[-0.539251329266213,45.051486395643366],[-0.539553242763166,45.05165615365232],[-0.54150615103243,45.05243765299243],[-0.54291624684859,45.05328055987452],[-0.54368174029894,45.05406375574865],[-0.543636929658096,45.054279690410425],[-0.543905448571096,45.054784881267004],[-0.543794485334384,45.05604391837114],[-0.544398906928539,45.05669253753509],[-0.544691974482587,45.05794592335446],[-0.545983134397559,45.0586348581383],[-0.546871872775298,45.05889316124539],[-0.547617881313428,45.059186649750316],[-0.547838937804568,45.05934364210378],[-0.54887287873097,45.059705458730484],[-0.549085412776761,45.05984829967216],[-0.549122685228002,45.06009496888433],[-0.549333297820275,45.06026761357345],[-0.549364897762548,45.06054510779859],[-0.549736333127461,45.06064682994089],[-0.553891692945907,45.06083783679771],[-0.553867108256475,45.06105132883174],[-0.55726885989933,45.06041002457147],[-0.557316581977535,45.060600477537065],[-0.559491225450105,45.06138000442411],[-0.559115373415375,45.061648891581335],[-0.558677189466967,45.061737706077736],[-0.557962405939503,45.0623563120902],[-0.559009821924057,45.06312770207833],[-0.559951808993861,45.06414039894561],[-0.559243886277717,45.06602602983101],[-0.558634659675538,45.06716492394419],[-0.558584885865929,45.067821764169445],[-0.559952715797684,45.06779066102301],[-0.559883802080111,45.06796681641218],[-0.560246266759775,45.06790655741456],[-0.560225404715724,45.06919699500888],[-0.55978624686077,45.07047016109228],[-0.559314563806658,45.0703734764097],[-0.557089477327266,45.070385989776625],[-0.555882330243533,45.07030466954468],[-0.554651924376336,45.06953728467689],[-0.552882150718368,45.06992904954037],[-0.549920299122136,45.07037681975458],[-0.549268530054531,45.07032819506007],[-0.548159412526671,45.070428433839055],[-0.547297643352735,45.07035764699309],[-0.547162368312997,45.07073148948001],[-0.54614131074542,45.070796455937895],[-0.545083184048458,45.07136011065887],[-0.543984208023796,45.071139121554154],[-0.542091646292261,45.07029713608678],[-0.540822161487392,45.069994114503174],[-0.538365456539283,45.069179919865256],[-0.537530655019489,45.06905232127302],[-0.536469222734359,45.068739938374314],[-0.536080802149307,45.06977794702583],[-0.53571171979121,45.06971395765543],[-0.535315419216508,45.07032590096393],[-0.53518195528045,45.07115211889522],[-0.534956987758507,45.07109436717292],[-0.534783847299761,45.07207776803921],[-0.533522129488507,45.07173656223118],[-0.533081174908519,45.07140085094755],[-0.532448014978553,45.07126411206129],[-0.532249064868295,45.07109467055168],[-0.531080603258303,45.07112181293547],[-0.530727514726585,45.07133129276037],[-0.530215959630056,45.07219382436967],[-0.530165690626056,45.073291389880644],[-0.530042363817508,45.07365491503476],[-0.528461131533806,45.07538593580133],[-0.52819824709792,45.07587645584936],[-0.527668092911761,45.0779373812076],[-0.528106559826679,45.0795638456321],[-0.527954606645852,45.080179735827855]]]]}},{"type":"Feature","properties":{"fid":3357,"ID":"COMMUNE_0000000009754998","NOM":"Virsac","NOM_M":"VIRSAC","INSEE_COM":"33553","STATUT":"Commune simple","POPULATION":1283,"INSEE_CAN":"20","INSEE_ARR":"1","INSEE_DEP":"33","INSEE_REG":"75","SIREN_EPCI":"243301223"},"geometry":{"type":"MultiPolygon","coordinates":[[[[-0.444635799986494,45.01861543935988],[-0.444853293797615,45.01911429936719],[-0.448511145699939,45.02094225407671],[-0.447829186142334,45.021897973184466],[-0.447665436495589,45.02274660693813],[-0.448475993821731,45.02280530405885],[-0.44816906070646,45.024279330581585],[-0.448091383390101,45.025266792860926],[-0.448521794030987,45.02536340595817],[-0.44823446327635,45.026598898328665],[-0.448003542029919,45.02693500661897],[-0.447565860060758,45.027277520373275],[-0.449038602559864,45.02727424080713],[-0.450947314981522,45.02712764340787],[-0.453135332293429,45.026646997261615],[-0.453175502818667,45.02670072649027],[-0.452459367655429,45.02753496726758],[-0.451920573269854,45.028648494631],[-0.451518288847306,45.02923506436995],[-0.451408961049341,45.029646718180985],[-0.450863782801853,45.03076043778068],[-0.450169650707698,45.03296296749671],[-0.449883375585745,45.03341164874216],[-0.448836609152586,45.03375051518314],[-0.448501062379259,45.034018668446485],[-0.44755596821439,45.03466710276985],[-0.446835793929925,45.03494355987315],[-0.445628155598394,45.03556045314445],[-0.44547215359521,45.035297614197965],[-0.443540129968719,45.033645054026124],[-0.443570045027636,45.03324307670766],[-0.443355335856507,45.032562975649185],[-0.442438381129289,45.031541400085246],[-0.442075551824818,45.0306018164641],[-0.440414682432399,45.03147420302862],[-0.438323265717444,45.03272486731492],[-0.437786250177389,45.03259004967686],[-0.436620730954833,45.03294148007413],[-0.435365027637316,45.03273511324436],[-0.435194127866237,45.03311890750122],[-0.434226563968496,45.03294779390738],[-0.4331664522059,45.03414760123057],[-0.431248185552563,45.03387330369254],[-0.431133238203392,45.03394714383853],[-0.430870800028793,45.033957938265],[-0.427351388002723,45.033854589015746],[-0.426603333130341,45.033324267758836],[-0.425136230433866,45.03271603781741],[-0.424577268772824,45.032325883560034],[-0.423307419717177,45.03192875727224],[-0.421793851745639,45.03157786394811],[-0.421971928229821,45.0313515874065],[-0.420411298326557,45.03091650657339],[-0.422854523520823,45.02672727883888],[-0.422521292808044,45.02645274048311],[-0.422159425383471,45.02593845425038],[-0.422051564031601,45.0255254043977],[-0.422462590014357,45.02443309314059],[-0.423309963038243,45.02303716142132],[-0.423336077002339,45.02282006349363],[-0.423098165841277,45.022109105014806],[-0.423236241745672,45.021374863421585],[-0.424635206171875,45.018507368560385],[-0.425749376985045,45.01705093234691],[-0.42704285731597,45.01559797285401],[-0.427554049604862,45.015646212363926],[-0.427747035802582,45.01566459982599],[-0.430136473876959,45.01702391010859],[-0.431119738425174,45.016087855699865],[-0.431977275745984,45.0163966635558],[-0.433854339798878,45.017272420318484],[-0.440460893597503,45.01870676438267],[-0.440934664086664,45.01864164407152],[-0.441956426118634,45.01880921258097],[-0.442442150658791,45.018690543117344],[-0.443188562044936,45.01871971809673],[-0.444635799986494,45.01861543935988]]]]}},{"type":"Feature","properties":{"fid":4253,"ID":"COMMUNE_0000000009754778","NOM":"Tauriac","NOM_M":"TAURIAC","INSEE_COM":"33525","STATUT":"Commune simple","POPULATION":1330,"INSEE_CAN":"13","INSEE_ARR":"1","INSEE_DEP":"33","INSEE_REG":"75","SIREN_EPCI":"243301223"},"geometry":{"type":"MultiPolygon","coordinates":[[[[-0.478231121149602,45.057540131022414],[-0.478688218514161,45.057324868229855],[-0.478882512872068,45.05713674213534],[-0.479510243875753,45.056884599634834],[-0.479805515032302,45.056888890118444],[-0.480067288737729,45.05676354366179],[-0.480337713055334,45.0560620186726],[-0.480920452479363,45.05525068814194],[-0.480994156728405,45.05449402599951],[-0.481394055453749,45.05317649177719],[-0.481608816731752,45.052888581374276],[-0.483510560781429,45.05194314721044],[-0.485793184099145,45.04994929838724],[-0.486585579535076,45.04950539478731],[-0.487215297241687,45.048879118258924],[-0.487929288925855,45.048564738962575],[-0.488077007295838,45.048425821791525],[-0.488206656208642,45.04793597702928],[-0.489678447560128,45.04692999864152],[-0.49038028531155,45.04658443928621],[-0.491021530756095,45.04561439535292],[-0.493044205336931,45.04563475838463],[-0.49319685618421,45.04553443360981],[-0.493420045845975,45.04511825369806],[-0.495750800747148,45.04402664615714],[-0.496675183556532,45.04388675501045],[-0.498302830060974,45.04324257602428],[-0.499269637178917,45.04302922778068],[-0.500932583135436,45.04290933987299],[-0.502794081596882,45.0426308637047],[-0.504065506871278,45.042349303445995],[-0.504375852770496,45.04216919228302],[-0.504817922118922,45.04127112466069],[-0.505323032657698,45.04079106262075],[-0.505418003632833,45.04031850857755],[-0.505320218774269,45.039751984144196],[-0.50570656354016,45.038127439605],[-0.506478382349491,45.03608247313178],[-0.50664831183807,45.030518978295056],[-0.50969771702355,45.03103030236066],[-0.510300665213575,45.03134205159686],[-0.511634758686953,45.031618110491976],[-0.511647493668165,45.03153749528473],[-0.512848231303939,45.03177448693068],[-0.513224899564522,45.031295736035716],[-0.513418106642514,45.03129594517828],[-0.513077800325365,45.03253602701832],[-0.514990411281541,45.03236928213369],[-0.516977767745176,45.03171345263064],[-0.517993905320817,45.033036854625486],[-0.520651094655535,45.035673783620275],[-0.520873121276064,45.03599031890073],[-0.520821503662408,45.03668503570648],[-0.520609754272231,45.03738031180521],[-0.52021483327728,45.03795249827137],[-0.51974188083589,45.03833517844575],[-0.521421406808576,45.03872367793115],[-0.522247562051831,45.03902470023958],[-0.522381473031814,45.039213336343906],[-0.523428179269736,45.03984715319286],[-0.523573287792432,45.04003182848315],[-0.524375110362675,45.04041021540437],[-0.524579487535272,45.04086970644299],[-0.525293735427339,45.04135090301323],[-0.525504416935419,45.0421725089438],[-0.52629998867497,45.04261236888776],[-0.527680740216862,45.04315895707991],[-0.529868645220472,45.04428740125701],[-0.531016432554686,45.04529108043744],[-0.53162164582884,45.04609745883471],[-0.532291252862406,45.04653406589153],[-0.53298206261601,45.04682308638823],[-0.533888827981183,45.047028637494144],[-0.534292967262038,45.04829383407526],[-0.535071576567342,45.04997164640838],[-0.533801423020827,45.05035446465405],[-0.532601273102444,45.05049710620556],[-0.530890920187801,45.05097677718455],[-0.529535959593295,45.051104466961405],[-0.529445169937685,45.052688203735144],[-0.528971203352198,45.05265275742369],[-0.528871493628084,45.05302724859786],[-0.526825895735431,45.0529307428578],[-0.526612763450881,45.05326105660772],[-0.52706244711788,45.053516295071056],[-0.527579525082247,45.0541344176061],[-0.527666474038303,45.05438402283799],[-0.527609426996993,45.054931109247335],[-0.527165287198547,45.05633676906324],[-0.527134571090798,45.05679739877616],[-0.52568776118274,45.05696309724452],[-0.524830351528834,45.05717951664879],[-0.524583691036773,45.057341445677515],[-0.524381597927115,45.057625439515085],[-0.524176370559331,45.05771845948205],[-0.523503659361045,45.057516232659744],[-0.522619578873999,45.058843862368626],[-0.521304222936255,45.0587151289377],[-0.520232000266899,45.05879229740527],[-0.519625674829134,45.058695200940306],[-0.519113407522265,45.05833465727598],[-0.518594121482144,45.05782201642886],[-0.518434254883724,45.057463851578525],[-0.518284866342496,45.056605143431334],[-0.5179019685237,45.057027326676554],[-0.517366058454097,45.05724073871849],[-0.516791555027817,45.05773025827889],[-0.516151090368731,45.057959584697386],[-0.516057297304094,45.05818696606148],[-0.515315646562935,45.05850600598364],[-0.515010584707614,45.058750872119056],[-0.514868784100762,45.05979272418119],[-0.515170615658813,45.06018426570839],[-0.515163394414769,45.060372861671794],[-0.514751021386867,45.06093385967799],[-0.514661789059514,45.06159821759687],[-0.514220832206473,45.06194741307189],[-0.514203828872685,45.062648245980206],[-0.513772812608032,45.063196309038624],[-0.513497996504095,45.063315838906355],[-0.513350876054339,45.063544900412204],[-0.513265008450074,45.06395949569588],[-0.513452773223849,45.06472146357334],[-0.513501462263687,45.06551666094613],[-0.513952664674408,45.066807480585645],[-0.514791650384137,45.06805541653292],[-0.515108350679907,45.06835906659243],[-0.515053792137064,45.06852301993802],[-0.517088280615254,45.07015319677109],[-0.513164690693794,45.071371206365455],[-0.509019200628483,45.074244510028436],[-0.507808619180441,45.07352016295256],[-0.507076932083467,45.072136307679465],[-0.506869766034196,45.07114511397399],[-0.506564130210255,45.070266977288526],[-0.506318495538651,45.0698790498389],[-0.505135963613342,45.07010734889832],[-0.502811396059166,45.06997229744438],[-0.502516438464614,45.07009603731532],[-0.502042841144393,45.07014968706206],[-0.500149650198199,45.06995685082768],[-0.500250544502465,45.06955711773676],[-0.498922069374708,45.06942492066509],[-0.498950143894622,45.06841010306381],[-0.496758326439142,45.06840324419747],[-0.496376617281708,45.06636663329427],[-0.494237362178367,45.0666500893966],[-0.491895060718559,45.0667983715332],[-0.491566070616994,45.0673548585034],[-0.490621328701029,45.067358340496725],[-0.488294594590843,45.067817897281365],[-0.487857442493184,45.068047895421415],[-0.487286935471261,45.06815859406264],[-0.486457286678854,45.06864151641381],[-0.485414176225052,45.068536275968],[-0.484439905174217,45.06827024860029],[-0.483948254755194,45.068319879913275],[-0.483301638324919,45.06808685211008],[-0.483005908501176,45.06783112967908],[-0.483139315641217,45.06766562992788],[-0.483059360722212,45.067505001411476],[-0.482786111679521,45.06732428185086],[-0.482413503366561,45.06622196896776],[-0.482397021474114,45.06522207818321],[-0.482229136404751,45.065038062539344],[-0.480638432748815,45.06426584261403],[-0.480138195011036,45.06411564557261],[-0.477378923705919,45.06361062193405],[-0.476692013610345,45.063403151097646],[-0.476922956956714,45.06251540547727],[-0.477280882707317,45.06170660996618],[-0.477747510724378,45.061030508686024],[-0.478384077083031,45.05981554831817],[-0.478112809451456,45.0579277651091],[-0.478105729929008,45.05771168318497],[-0.478231121149602,45.057540131022414]]]]}}]}