{"type":"FeatureCollection","name":"COM_64087","crs":{"type":"name","properties":{"name":"urn:ogc:def:crs:OGC:1.3:CRS84"}},"features":[{"type":"Feature","properties":{"fid":4227,"ID":"COMMUNE_0000000009760309","NOM":"Baigts-de-Béarn","NOM_M":"BAIGTS-DE-BEARN","INSEE_COM":"64087","STATUT":"Commune simple","POPULATION":867,"INSEE_CAN":"16","INSEE_ARR":"3","INSEE_DEP":"64","INSEE_REG":"75","SIREN_EPCI":"200039204"},"geometry":{"type":"MultiPolygon","coordinates":[[[[-0.818561300624917,43.53938736936865],[-0.820131001873635,43.53733506596435],[-0.820905673373244,43.53546838780408],[-0.821042898047594,43.534609616094215],[-0.821368512704858,43.53379104694977],[-0.822610575868422,43.52672933380736],[-0.822822654929212,43.52496895393558],[-0.822918024912903,43.522887511991236],[-0.823795581648128,43.52266290246339],[-0.824574193953562,43.52227243071123],[-0.826240341032299,43.52216050258117],[-0.828770568761897,43.52269902477934],[-0.829221968335665,43.52285963604492],[-0.83044987856493,43.523544991953784],[-0.830846720066702,43.52357420948738],[-0.830964520249449,43.523298914104586],[-0.831459262397481,43.52290310736097],[-0.831587295539024,43.52254007447852],[-0.831840530179489,43.52230953477158],[-0.831335977343847,43.52220575983003],[-0.830969979365599,43.52191513080635],[-0.830587230848658,43.521076521152104],[-0.83035866578337,43.51989557512332],[-0.828468167938195,43.51976057255406],[-0.827677783413499,43.519565087076025],[-0.827521527652975,43.518985102144065],[-0.826966818138832,43.51900107998907],[-0.825568067768298,43.5160652946699],[-0.824161165770688,43.515197948392505],[-0.82401744936955,43.5148427111111],[-0.824140846094881,43.514614067805226],[-0.825982397604332,43.51438875790727],[-0.82646581553508,43.51419514640634],[-0.826762131886546,43.51396129722811],[-0.825662841845736,43.51308491578496],[-0.828029568136312,43.5109169983124],[-0.828034560356422,43.51076909643282],[-0.828527295042084,43.510437328755856],[-0.828569663300954,43.510274595375165],[-0.829579641432614,43.509292216385184],[-0.82956134063833,43.50890643446625],[-0.830608224151318,43.50821819271253],[-0.830529215313028,43.507905716708265],[-0.830877755341777,43.50749075790245],[-0.831539331776904,43.50731604730091],[-0.831467282848056,43.50697810461289],[-0.83171534331922,43.50589202152341],[-0.832591162004606,43.506090754265124],[-0.832647243985598,43.50465024990536],[-0.832512436818163,43.504428924478056],[-0.83192988971293,43.503951397508246],[-0.832274162887325,43.503491546853844],[-0.833008454858385,43.50281252981108],[-0.833955338939766,43.5032978818477],[-0.835205058171162,43.50407426827132],[-0.837829093843954,43.50619367846673],[-0.838298393967436,43.506697706285365],[-0.838573570441587,43.5071671714544],[-0.838874303676573,43.508241048610806],[-0.839254261419931,43.50887074260892],[-0.839847955600982,43.50925416077609],[-0.840509657544326,43.509414477640306],[-0.841850144385872,43.5095093011157],[-0.843037456028255,43.50979329627208],[-0.84434366521711,43.509764096969676],[-0.84507747627841,43.50950387007547],[-0.845602068622808,43.50942761204498],[-0.847344881206809,43.5098377787659],[-0.850143279135011,43.50967356989945],[-0.85139199611538,43.509691366324674],[-0.852015025633994,43.509625091385814],[-0.852504489143982,43.50943114517399],[-0.853869698071212,43.507920655194],[-0.85481908731493,43.50713024438204],[-0.855989477504464,43.50563205876693],[-0.856703828848517,43.50499141335092],[-0.85736024984642,43.50468611238171],[-0.857998736145947,43.504685007923044],[-0.859961936746639,43.50491327385268],[-0.862218489796633,43.50547334975848],[-0.863109685695398,43.50547582199053],[-0.865174517610399,43.50491489063773],[-0.867101564224455,43.50383367791646],[-0.868167601178005,43.503510992433604],[-0.869693798764302,43.503406072788906],[-0.870608484379348,43.50350042450598],[-0.87229415827405,43.503943756492134],[-0.87342994701431,43.50449048797137],[-0.874494643150772,43.50519378447073],[-0.874150091420734,43.50564478339726],[-0.873434178797972,43.50719540278427],[-0.872713240800609,43.507112166381056],[-0.871165184232314,43.50893210577661],[-0.871037249694567,43.50929248591101],[-0.870748485020864,43.50952529204889],[-0.870243240893346,43.50979645318493],[-0.869492374025039,43.50963679496296],[-0.868960014280001,43.509634177474716],[-0.868327406695944,43.50981529222537],[-0.867935642977209,43.51024633599323],[-0.868838078121621,43.512729135582234],[-0.868497566248393,43.51327815771428],[-0.868383405490658,43.51454153613944],[-0.86842918830984,43.515349713564234],[-0.869096809207006,43.516238391566375],[-0.868496583734369,43.517874931245146],[-0.86936974476153,43.5180293357413],[-0.86912186501635,43.51886961455711],[-0.868191663153744,43.519209976639196],[-0.867163687292845,43.51975289318136],[-0.866962287415143,43.5201627310997],[-0.866888958475865,43.52096705278668],[-0.866556662203133,43.521418490881075],[-0.866596730949184,43.52173774470407],[-0.866126403833878,43.52225355615007],[-0.865837788033941,43.52236113262063],[-0.865521885428238,43.522688574093095],[-0.865426637891831,43.522983827068835],[-0.864869480931239,43.52371801807734],[-0.86478801190558,43.524401922782346],[-0.864082845031269,43.52503419045763],[-0.863863048958928,43.52563114288667],[-0.863276196075516,43.5258511287601],[-0.863277696631113,43.52666449347284],[-0.864019833874376,43.52777665683058],[-0.86453174924122,43.5283006939483],[-0.865623169279636,43.52880767566994],[-0.866265037368016,43.529238794939005],[-0.867277565726783,43.52965849430198],[-0.867808417187003,43.53009536617615],[-0.867001658375971,43.53043311265822],[-0.866616526628792,43.530781042516544],[-0.866309160450067,43.53088658556038],[-0.865821926165062,43.53133633986242],[-0.865648147397629,43.53169744987037],[-0.865672442168855,43.53194790710048],[-0.865932753499508,43.53243046466639],[-0.865821042993469,43.53363971879172],[-0.866387853571824,43.53503287083325],[-0.866263984949579,43.53538139349539],[-0.866547025540552,43.53574153275797],[-0.866583786265256,43.53604829687421],[-0.866481619422094,43.53633299002563],[-0.864937710997625,43.538192330746625],[-0.864722996173277,43.53879181034175],[-0.864570733098416,43.539380957097116],[-0.864610633142986,43.54017584671193],[-0.864734926890694,43.541175815745575],[-0.864903850559852,43.54099954415636],[-0.864990562243181,43.54215849401676],[-0.864468848352842,43.54351388062027],[-0.863961749458576,43.54416701558521],[-0.861812644378684,43.543331037010454],[-0.860727290859573,43.542733706754824],[-0.858235162204732,43.54195130810272],[-0.856282424654065,43.541731596145326],[-0.855911693929756,43.54174297493216],[-0.854934847197462,43.54231727778358],[-0.853456171444323,43.54255538668201],[-0.852825366261697,43.542511136636136],[-0.851448015168638,43.54222946059423],[-0.85078580841953,43.54190166162946],[-0.850216331334609,43.541940795212156],[-0.849489656498242,43.54175940485257],[-0.847644155090759,43.54203027020109],[-0.847170917928025,43.54191644141469],[-0.845904490871328,43.54223609676641],[-0.844694503473233,43.54273299461816],[-0.84331112725635,43.54311891897918],[-0.842924653792025,43.54315423149704],[-0.841231802830041,43.54306106096863],[-0.840246532780232,43.54321575473338],[-0.839809389260137,43.54316006835888],[-0.839224044248358,43.54264751951014],[-0.838213929308429,43.54224548416285],[-0.836909509221047,43.54227542159314],[-0.836291952939167,43.54192884257834],[-0.835965747360102,43.541550337733696],[-0.835645201219351,43.54160851497304],[-0.834622668509536,43.541520361748056],[-0.834473550121447,43.54140132473909],[-0.832137509683259,43.54076145391953],[-0.830462785080593,43.54060442324137],[-0.82899202933135,43.540163625500114],[-0.828944348038102,43.540469774182554],[-0.827985102740276,43.54001180524735],[-0.82731850144841,43.5398569748949],[-0.826350049537349,43.53950200669594],[-0.825157435809978,43.5394621032188],[-0.82479744152964,43.53954145682784],[-0.824264567252421,43.53953502527843],[-0.823330091762244,43.53980127311888],[-0.821539676707321,43.539672505941915],[-0.821205815682779,43.53971669697203],[-0.821132390091141,43.540027350799924],[-0.820394120084013,43.539948867456715],[-0.819619657307905,43.53953115905743],[-0.818561300624917,43.53938736936865]]]]}}]}