{"type":"FeatureCollection","name":"COM_33315","crs":{"type":"name","properties":{"name":"urn:ogc:def:crs:OGC:1.3:CRS84"}},"features":[{"type":"Feature","properties":{"fid":4193,"ID":"COMMUNE_0000000009754766","NOM":"Les Peintures","NOM_M":"LES PEINTURES","INSEE_COM":"33315","STATUT":"Commune simple","POPULATION":1633,"INSEE_CAN":"21","INSEE_ARR":"5","INSEE_DEP":"33","INSEE_REG":"75","SIREN_EPCI":"200070092"},"geometry":{"type":"MultiPolygon","coordinates":[[[[-0.127340336788297,45.06868397209765],[-0.126904970652204,45.06906204216269],[-0.126916619056013,45.06940683557947],[-0.127179642663411,45.06976709855109],[-0.127539732961054,45.06990747061534],[-0.127928241066363,45.069896560022464],[-0.128233150205659,45.0698005896544],[-0.129238151590302,45.06871717001742],[-0.13010259290116,45.06966696636486],[-0.130433326309549,45.070259605217075],[-0.130376512247632,45.0707667190144],[-0.129888977474527,45.07191670755944],[-0.130203709869517,45.07285942423592],[-0.129923889662107,45.07324484888743],[-0.129782131373622,45.073370480901715],[-0.129540813802356,45.0734214155618],[-0.129029214407702,45.07334658033109],[-0.128186115939311,45.07289267988],[-0.127415300026281,45.07273050208915],[-0.126338320116386,45.07289229779999],[-0.125796648477449,45.07330308292678],[-0.12480466215983,45.07516825667947],[-0.124232373631495,45.07541859588492],[-0.123191278584637,45.075518078406695],[-0.122713322405942,45.07497550208823],[-0.122066036432708,45.074611582211396],[-0.121288966307783,45.07445133930578],[-0.120596898299305,45.07526730016267],[-0.119909820192767,45.07564878819901],[-0.119740803418876,45.07708716635131],[-0.117314411954159,45.07959977038292],[-0.116421292587305,45.08018794534259],[-0.115421683674399,45.08044027916588],[-0.114468815984112,45.08080123054371],[-0.114049611267563,45.08113013551851],[-0.113547644370485,45.08239398508074],[-0.112857875310925,45.083506289544246],[-0.112597589554879,45.08376586888967],[-0.111708278353011,45.08465306042829],[-0.111103702459701,45.084874494200925],[-0.109876477126264,45.083895029153446],[-0.108681688598732,45.08310928291117],[-0.107604420850761,45.08278971565464],[-0.107293904964868,45.08255778580214],[-0.106665097206723,45.081427332843504],[-0.106457010528024,45.079147067576486],[-0.106071521005338,45.078778458083384],[-0.105176713354477,45.078330333170285],[-0.105165496612492,45.077716102439105],[-0.105294713541919,45.07727186723012],[-0.105821456194009,45.07645160692311],[-0.105811978950121,45.0759833044187],[-0.105599684327033,45.07564140305006],[-0.105297975699799,45.075383993331734],[-0.104144246713337,45.0749439815034],[-0.10381522036145,45.07474409800747],[-0.103589375276242,45.074088992200544],[-0.102800106850367,45.07368476712175],[-0.101396794077273,45.0734670409358],[-0.100256161010944,45.07360602515482],[-0.097620097169387,45.07443537839351],[-0.097231450190255,45.07501837558856],[-0.097428709184632,45.075503081054286],[-0.09816445221225,45.07622691631736],[-0.098621894439099,45.07761988737698],[-0.099382712643281,45.078451149166966],[-0.099516612985267,45.07898537274557],[-0.098543032912619,45.07906562272652],[-0.097826600635974,45.07944868709628],[-0.09713765877601,45.080764508404904],[-0.09655874781965,45.081288815352224],[-0.094682039066033,45.08141395534096],[-0.09352273082708,45.08137947523752],[-0.09340816650996,45.08130876763778],[-0.093275381342661,45.081046634689905],[-0.093440814782358,45.07845051977634],[-0.093316902320798,45.078118757321974],[-0.092547041090069,45.07785809424584],[-0.091741783232146,45.07799218224442],[-0.091706422612272,45.078916774924444],[-0.091400637399829,45.079274882240334],[-0.09019705171446,45.0795659877539],[-0.08846327458047,45.07935365832862],[-0.086343924104728,45.078630259596316],[-0.085562280207859,45.07810946290323],[-0.084984652360409,45.07796687158521],[-0.08473972125768,45.07797635795958],[-0.08433589883984,45.07791815703942],[-0.080026915581972,45.07895378362802],[-0.078408491119298,45.07743965628446],[-0.077278746396182,45.07703925642929],[-0.076452649529412,45.07709541524365],[-0.076172793522835,45.07716351635574],[-0.075974623022026,45.07746814643527],[-0.075780241388344,45.07869717647416],[-0.075606979225459,45.078738003546306],[-0.073382694237136,45.080081626293804],[-0.07231082959358,45.08052658970417],[-0.072198806292126,45.08033955223988],[-0.071147537761929,45.07963146068799],[-0.071170024659806,45.07950829449158],[-0.070193878822065,45.07852329593529],[-0.069157329506412,45.07782739691872],[-0.067971914022628,45.07666613023401],[-0.065275854839788,45.07559959785142],[-0.06345252298373,45.07351602418358],[-0.062397418020631,45.07296565064099],[-0.06229236257373,45.0724405122026],[-0.062151623901749,45.07235517568059],[-0.062335353210208,45.07155357884134],[-0.062570754129233,45.07157954481573],[-0.062959975026415,45.07058307163729],[-0.063922000958083,45.06948163472515],[-0.063711150427487,45.068928771918365],[-0.06431399825217,45.067028050624],[-0.060829296070241,45.06580651563264],[-0.053940501176253,45.06373666549798],[-0.062495325433593,45.05308811225979],[-0.063541866121215,45.05249074975629],[-0.064344303243906,45.05191631464058],[-0.065867119077288,45.05068588645474],[-0.066302059621375,45.05010984137384],[-0.067530993131259,45.049108243303614],[-0.067671013300808,45.048880019779624],[-0.067607728657743,45.04867632034087],[-0.067728372664635,45.04786293749513],[-0.067690920516929,45.046994440647794],[-0.068957518801369,45.044155414443296],[-0.076259779368215,45.04356010194317],[-0.082877716628153,45.04367257975768],[-0.082910246414285,45.043755478605384],[-0.084160139370549,45.043672200145465],[-0.084513444515886,45.043625467475124],[-0.086345477461337,45.04292051170918],[-0.088711374693788,45.04511839281677],[-0.088836388978116,45.04537984032361],[-0.088489074239844,45.04542011280807],[-0.088109291585738,45.04560906109387],[-0.085837892045132,45.046991216525015],[-0.086447761664538,45.0477240044843],[-0.087629524130716,45.04956006630003],[-0.086171234917811,45.04978521949291],[-0.086692716444601,45.05119626418843],[-0.085925349558339,45.051687896936876],[-0.087227214820911,45.053510726171645],[-0.087921330177339,45.05397175195355],[-0.088513642703222,45.054614912014394],[-0.089684280331432,45.05527896746591],[-0.090204222183997,45.05537086587137],[-0.091387846563402,45.05590118447916],[-0.092594101199249,45.05681742574525],[-0.096341361943156,45.05848391140335],[-0.098473312403959,45.059078794280786],[-0.098317303982888,45.05915432072402],[-0.098486270052734,45.05931271521693],[-0.099945530327334,45.059376626482766],[-0.102021647426092,45.059765748498116],[-0.102436572787878,45.05993440599109],[-0.102876249141884,45.059976220464186],[-0.10319301713288,45.06036927725965],[-0.103618783475826,45.060572770815725],[-0.104429814165637,45.06075380886812],[-0.105558743451052,45.06084397709542],[-0.106833369724491,45.06142837019719],[-0.107141187625788,45.06136211219815],[-0.108494229665496,45.06196141984097],[-0.108895003762851,45.06203493406764],[-0.109141796292447,45.06219744844506],[-0.109412443730016,45.06219439708362],[-0.109617526877674,45.06238420665527],[-0.110304325653571,45.06259390278405],[-0.109891660400064,45.063129861448395],[-0.113705529621693,45.06458217553291],[-0.115443523962432,45.065812216993386],[-0.115820327001495,45.06552323792627],[-0.116416132424449,45.065810234738464],[-0.1159122833932,45.06692276446566],[-0.115661934119114,45.06815795743943],[-0.117179864529053,45.069269782461866],[-0.118993506150396,45.06868285505197],[-0.120743591649123,45.06839323718561],[-0.121471195330994,45.06810161682815],[-0.124065543105981,45.06810726777096],[-0.126131153237952,45.06854941464299],[-0.127340336788297,45.06868397209765]]]]}}]}