{"type":"FeatureCollection","name":"COM_79337","crs":{"type":"name","properties":{"name":"urn:ogc:def:crs:OGC:1.3:CRS84"}},"features":[{"type":"Feature","properties":{"fid":4142,"ID":"COMMUNE_0000000009749696","NOM":"Le Vanneau-Irleau","NOM_M":"LE VANNEAU-IRLEAU","INSEE_COM":"79337","STATUT":"Commune simple","POPULATION":861,"INSEE_CAN":"05","INSEE_ARR":"2","INSEE_DEP":"79","INSEE_REG":"75","SIREN_EPCI":"200041317"},"geometry":{"type":"MultiPolygon","coordinates":[[[[-0.672133390860618,46.316336333688916],[-0.665489775959244,46.31682891731135],[-0.663281013905057,46.31710551950655],[-0.661971630323891,46.317038557624265],[-0.6612110713038,46.31685207454249],[-0.660414128368897,46.316549568623365],[-0.657617965864355,46.315105160110356],[-0.657393979063532,46.31502401305608],[-0.656793760249856,46.31499731551717],[-0.656322055216941,46.31510260597478],[-0.65521463241391,46.31638214349927],[-0.654800123738612,46.31670103514417],[-0.654115091807846,46.31706015616877],[-0.653182224551249,46.31748761967608],[-0.652579383479962,46.31755833850973],[-0.651988443417847,46.317515091380734],[-0.649823267903259,46.31698414810395],[-0.648685281386844,46.31702872743894],[-0.648248874424402,46.31696157976277],[-0.648023048524113,46.317340205317414],[-0.646486871844282,46.31800778814228],[-0.644595209696366,46.31933485644908],[-0.644112919375522,46.31947739186443],[-0.643403064111431,46.31944601765904],[-0.642670894006029,46.31906018858587],[-0.642448985944065,46.318580512966385],[-0.642532687432649,46.31813793699119],[-0.641985367966137,46.317401844625486],[-0.642166038173735,46.31702828230485],[-0.642142707248772,46.316482760678184],[-0.642240768122179,46.31606045847399],[-0.641865970435748,46.31527738221241],[-0.641943240929952,46.314953099767095],[-0.641419708933273,46.3140071127136],[-0.640536309580768,46.314201221606105],[-0.640069598755041,46.314127800979136],[-0.633966335171942,46.31170949130676],[-0.633392930187235,46.31151775642404],[-0.632427089487162,46.311332228178735],[-0.632038065917267,46.31133111596925],[-0.631334779950897,46.31147523886053],[-0.630615713842776,46.31181276568891],[-0.62975613724276,46.31236570036741],[-0.629155130640244,46.31256153584931],[-0.628693105399445,46.312558231395855],[-0.627925962955412,46.31225004911317],[-0.625571217663877,46.31095217817468],[-0.622338208836546,46.30994361737632],[-0.621183396719343,46.30986947365658],[-0.618190727935022,46.310289118317904],[-0.617297192896304,46.31054646785699],[-0.614633058018074,46.30958091705613],[-0.614116877593439,46.30989927684578],[-0.613551872529043,46.309931631296806],[-0.613131927808954,46.31026946769524],[-0.612002368469193,46.308647598328214],[-0.611142450244641,46.30689277263521],[-0.61097319512347,46.305334182461344],[-0.610934450536445,46.30350643636058],[-0.611173017814576,46.303337516144715],[-0.611819447892198,46.30063980071171],[-0.613046368027924,46.29688702553102],[-0.613152038257143,46.29704953277416],[-0.615193075537736,46.29066397607266],[-0.616463003671711,46.28625084044234],[-0.617493694007528,46.2816046069379],[-0.618427051846143,46.28219241006598],[-0.618857454814102,46.28231123425092],[-0.619178449729156,46.28230913972073],[-0.6196781766575,46.28198225591447],[-0.620424095107841,46.28105349970918],[-0.620609572529895,46.28106652902544],[-0.621036882210572,46.280490445014316],[-0.621041919937561,46.28015405338527],[-0.621179705373991,46.28029119288507],[-0.6248260972293,46.28085478429026],[-0.625903868170255,46.28116840187527],[-0.627313733388539,46.281725628040284],[-0.628170202630157,46.28187771126317],[-0.627837413652904,46.28281949503365],[-0.628691470426924,46.28295452467454],[-0.629270569477682,46.28313888073912],[-0.635971969248081,46.28459173096924],[-0.636999297765104,46.28512230163019],[-0.637527611912714,46.285754449312996],[-0.638210396095038,46.28612835461646],[-0.642345312104371,46.287009316812075],[-0.644126529666409,46.287221830436636],[-0.646361346687609,46.28762621484313],[-0.646932011765783,46.28781886762983],[-0.64716438792746,46.28802776672869],[-0.647351236773752,46.28808037275309],[-0.647603659833057,46.288121862655814],[-0.647995152276013,46.28757746735251],[-0.648854868095478,46.28806823648624],[-0.648977974669768,46.2879254683177],[-0.649428319973739,46.28810754326888],[-0.649607052802022,46.2879215246144],[-0.650564435162753,46.288238777754415],[-0.650310253912259,46.288463275258444],[-0.651367867442049,46.28893776379959],[-0.651041440422339,46.28926824605433],[-0.651965629256348,46.28986690092749],[-0.652601223077414,46.29060281472437],[-0.652738344083258,46.29088417101349],[-0.652926203823324,46.291516361999975],[-0.652709028351258,46.292742979769756],[-0.652890668964653,46.293788229969316],[-0.653608704827519,46.293927444937076],[-0.655525518755278,46.294102083191426],[-0.655664514298569,46.29388578075846],[-0.65671912585574,46.29392402268457],[-0.656738739159379,46.29380890949089],[-0.657162279735798,46.29382234606804],[-0.657123716397067,46.294062467205386],[-0.659543159580371,46.295024075185424],[-0.659871095906508,46.29459976956489],[-0.660150739397348,46.29335670175484],[-0.66097431612761,46.29132270040723],[-0.662441723929211,46.28962224400163],[-0.663285230999252,46.288276284048514],[-0.663414473345195,46.287740271099715],[-0.663481568151867,46.28557734482291],[-0.664132528158784,46.28609455328187],[-0.665150387536191,46.286556674455596],[-0.665853117116561,46.286759404521135],[-0.667542901468098,46.28694475170651],[-0.670386344302449,46.28783206548453],[-0.672584806219989,46.28883387523951],[-0.67407827947443,46.28917330039658],[-0.674653274943924,46.289273730037515],[-0.673807712792549,46.29068204902263],[-0.673658918464471,46.29073192400678],[-0.673539890218271,46.29192207529633],[-0.672485037101037,46.29397175698835],[-0.671586667638094,46.294769673893384],[-0.670889962023269,46.2959568160485],[-0.671132088288379,46.29601841944993],[-0.670627147647319,46.29717593698071],[-0.670529849034619,46.29719890615053],[-0.670618253078044,46.29795417427256],[-0.670849943838852,46.29789892663354],[-0.671125760755805,46.299527965460136],[-0.66955864669713,46.30005265171375],[-0.669965517435157,46.300902222300664],[-0.669685975171251,46.30096171447756],[-0.669590086715402,46.301141489123076],[-0.670019602740547,46.30159188964117],[-0.671198969043427,46.303272927894916],[-0.674461674925757,46.308799031913324],[-0.674775837814355,46.309699357614484],[-0.67493870661005,46.31051622360969],[-0.674906539080362,46.3109860157781],[-0.675294736943771,46.311206962067985],[-0.67598417354161,46.311109886555805],[-0.677388113630923,46.31105644107616],[-0.677823178167659,46.31110368826567],[-0.678085223264702,46.31103482680032],[-0.677519132173895,46.31352669323417],[-0.677073002188938,46.31443714234959],[-0.676701552926404,46.314659174125225],[-0.674438100651816,46.31555255146776],[-0.672133390860618,46.316336333688916]]]]}}]}