{"type":"FeatureCollection","name":"COM_24537","crs":{"type":"name","properties":{"name":"urn:ogc:def:crs:OGC:1.3:CRS84"}},"features":[{"type":"Feature","properties":{"fid":4065,"ID":"COMMUNE_0000000009754558","NOM":"Siorac-de-Ribérac","NOM_M":"SIORAC-DE-RIBERAC","INSEE_COM":"24537","STATUT":"Commune simple","POPULATION":259,"INSEE_CAN":"16","INSEE_ARR":"3","INSEE_DEP":"24","INSEE_REG":"75","SIREN_EPCI":"200040400"},"geometry":{"type":"MultiPolygon","coordinates":[[[[0.326235848087367,45.21076857359528],[0.327010759925539,45.21031683601576],[0.329079315742578,45.20943926872056],[0.33084164536431,45.20910031247576],[0.331352958503008,45.209042260544365],[0.332312406518974,45.20910122374129],[0.333087809592714,45.209490931064856],[0.333246953099332,45.20968122541174],[0.333395078368698,45.2095153870086],[0.334152318061399,45.20924516860801],[0.335079145241491,45.208733037642226],[0.336237685127569,45.20787866692005],[0.33664944562781,45.20771641072147],[0.337436781129781,45.20750905335707],[0.338167228425358,45.20779945128852],[0.339237003196698,45.20760241766561],[0.340695834990164,45.20686327016524],[0.34158357033406,45.20668800610244],[0.343005861686239,45.20620652702856],[0.344237253961738,45.20593310964304],[0.34493712267607,45.20552721761115],[0.345800980915627,45.20523693508215],[0.3471625797211,45.205145866300185],[0.348832336708276,45.20514047915033],[0.349031185262933,45.205005556565624],[0.350165229597664,45.20509013502125],[0.351391829597237,45.205023739795486],[0.354214791956095,45.204214967737755],[0.355032806577214,45.204056866194705],[0.355264243993113,45.20436325763679],[0.356537106094759,45.20434204756576],[0.356787886955087,45.20413266350207],[0.357151968632164,45.20408722637694],[0.359097052407277,45.2047260575484],[0.359951538482561,45.20465887513936],[0.360696817011463,45.20447558847266],[0.362570476983635,45.20341803363426],[0.362829065330135,45.202961968323635],[0.362798203807146,45.20269817000557],[0.36382082919842,45.20195743680126],[0.364633571782715,45.20226041386852],[0.365309194089347,45.20109525106763],[0.365410298735375,45.19984445568441],[0.365949335924973,45.19957428530015],[0.368412017434497,45.198774684492854],[0.368661328596473,45.1985679437842],[0.368683604472229,45.19831170676803],[0.371850928663355,45.198592622612644],[0.373506470222135,45.19891176792602],[0.374306381426596,45.198945898956445],[0.375489715986427,45.19892867685476],[0.37622196914313,45.19874858729903],[0.377686698262732,45.1985460596743],[0.381107629467866,45.19861014213465],[0.381592624504287,45.19840349652447],[0.384010409052138,45.19812053071796],[0.384036286199815,45.197323828649246],[0.384530172265166,45.197280444473456],[0.38444504178589,45.195834286405116],[0.383912114691431,45.19453619648223],[0.383675284450789,45.19369009463026],[0.382674095122409,45.19262426933869],[0.382077873611295,45.19156342778597],[0.381664996541158,45.189826694221836],[0.381863139064481,45.18978539515543],[0.38185459610631,45.189532939237424],[0.381623501666274,45.189054539621],[0.381305727401429,45.18868581919184],[0.38003875448274,45.18853536666121],[0.380269245653473,45.187587610436736],[0.378052034981658,45.187081490909264],[0.378043100235807,45.18691911659045],[0.377098251927351,45.18666538340518],[0.3768381139156,45.18650791673367],[0.37574423736922,45.186416437659084],[0.373656885199727,45.18604932011578],[0.374719103358752,45.184890506815144],[0.378014453545264,45.18164359783005],[0.378911279028385,45.18088357189455],[0.37923142013069,45.1803865791685],[0.379697573512355,45.18003535789188],[0.381220067218214,45.17921522700512],[0.383422898917227,45.17738579399825],[0.387971083066168,45.175190516676686],[0.385951704655723,45.17492971826463],[0.38490441378226,45.17460968374844],[0.384343427004899,45.17451275200486],[0.382098105642948,45.173611445825216],[0.38127297410529,45.1735524460054],[0.380915188825428,45.17287106996488],[0.378840069445725,45.17257910201307],[0.378953195705097,45.17152589239318],[0.378740059149277,45.16939203583714],[0.378106142213733,45.16870686583352],[0.377845977747337,45.16814489111066],[0.377489949246634,45.16818697505042],[0.375802014711481,45.16792566749372],[0.374120405658659,45.16847800572917],[0.371249471396809,45.168646447079524],[0.370544303727611,45.16852983096977],[0.369824845736358,45.16825701557041],[0.369513078510396,45.16800822171127],[0.368242282196621,45.16776023545558],[0.366854692828498,45.16693739817903],[0.36667117617383,45.16669702790984],[0.366528196868606,45.16651527254853],[0.365731089855706,45.1664315909149],[0.364948426571246,45.16660860888497],[0.362814236790218,45.16689963494301],[0.361117234458723,45.167667635493025],[0.360009013837963,45.167995481187816],[0.358498695901691,45.16807325327462],[0.357873893679478,45.168304411079625],[0.356752509876407,45.16837154828427],[0.356413884434048,45.16826082160312],[0.354079321423702,45.166891948230074],[0.353069111988775,45.16662924497582],[0.35056382410633,45.16574814695084],[0.34802979333118,45.16426719575158],[0.347813431931147,45.163433206242715],[0.347519747076666,45.16312802012225],[0.346358739141522,45.16242292052568],[0.345867300106416,45.16255447737899],[0.344988696872165,45.16257952021362],[0.344718355506275,45.16285507510468],[0.34433963426196,45.162838854012094],[0.34419738839997,45.16291114557892],[0.343968676187778,45.16319489708116],[0.343971014074939,45.16346703109674],[0.343739882337565,45.16356063013388],[0.343560261106965,45.16404375250478],[0.343303635689418,45.164244854412914],[0.343120031370611,45.16424949171576],[0.343008811045528,45.164338737305044],[0.343065143664429,45.164840991582125],[0.342722354332807,45.165032833118076],[0.343008110559869,45.16520991258159],[0.342923055407868,45.16547185743198],[0.343132134194068,45.165681345588645],[0.343028390096485,45.16582752743972],[0.343461916854724,45.16584325553707],[0.343502501356952,45.165927106659026],[0.343287985028056,45.16647426472281],[0.343026462569789,45.16651038093085],[0.342730685234239,45.16689163515645],[0.342633821791868,45.167187533843304],[0.34235109778567,45.167214134404006],[0.342315855212545,45.167312396536644],[0.341883088491049,45.16728046573219],[0.341840120664633,45.16756773761866],[0.341108650308411,45.16771067415546],[0.341063113048663,45.16778436570896],[0.340792062387466,45.16777970824703],[0.340653605839815,45.168039478278594],[0.340162417932506,45.16813768347107],[0.339802847405392,45.16849398604895],[0.339549203705141,45.1686050589729],[0.33955187751232,45.16884296680286],[0.338543132106611,45.16945856795678],[0.338503591820857,45.16964681913656],[0.338084154131388,45.16986925282355],[0.33772654234335,45.16986342410447],[0.3375097888865,45.170188892182246],[0.336241126008429,45.17051177736314],[0.336041011290286,45.17064844556708],[0.335901323244997,45.17093340711109],[0.335723579783025,45.1710282653663],[0.335449197000518,45.17082621281463],[0.335048050402975,45.170851769460725],[0.334213585168041,45.17114986482971],[0.332855063064724,45.17127326270557],[0.33220930076046,45.17143350704856],[0.330807518012319,45.17123601642967],[0.329937566687508,45.17123682613842],[0.329157496155665,45.17156861949941],[0.328177791057324,45.17104154677694],[0.327925891426074,45.17098236026603],[0.327231645318372,45.17114411785544],[0.327210565143306,45.17046701471324],[0.32688634238067,45.16885919728534],[0.327272027907172,45.167373794681204],[0.326857442270427,45.16488720968014],[0.326902733274341,45.16426034754944],[0.325334859447654,45.1630146277828],[0.324543746769935,45.162090226326924],[0.324235666261685,45.161184611941266],[0.323750596241144,45.16062431161436],[0.323390465044656,45.15764350825024],[0.319553412659677,45.15664414637701],[0.316745529388293,45.15550814195489],[0.316356345789597,45.155949245740565],[0.315672447422429,45.156402176883034],[0.315008293265232,45.15628528971367],[0.314423657266862,45.15658023673445],[0.313105888683132,45.15776836855773],[0.312750612253107,45.158218386089985],[0.312428207936089,45.158355669924],[0.312345629783453,45.15851044289235],[0.31239725163426,45.158654934834715],[0.312299594648067,45.15875258575764],[0.311534037037976,45.15918100283173],[0.31143006781702,45.159436164309405],[0.311120579443307,45.15970168848682],[0.31103492186687,45.15999963491546],[0.31061999565079,45.16004819427301],[0.309795782294164,45.16050401624351],[0.309635793125131,45.1607587264987],[0.30896100310437,45.16123165995675],[0.308292838278686,45.16156690642155],[0.308278666918956,45.16196657974982],[0.308071164608478,45.16246699811092],[0.308075617716743,45.16316713243259],[0.308333735529006,45.16314903454882],[0.30889146894496,45.16336159513315],[0.309012339066861,45.16357532928879],[0.309291765430611,45.16377576939961],[0.309807413538495,45.163778293332506],[0.309919690623594,45.16422335953637],[0.310155153477681,45.164543462676896],[0.310545805489434,45.16470874157406],[0.310695985445235,45.164922279305536],[0.310619464829651,45.16510963124495],[0.310828234893947,45.16537593428963],[0.310652449387613,45.165561794729626],[0.31069489584841,45.16576462726852],[0.311081759884981,45.16603522218504],[0.311162472869038,45.166263301944696],[0.310886716158552,45.168921623238475],[0.310533576685821,45.16935186792199],[0.310502911438384,45.16980339865417],[0.310155097322036,45.17020223801935],[0.310010943997359,45.170656438673205],[0.31000178224028,45.17089947063944],[0.310431751649227,45.172073844738456],[0.311639500363403,45.17198852886381],[0.3124428503534,45.17353046148881],[0.312553862157838,45.17413496027298],[0.313335277731004,45.17586915798785],[0.313893468548728,45.17753130790771],[0.314217196919857,45.17805713755315],[0.318908023004049,45.18207638090252],[0.319521416535384,45.182248777817314],[0.320073747339399,45.182552142516904],[0.321432145698566,45.18357938294144],[0.32213947852759,45.18460900609748],[0.322292055202957,45.185066737599946],[0.322548147759687,45.18530532217249],[0.322988674430485,45.185496976478305],[0.323245028795591,45.18583647027982],[0.323618849482793,45.1861175165933],[0.323459061590868,45.18663352419144],[0.3229743605666,45.18696425549675],[0.321417110381193,45.18859182493638],[0.320981551597713,45.19084452327064],[0.320989485344156,45.191634834805036],[0.321705916179943,45.194308887696124],[0.322467092276162,45.19570648080528],[0.323212159277728,45.19656402100437],[0.322956391576804,45.197566036246485],[0.3229576342997,45.197912025787424],[0.324416001971968,45.2004777172654],[0.325467264854383,45.20154258641073],[0.325361722283345,45.2027076721384],[0.326204818499513,45.20561807109128],[0.3263908848303,45.206628873406736],[0.325746073766828,45.206707129326986],[0.326079861690093,45.20737460936867],[0.325931995909139,45.208119747513976],[0.326009020860305,45.20866665942282],[0.326146942557659,45.208660952786914],[0.32642566436978,45.208882049842224],[0.326204867141973,45.208994785860526],[0.326166835682017,45.20928307622737],[0.324865094669128,45.21014292598788],[0.326235848087367,45.21076857359528]]]]}}]}