{"type":"FeatureCollection","name":"COM_19217","crs":{"type":"name","properties":{"name":"urn:ogc:def:crs:OGC:1.3:CRS84"}},"features":[{"type":"Feature","properties":{"fid":3932,"ID":"COMMUNE_0000000009754928","NOM":"Saint-Julien-Maumont","NOM_M":"SAINT-JULIEN-MAUMONT","INSEE_COM":"19217","STATUT":"Commune simple","POPULATION":173,"INSEE_CAN":"10","INSEE_ARR":"1","INSEE_DEP":"19","INSEE_REG":"75","SIREN_EPCI":"200066769"},"geometry":{"type":"MultiPolygon","coordinates":[[[[1.692174472716386,45.02556340057164],[1.690508898374251,45.02690358537128],[1.688740581213667,45.02796428044992],[1.688728362997494,45.028865542856224],[1.688439421648739,45.02916561011792],[1.688762167286021,45.02953681792364],[1.689519798183561,45.02988342742318],[1.690378928047236,45.030505879881794],[1.691320052549421,45.03082671933925],[1.693528543142679,45.03191074877256],[1.69453595629676,45.03265827763243],[1.694191667209637,45.032936098936574],[1.693631801312439,45.033635528637966],[1.692505149662359,45.03418692253215],[1.692027724544445,45.03450909996606],[1.693075601074769,45.03537418339144],[1.693199064377306,45.035689008697446],[1.693182799140562,45.037038677636396],[1.693740713316535,45.038166354884936],[1.694109646171364,45.038466948767415],[1.693937281620361,45.03872337294677],[1.693949400030473,45.04000043465834],[1.692836242391291,45.04089328509665],[1.693142027315054,45.04139665585159],[1.693099116180861,45.04171133014129],[1.694184186126932,45.04283978788827],[1.694667730351349,45.04356496257734],[1.695032484205569,45.043392737530155],[1.695651077344157,45.043828626033566],[1.697328184131122,45.04462899578604],[1.698079620851989,45.0446521906169],[1.699727155204366,45.04454086420945],[1.700590469000572,45.044997591824725],[1.701226163624405,45.04502751947697],[1.701531737349338,45.04548944079782],[1.702807851800564,45.04622291613317],[1.703232273135433,45.04775151735221],[1.703951093888151,45.04830739286305],[1.704764368571199,45.04867975801316],[1.704990342707986,45.048576125732026],[1.705915905416676,45.04854275850335],[1.707434221331327,45.04814525517413],[1.708827627826305,45.048205541914584],[1.709425643782432,45.047998152270935],[1.710521213058025,45.04808378253872],[1.710774538980573,45.047619352310555],[1.712687396957403,45.04691026686729],[1.713437196718445,45.04717197275496],[1.713875604273068,45.047496715615814],[1.714357399652871,45.047260042055875],[1.7180143560479,45.046270216218005],[1.71813228269396,45.04594649139944],[1.718361103176106,45.04588338794271],[1.725276694678347,45.04436256003259],[1.725215521142885,45.04409260950633],[1.724166116590611,45.04293155121079],[1.723971844341323,45.042594338478615],[1.724278246031701,45.04208005976852],[1.724013989477288,45.04180418012677],[1.7245022822295,45.04172422594599],[1.72464522248499,45.04163851424421],[1.724681133578757,45.04140029238986],[1.724624596043767,45.04109437468534],[1.723857685817269,45.03991313545377],[1.723432442544953,45.038955530561445],[1.723499306425418,45.03864112138573],[1.724526125456889,45.037611907131684],[1.723521571794246,45.036662074229234],[1.723523381199362,45.03652701977827],[1.724042714667978,45.03647624009646],[1.724036019104202,45.0359898927831],[1.723662264551583,45.035448910877996],[1.723728879456312,45.0350894740251],[1.724624513591609,45.034463982202595],[1.726241841572436,45.03359910384949],[1.72738916322199,45.03329614687734],[1.728653343081489,45.03254426284802],[1.728728855048494,45.03229478618626],[1.727951432941547,45.03191310085139],[1.726978152138798,45.03109783174284],[1.727269655204007,45.03034114282796],[1.727020325589913,45.0300249188904],[1.726327904828662,45.029481203415585],[1.726079072433597,45.02959001858276],[1.725375669592696,45.02908309189591],[1.724716836691417,45.0291845081477],[1.724341106523803,45.028843417268135],[1.723797989722304,45.02888221832792],[1.723159571149981,45.02864527155711],[1.72476546092222,45.026157587818155],[1.725456536194855,45.025586480761746],[1.726284756752194,45.02557254603922],[1.726265145021092,45.02481590335004],[1.725883710386129,45.023721936424586],[1.724736381481512,45.023085655573894],[1.722507901064754,45.02253331511276],[1.722413838802934,45.02231521569083],[1.721711276374039,45.022055011536935],[1.721373580434536,45.021830511507574],[1.720432467364659,45.022341987635784],[1.719577849372403,45.02179096214007],[1.719425785244518,45.021833337511154],[1.718907211040037,45.02163466459523],[1.716845116169377,45.02152807015512],[1.715802862363676,45.021742077530625],[1.714976474625282,45.02206572655622],[1.714392168324807,45.0220760900567],[1.713722652908751,45.021981908577835],[1.713399116744844,45.02219248889581],[1.713084579497887,45.022177146906365],[1.711890875892022,45.022460506700355],[1.710530338873494,45.02309581827937],[1.70961081906627,45.023436359469116],[1.707759629200349,45.024532409583955],[1.707923710868558,45.02485038990802],[1.707568526799667,45.02511011417976],[1.707549468078784,45.02522065461307],[1.706745499870133,45.02561384289123],[1.704223445298317,45.02562414049422],[1.703332503489913,45.025933446011784],[1.703015075415948,45.025932450144374],[1.702576870009099,45.02538974447679],[1.701883108600701,45.02502595914311],[1.700240515610627,45.02456644904839],[1.696403692399809,45.02454770433739],[1.694967276319068,45.02445163172302],[1.692174472716386,45.02556340057164]]]]}}]}