{"type":"FeatureCollection","name":"COM_40292","crs":{"type":"name","properties":{"name":"urn:ogc:def:crs:OGC:1.3:CRS84"}},"features":[{"type":"Feature","properties":{"fid":4124,"ID":"COMMUNE_0000000009760090","NOM":"Saubrigues","NOM_M":"SAUBRIGUES","INSEE_COM":"40292","STATUT":"Commune simple","POPULATION":1605,"INSEE_CAN":"14","INSEE_ARR":"1","INSEE_DEP":"40","INSEE_REG":"75","SIREN_EPCI":"244000865"},"geometry":{"type":"MultiPolygon","coordinates":[[[[-1.338370696435139,43.580900508672734],[-1.343537272201701,43.58376572266791],[-1.361635634715869,43.588863782477425],[-1.356971552254259,43.593723493034055],[-1.355203214949535,43.59406210305542],[-1.355636400283891,43.594623245445334],[-1.355361257214778,43.59531013532339],[-1.355351381448998,43.596306282081315],[-1.354183098889477,43.59592692120778],[-1.354164536177216,43.59751095385709],[-1.353856698914557,43.598698378882005],[-1.354785611391482,43.59883142825943],[-1.354463724871947,43.6001113356102],[-1.352386129507333,43.60083807110301],[-1.351102361851673,43.60140498669513],[-1.350078591897445,43.60270219798301],[-1.350373801221338,43.604516964436264],[-1.350855771791372,43.605475378740906],[-1.35182853418641,43.60600500257184],[-1.348996878804245,43.60967616417485],[-1.349340834756243,43.60986153590513],[-1.349466213648383,43.61030437774516],[-1.348219890593602,43.61207096858165],[-1.348300444435467,43.61303466288181],[-1.347541364884435,43.613753531526775],[-1.345085972677012,43.61397077703766],[-1.345039460082487,43.614404282909206],[-1.343599600209224,43.61627137879735],[-1.343202050567329,43.61839053685892],[-1.341379970162977,43.61863642430484],[-1.334839926444229,43.61828134689464],[-1.331546812398609,43.61869212027507],[-1.329605505996367,43.61860824508172],[-1.329849077811483,43.62345743184853],[-1.33111676185833,43.63592998183112],[-1.330637510373772,43.63592566244219],[-1.327743207356844,43.6355030484324],[-1.323906217705982,43.635050307851806],[-1.319876748011787,43.634462711347766],[-1.309017689217279,43.63630344501843],[-1.300005961534926,43.6370426705642],[-1.299437313352017,43.6348385107609],[-1.299354861451447,43.63483096121715],[-1.297721432267624,43.62708111945377],[-1.297363994891082,43.6260202351315],[-1.297293885586777,43.62594551372097],[-1.296169017724947,43.62588278872781],[-1.296492489340368,43.62496887805464],[-1.296186086039082,43.62490260376406],[-1.29589080744484,43.624521400368344],[-1.29425453403806,43.62408960686019],[-1.294547787160752,43.62345083653037],[-1.294302399927579,43.62338755096564],[-1.295127657169431,43.621373370363706],[-1.295561558008747,43.62143640529673],[-1.29513209439787,43.617775067979196],[-1.294906723276665,43.61473463855294],[-1.293390228979865,43.60581513654911],[-1.292674743356635,43.604672904500944],[-1.291781269287722,43.60239511673481],[-1.290368698373347,43.601596718081275],[-1.289821235659136,43.60114077487574],[-1.287608179451908,43.59857449569015],[-1.291496042214753,43.59393071101588],[-1.291280099832018,43.59382841499242],[-1.291598501184485,43.593494136345846],[-1.292429876228309,43.59196364759365],[-1.292736476710963,43.59064404011064],[-1.294481782476399,43.59054165293479],[-1.296274194346215,43.590571635353925],[-1.296734084983956,43.59068679068027],[-1.29908641530391,43.59071077782638],[-1.301367432704647,43.590957407602],[-1.302388448827413,43.59030599442698],[-1.302765466639204,43.5904235087722],[-1.30310459466345,43.59043259052118],[-1.30396097441247,43.590296808468814],[-1.304172830564437,43.59017937400274],[-1.303989997961938,43.58970904407126],[-1.304783957843122,43.58961718093774],[-1.305714806548118,43.58964783680074],[-1.306679815097463,43.5913216327301],[-1.308936733615339,43.59139514994372],[-1.310523012672822,43.59166736866075],[-1.311723445831649,43.59150704679277],[-1.313739559233059,43.59106558944499],[-1.315467397266064,43.59084641494318],[-1.3166981464492,43.590809183882676],[-1.317887800158031,43.59098353130847],[-1.317894865126499,43.59092918391883],[-1.319575777943091,43.59077849208781],[-1.319955401593504,43.59144011296961],[-1.32190203353583,43.590274974617806],[-1.322995249781441,43.58908792863998],[-1.324462745340501,43.588130157256195],[-1.325705278594199,43.587148892103386],[-1.328249379147934,43.58674197809274],[-1.329858437775306,43.58631464339524],[-1.333638010910219,43.58421286997478],[-1.334207838776026,43.58409279223169],[-1.338370696435139,43.580900508672734]]]]}}]}