{"type":"FeatureCollection","name":"COM_64155","crs":{"type":"name","properties":{"name":"urn:ogc:def:crs:OGC:1.3:CRS84"}},"features":[{"type":"Feature","properties":{"fid":4252,"ID":"COMMUNE_0000000009761854","NOM":"Bustince-Iriberry","NOM_M":"BUSTINCE-IRIBERRY","INSEE_COM":"64155","STATUT":"Commune simple","POPULATION":104,"INSEE_CAN":"12","INSEE_ARR":"1","INSEE_DEP":"64","INSEE_REG":"75","SIREN_EPCI":"200067106"},"geometry":{"type":"MultiPolygon","coordinates":[[[[-1.174058700111124,43.17855449430334],[-1.174742389184359,43.17767772174668],[-1.175051372650145,43.17771259307394],[-1.174743265783928,43.176123916438776],[-1.175115069382016,43.175938375920296],[-1.175496028041939,43.17555611884466],[-1.17613049612165,43.17605847058201],[-1.17711481022663,43.17607167299465],[-1.177540259321127,43.177001861250744],[-1.178200584665976,43.17675558700738],[-1.178696977425818,43.176829121011856],[-1.178602743227271,43.17629233061104],[-1.179163543455624,43.175419391069475],[-1.179251297706609,43.17384329998208],[-1.179657174025072,43.1732447848821],[-1.181121736915937,43.17207286957514],[-1.181249800048074,43.1721588761836],[-1.182372606839395,43.172436876907874],[-1.182821354814084,43.172736523157745],[-1.18330894909907,43.17367418523661],[-1.183745921714659,43.173794137463744],[-1.185279462903877,43.173744510137716],[-1.185398996539212,43.1736957323407],[-1.185623914711505,43.173148355270364],[-1.185992433236109,43.17285031057424],[-1.187894899383454,43.17249177403698],[-1.188433820932531,43.17213395568495],[-1.189691576511342,43.17159146547744],[-1.189720736656506,43.171637170562526],[-1.190732676536111,43.17115016057116],[-1.190820361128671,43.16995056570072],[-1.189839598289106,43.16859435008752],[-1.190530674640118,43.168485514853266],[-1.191709812878843,43.16806495341958],[-1.192696657354201,43.166996120042754],[-1.193197652182922,43.16718470002516],[-1.192349324560785,43.16839857417469],[-1.193212933202706,43.1693269703917],[-1.193500659408982,43.171831553018876],[-1.191434997088185,43.17261988644177],[-1.191797609207582,43.17298679967678],[-1.192016967183063,43.17299087894991],[-1.192256210072762,43.173167127368224],[-1.192158429610163,43.17346457330296],[-1.192512006880408,43.17419843965113],[-1.192766072571637,43.17440923991062],[-1.192701522888151,43.1746558529864],[-1.192992080992308,43.175131854436415],[-1.193035382268112,43.17571115181895],[-1.193912477647045,43.17672189685703],[-1.19277436254764,43.17774348403987],[-1.192975575718234,43.17800588199793],[-1.193597347884425,43.17794116068641],[-1.194013248854881,43.177702494586946],[-1.194257472524426,43.17767587781495],[-1.19434501246344,43.178220127357875],[-1.195747822150554,43.17804663472317],[-1.196481042154419,43.177838842998014],[-1.197598633898317,43.17733144143874],[-1.198332053098617,43.17658497962898],[-1.198831284478441,43.17710328265059],[-1.199637135197135,43.177031355335195],[-1.19976850376622,43.17716225064173],[-1.199857629302483,43.177609154398716],[-1.199670983157564,43.1790702420242],[-1.199783721997111,43.17916493261008],[-1.199915856075134,43.17974617542752],[-1.200532634144856,43.17979870717523],[-1.200939359041376,43.180415187615424],[-1.201329521765569,43.181751116266184],[-1.201169851386465,43.18216177880978],[-1.203009328243172,43.18309892487657],[-1.202588114143034,43.18324775790197],[-1.201533294906823,43.18328256863035],[-1.202327621019401,43.18420100705169],[-1.20247283872163,43.184555649913534],[-1.200891538520736,43.18483256215861],[-1.200900115692588,43.184967341732424],[-1.201666676170761,43.185436488858],[-1.201914343554584,43.18547367544728],[-1.202270932679139,43.185282326584726],[-1.202711302085867,43.185447113679295],[-1.203539323249265,43.18591475329071],[-1.203409265700036,43.18678275361994],[-1.203244217971596,43.18710265365947],[-1.202693034642678,43.18730969850725],[-1.201779782838464,43.187142624249894],[-1.201532230241654,43.186870334037145],[-1.202363567966652,43.186013735894065],[-1.201757870604255,43.18592835247224],[-1.200574288616459,43.18686712846053],[-1.199122266708062,43.187229952031494],[-1.198329198235607,43.18932447886055],[-1.198681431633202,43.19025746178884],[-1.198630599132089,43.19043869285783],[-1.198396790315547,43.19062614849036],[-1.198028383026107,43.19063869227901],[-1.197642023877333,43.19033666745824],[-1.197370667342831,43.18994008832159],[-1.196122914931038,43.189964337246664],[-1.195321269738271,43.18899569197291],[-1.195314187343312,43.189287813287024],[-1.195141720704858,43.18969265955798],[-1.194238839422896,43.19056639372087],[-1.194516267558604,43.19080961494107],[-1.193929217313569,43.191455777324585],[-1.19314741073274,43.192014030255066],[-1.192654704813348,43.19178998596525],[-1.191767901043314,43.19190283281756],[-1.190218850044887,43.19247467596255],[-1.189537391910214,43.19241468478633],[-1.188871959225694,43.192151396496904],[-1.188585259046468,43.192136412751644],[-1.187671252907728,43.193214992283515],[-1.187748991053195,43.19416767626501],[-1.187344417092002,43.194462623612836],[-1.186907934508506,43.19360493874401],[-1.185526355648803,43.19331268885519],[-1.18550805645786,43.19396014181331],[-1.184572535095537,43.194046895612715],[-1.184474982662946,43.194654187814],[-1.186964762301634,43.19579697694663],[-1.185766524397481,43.1974054133463],[-1.185529381471238,43.19787040253954],[-1.185493580464425,43.19865004801929],[-1.185183905792423,43.19874313604595],[-1.184958031007688,43.19904104626625],[-1.184966771562072,43.1992974234715],[-1.18477306422541,43.19946167323763],[-1.185571258920595,43.199772081850725],[-1.185541600683701,43.19988943111197],[-1.18587417229521,43.200706122471125],[-1.185703766021643,43.20093702660108],[-1.183804567211964,43.20203309193885],[-1.183518126588567,43.202582859705025],[-1.18283753116878,43.2035046172828],[-1.182658501984123,43.20359983584362],[-1.182223267925746,43.20352393752637],[-1.181772257364751,43.20317932190258],[-1.181591266145762,43.20323047746765],[-1.181682317722351,43.20372236508369],[-1.181890878773178,43.20411962000088],[-1.181495061324351,43.204672722816746],[-1.181066570300015,43.20491092367525],[-1.181071850255423,43.20500079509277],[-1.181512374584776,43.20516656955065],[-1.182328403124809,43.20522950558983],[-1.18264347201878,43.205363209707386],[-1.182599086212722,43.20563425918603],[-1.181916723606403,43.20673623238254],[-1.18053638999968,43.20627811584941],[-1.180320255559908,43.206779210734],[-1.180426992474248,43.20750469088897],[-1.180223706041142,43.20838721137561],[-1.181011012831449,43.20869898254956],[-1.181184980056443,43.20839768837327],[-1.182164884522579,43.20856326661845],[-1.182479417160639,43.208995146236795],[-1.183713326541707,43.20936884561249],[-1.183250304217905,43.20974260869442],[-1.182947972194965,43.20978496099664],[-1.182905288873758,43.209858677712745],[-1.181954510144977,43.20956857089831],[-1.181507133335141,43.20908779438261],[-1.181001925425726,43.20887948763489],[-1.180806609782971,43.20888615851825],[-1.18054288068395,43.2096142906527],[-1.18102481806919,43.21045313667705],[-1.18040851969191,43.21042838523241],[-1.179971211774785,43.21030751770077],[-1.17917064702524,43.2102889998915],[-1.17905305703972,43.21038273197148],[-1.179582571729476,43.21099454965436],[-1.179529701066401,43.2111317132223],[-1.178524238828846,43.21197415409445],[-1.178336712762805,43.211935480092414],[-1.178005212877568,43.2115411765671],[-1.177310157281005,43.21102403791356],[-1.176605723948503,43.21076847980068],[-1.176089973576651,43.210380405718034],[-1.175042561234374,43.21066055956163],[-1.174958301841599,43.20990447941496],[-1.175428893751249,43.20941336198347],[-1.175069910223776,43.20857063617496],[-1.175156670076868,43.20798268419922],[-1.175329225946007,43.20779765338152],[-1.176235571092007,43.20754277479704],[-1.177711321090528,43.20528776319104],[-1.177837227274174,43.20473072019891],[-1.177685851389141,43.204544722793344],[-1.177625039894639,43.2041129128677],[-1.177456660797782,43.20376003297411],[-1.177857865495783,43.20362108667729],[-1.17643999362922,43.20262572467228],[-1.176110582186195,43.20227637777461],[-1.175615241458981,43.202458595996944],[-1.175096285543898,43.20176979469646],[-1.174542546964417,43.20250643192781],[-1.173093583656094,43.20268051210924],[-1.172825601726318,43.201835165451065],[-1.172455098205783,43.20180266249659],[-1.172098308358533,43.201993915363424],[-1.171114714278696,43.20099159554265],[-1.171218523465382,43.20067321757043],[-1.171737595229015,43.19996766540557],[-1.171476029402604,43.199466157283574],[-1.171454352690239,43.19899590291884],[-1.172203179230623,43.19712579736749],[-1.172314986360121,43.19587933716989],[-1.172179215708572,43.195482856574294],[-1.172303460609957,43.195072711990406],[-1.171201475192998,43.19524145255305],[-1.170906725018502,43.195541093909725],[-1.170238208812752,43.19579664200886],[-1.169948266487565,43.195788038823174],[-1.169493249170109,43.19564169859518],[-1.169188206068011,43.195696729641575],[-1.168763634706767,43.19557983462471],[-1.168518358588494,43.19516686698128],[-1.168545784801815,43.19481361482157],[-1.168876476037175,43.19453420872326],[-1.168724368174837,43.19408160991203],[-1.16845499253924,43.19388034908107],[-1.16939376423626,43.19378730492921],[-1.169948370487305,43.19403427993045],[-1.16945868377953,43.19458375661064],[-1.170404994020421,43.194799368810955],[-1.171801974067617,43.19470929786011],[-1.172154287411045,43.194592980715164],[-1.17277541720761,43.19451670146489],[-1.173492081729985,43.1940079643362],[-1.172500945086945,43.193104141339354],[-1.172034279503022,43.19248987508418],[-1.171933589470466,43.19186324865001],[-1.172141164872019,43.191226495792655],[-1.171825683868324,43.191102690614116],[-1.171736483941831,43.19043058302984],[-1.171912179408248,43.19028957370927],[-1.173362494442359,43.18988305451398],[-1.173849251406468,43.189821876823295],[-1.174484366857746,43.19012696098916],[-1.175513350961648,43.18976735009983],[-1.174151058469013,43.18764570167718],[-1.174598584267855,43.18743381301633],[-1.174947743089075,43.18812557593857],[-1.175474684437249,43.18793943210884],[-1.175782831435873,43.18706007960296],[-1.176009472272711,43.18673874243937],[-1.175763553627844,43.18573853326578],[-1.176233804147419,43.18538163807582],[-1.176522315570903,43.184877754359306],[-1.177500279947872,43.18480113071997],[-1.177675944230838,43.184660112657184],[-1.177774414977938,43.1842518624852],[-1.17770249581635,43.18407450071538],[-1.177458894986212,43.18412717624695],[-1.176782083119063,43.18409575301049],[-1.176459114837634,43.182847225537735],[-1.177212710880041,43.182102837806994],[-1.177202167174037,43.181923097918144],[-1.175802893551541,43.18116033718308],[-1.175343513895137,43.18068002158069],[-1.175038715537918,43.17951185798443],[-1.17439323111967,43.17899371063579],[-1.174058700111124,43.17855449430334]]]]}}]}