{"type":"FeatureCollection","name":"COM_86183","crs":{"type":"name","properties":{"name":"urn:ogc:def:crs:OGC:1.3:CRS84"}},"features":[{"type":"Feature","properties":{"fid":4198,"ID":"COMMUNE_0000000009747328","NOM":"Les Ormes","NOM_M":"LES ORMES","INSEE_COM":"86183","STATUT":"Commune simple","POPULATION":1620,"INSEE_CAN":"03","INSEE_ARR":"1","INSEE_DEP":"86","INSEE_REG":"75","SIREN_EPCI":"248600413"},"geometry":{"type":"MultiPolygon","coordinates":[[[[0.601578243926087,46.95883379128465],[0.601701328807855,46.95911378772829],[0.601776174431436,46.96258599508975],[0.601316354086099,46.96894393477802],[0.601725083252576,46.97147547358856],[0.601634902686466,46.97235094100146],[0.60125047003286,46.973066257767],[0.600561206713477,46.973711277388],[0.598124125516802,46.97545486691891],[0.597043832887311,46.97598363070903],[0.596858879658016,46.976177044156266],[0.595810904060745,46.97657045493885],[0.593651410274519,46.97760093079257],[0.592571740179313,46.97787745318836],[0.590136189971827,46.97833732324124],[0.585051822824327,46.97899032329137],[0.580841208698459,46.978909290271375],[0.579776062732429,46.97912384635314],[0.57889497101474,46.97946025713392],[0.578145140264224,46.97998047212549],[0.577246818131899,46.980935337057495],[0.574573240728419,46.982732930744184],[0.573935268207901,46.98342751859103],[0.573412853646292,46.98447943715271],[0.573000635118889,46.98597865177323],[0.572751873561832,46.98758939637245],[0.57278815150118,46.98830536965766],[0.572943133293873,46.98892835884596],[0.573988537858393,46.99156167245145],[0.574335278685429,46.99181397208333],[0.574358612937759,46.99223241835353],[0.57425360131968,46.99228425635926],[0.574525101105479,46.992922302640594],[0.575239662017034,46.99275266626012],[0.575508134541982,46.992813255356545],[0.577733668808091,46.99455884680963],[0.57820351756249,46.994826329130085],[0.578886624531624,46.99506495661334],[0.579327410246917,46.995364251704125],[0.580059845853596,46.99550121988209],[0.581374171596921,46.99563867328161],[0.582941459854541,46.99565440385046],[0.584319744194774,46.99539232429014],[0.585289560800951,46.99501989407869],[0.586879704576563,46.994641516431095],[0.590053914416263,46.994343957511084],[0.592618821125296,46.99424707956118],[0.593642935441286,46.993983804740026],[0.5947058273628,46.99417981572097],[0.595654664339839,46.99469050681469],[0.596827572436962,46.99513649882567],[0.598764183390207,46.99555063551358],[0.599647300641659,46.99564557643483],[0.599507950299619,46.99543370162211],[0.599329604490666,46.99381853646689],[0.599204732761015,46.99357723732419],[0.599318863962832,46.99343819338663],[0.599380466794611,46.99252610715839],[0.600404929420992,46.990149603388204],[0.601412699855478,46.990281354305054],[0.601574644277156,46.99013249327454],[0.601779003780041,46.98953233348635],[0.610628145046103,46.99264611003444],[0.612128001316416,46.99269607941369],[0.612874519494839,46.99290248791625],[0.614542455259107,46.99293248381606],[0.616371637734938,46.99390256872455],[0.617873803451301,46.99372191807632],[0.621670452573101,46.99306523551817],[0.623046731531494,46.99338093820414],[0.624100604261644,46.993753938215036],[0.624366582894501,46.99354323568405],[0.625443406982052,46.993244737512256],[0.626292509687678,46.99267582365826],[0.626652359003311,46.99230581349449],[0.626761974037641,46.99199821103926],[0.627184013130317,46.991470946905046],[0.627156419659954,46.991319954391194],[0.62694795941068,46.99115082961502],[0.627234074169374,46.990810827209124],[0.628153927596143,46.98988846068612],[0.629532847656582,46.98894309423426],[0.633302507957016,46.98690824053791],[0.635433021555913,46.985989032887964],[0.636748900273134,46.98554670962916],[0.63741881896274,46.98545774723996],[0.637762661675303,46.9854810025021],[0.638099835305596,46.98469344840552],[0.636970934629806,46.9842622894919],[0.636393123097753,46.98435223564704],[0.634472230873612,46.985205500407815],[0.634108887336485,46.985146706148576],[0.631203952484352,46.98160389152175],[0.629893306530444,46.98018801058725],[0.62937664423482,46.97915504041359],[0.629402454043918,46.97832687978391],[0.62928361645445,46.97797584638818],[0.628715148904432,46.97704449270155],[0.6284198056604,46.976157484452784],[0.628112466908929,46.97566385717812],[0.6275204311312,46.97422128431666],[0.628607303573181,46.973954496129814],[0.632067757067712,46.973547299405276],[0.632614154286315,46.97339097710365],[0.633823341407853,46.97321492496489],[0.635282547374715,46.97276835735312],[0.636467080734588,46.97083891139627],[0.637672838461112,46.96998718683911],[0.639679249309018,46.96821686168899],[0.641785247832762,46.96690522047725],[0.645569669625546,46.96496847636016],[0.646561948315118,46.96393665760524],[0.647336897070094,46.963453456757705],[0.649323867958141,46.962359037590204],[0.651329610807178,46.961527085692055],[0.653780083417647,46.96020783837441],[0.656535972153496,46.95830475936267],[0.658337027200204,46.95672541253943],[0.659543186426952,46.954147644794084],[0.659710953052304,46.9541618595306],[0.660230380681816,46.95453090020011],[0.660434794376351,46.95454946059802],[0.663516922510434,46.95305997992429],[0.66898056474819,46.948959597981414],[0.668973680274902,46.948082131944055],[0.669158938194856,46.94695814349993],[0.669002821393618,46.946064148062526],[0.669161968613595,46.94548458301912],[0.668907547059906,46.94449131834269],[0.668318936826599,46.944111007174264],[0.667974720872049,46.94370591298042],[0.667354107926149,46.94321415696712],[0.667129078018752,46.94309520762332],[0.666701773975603,46.94309196281802],[0.66650158999765,46.9430068428679],[0.664706965324292,46.941439222404675],[0.663519880558781,46.940636015483946],[0.66318620903498,46.94032299569189],[0.662290960086451,46.93988869419025],[0.660865629935869,46.93939588853974],[0.66052711207776,46.938374771220936],[0.660093885625454,46.93747603332014],[0.659462922753156,46.93537347481758],[0.659316756651431,46.93431482342038],[0.657756672354251,46.934811868690794],[0.656180469895051,46.93543737339437],[0.649494848433043,46.93725224712094],[0.649315041490269,46.937092749028935],[0.646578811579787,46.93587402917341],[0.64544823852853,46.936137377268295],[0.643068666306347,46.93521680237826],[0.640053529736405,46.93611530822992],[0.638300331636,46.93678288740945],[0.634132332538518,46.93742611547871],[0.632319360830087,46.93744383038645],[0.631427808788249,46.937231846994166],[0.6293611856047,46.93655611913696],[0.628663201206849,46.93645888920462],[0.62835162446679,46.936486706729085],[0.626785710848856,46.93701834946546],[0.625642073784404,46.93775593929399],[0.623315093997592,46.937290020674915],[0.620582164019374,46.937502957892335],[0.618723349361705,46.93727720649166],[0.616411643727432,46.941537785262675],[0.61619314989917,46.94172062582489],[0.612272564567339,46.940707177454996],[0.611840220251348,46.94007398765143],[0.60918891753939,46.93980463687408],[0.608973583953666,46.93958848905739],[0.609076748402487,46.94519611067084],[0.608846189647306,46.94541291683438],[0.607260289430418,46.94466209450568],[0.607479510724013,46.957807926966154],[0.607328035858968,46.9579011653144],[0.604311056334927,46.957967323730166],[0.60422161923772,46.95823389343691],[0.603036189355503,46.95820565117074],[0.603272682595765,46.95889514974049],[0.601578243926087,46.95883379128465]]]]}}]}