{"type":"FeatureCollection","name":"COM_33303","crs":{"type":"name","properties":{"name":"urn:ogc:def:crs:OGC:1.3:CRS84"}},"features":[{"type":"Feature","properties":{"fid":4118,"ID":"COMMUNE_0000000009755626","NOM":"Nérigean","NOM_M":"NERIGEAN","INSEE_COM":"33303","STATUT":"Commune simple","POPULATION":838,"INSEE_CAN":"10","INSEE_ARR":"5","INSEE_DEP":"33","INSEE_REG":"75","SIREN_EPCI":"200070092"},"geometry":{"type":"MultiPolygon","coordinates":[[[[-0.304115932770983,44.86095955882701],[-0.303891362025867,44.860717535124486],[-0.303311157605073,44.86099883946573],[-0.303076675509785,44.862719760797376],[-0.302097599157217,44.86365182891347],[-0.301620636919248,44.86452569520731],[-0.301155735839324,44.864743180994886],[-0.300853756665103,44.865037820959145],[-0.299012235743296,44.864556414866556],[-0.297497635655699,44.86390216142838],[-0.296145466627154,44.86301417850862],[-0.295574806777509,44.86220750263855],[-0.295338548300135,44.861809014396655],[-0.29518449078222,44.861709960504434],[-0.293916571997368,44.86132768393905],[-0.293732304225614,44.86105921310658],[-0.292988647761497,44.86103893268115],[-0.290944889625833,44.861318539220306],[-0.29049331788282,44.86051011051686],[-0.29046558566191,44.860209959111835],[-0.290687461593732,44.85807313401396],[-0.290914336622884,44.85723196926568],[-0.291208035792826,44.85662311263521],[-0.291302598973357,44.855189331680535],[-0.286569382200271,44.85362833586533],[-0.285438754599429,44.85333652054066],[-0.285318180739581,44.8535707764254],[-0.284588757803743,44.85340223856751],[-0.284555590166476,44.8537663696111],[-0.283726329990834,44.85338541547435],[-0.283316491123531,44.85328760914574],[-0.281849117458533,44.853085922278126],[-0.279038366847804,44.85248418649193],[-0.278922129270381,44.8527930987205],[-0.27856894859892,44.85268909516857],[-0.277775922402812,44.85271072527124],[-0.276216413817524,44.85181963455404],[-0.274629286160023,44.85117083607884],[-0.274138758555796,44.8506446485859],[-0.272848350103897,44.84973926448778],[-0.272040563636749,44.84900706344537],[-0.271160051693852,44.848048120754335],[-0.270379566207426,44.84693573881006],[-0.268955245096231,44.84579456878027],[-0.268760822338152,44.84521818438384],[-0.268477883552144,44.844818321112015],[-0.26825013413992,44.843756322114004],[-0.267518365584273,44.843718406999635],[-0.267032267564944,44.84381021953967],[-0.266920410183038,44.843694568290914],[-0.266222546699047,44.84358626122123],[-0.265523238264094,44.84367082831143],[-0.265281027599374,44.84320848405673],[-0.265935971304921,44.84312342235858],[-0.264516833274932,44.84200277502226],[-0.263601866440076,44.84171070917473],[-0.263513558795538,44.84149884531711],[-0.263246679756533,44.84124357554963],[-0.261974429738943,44.840534885986834],[-0.261355719228488,44.84102525556885],[-0.260649490524035,44.84055401776848],[-0.25942727423287,44.83996457696419],[-0.258296215928732,44.839679720168824],[-0.256866073893339,44.83954420563227],[-0.256431682035918,44.83943531150456],[-0.255646109918374,44.83899250510993],[-0.255284692301028,44.838962563422726],[-0.254838984277069,44.839204521795885],[-0.254615143732989,44.83912278261336],[-0.254239465304063,44.839589759799594],[-0.253307524485543,44.839549515676424],[-0.253003192982745,44.83963052903807],[-0.252643648661762,44.83963296315396],[-0.249844371052557,44.839102270803835],[-0.250339702411232,44.83857953985342],[-0.250704038961803,44.83793809697124],[-0.250451992569596,44.83782834139772],[-0.250025023760979,44.83830671845253],[-0.249862416563644,44.83821056046972],[-0.249272498114041,44.83854322612044],[-0.248861628500412,44.83857778888267],[-0.248446298006448,44.83851336053066],[-0.247240693368092,44.83820804960536],[-0.247305627575197,44.83801691917572],[-0.247754989331754,44.83726847095841],[-0.248157626254347,44.83687281510296],[-0.248566126639107,44.836819401063735],[-0.249269185528673,44.83625364586801],[-0.249619464160658,44.83613525255972],[-0.249812168360012,44.83596380530446],[-0.250182345257394,44.83586104678274],[-0.251088020965447,44.83529564933064],[-0.25133144885823,44.835278601557555],[-0.25171589165199,44.83542231915262],[-0.251849604167074,44.83539136606696],[-0.253221829599245,44.834616733117514],[-0.253394018833326,44.83428818954352],[-0.253627707101861,44.834168697562944],[-0.253657528370945,44.834071405655],[-0.253384802896835,44.83360452960607],[-0.253474333589817,44.83320452090742],[-0.253183027401765,44.832810277210854],[-0.253051339579698,44.831804915431015],[-0.253115410774108,44.831096579131575],[-0.254048722896935,44.83116291211181],[-0.254240341354784,44.83073287460297],[-0.254144266676927,44.83056088161024],[-0.255180097557089,44.829774465330345],[-0.256219250949806,44.830225143178424],[-0.256517691264845,44.830218182335635],[-0.257244786571297,44.83037524617871],[-0.257577892883554,44.83035464900979],[-0.258864878676978,44.83084217677436],[-0.259595899343947,44.830870253608204],[-0.260349702334054,44.83041827270207],[-0.26309835238561,44.829516532451755],[-0.263853290292297,44.829498822164254],[-0.266119509198502,44.82988355295611],[-0.266612342861262,44.829909586886245],[-0.267786986243363,44.82911805758514],[-0.268464433816325,44.82896563192939],[-0.268942935565827,44.82868029718678],[-0.269220683935042,44.82862254914149],[-0.269834508240519,44.82859544113966],[-0.270460367051454,44.8288184807305],[-0.272227609866515,44.828810503353694],[-0.274721258051323,44.828447642160235],[-0.275343257213143,44.82858246063113],[-0.275970364176871,44.82897844470947],[-0.276247477050239,44.82890988443432],[-0.277236553505767,44.82899870441568],[-0.277590846905402,44.829102674042836],[-0.278167395117641,44.82900092891326],[-0.278678130336032,44.82905161093118],[-0.279107796273416,44.828841565224295],[-0.27937225017477,44.828859877372615],[-0.280583717089053,44.82924396136516],[-0.280805585995636,44.82948700407092],[-0.280963076072613,44.82945170722225],[-0.281304625099503,44.82961911974519],[-0.282258583057354,44.829778319859635],[-0.283226778681182,44.829812737691775],[-0.28362930692617,44.82961519190601],[-0.285033260391852,44.83034496128103],[-0.285692383949229,44.83052908555142],[-0.287964374137445,44.83161426815702],[-0.289577695433679,44.831938584407595],[-0.291983010251444,44.83272507093495],[-0.292342249837653,44.83207011205634],[-0.292425967868054,44.83164049974835],[-0.293826892218609,44.83203503930255],[-0.294753414463734,44.832502228769066],[-0.295520563760561,44.83299397137377],[-0.295942850723094,44.833370703585565],[-0.296880347102216,44.833355454338516],[-0.298666504230411,44.83347265385842],[-0.302607032128776,44.834304257286334],[-0.302640366071597,44.83467722838912],[-0.302787053143516,44.83482424797123],[-0.304280812689882,44.83530871108758],[-0.304696333743255,44.835526116098876],[-0.304552224584967,44.83647748575595],[-0.305529433146692,44.836963806342254],[-0.305294485750756,44.83764124116131],[-0.305693403503633,44.83843675591229],[-0.306656165406136,44.8385909852601],[-0.308140648401351,44.83913064595846],[-0.308896647710307,44.83953702931667],[-0.309159730222304,44.83953098294328],[-0.31096966630895,44.841099892350066],[-0.311447120947193,44.841356877506165],[-0.311826762248385,44.84139420366408],[-0.311887003271536,44.84232957396761],[-0.312557878442483,44.84260150552541],[-0.313153529105594,44.84299372750244],[-0.313628025799535,44.84375812612291],[-0.313457386158965,44.84423631427216],[-0.313049891745168,44.84452152668072],[-0.310942859569588,44.845284611025015],[-0.311227553143599,44.84575190712253],[-0.311225210264109,44.846077283139785],[-0.310992761764771,44.84634554762475],[-0.309359792741244,44.84745940447243],[-0.309231707467248,44.84773626615725],[-0.309172798639102,44.84871394135751],[-0.308905466897242,44.8497446920717],[-0.308187030967217,44.851934224863],[-0.308143530796674,44.85259334343639],[-0.308277697024774,44.85321472382334],[-0.307969024318447,44.85337261352732],[-0.30758139503183,44.8540825428036],[-0.307110459061149,44.854518308319506],[-0.306517772704649,44.85538213025469],[-0.305296742863239,44.856311527927005],[-0.303818914236426,44.85849661612825],[-0.303695223972352,44.858849034482425],[-0.304208803336569,44.860449459467546],[-0.304115932770983,44.86095955882701]]]]}}]}