{"type":"FeatureCollection","name":"COM_47318","crs":{"type":"name","properties":{"name":"urn:ogc:def:crs:OGC:1.3:CRS84"}},"features":[{"type":"Feature","properties":{"fid":4228,"ID":"COMMUNE_0000000009757882","NOM":"Vianne","NOM_M":"VIANNE","INSEE_COM":"47318","STATUT":"Commune simple","POPULATION":980,"INSEE_CAN":"11","INSEE_ARR":"4","INSEE_DEP":"47","INSEE_REG":"75","SIREN_EPCI":"200068948"},"geometry":{"type":"MultiPolygon","coordinates":[[[[0.325679811335395,44.23907145674435],[0.325968532164286,44.23852730776891],[0.326256622480379,44.23831547262735],[0.326902307896865,44.238144766118985],[0.328112223665719,44.238069745013185],[0.330201035176557,44.23821872587591],[0.330619514767949,44.23816405646516],[0.330865640264047,44.237991717362064],[0.331773235177525,44.2372059218283],[0.332019270699116,44.23658236782148],[0.331985630212224,44.23623210999731],[0.33175689323885,44.235981582679266],[0.328570413654633,44.23413797763362],[0.328055041845037,44.233484194449716],[0.327860600635941,44.23285173010273],[0.327931520054379,44.232595879168066],[0.328124111338192,44.232203393628204],[0.329036116048814,44.23129614820006],[0.330195580343445,44.22976088032887],[0.335583194265179,44.2256967161493],[0.336522163800141,44.2247171218962],[0.336836553043996,44.22426273602157],[0.337522468486806,44.222028748167396],[0.337492872661624,44.22057714692282],[0.337716742901436,44.21967566322212],[0.338375540617869,44.21831190803854],[0.338602354599822,44.21732043469967],[0.338674600779709,44.21561913736006],[0.338169323372991,44.213896630822546],[0.338012401926284,44.212649987716276],[0.337180275542336,44.211223053433635],[0.335662190128158,44.209499372356035],[0.337017751438125,44.208868529656456],[0.336363737890579,44.20863741225523],[0.336461592545272,44.208473175514385],[0.336964902987295,44.208473682884055],[0.337417772278745,44.208695413417416],[0.338563055857791,44.20838276738347],[0.339749051815749,44.208323265705936],[0.341219490285453,44.20783114913594],[0.341343724812148,44.20662194824591],[0.342236604506646,44.206323863953],[0.34252660918991,44.20590580367023],[0.342521075577769,44.20570303435741],[0.342255861843704,44.20535078019865],[0.341895291159499,44.20452159872542],[0.341749462655263,44.2037588595285],[0.341827050661077,44.20338518869407],[0.341682548022201,44.202995330393584],[0.341905050429155,44.20187947365006],[0.341870044111843,44.20142382277918],[0.341977703919398,44.20091579099541],[0.34173689044031,44.200497482579244],[0.341896389892046,44.2001924412236],[0.342140688781491,44.198343126492254],[0.342378569317088,44.197887782673405],[0.340244702977559,44.19763614145912],[0.338693234489918,44.19759221548237],[0.337365300535021,44.19785359221902],[0.337050014642204,44.19675531433375],[0.336505627385324,44.1959513736895],[0.336053500243269,44.19419503595316],[0.335458553463536,44.19332231766652],[0.334818663292975,44.192714180732025],[0.332878736329717,44.19345505999364],[0.332038560735213,44.19215487961005],[0.330093500128291,44.193430541554214],[0.329200729415867,44.19436795109331],[0.328730235534045,44.19399175279615],[0.326468035192623,44.192854124679506],[0.323334692486821,44.19065500179748],[0.323064943668629,44.19119958819107],[0.3227245880469,44.19148938184088],[0.32240848776056,44.19192836600343],[0.322367588225541,44.19255688912612],[0.321651187644037,44.1935210591943],[0.321770875350439,44.194539862289204],[0.321941240410044,44.195015037062205],[0.320569067475276,44.195178766035774],[0.318941712453639,44.19507326557578],[0.31824074675786,44.194939955387326],[0.315320082922821,44.194150740578195],[0.312059321995166,44.193989843697686],[0.30956691007799,44.19359642501762],[0.307902618363556,44.19305666063609],[0.306707627825095,44.192836401104294],[0.304185903460372,44.1921656514341],[0.303246175206574,44.19205339480183],[0.302001616738963,44.19155988032797],[0.301563116895723,44.19122577605717],[0.301152700165541,44.191670488424336],[0.300826026886099,44.19185428153556],[0.299913580786898,44.19214253880856],[0.29872395396268,44.192310486980375],[0.297965781531535,44.19269709144144],[0.29814489587587,44.19301041293685],[0.298283130974119,44.193051643033236],[0.300994610116305,44.19307425439065],[0.301366342188872,44.19331215441174],[0.304043403531743,44.197830596629565],[0.306776224661089,44.20202702201864],[0.306917262807183,44.20269603716303],[0.307622936460837,44.20312763710249],[0.307435764790221,44.20332568233613],[0.308070581149104,44.20379967054828],[0.308294462163617,44.204279786227545],[0.308917927560978,44.20478231053165],[0.309182334661095,44.204671714962494],[0.309567679102627,44.2051530854298],[0.309683170914192,44.20509377473531],[0.310004317034046,44.20558257573688],[0.311089274727478,44.206836704063406],[0.312266349776304,44.20794447624017],[0.31308281983663,44.20892092293826],[0.31403795166478,44.20966659765024],[0.314698620579589,44.21031139481459],[0.315650209821128,44.21150367291142],[0.315961736580226,44.21140321889639],[0.316706415527151,44.212364372539234],[0.31483511112976,44.21324983818354],[0.315425592660783,44.213923534540974],[0.315803977525705,44.21394539841529],[0.316392868598954,44.214149829844445],[0.3168608084587,44.2147673852937],[0.317535573187314,44.21601682246835],[0.317821449182169,44.21683076105456],[0.317926483115116,44.2175231997839],[0.31789403473679,44.21818345925033],[0.319057758474781,44.218627075450655],[0.319414510630198,44.2188690486902],[0.320781329587568,44.22063520770087],[0.32125858578121,44.221004401208425],[0.319463345272764,44.22149463884632],[0.317752773780684,44.22165008587913],[0.316352044736261,44.22240388857171],[0.315530157557087,44.22275484585849],[0.314671915284615,44.223000435974164],[0.315346515151177,44.223327651619066],[0.31613303549603,44.22510219418046],[0.317130412104996,44.226418065514366],[0.317070916931607,44.22672282241771],[0.316214786178712,44.22665776370856],[0.315876292851674,44.22687644387574],[0.3157279876223,44.22675483600734],[0.314990084230484,44.226997068844575],[0.314432516807982,44.22700144168852],[0.314150432633321,44.2271395402238],[0.313402372027805,44.22688166879032],[0.313096691381793,44.2268831931577],[0.312730210644693,44.22671391123223],[0.311960635189277,44.226672553093756],[0.311473037155645,44.22652191583923],[0.310183026296287,44.22675869855075],[0.309274629086557,44.226554509366345],[0.308782518817406,44.22634070570147],[0.308467739662142,44.22658696376812],[0.308406862475551,44.22681422958015],[0.307847467957559,44.22720038893058],[0.30774942261653,44.22755102917967],[0.307227158834259,44.22810471211178],[0.307227220179177,44.228393814329706],[0.307269890578754,44.22907843577943],[0.307590336423075,44.22974285184365],[0.308657640136406,44.23005722396628],[0.308486524615755,44.23107704024361],[0.30899881589665,44.23334927087825],[0.31008164529815,44.23336409980036],[0.311490030716606,44.233513879441325],[0.31229300520711,44.233698355306956],[0.312125541900468,44.23554143983026],[0.317098058436243,44.23637636248548],[0.318235328483081,44.23635371306552],[0.318899357847023,44.23643117352207],[0.320574786447684,44.23721509040983],[0.322883879089059,44.238163937275125],[0.325679811335395,44.23907145674435]]]]}}]}