{"type":"FeatureCollection","name":"COM_17367","crs":{"type":"name","properties":{"name":"urn:ogc:def:crs:OGC:1.3:CRS84"}},"features":[{"type":"Feature","properties":{"fid":4022,"ID":"COMMUNE_0000000009751377","NOM":"Saint-Martin-de-Juillers","NOM_M":"SAINT-MARTIN-DE-JUILLERS","INSEE_COM":"17367","STATUT":"Commune simple","POPULATION":152,"INSEE_CAN":"11","INSEE_ARR":"5","INSEE_DEP":"17","INSEE_REG":"75","SIREN_EPCI":"200041689"},"geometry":{"type":"MultiPolygon","coordinates":[[[[-0.340070976739311,45.92399072888238],[-0.340885519879711,45.92385670777235],[-0.343873389552936,45.922825631302416],[-0.345326319040072,45.922486127881115],[-0.347159355579553,45.921728866860775],[-0.349455225867516,45.920322446445745],[-0.350922910967669,45.91963272505846],[-0.352427984200018,45.91879406099859],[-0.354335157917526,45.924410316541575],[-0.354892678468258,45.92542126604752],[-0.355909939978171,45.92664299618903],[-0.356845492896464,45.92830337662909],[-0.359442760989154,45.92997388682808],[-0.360077502475825,45.93059676124749],[-0.360325102770338,45.93120409707071],[-0.361315908955521,45.935395484160914],[-0.36193667247092,45.93972314840175],[-0.362080348028133,45.94184326470884],[-0.361716216194249,45.94218486772578],[-0.36218346398294,45.94264326669693],[-0.3620749369068,45.94289705650873],[-0.362249074543975,45.943082958277664],[-0.362087467870273,45.94466775750518],[-0.361397624725794,45.94521912966381],[-0.361316614905329,45.946008379825976],[-0.362002033973356,45.94675953232937],[-0.362317375004682,45.94815710462509],[-0.362408598810817,45.94933330647687],[-0.362300079420267,45.95092013299849],[-0.361382926269762,45.95086086126498],[-0.359545375018053,45.950265599905194],[-0.359331350791449,45.950082680595585],[-0.358876227159435,45.95009889807174],[-0.358703369930301,45.95004003720853],[-0.358385673813368,45.94976735934184],[-0.357914718951739,45.94967228084147],[-0.357811072215495,45.949561792459036],[-0.357797106786632,45.94909983619517],[-0.356924871904768,45.949564658206654],[-0.355340766480985,45.9514088571694],[-0.354815401471384,45.95241407132112],[-0.353801305449365,45.95373300458468],[-0.352619935061433,45.95595548520253],[-0.35145809516759,45.95724812728018],[-0.351292116590429,45.95715390005292],[-0.346001644916394,45.95619826866435],[-0.343872824951053,45.95565823355873],[-0.341068025089878,45.95524267391278],[-0.341127261928112,45.955026415385476],[-0.341042414897918,45.95499106633764],[-0.338837671659552,45.95460369816108],[-0.337009555947204,45.95433226316262],[-0.333691191296036,45.95426785375433],[-0.333600963862112,45.95363149352835],[-0.333678609958694,45.952374601868165],[-0.334236067496908,45.949695745770384],[-0.333307776463436,45.949558163601246],[-0.332291580035109,45.94956917307701],[-0.332453823117706,45.947959187185816],[-0.332257653507364,45.94666079150706],[-0.330927481149868,45.9451758765236],[-0.330564366312325,45.94530283494616],[-0.330439953515039,45.944869370097784],[-0.330223696868467,45.944775693080366],[-0.329818312618122,45.94514363772046],[-0.329537522782724,45.94520057243529],[-0.329241395232809,45.94551662913619],[-0.328962417379044,45.94541127617421],[-0.32868536293655,45.94550865699092],[-0.32849813050915,45.945275323458034],[-0.328439500056208,45.94490391312118],[-0.328257602398896,45.94490836373672],[-0.327292555369473,45.945999377276344],[-0.326921671025483,45.946254535680765],[-0.326671550486795,45.946070817259596],[-0.326630401107857,45.94586022360495],[-0.326466184580706,45.945793850487824],[-0.325692982467561,45.945848129456415],[-0.325372656097593,45.94569982007936],[-0.324955395297955,45.9454011394244],[-0.324417811195596,45.94484281636277],[-0.324407680175867,45.944717834584324],[-0.324802529177385,45.94453858988695],[-0.325182604300719,45.943088055293856],[-0.32567917494742,45.93913931747929],[-0.326316539458513,45.93587592339069],[-0.326845389239745,45.93579908106015],[-0.326915486231286,45.93477855851785],[-0.328113391262767,45.934700954564995],[-0.327853837260128,45.9308979247582],[-0.327776251274166,45.927968301504535],[-0.327014758276545,45.9278915649029],[-0.32769409544845,45.92772015959018],[-0.328793828237544,45.92708933456584],[-0.329991365768367,45.92653853715271],[-0.332261283013853,45.92580291103675],[-0.336706925873608,45.92457043615028],[-0.339043055903842,45.92405623714821],[-0.340070976739311,45.92399072888238]]]]}}]}