{"type":"FeatureCollection","name":"COM_79270","crs":{"type":"name","properties":{"name":"urn:ogc:def:crs:OGC:1.3:CRS84"}},"features":[{"type":"Feature","properties":{"fid":4278,"ID":"COMMUNE_0000000009749462","NOM":"Saint-Maixent-l'École","NOM_M":"SAINT-MAIXENT-L'ECOLE","INSEE_COM":"79270","STATUT":"Commune simple","POPULATION":7433,"INSEE_CAN":"15","INSEE_ARR":"2","INSEE_DEP":"79","INSEE_REG":"75","SIREN_EPCI":"200041994"},"geometry":{"type":"MultiPolygon","coordinates":[[[[-0.202773714005545,46.42862456668188],[-0.205942705904165,46.422867027586946],[-0.202636581019485,46.42175765322689],[-0.201871913337636,46.42129606615376],[-0.202082595020454,46.42106665666039],[-0.199478656434199,46.41959503392146],[-0.19744167389768,46.419190713078024],[-0.19671397692884,46.418936234748955],[-0.196547590820835,46.4186984729732],[-0.195819114358178,46.4184304930673],[-0.195428531779264,46.418458553818844],[-0.194767632988132,46.418298621336696],[-0.193582727714297,46.418781486698904],[-0.19325868555161,46.4187887525338],[-0.192581274217153,46.418123697511604],[-0.192777047597145,46.41797312716674],[-0.192697136456331,46.417765383868996],[-0.192528721101725,46.41733661958178],[-0.192677494476317,46.41709544205044],[-0.193801781339835,46.4162006316194],[-0.194990014990278,46.41579787573133],[-0.195425975925808,46.41543239773221],[-0.195898193911204,46.41484060241541],[-0.197073887955245,46.413935304813826],[-0.197364453354969,46.412400528839434],[-0.197734733178392,46.412071126834455],[-0.195340372213009,46.41181107050215],[-0.195453989503783,46.41119236887818],[-0.194711686940654,46.41124289533947],[-0.193619228121521,46.4114771499303],[-0.193367418473657,46.41135983237725],[-0.193407432859551,46.41081889409466],[-0.193675448217916,46.41058969731334],[-0.193887666689003,46.41056483167666],[-0.194067763076909,46.410436325734324],[-0.194477764895613,46.40982825280021],[-0.195349641126499,46.40938748356634],[-0.194670443213982,46.409091083475786],[-0.19398845806,46.408969590327544],[-0.19307091195793,46.40865191616243],[-0.192525958422505,46.4087347563486],[-0.191741188186585,46.4086377548956],[-0.191553154303222,46.40847449087163],[-0.191951096502031,46.40810558229683],[-0.191959243697079,46.40791069538128],[-0.191633396010851,46.40784140702558],[-0.191319549903583,46.408155692694415],[-0.191002035487504,46.40818440006198],[-0.190816028290375,46.40801116505132],[-0.19098651606747,46.40749541723528],[-0.193797386270967,46.4080196674338],[-0.194380276904283,46.40796189353377],[-0.195153024972136,46.407764520848744],[-0.19606705954951,46.40768845182231],[-0.197561869382503,46.406406513358434],[-0.194301182512412,46.404762143507284],[-0.195914726086929,46.40297222756066],[-0.196190969881414,46.40275090354108],[-0.197241019543315,46.40359744749394],[-0.197755604694038,46.403263998926704],[-0.199019844565947,46.402184961298495],[-0.201165165419985,46.40242578317182],[-0.201712523559528,46.40156329037046],[-0.202438222626614,46.40123200469761],[-0.202857701640704,46.40132116286584],[-0.202978874972453,46.401521432979486],[-0.203230594356965,46.400949309480666],[-0.203836749705839,46.40015725035174],[-0.204309772443472,46.40044857168119],[-0.205089829088352,46.39973453115686],[-0.206146199428138,46.39902353322959],[-0.206326371859123,46.39905271490706],[-0.207581166283303,46.400411605622885],[-0.208425016027559,46.4008060350122],[-0.208687868182233,46.4008455046079],[-0.209586622573252,46.4006003261522],[-0.212602678958599,46.40018648497688],[-0.213474934197436,46.40019976741267],[-0.214187564771466,46.40028963780126],[-0.215355502860819,46.40063433068114],[-0.21549771765838,46.4010583971656],[-0.215431176791431,46.40158748103291],[-0.215225250460843,46.402006039671676],[-0.215271439538179,46.40267974449537],[-0.215495044963258,46.40302581532128],[-0.216501147131279,46.403939217710516],[-0.216741369080082,46.40443441891175],[-0.216854266823029,46.4049575426873],[-0.218349694853522,46.40393845208309],[-0.218965934717746,46.40449153275782],[-0.219661950086956,46.4059552869058],[-0.219932794110293,46.40617384718649],[-0.220511630388093,46.40602593168796],[-0.221822311666057,46.40761651550219],[-0.222436170804277,46.40750995853742],[-0.223200619359944,46.407592904771064],[-0.22325623258172,46.40767424522849],[-0.223335032073271,46.40808207110027],[-0.222278528356184,46.41029104807471],[-0.222461644849747,46.41052379647546],[-0.222079673367266,46.411734098056996],[-0.222725703330569,46.411774431279845],[-0.223477768754572,46.41202174785444],[-0.22607782768084,46.412342092071974],[-0.226960918004514,46.41253521357573],[-0.22756530872689,46.41279659385516],[-0.23141223102702,46.414963281173456],[-0.232469869301347,46.41535238976394],[-0.233536118911577,46.41560065503247],[-0.233256892115583,46.415748256171035],[-0.231798171671541,46.41613384551265],[-0.231354938248204,46.41637260352792],[-0.230547516454106,46.417437271267374],[-0.229646383771969,46.41927512343087],[-0.228850272398521,46.41993751477646],[-0.226812006629633,46.42090449360501],[-0.225271386441765,46.42173750894451],[-0.223625956372385,46.42218684289613],[-0.222176531304742,46.42275588665054],[-0.221463509148662,46.4216269727596],[-0.220917383277902,46.421139512628436],[-0.219693199291528,46.42040172118184],[-0.218751060918744,46.41971724456737],[-0.216938553017523,46.41918887714057],[-0.215928148503551,46.41860543611692],[-0.215088971619096,46.420021449645056],[-0.21472305903185,46.42044631399316],[-0.21412118034856,46.421113038440936],[-0.212850989158931,46.422868309075824],[-0.211228537395255,46.42207134687596],[-0.210806274683032,46.422447315409904],[-0.21068809501555,46.422720100894296],[-0.209390521861099,46.42418951563986],[-0.20829245319101,46.424974698315665],[-0.207886998043846,46.42550428809919],[-0.207619018192851,46.42617780988139],[-0.205889183779231,46.42863352741398],[-0.204806483772206,46.4299490484684],[-0.203295106836058,46.429202924904715],[-0.20303464375657,46.42900656324975],[-0.202773714005545,46.42862456668188]]]]}}]}