{"type":"FeatureCollection","name":"COM_19242","crs":{"type":"name","properties":{"name":"urn:ogc:def:crs:OGC:1.3:CRS84"}},"features":[{"type":"Feature","properties":{"fid":4002,"ID":"COMMUNE_0000000009754098","NOM":"Saint-Solve","NOM_M":"SAINT-SOLVE","INSEE_COM":"19242","STATUT":"Commune simple","POPULATION":451,"INSEE_CAN":"19","INSEE_ARR":"1","INSEE_DEP":"19","INSEE_REG":"75","SIREN_EPCI":"200043172"},"geometry":{"type":"MultiPolygon","coordinates":[[[[1.411530250122368,45.28973626147994],[1.40907004474105,45.29001381009063],[1.407691862948482,45.29051205501578],[1.406013160848259,45.28951637589731],[1.405256397152761,45.28925431566946],[1.404137164554193,45.28828369488846],[1.403269847658047,45.288763955712064],[1.401798264078943,45.28940399347521],[1.402667566918665,45.290635851682936],[1.402638430272071,45.2917413979161],[1.402484350982112,45.29253174391705],[1.402006661887122,45.29352731204362],[1.401612102581452,45.29375943876723],[1.40144273293378,45.2937921426888],[1.401358481732714,45.29348202545381],[1.401050535684851,45.293541568078666],[1.401082606681648,45.29366901415306],[1.400901861086046,45.29369795215924],[1.400672980741715,45.2935812015766],[1.399937879433856,45.293496837813386],[1.399654613955359,45.29385213364549],[1.398860838873225,45.293766923374896],[1.39739715119977,45.29346046527095],[1.396751837843094,45.29322696289278],[1.39335550155401,45.291621954844516],[1.391845821303608,45.29070143791447],[1.390432075755847,45.29140880670269],[1.389740727149776,45.29166634136066],[1.389497021150818,45.29193121861722],[1.388806627876438,45.294935665881255],[1.38709700920128,45.294441802517255],[1.38640182766234,45.29482985283937],[1.385919578164912,45.29500302034874],[1.385592144302716,45.29538196163124],[1.386598586197847,45.295658564254424],[1.388503261606258,45.296424531893706],[1.388488103735488,45.29809587375226],[1.387995280404643,45.298942566156995],[1.387660862093959,45.29925386634074],[1.387972043471211,45.30009863462163],[1.387946707192892,45.30053327177689],[1.387662026957257,45.300933550245276],[1.387535451756021,45.300985763492186],[1.387514724100682,45.301216925617446],[1.387338527303094,45.30130805096958],[1.387168338326851,45.30158839415898],[1.386805582139569,45.3016876365247],[1.386888461565404,45.302042777725156],[1.386828752626286,45.3024300867311],[1.386571801548558,45.30297396227482],[1.386313138062647,45.303268339067856],[1.386290869997953,45.303464354492206],[1.386444848976765,45.30383222980214],[1.386858260318235,45.30440828812469],[1.38738168679816,45.304667108804296],[1.387794831975096,45.30498828235698],[1.388398926640365,45.30510596157914],[1.389336613526625,45.30511856406854],[1.390120689718769,45.30501456894563],[1.390673933238093,45.30486041568372],[1.394541736278795,45.309041749525825],[1.395540616275918,45.31025571100991],[1.395786668420962,45.31084194382116],[1.395833454466303,45.31183240235593],[1.396954582736297,45.31265993351233],[1.397767540417596,45.31346322712744],[1.397340621394729,45.31392724005934],[1.398791229094284,45.3145298110655],[1.400310419609996,45.316079000108125],[1.400347993629792,45.31619301605816],[1.399925267341523,45.31704436810057],[1.399901361374367,45.3174321960223],[1.400239829082126,45.3178702361845],[1.400686147926639,45.31895376420813],[1.401091564488308,45.319417075355005],[1.401381949827902,45.320641572074095],[1.402068909287445,45.32166008405594],[1.401997136399938,45.322871302122],[1.401232542719355,45.3238897983783],[1.40093069559751,45.32462039749928],[1.401354568891825,45.32519835086535],[1.402753406917339,45.32614867000135],[1.404717405526821,45.325199501560206],[1.405050763168266,45.32550686297184],[1.405326876537356,45.325985427324454],[1.405119846703933,45.32608154624081],[1.40529889257762,45.32647226732656],[1.405758306189244,45.326390550822595],[1.407163180724296,45.32637452808491],[1.40768901428836,45.326470271559586],[1.407810236030567,45.32633870350729],[1.408358707415227,45.32622311888863],[1.408873098300921,45.32600437584557],[1.409518653945837,45.32566320825538],[1.410139877353052,45.325190200209875],[1.410536971007851,45.3250994734554],[1.410762502128678,45.324533481391896],[1.41104980334828,45.32435293262384],[1.411847733336981,45.32412919527887],[1.412356097448676,45.32371761770774],[1.413444558781995,45.32243705554657],[1.413802740528089,45.32187383927244],[1.413980952493201,45.32135400344131],[1.413995054159356,45.32063460531796],[1.413671421430298,45.32016439615861],[1.413194909564998,45.31977307450404],[1.413090380359767,45.31954373463202],[1.413357504050042,45.31886034677806],[1.413391287220624,45.318346570029654],[1.41390143286216,45.31787016720877],[1.414110387156532,45.3175254882629],[1.414507853770026,45.315670434451654],[1.414726327628555,45.315439367934815],[1.41586726819328,45.31472962424408],[1.416267690643815,45.314114763866264],[1.41562465344178,45.313969667092415],[1.415465550471275,45.313639587939186],[1.41577892168555,45.31334772049631],[1.416521546889212,45.312907921281464],[1.417155348238645,45.311760491113745],[1.417244015038962,45.31111059643803],[1.417099133610607,45.310639323504006],[1.416882566674742,45.310310234858434],[1.416764742398266,45.30978530706823],[1.417001982523579,45.30857822968005],[1.416892621808441,45.30784537859258],[1.416107956814331,45.30662383956728],[1.41488492355481,45.305918444858065],[1.413854435525274,45.30517523839439],[1.413601116014989,45.304659193647566],[1.413642676696984,45.30409599449612],[1.413456151240767,45.30383397085306],[1.413245287347718,45.30375442766145],[1.412656539077307,45.30381362253353],[1.411961454603976,45.30366326160217],[1.411396056125844,45.3038434644853],[1.411121864029358,45.30379183788376],[1.410755109057191,45.303450697037256],[1.410517844995256,45.302954686693504],[1.410585267185213,45.302738594916015],[1.411151672249928,45.30229903180393],[1.411475268931131,45.30164707460503],[1.411562871823066,45.30094673510836],[1.412114844273148,45.30029621758615],[1.412231911363553,45.29954676199917],[1.412600091451842,45.299120590026185],[1.412728830222287,45.29805067922797],[1.413001066555446,45.29731873547483],[1.412905388231314,45.29669054695238],[1.412309305737997,45.296158828431814],[1.412370924463597,45.29542930068565],[1.412764418616179,45.293889422450306],[1.411664584751394,45.291200773767905],[1.411496187588711,45.29039412989286],[1.411530250122368,45.28973626147994]]]]}}]}