{"type":"FeatureCollection","name":"COM_33250","crs":{"type":"name","properties":{"name":"urn:ogc:def:crs:OGC:1.3:CRS84"}},"features":[{"type":"Feature","properties":{"fid":4128,"ID":"COMMUNE_0000000009756538","NOM":"Loubens","NOM_M":"LOUBENS","INSEE_COM":"33250","STATUT":"Commune simple","POPULATION":314,"INSEE_CAN":"27","INSEE_ARR":"3","INSEE_DEP":"33","INSEE_REG":"75","SIREN_EPCI":"200044394"},"geometry":{"type":"MultiPolygon","coordinates":[[[[-0.035204989523746,44.61436541877191],[-0.034722766164656,44.61463903094862],[-0.034514611265841,44.615060073336075],[-0.035190640766771,44.61616045290047],[-0.035381691103556,44.61729577501366],[-0.036025932149265,44.61785196517205],[-0.037425326094822,44.61854055462091],[-0.037778349778971,44.61893536607532],[-0.037340838238209,44.61996904287406],[-0.040582694878829,44.620319541775174],[-0.041395094205375,44.62055394987209],[-0.044691979476089,44.62110462373487],[-0.044522862788199,44.62327511941294],[-0.045038581916815,44.624391578777185],[-0.045322580632251,44.625468474752516],[-0.042353330009422,44.626061082548524],[-0.042262271494456,44.626290623749064],[-0.042838646796576,44.62825049821859],[-0.043865781178181,44.630893479303886],[-0.044686779931996,44.632334883008724],[-0.04414836629773,44.6324812495737],[-0.043553077901051,44.63239223409899],[-0.042676251629152,44.63180914656327],[-0.042146525458815,44.63125163592085],[-0.041802629832273,44.631121456381955],[-0.041668032179246,44.63119903702903],[-0.041464996980984,44.63155148322978],[-0.041499203539354,44.632442464942116],[-0.041227631418006,44.63264724189173],[-0.040822829013608,44.63260432347765],[-0.040440333984347,44.63220311995915],[-0.040071474954762,44.631984429398685],[-0.038605246141129,44.631490496433265],[-0.037659914520413,44.63197595613292],[-0.036020632455945,44.63208676475007],[-0.034144403394608,44.631968010235525],[-0.033141914438224,44.63202525613765],[-0.03293132524639,44.63209770372177],[-0.032918377177439,44.63232599396872],[-0.032575484727581,44.63275343335279],[-0.031997588506521,44.63218999060336],[-0.030855500796894,44.6321618531392],[-0.030259878494766,44.63227728647615],[-0.029432687564669,44.6337180214927],[-0.029232545303136,44.633867655220136],[-0.028827584317115,44.633939115016844],[-0.027407109144703,44.63403749146785],[-0.026575184965676,44.633841349174546],[-0.026214989066031,44.63394761060145],[-0.026035310096907,44.63424352902907],[-0.026012975100231,44.634509012845655],[-0.026292719049323,44.63539507332507],[-0.026823072910367,44.636459862489616],[-0.02681777478946,44.63687803794034],[-0.026599960245099,44.63712184697024],[-0.025837966819199,44.637500376409335],[-0.02522113355215,44.63823259588647],[-0.023845680296369,44.63917205816806],[-0.023521202963,44.6393097662612],[-0.023070947527136,44.63931397229541],[-0.022204753132489,44.63909170442662],[-0.02145400414096,44.639045558806906],[-0.021034255925655,44.639148024581154],[-0.020149674740421,44.639571306083745],[-0.019426483276468,44.63956853899636],[-0.019081494476154,44.63937074890819],[-0.018968128195594,44.639091855539334],[-0.01914107774585,44.63878712402384],[-0.019152857103794,44.638441748082165],[-0.018935203181196,44.63817110870477],[-0.018690519824554,44.63803184116874],[-0.016748979059426,44.637827180808245],[-0.01632905438906,44.63773773683263],[-0.01606054432393,44.63757749174089],[-0.01602242488906,44.63738393243711],[-0.016479275869013,44.6368903734277],[-0.016660890452842,44.63648811008078],[-0.01668268215507,44.63595236713323],[-0.016564133793193,44.635576313957124],[-0.016194245913301,44.63531342828062],[-0.014492974398178,44.63469225544796],[-0.013250783195967,44.634043227801904],[-0.012241571358956,44.634046410749775],[-0.011252254128242,44.63376074816753],[-0.009575466800436,44.63385596722061],[-0.009217869888187,44.63403507607551],[-0.008839111044766,44.634692246803695],[-0.008016498058893,44.63518942027582],[-0.007796344367238,44.63560352738479],[-0.007523278676346,44.63580645685394],[-0.007025268527215,44.635813699451425],[-0.006198046358597,44.63542087688385],[-0.005824917515126,44.635332824097304],[-0.004378950880737,44.63547483998326],[-0.003706178553082,44.63561204511625],[-0.003616718293033,44.63570907237463],[-0.003381854004618,44.63551635150728],[-0.003254635125658,44.63495223056929],[-0.003083077986186,44.63464517458102],[-0.003112485771892,44.63448671521841],[-0.002970362074935,44.6344004848876],[-0.002969772090033,44.63424734514274],[-0.002697556767913,44.63380338141303],[-0.002498138472924,44.63309166961504],[-0.002103189256764,44.632901493299],[-0.002261120211168,44.63255035119529],[-0.002155190580564,44.63231448589968],[-0.002230948107411,44.63203134262048],[-0.002100958857003,44.63184117662146],[-0.00200876905878,44.63131844717217],[-0.001632666465334,44.630913340126305],[-0.001335221175728,44.63008987373668],[-0.001267229855985,44.629310627631945],[-0.001016827531137,44.628991296275856],[-0.000665506477372,44.627724241044085],[0.000360204253443,44.626040351300155],[0.000974158288771,44.625360608746035],[0.00010722847952,44.62463076506802],[-0.000764012916129,44.62410079952607],[-0.000948375872792,44.62391471010781],[-0.001112213254099,44.623461606970984],[-0.001719614767315,44.6231180794708],[-0.001935484448863,44.622813113058704],[-0.001933579565251,44.622350997074],[-0.001643154582972,44.62087688681747],[-0.001749780503899,44.620557770786405],[-0.003449135472511,44.619804381708924],[-0.004611343550179,44.61941062108713],[-0.005074149010192,44.62099355209982],[-0.008736099887788,44.62182095119793],[-0.010132369479563,44.62214869880817],[-0.010385746751281,44.62214540051931],[-0.011147176212821,44.62126247973825],[-0.012004793437613,44.62003188111474],[-0.015339985103968,44.621494105374],[-0.015970314650585,44.620661574128796],[-0.016209652906098,44.62074963810649],[-0.016416417565151,44.62046471001998],[-0.018445918687376,44.62114534355359],[-0.018895816768533,44.62038348973421],[-0.019875127788096,44.61970897118511],[-0.021190079817791,44.618095519364495],[-0.022654542806477,44.61840142311533],[-0.023054165392043,44.61856166587379],[-0.02396890501515,44.61913034347068],[-0.024585994816239,44.618829664907985],[-0.025545350571198,44.6192421504769],[-0.026346093032449,44.61888508085076],[-0.026581676132198,44.61857411732309],[-0.026927549666186,44.618343917834764],[-0.027451338445311,44.61820884519196],[-0.028075858143179,44.617553880787845],[-0.028185381853179,44.61722114219483],[-0.02801715195612,44.61568607840516],[-0.027648299105942,44.61480697732455],[-0.027103763452665,44.61298131783721],[-0.027388780460508,44.61295729238052],[-0.028226983418633,44.613182075946376],[-0.028509055925303,44.613079748273954],[-0.028756171301274,44.61324234768777],[-0.029172178778224,44.613121031199015],[-0.029672579354328,44.613326235064115],[-0.030088933940736,44.613610319921946],[-0.030607657374844,44.61375735837407],[-0.030837016313974,44.61377719396739],[-0.031092795269876,44.61353773990641],[-0.031276138831621,44.613522800025216],[-0.031959360938276,44.61372658185283],[-0.03264323742221,44.61354384610032],[-0.033254927945896,44.61354327214073],[-0.033858135873197,44.61373662605139],[-0.034376387984753,44.61378095486812],[-0.03483142257024,44.61422072104017],[-0.035204989523746,44.61436541877191]]]]}}]}