{"type":"FeatureCollection","name":"COM_17079","crs":{"type":"name","properties":{"name":"urn:ogc:def:crs:OGC:1.3:CRS84"}},"features":[{"type":"Feature","properties":{"fid":4249,"ID":"COMMUNE_0000000009752191","NOM":"Chaillevette","NOM_M":"CHAILLEVETTE","INSEE_COM":"17079","STATUT":"Commune simple","POPULATION":1652,"INSEE_CAN":"26","INSEE_ARR":"2","INSEE_DEP":"17","INSEE_REG":"75","SIREN_EPCI":"241700640"},"geometry":{"type":"MultiPolygon","coordinates":[[[[-1.079596558807991,45.70996117566714],[-1.079688573907129,45.71037081567348],[-1.079425283850592,45.7110061260705],[-1.079435055697388,45.71148727396468],[-1.080152363105701,45.712747997580585],[-1.08069936699605,45.71318353101694],[-1.080984701226787,45.71326516374199],[-1.085703337335787,45.71253411841162],[-1.084389525902106,45.71462861747919],[-1.084730591779632,45.71483716192827],[-1.083214469657016,45.71736548183154],[-1.08401610941973,45.71776201386544],[-1.08384978116484,45.71835053817171],[-1.083842972630689,45.71888548839283],[-1.084269952639296,45.719524633888796],[-1.085813692679825,45.722488412901235],[-1.089469466238137,45.72471096855534],[-1.089840694362329,45.725030215846495],[-1.088703949048137,45.72569185081417],[-1.087981359562459,45.72622663346598],[-1.087448683067278,45.726439828403834],[-1.086560126789542,45.727411633213705],[-1.085744613477483,45.7271256231234],[-1.083598214334837,45.73184356504892],[-1.083598826595049,45.732113148941465],[-1.085908232031186,45.73287249509054],[-1.086288410558002,45.732911905643896],[-1.086070520630873,45.733534764246734],[-1.085030820386806,45.73502419620093],[-1.084674287441448,45.73575757655117],[-1.084482114586844,45.735997180747006],[-1.083333643449218,45.73688730487885],[-1.083753109161651,45.73698751782082],[-1.084887890437308,45.73751444629347],[-1.085807760472186,45.738095144493926],[-1.083845086206275,45.74000846251497],[-1.082768539890628,45.73936399509175],[-1.081305210254729,45.74092644413304],[-1.07952393960475,45.742404803975276],[-1.078112436988002,45.74390401429545],[-1.077828011095541,45.743836762737786],[-1.075480860373348,45.74660240192995],[-1.075798950248068,45.74677664485212],[-1.075364025286716,45.74768955544581],[-1.075053837817702,45.74795414761977],[-1.074848918405762,45.74835379230462],[-1.074393923871384,45.748663292934964],[-1.074239781241162,45.74905298516143],[-1.073624000266443,45.74927812666676],[-1.073415819627479,45.7497734649947],[-1.072328223212742,45.751023738688],[-1.071523966148437,45.7515929091237],[-1.070932943783557,45.75224183423436],[-1.070536129307541,45.752397732514325],[-1.069418259776492,45.75337856193243],[-1.06740611838787,45.752256469191245],[-1.064161641709863,45.75017431926116],[-1.055744020171762,45.743394006776164],[-1.051270198320219,45.7402512149388],[-1.047715078412943,45.73811128308595],[-1.046477004725367,45.737382121706894],[-1.047559100124902,45.736492074309105],[-1.048966342762532,45.73569943271703],[-1.048988092797063,45.73541642757518],[-1.048622947889906,45.734896661742475],[-1.04871552711769,45.73457865114367],[-1.049066866457763,45.73441815011548],[-1.049547354312313,45.7343332546269],[-1.05072931837732,45.7346487271545],[-1.051104670130175,45.73462260724698],[-1.05136992951571,45.73448232589228],[-1.051599138041393,45.73409628173079],[-1.051700162863014,45.73317384278749],[-1.05214389295185,45.73255285991101],[-1.052753435719728,45.732209035744226],[-1.052903791450548,45.7320296034442],[-1.052984546216465,45.73165610991744],[-1.05276400294734,45.731141974746976],[-1.051616157480259,45.729974118851224],[-1.051189512326109,45.72938804665994],[-1.05106276065092,45.72881823904087],[-1.051138536481305,45.728288936764415],[-1.050741065854665,45.72790739581898],[-1.050702814346209,45.72761392425497],[-1.050861103357756,45.727121328689975],[-1.051874769524714,45.72647804505193],[-1.051904333176535,45.72616139585706],[-1.051639156550896,45.7257579678164],[-1.051684229953382,45.72545969599521],[-1.051861480327545,45.72538389135837],[-1.05233233701581,45.72557253468478],[-1.052857564545779,45.72558970518039],[-1.053177509782855,45.72556376630472],[-1.05329509595756,45.725446825857425],[-1.053242315157042,45.724920343946806],[-1.053048704597348,45.72473795905166],[-1.052277965991967,45.724883808576614],[-1.051815971348656,45.72469304312297],[-1.052038027812383,45.72345517249382],[-1.052137647450414,45.72314592137918],[-1.052390436324773,45.72299436252115],[-1.052551163031344,45.72274602960437],[-1.052617220642196,45.7223478180839],[-1.052930128492988,45.722015563296566],[-1.052951513996524,45.72165773088731],[-1.053304781319837,45.72062973349502],[-1.055048254203099,45.71793498776723],[-1.055889843501883,45.71751065147638],[-1.057644994385823,45.71690642500606],[-1.057877046874145,45.71696388671939],[-1.05819923543299,45.71689907879629],[-1.058507467337074,45.71669681629611],[-1.05871494258133,45.71638457268101],[-1.062164364319664,45.715033023981604],[-1.062642125803876,45.71472094116865],[-1.063293592796427,45.714022981858136],[-1.063766051591548,45.71384904209834],[-1.064895427384619,45.71361171693413],[-1.065699344772227,45.71390189184544],[-1.066008762943878,45.713733828339386],[-1.066530800111886,45.712991830622386],[-1.066825084375557,45.712863083402176],[-1.067538834249317,45.71295993459323],[-1.068614410705841,45.71284894630827],[-1.069569576138054,45.71265844242384],[-1.070410124706732,45.7123972333089],[-1.071064839611965,45.71151786878082],[-1.071053174348167,45.71127213076215],[-1.071291040674966,45.71118147811458],[-1.071526655541899,45.71078072696011],[-1.071650225061375,45.71072846988417],[-1.072082306617281,45.7105487397721],[-1.07655094878543,45.710059748729016],[-1.079203000444837,45.709842884568964],[-1.079434227821743,45.70985434537108],[-1.079596558807991,45.70996117566714]]]]}}]}