{"type":"FeatureCollection","name":"COM_17071","crs":{"type":"name","properties":{"name":"urn:ogc:def:crs:OGC:1.3:CRS84"}},"features":[{"type":"Feature","properties":{"fid":4100,"ID":"COMMUNE_0000000009751381","NOM":"La Brousse","NOM_M":"LA BROUSSE","INSEE_COM":"17071","STATUT":"Commune simple","POPULATION":516,"INSEE_CAN":"11","INSEE_ARR":"5","INSEE_DEP":"17","INSEE_REG":"75","SIREN_EPCI":"200041689"},"geometry":{"type":"MultiPolygon","coordinates":[[[[-0.355909939978171,45.92664299618903],[-0.354892678468258,45.92542126604752],[-0.354335157917526,45.924410316541575],[-0.352427984200018,45.91879406099859],[-0.350922910967669,45.91963272505846],[-0.349455225867516,45.920322446445745],[-0.347159355579553,45.921728866860775],[-0.345326319040072,45.922486127881115],[-0.343873389552936,45.922825631302416],[-0.340885519879711,45.92385670777235],[-0.340070976739311,45.92399072888238],[-0.339683738216543,45.921928277866776],[-0.339919819228178,45.91632333770474],[-0.339646038940726,45.91434225870339],[-0.338567897061924,45.91021010327037],[-0.338500438087287,45.90843653815039],[-0.3381792312938,45.907056222152036],[-0.338008316664853,45.90653671376739],[-0.337036295163685,45.90496200406071],[-0.336900827934275,45.904430632500095],[-0.338067309510378,45.90015919078186],[-0.338873101672093,45.898885290142736],[-0.34033043543448,45.89628614680333],[-0.340775769730218,45.894966100519724],[-0.340832936079816,45.893716111460385],[-0.341721096671056,45.891844893347326],[-0.340635501134805,45.891204619541725],[-0.340362475089031,45.89076744828656],[-0.340386170267689,45.89039180758905],[-0.3409271455966,45.888819272420776],[-0.341552634469228,45.8878535130832],[-0.342678634134139,45.88711809893098],[-0.343974394561712,45.88569266081298],[-0.34477673041618,45.88526062537141],[-0.346796079252746,45.88232117509701],[-0.348580377244351,45.88010428324145],[-0.348700224611074,45.87980420273102],[-0.348662656542217,45.879122128728426],[-0.349227700363,45.87705942302784],[-0.349765432630274,45.87446305035335],[-0.352889018538065,45.87483997231583],[-0.356086383743383,45.87547419378946],[-0.356600821277103,45.87565809971228],[-0.360507267885478,45.877973701560244],[-0.364070820012857,45.87976130585456],[-0.368814875584703,45.882870089498816],[-0.369494215279954,45.883237397927495],[-0.371804342123743,45.88066463575298],[-0.375356827830653,45.88179877684213],[-0.375893041093691,45.88121943487051],[-0.37862378954092,45.882146386705145],[-0.380039968059786,45.88242760492172],[-0.381842005068385,45.88319208187453],[-0.384261588723771,45.8836090555768],[-0.384814149200087,45.884284718627455],[-0.386064029947696,45.884546509679566],[-0.387233634217266,45.88505585316667],[-0.38818640045884,45.88562756916063],[-0.389449787130222,45.886758695576525],[-0.390071204365763,45.88746111279751],[-0.39046380171091,45.888429973737225],[-0.391156400589439,45.88833798691966],[-0.391692138358533,45.88836066544687],[-0.391846218772434,45.888767044444734],[-0.391368291623163,45.88943214416741],[-0.391975264493617,45.8896473698153],[-0.391916647657867,45.8897644986948],[-0.393427275309614,45.89017071031923],[-0.393134866041519,45.890767154116986],[-0.392766107804087,45.89232489825383],[-0.392579165622506,45.892831646659644],[-0.391730039714638,45.894365949922836],[-0.390038984708399,45.896378867974015],[-0.388841626174821,45.89760542343511],[-0.396730582239689,45.90160934729709],[-0.399897312003785,45.90259122483522],[-0.39774472123059,45.90547259867372],[-0.397165167512446,45.90599836584627],[-0.395962518407301,45.90674204352372],[-0.394879734404557,45.907671386099594],[-0.393671302913544,45.90907678358306],[-0.3936240042561,45.90925215920805],[-0.393721092164013,45.9093610089069],[-0.392652162905229,45.91070542216513],[-0.391959228142842,45.91119490383432],[-0.390110941173858,45.913116083780274],[-0.38902703251982,45.91449245345988],[-0.388263867809698,45.915185010187116],[-0.38798560755597,45.915720622552364],[-0.385612354428771,45.91650105495172],[-0.383578175963698,45.916979261055744],[-0.384410703794999,45.91772947885007],[-0.38550081433402,45.91930840464844],[-0.38615161737931,45.92113482230109],[-0.386496928086758,45.922781109666715],[-0.38222229602971,45.92118572817805],[-0.379679402514357,45.9200485890997],[-0.378917231153065,45.919602682894975],[-0.377258863853082,45.919178136482934],[-0.375045089877831,45.92233394998727],[-0.37455801784655,45.92323718441269],[-0.374190466598506,45.92442617215906],[-0.374144071089538,45.92522882604495],[-0.370619737984407,45.92548625420399],[-0.368986768484686,45.92590084981439],[-0.364127047248279,45.926139265053116],[-0.359846080336349,45.926189928884796],[-0.357165753900511,45.92643807800175],[-0.355909939978171,45.92664299618903]]]]}}]}