{"type":"FeatureCollection","name":"COM_86075","crs":{"type":"name","properties":{"name":"urn:ogc:def:crs:OGC:1.3:CRS84"}},"features":[{"type":"Feature","properties":{"fid":4060,"ID":"COMMUNE_0000000009748002","NOM":"Chouppes","NOM_M":"CHOUPPES","INSEE_COM":"86075","STATUT":"Commune simple","POPULATION":801,"INSEE_CAN":"08","INSEE_ARR":"3","INSEE_DEP":"86","INSEE_REG":"75","SIREN_EPCI":"200069763"},"geometry":{"type":"MultiPolygon","coordinates":[[[[0.147780567724968,46.83428822171255],[0.148057997994052,46.83363198678391],[0.148661929590717,46.83275860371641],[0.148740335468469,46.83249115719525],[0.148707560971453,46.83091905047192],[0.148568161911591,46.830300230541575],[0.148620218472846,46.82828874969274],[0.149233222309803,46.827715612765175],[0.150453458985683,46.826852992960475],[0.150991287478986,46.824413873318065],[0.150312400104881,46.823370843147025],[0.150920398973148,46.82274171394978],[0.151198589314123,46.822144053873146],[0.154027876380318,46.82240512200572],[0.1571195763384,46.82219329183246],[0.157424772896296,46.82230534962878],[0.158981266257868,46.822259126400866],[0.159030395890718,46.82209816576343],[0.160015178494088,46.8221161861413],[0.161520211469838,46.8244048683014],[0.163294218869052,46.82554512221844],[0.162902534468901,46.82663283697272],[0.166033195536912,46.82781281422765],[0.166529619673888,46.827908836669046],[0.168056415225446,46.827579753333104],[0.168363658781778,46.82717647941827],[0.169448782838739,46.82653197591007],[0.169904190232093,46.82615667112979],[0.170707548096924,46.82655844824394],[0.171258107394764,46.82632152486639],[0.171492747645616,46.82645343141116],[0.171483295643049,46.826684746495616],[0.171239525650151,46.826803083206194],[0.171533513155702,46.826804007865384],[0.171433113758911,46.826891634688394],[0.171564316977817,46.82709397471083],[0.17224095429767,46.826931323649276],[0.17247558224049,46.827465958091295],[0.176240088600031,46.826689930886054],[0.177298540548673,46.826353730475134],[0.177766276760538,46.82634538962592],[0.17813855060706,46.82625451885759],[0.179493032398574,46.82567779862602],[0.180095405122656,46.826260176581414],[0.180206462730648,46.826270107572626],[0.180657811614674,46.82614783224044],[0.18093227236778,46.825943736393015],[0.181218389507565,46.825893989739185],[0.182108622432647,46.82576264506091],[0.182730158215074,46.82582562481713],[0.185600701963281,46.825424714508884],[0.187895672277836,46.82554122408696],[0.188405103339778,46.82543745744795],[0.189491642769918,46.82541806959524],[0.190812631398694,46.82553503772841],[0.191588566935985,46.82477196120583],[0.191760333738552,46.82447163312483],[0.204598615483933,46.82310056722732],[0.208941849424233,46.82248891485706],[0.209608737273868,46.8227159221447],[0.211626765233983,46.8231621936035],[0.212635478874885,46.823531712403245],[0.213098050057533,46.822041045028364],[0.216693697816539,46.81988207642864],[0.219269950348799,46.82205802714529],[0.224942279429827,46.819476915999104],[0.226365859587877,46.82138252280767],[0.227692520056717,46.822183019604104],[0.228234466736168,46.82233933417398],[0.229862872401128,46.82329753460034],[0.230696119417976,46.82456000101211],[0.231190669576443,46.824360189115566],[0.23273136955223,46.82572706199814],[0.234664180390286,46.826999733724094],[0.235644129057488,46.82796297167694],[0.236039917292685,46.82856710320579],[0.236809407649587,46.82930814563548],[0.237035478360851,46.82904509825737],[0.238384217349148,46.828080158236595],[0.238863865929742,46.827425883940855],[0.240646696507932,46.82543616573325],[0.241764697144108,46.82472061656158],[0.242473189447055,46.82346278492859],[0.243296414503626,46.823199629674505],[0.245010596641834,46.82216679766033],[0.246183348525146,46.821223682353164],[0.247605504020385,46.82025319156786],[0.246519089993228,46.819808246065605],[0.248277606539385,46.81913950663144],[0.248816798168031,46.81867851796328],[0.24922608323273,46.81811351450474],[0.249700433083182,46.81792125086491],[0.247832768524364,46.81608910631092],[0.248571672869302,46.81611399865791],[0.249425293293417,46.8157145877458],[0.249963701574999,46.815371597994634],[0.250863543127578,46.81460389940608],[0.253839180554007,46.813245231559385],[0.253349472256795,46.8131461427302],[0.251617004292296,46.812374983433216],[0.248963444444549,46.81204213741859],[0.247505168265213,46.8113774784886],[0.243862372689506,46.80995861824013],[0.240227704160451,46.80779115149201],[0.238435272195672,46.80928511114984],[0.23697544196598,46.810276205513375],[0.235962139689795,46.81172218279787],[0.235755393293493,46.811864966234424],[0.235757244200642,46.81198303399113],[0.233890575053844,46.81307512458375],[0.23250973512012,46.814186089510834],[0.23091610659196,46.814965773117514],[0.22995371139401,46.81510295765547],[0.228834972861263,46.8142939797033],[0.227771348720203,46.81330613013212],[0.226254683771639,46.81150459835882],[0.225295309484424,46.810635459898755],[0.223932160030963,46.81206478607113],[0.223504610309215,46.81295630781196],[0.221277135009272,46.81291510521223],[0.220678692913986,46.81376014250003],[0.219987093777652,46.81299293260041],[0.218562751190221,46.812389082978775],[0.216844531817499,46.81142673089398],[0.214884886005936,46.81074590566526],[0.21334366727366,46.80978868699269],[0.212406684678676,46.8094326187252],[0.211885364003874,46.80877669718674],[0.211343954635326,46.80833291011248],[0.209512948790549,46.80752717371688],[0.208760047132876,46.806680919201995],[0.208542594195364,46.80565485897679],[0.208278680764182,46.80547997154352],[0.20767154133136,46.80534539795122],[0.207460456209778,46.805138456505794],[0.204987905446822,46.80163761471918],[0.204687990456114,46.80157626404958],[0.203497185829014,46.801566218420156],[0.201897033014542,46.8010731937447],[0.197260465440028,46.79855917187496],[0.196604841438468,46.79804495158953],[0.195977921496557,46.79738186808082],[0.195066780960915,46.79597485849519],[0.194124572413032,46.794966207538266],[0.193432727881217,46.79391140629256],[0.191684530205561,46.79301548864562],[0.190783557317203,46.792225847610844],[0.189240374984205,46.793044931606],[0.188162824964037,46.79315641970895],[0.186836063754259,46.79377264487512],[0.186542313085129,46.793416780512175],[0.186315921146277,46.79279948258589],[0.185654132245967,46.792028268680006],[0.184629882259737,46.79202300209083],[0.183751079234117,46.79149062146118],[0.182549912023587,46.79097735970831],[0.181173447397072,46.79025346335384],[0.180382573225984,46.789948454116846],[0.179558481966971,46.78985345062711],[0.177619135735674,46.7890328039587],[0.176537146988977,46.79028830473683],[0.176411844226847,46.790301443487955],[0.174365165818399,46.78972857384429],[0.173794680843559,46.78965057594697],[0.173113338493058,46.78968607348047],[0.172312788057779,46.78994477764558],[0.17175724755386,46.79003291618799],[0.16728678106787,46.78988136003674],[0.162176057576426,46.79261406039252],[0.161185821602706,46.792084156263215],[0.160822717695006,46.79172831038964],[0.160177508311224,46.79079787716744],[0.159569700989657,46.78905388082762],[0.157539431542375,46.786445801502026],[0.156804441071645,46.786304183700516],[0.154945227317934,46.7854148484812],[0.15451511898139,46.78448790143077],[0.153986456836499,46.78373960824918],[0.148874673675815,46.78377145330099],[0.147985740792766,46.783689927388245],[0.136018355108912,46.77981713381276],[0.135452408100794,46.77970571800559],[0.134909150396546,46.779760647216975],[0.13436679380302,46.780071477410914],[0.131720284425929,46.78212546907145],[0.123170484585157,46.78775105168927],[0.119909487764769,46.78960289660664],[0.115336573510967,46.79243805141209],[0.113877950424771,46.793346572216926],[0.112574212343541,46.79432654174522],[0.104923872400203,46.797727253951166],[0.101835099695588,46.7992793136468],[0.103861667217672,46.799461042330314],[0.10611771375784,46.79986655433488],[0.107950434628218,46.79994421956525],[0.113609071958466,46.79925845181935],[0.11468941314497,46.80011088761362],[0.115765956904128,46.80076409758655],[0.117754282786463,46.80280156243643],[0.11976154837544,46.80399163108874],[0.118466994183681,46.80454933407686],[0.120240589517594,46.80796528413788],[0.120373100962609,46.80845964259538],[0.12046380924039,46.80929623028806],[0.119980036643347,46.809411150621706],[0.120132752741054,46.80992043114017],[0.119867077997729,46.81000567607725],[0.120032281268919,46.81077385314832],[0.119701074213587,46.81085745605076],[0.119441306062857,46.81080679883004],[0.119257436782045,46.81048864735237],[0.118242829425257,46.81059115826281],[0.118271305342381,46.81025310016103],[0.115514580369274,46.81103449706135],[0.115888370999873,46.81143310302812],[0.116950797291623,46.81203548438619],[0.117064933042231,46.8122581880475],[0.11716052727328,46.813002099282876],[0.116888520238206,46.81387194040843],[0.117611974563629,46.81657953100929],[0.117577776758148,46.81700033600241],[0.117847915090975,46.81737471120285],[0.118925856750578,46.82077322073032],[0.123056400849376,46.821292900641836],[0.124456546837886,46.82127476692886],[0.126444487678572,46.821978579239236],[0.128484209178647,46.822300731540054],[0.129222618713469,46.822286734241445],[0.130876394941193,46.82196581731612],[0.132604389755324,46.82207739659911],[0.133713517580235,46.82197801182955],[0.133894226237825,46.8223582249578],[0.134462359605,46.82223813890901],[0.134720761027895,46.82276264145719],[0.13567038706769,46.8225024925478],[0.135092290432778,46.821619546270476],[0.137706116080818,46.82106296732303],[0.138079724098868,46.820922704697345],[0.138954866527307,46.820058822360025],[0.139538041108056,46.819081355105574],[0.141670478916173,46.82222293618849],[0.139052442622146,46.823057902718006],[0.138396367703133,46.8232028521815],[0.139001756655429,46.823818868513825],[0.139806564373024,46.8248596968503],[0.14163457361268,46.82646113634549],[0.141038261218556,46.827040055453985],[0.140664296079171,46.82723617993877],[0.141614302517373,46.82806436874492],[0.141457785961938,46.82869206186894],[0.141768248378516,46.8291025145073],[0.141693450411504,46.829325899159016],[0.141287315854945,46.82963384818747],[0.139779250101038,46.831269461679625],[0.139707881100389,46.83140283294762],[0.140024113301472,46.83167918816026],[0.13988026315671,46.831991852993916],[0.140333470435253,46.832135566411154],[0.140353308330782,46.8326550211191],[0.142302321990629,46.83261517141043],[0.144549190668647,46.83222950304573],[0.145383782137679,46.83241059497125],[0.146082686881639,46.83265048077064],[0.146286979391278,46.83280961638379],[0.146570444201504,46.83306081314991],[0.14721573358751,46.833994911494436],[0.147561764637569,46.8342548651584],[0.147780567724968,46.83428822171255]]]]}}]}