{"type":"FeatureCollection","name":"COM_17454","crs":{"type":"name","properties":{"name":"urn:ogc:def:crs:OGC:1.3:CRS84"}},"features":[{"type":"Feature","properties":{"fid":3958,"ID":"COMMUNE_0000000009753687","NOM":"Tugéras-Saint-Maurice","NOM_M":"TUGERAS-SAINT-MAURICE","INSEE_COM":"17454","STATUT":"Commune simple","POPULATION":383,"INSEE_CAN":"27","INSEE_ARR":"1","INSEE_DEP":"17","INSEE_REG":"75","SIREN_EPCI":"200041523"},"geometry":{"type":"MultiPolygon","coordinates":[[[[-0.36732370332256,45.36040189697276],[-0.366885130372533,45.360062693830066],[-0.366561323774421,45.35950733859091],[-0.36824778097051,45.35824439982375],[-0.36881639962793,45.35718452125063],[-0.369466080063605,45.35514161999515],[-0.368492988547514,45.35469323813016],[-0.368162714979943,45.35462206336952],[-0.36814657115507,45.354524311098835],[-0.369377091549412,45.35329219452352],[-0.375172998571511,45.34762793047353],[-0.375277216441311,45.34624854948235],[-0.379675811176374,45.34735324342567],[-0.380199024498507,45.345908926273225],[-0.38034795010698,45.34383691176919],[-0.380857145829214,45.34188920386782],[-0.382845005372656,45.34236087750983],[-0.385839175135386,45.343302280330626],[-0.385797776137112,45.34339906792653],[-0.3867331682342,45.34375380395259],[-0.388747462865655,45.34469954849112],[-0.390456548348022,45.34571128671372],[-0.390831762738119,45.345345716654656],[-0.391296383446112,45.344433966069666],[-0.394847814014576,45.34560159229498],[-0.39517929299929,45.345148106969276],[-0.396703755737241,45.34552003894067],[-0.397910165298071,45.343048156762336],[-0.398832570042374,45.34210083872551],[-0.401754545253503,45.342860155038416],[-0.404327523818632,45.343010834128386],[-0.404368074732258,45.34287981576207],[-0.405856710793153,45.342875075129335],[-0.406739952357853,45.342772481358175],[-0.407511908680893,45.342856230018995],[-0.409192560339493,45.343127700008914],[-0.411405096500185,45.34379842476032],[-0.411529730840108,45.34362157820731],[-0.413272139965138,45.344294882212495],[-0.413789344616281,45.34376717410514],[-0.41416956036936,45.342819136591785],[-0.41439237916423,45.34255547109424],[-0.414823862927539,45.34223496542623],[-0.41588911661693,45.34168331032615],[-0.415998014923478,45.34179174572557],[-0.418064977961755,45.341319442200806],[-0.418770018484865,45.34152052218923],[-0.418892121786811,45.34188541903834],[-0.419580618811849,45.34194189201332],[-0.419601543537847,45.341866445492116],[-0.422536079118991,45.341682092950094],[-0.423374097543161,45.34177993516024],[-0.423829359137329,45.3419922305332],[-0.424099362149144,45.34189383959125],[-0.42673537234277,45.34190507882543],[-0.427500824365716,45.341633779593174],[-0.427985230713429,45.34161353319469],[-0.429048431475138,45.34177743943286],[-0.431143959962492,45.342391879637695],[-0.432412343614484,45.3426080473474],[-0.434228785654054,45.343110218371564],[-0.436680917740698,45.345088995929316],[-0.435531730647466,45.34579034193536],[-0.435027745244289,45.34628079738824],[-0.436950523698104,45.34757100587328],[-0.437369408796083,45.34797904738221],[-0.438300805526902,45.34861379241252],[-0.438456648154059,45.348426040321314],[-0.438744458132075,45.348698402836796],[-0.439070353722536,45.34880105110079],[-0.439669845054646,45.34867717486545],[-0.439698146672433,45.34946584479286],[-0.440185720238196,45.349764510914284],[-0.441187125335717,45.350992842731216],[-0.441478792397007,45.35157512858737],[-0.441701001076744,45.352666983317235],[-0.442151500921642,45.35379147457807],[-0.442352272064013,45.35492905357902],[-0.442266521581182,45.35554728110611],[-0.441855108052054,45.35637741544224],[-0.44178305744762,45.357878498657314],[-0.441709392319909,45.35850626846651],[-0.441387715526561,45.35934085176062],[-0.440453603698634,45.35998876242072],[-0.438989487734955,45.36043934047885],[-0.439002719988716,45.36063271400051],[-0.438676956422132,45.360781522530466],[-0.438430882452792,45.361082004916774],[-0.438331481386201,45.36166639827507],[-0.437892077765024,45.361776333649814],[-0.437587764293784,45.36229311253069],[-0.437259504623032,45.362567274201474],[-0.437346218072143,45.36299813783238],[-0.43796738696606,45.36326387353277],[-0.437801918927977,45.36358621376975],[-0.437915426670158,45.36393333450914],[-0.437575545338852,45.36406094155431],[-0.437237035799872,45.364065928293634],[-0.437152940345166,45.36423615265354],[-0.43679736995111,45.36452376942686],[-0.436093415354414,45.36492572876274],[-0.435781093882513,45.364982182598894],[-0.435680683784329,45.365198872808286],[-0.434569575143719,45.36588190489399],[-0.432819250429298,45.36716766964373],[-0.432094591712016,45.367545901884064],[-0.431892786205064,45.367777413576],[-0.431792685346449,45.36775073926741],[-0.428461001370892,45.36931382600982],[-0.426547393762806,45.36992490739239],[-0.423807858163861,45.37195101567581],[-0.423643225738278,45.37185240104051],[-0.421537304066208,45.37247828640361],[-0.421218912891388,45.37264484151979],[-0.420772980133211,45.37229704771479],[-0.419210567588053,45.37317396514529],[-0.418511569871916,45.37343144886507],[-0.417886902549134,45.373088199700504],[-0.417500297093478,45.37324781325929],[-0.416733118000356,45.372957577705286],[-0.415599883523604,45.37378619406694],[-0.414946191746263,45.37330321269624],[-0.414695414504702,45.37255107181947],[-0.413666484308813,45.37124583279282],[-0.413203465887666,45.371410465212826],[-0.412616349256358,45.37078213697058],[-0.412440411957038,45.3708740235934],[-0.4120315256937,45.370628716459095],[-0.411609040518387,45.370245023607744],[-0.411160112756656,45.369492606062245],[-0.410482752141372,45.36993594754633],[-0.40995786550634,45.36965451026626],[-0.409064423824403,45.369368070771124],[-0.407746586411745,45.36860334117983],[-0.407334717895488,45.368934933334764],[-0.405499612540342,45.36801197214459],[-0.404944489816214,45.36840559514313],[-0.401841893518117,45.36745442377143],[-0.40031905540923,45.367412361820165],[-0.398498234712611,45.36768305808821],[-0.397943036283015,45.367845918703644],[-0.397807161636596,45.367819399029116],[-0.397604819482438,45.36768854500235],[-0.397727707631859,45.3674396663695],[-0.39701144323282,45.366305056928105],[-0.3962338893391,45.36535977012148],[-0.394181024392805,45.363943028538614],[-0.391464840846197,45.362234508533405],[-0.389069591913827,45.360481963369914],[-0.38785752304914,45.36152988715318],[-0.385618506193431,45.36383369576443],[-0.383592431155375,45.36541630717624],[-0.382663651026349,45.3659328668548],[-0.381223599859681,45.36619988661592],[-0.38020918501913,45.36396111186522],[-0.380104137204674,45.36397870415132],[-0.379197291478636,45.36249915276077],[-0.378766364278253,45.36083489117014],[-0.376438690167766,45.36113585117393],[-0.374859683985712,45.360754462697265],[-0.372125929658025,45.36047273670962],[-0.370344554445053,45.360063134065854],[-0.369669834711063,45.36063772735076],[-0.369420277595325,45.36099222776717],[-0.368809837817411,45.361171927569856],[-0.36806980907468,45.36049931875314],[-0.36732370332256,45.36040189697276]]]]}}]}