{"type":"FeatureCollection","name":"COM_17401","crs":{"type":"name","properties":{"name":"urn:ogc:def:crs:OGC:1.3:CRS84"}},"features":[{"type":"Feature","properties":{"fid":4101,"ID":"COMMUNE_0000000009750629","NOM":"Saint-Séverin-sur-Boutonne","NOM_M":"SAINT-SEVERIN-SUR-BOUTONNE","INSEE_COM":"17401","STATUT":"Commune simple","POPULATION":93,"INSEE_CAN":"11","INSEE_ARR":"5","INSEE_DEP":"17","INSEE_REG":"75","SIREN_EPCI":"200041689"},"geometry":{"type":"MultiPolygon","coordinates":[[[[-0.421178864293,46.11328388055969],[-0.421602388987577,46.1121363294136],[-0.422181837629588,46.11209722200416],[-0.422703394756831,46.11181559611437],[-0.42306442122284,46.11126660756012],[-0.423236080653538,46.10955159492252],[-0.423027096826673,46.108424020025964],[-0.423268532476061,46.10793181687328],[-0.423176987786301,46.10511339811174],[-0.422462767444406,46.09935287877979],[-0.422495401180899,46.09557439577011],[-0.422304298363229,46.09379731946338],[-0.417529290788277,46.091325621813176],[-0.416757192604374,46.090846841075724],[-0.416334884375177,46.09040979712576],[-0.416111739961836,46.090466992999474],[-0.415851932333351,46.09035133538256],[-0.413018204445326,46.08969574961199],[-0.410826895747879,46.0892875708323],[-0.408958577623688,46.08903188227578],[-0.407612771361491,46.08859552242103],[-0.406874466243379,46.087615425476706],[-0.405869115090269,46.086756911838116],[-0.405318541243281,46.086421927011536],[-0.403877694047828,46.085913569171815],[-0.403733338448464,46.08579982792725],[-0.40375779833175,46.08567200669973],[-0.403232252550677,46.085468756312785],[-0.40131687744101,46.084178735513866],[-0.40201851898374,46.08362861093379],[-0.40258323626859,46.08304293158681],[-0.402521462918087,46.08217139957552],[-0.402653757766399,46.08123365567626],[-0.40230478387674,46.08107828228534],[-0.402143488296207,46.08060722111431],[-0.402494709516928,46.079565565669796],[-0.40360917983275,46.07945009941189],[-0.403790303275142,46.07973939684738],[-0.403978704406372,46.07974906409158],[-0.405200510175741,46.079317599316084],[-0.406232502658107,46.07910453622955],[-0.406867191176512,46.078833998587356],[-0.407432310988226,46.07877826140317],[-0.407805352193143,46.078507468312445],[-0.408079058597026,46.07841001073475],[-0.408853100523087,46.07846515978642],[-0.409780199079102,46.07835706713284],[-0.410261907409192,46.07858503892784],[-0.411177496866458,46.07875038425634],[-0.411443034894808,46.078375554157574],[-0.411365510680709,46.07810748711119],[-0.411975199420763,46.07737258486653],[-0.412790168073662,46.07685683351296],[-0.414089792974206,46.075700058039146],[-0.414976504545975,46.075318230676785],[-0.416135053740395,46.07514272373133],[-0.416828017013111,46.075185838619205],[-0.417234693009986,46.074977993512235],[-0.417662673582869,46.07450901906926],[-0.417935209876206,46.07468467619213],[-0.41822086652863,46.07475898769933],[-0.418684494451904,46.0744259373243],[-0.419225434235821,46.074689941351735],[-0.419487853723728,46.07570143775463],[-0.419421577443726,46.07603062112587],[-0.419108997008935,46.076189668691775],[-0.419042162296751,46.07648912453356],[-0.419706594213916,46.07680168063682],[-0.420822491469656,46.07698073629773],[-0.422132813956931,46.076767240268985],[-0.423289718441434,46.0767521481426],[-0.425115062750263,46.07719636669054],[-0.425570603153942,46.07658862371926],[-0.425922185624538,46.07628686933865],[-0.427020604361599,46.075812020372524],[-0.42803503001363,46.07652315827242],[-0.429452728848631,46.07794676918153],[-0.430851284323273,46.077051793970305],[-0.434370753613225,46.073643632497046],[-0.434564795779327,46.073350226450394],[-0.435090219693494,46.07342714748553],[-0.436040942606332,46.073802141822384],[-0.436419678553296,46.07434949679724],[-0.437006281445172,46.075631454629324],[-0.437649786073721,46.07641504446108],[-0.438590229067668,46.077141855553286],[-0.438136654345122,46.07753056871494],[-0.437751940217934,46.07804698576504],[-0.437832408939332,46.078360016607355],[-0.438509376901908,46.0789740368439],[-0.438766456797947,46.07892207507586],[-0.439721749228106,46.078292805074945],[-0.442068107680637,46.079421296609695],[-0.442746392064593,46.079600804352125],[-0.443004321471093,46.079583058335416],[-0.443343486367876,46.07989003388751],[-0.444861810934207,46.08078312281857],[-0.445359804013457,46.08095817774323],[-0.445322891690717,46.081236914376326],[-0.445408062551891,46.08129381559913],[-0.446920456700016,46.08145155885155],[-0.447046232494238,46.08157752984747],[-0.447684307315432,46.08173479654574],[-0.449380558266945,46.08199417825054],[-0.45050726295684,46.082279880010546],[-0.451578141093783,46.08235725538323],[-0.452223380684897,46.08252509536204],[-0.451766009187321,46.083141120524004],[-0.451165908232774,46.084371701623155],[-0.450677094788078,46.088775250852535],[-0.449971595408326,46.089793606797095],[-0.449016684023006,46.09063656845352],[-0.448581070719181,46.091229382021034],[-0.448145044278256,46.09160948785503],[-0.446915554022983,46.09323864059471],[-0.446569816644169,46.093509636555126],[-0.445938542142775,46.093834373996174],[-0.444271575860861,46.09429511852988],[-0.442037494926787,46.09461711601095],[-0.440371296313446,46.094636119279045],[-0.440255533050898,46.09495960786462],[-0.440285425228149,46.09618092468263],[-0.439103851600518,46.09673953493245],[-0.438893565492141,46.096691829766016],[-0.437168532867093,46.09757244906917],[-0.436553900686224,46.09779207110141],[-0.436701923251133,46.09814902500488],[-0.438225736711307,46.100137180104255],[-0.439237758705445,46.102227364162005],[-0.439630174000619,46.103568384033984],[-0.440199519308989,46.10458946876765],[-0.438543379188794,46.10512550212732],[-0.437056751843671,46.1051615377588],[-0.436171005373263,46.10554349797067],[-0.433984059524637,46.10708250700781],[-0.432970383193771,46.107512478406555],[-0.432155149182997,46.10802837395507],[-0.431794234875547,46.108577391505925],[-0.430984541468188,46.10918234282814],[-0.428714030689217,46.11036323289058],[-0.427838252417988,46.1109692555865],[-0.427536166970869,46.11138218099469],[-0.425349157275433,46.11166094229963],[-0.424522287454665,46.11195089479992],[-0.422770624542162,46.11316376828537],[-0.422454245506078,46.113306709261195],[-0.421178864293,46.11328388055969]]]]}}]}