{"type":"FeatureCollection","name":"COM_40289","crs":{"type":"name","properties":{"name":"urn:ogc:def:crs:OGC:1.3:CRS84"}},"features":[{"type":"Feature","properties":{"fid":4272,"ID":"COMMUNE_0000000009759577","NOM":"Sarraziet","NOM_M":"SARRAZIET","INSEE_COM":"40289","STATUT":"Commune simple","POPULATION":241,"INSEE_CAN":"02","INSEE_ARR":"2","INSEE_DEP":"40","INSEE_REG":"75","SIREN_EPCI":"200069649"},"geometry":{"type":"MultiPolygon","coordinates":[[[[-0.477533853243836,43.69378294827009],[-0.477928041101303,43.693896440254775],[-0.47823788108624,43.693888332686484],[-0.478684465267581,43.69372003017628],[-0.479224104961566,43.69371447667322],[-0.479459997247801,43.6935312943484],[-0.479459983829544,43.69338808428949],[-0.479096063664487,43.692689979642545],[-0.480512442477986,43.69307879423708],[-0.481303809205346,43.69376321297605],[-0.481898142722376,43.69365681883117],[-0.482167845218816,43.693764373499285],[-0.482400163530868,43.69393076919597],[-0.48265522534558,43.694287383899336],[-0.483000254110776,43.69446998447588],[-0.483195222814967,43.694491661881216],[-0.483463703966874,43.69390571573378],[-0.484514201517037,43.6926056823543],[-0.48497601842805,43.69262691227848],[-0.48489967053208,43.69335081740178],[-0.485627940721405,43.6929978229076],[-0.487340983144711,43.69428224428019],[-0.4875089089602,43.69424713637434],[-0.487847155949091,43.69442003184408],[-0.488162225817857,43.694253205173446],[-0.488649383567336,43.69428261422929],[-0.489502294609539,43.69440656890704],[-0.489489298885452,43.69449885733863],[-0.490200964908448,43.69466787009415],[-0.490469717255238,43.694515132772565],[-0.492102580290862,43.694624840742485],[-0.492504152036578,43.69496051747682],[-0.492801992288904,43.69506083820803],[-0.492899790075697,43.69548372971126],[-0.49507373619997,43.69563095815457],[-0.495489416450656,43.69589231372306],[-0.49618478471399,43.6965256755192],[-0.496382951028456,43.69688409072823],[-0.496424569735456,43.6973826443995],[-0.496760823386643,43.69756278371141],[-0.496988410751795,43.697406849829584],[-0.497304266275453,43.69741560848201],[-0.497477264479822,43.69752443513027],[-0.497512969125362,43.6978853709758],[-0.497332222810466,43.69815779235743],[-0.497311543475405,43.698489917415685],[-0.497528740874444,43.69857030170125],[-0.499928776273261,43.69855524511431],[-0.499793207604444,43.7000133512728],[-0.499898537982217,43.701005245842055],[-0.500487822400346,43.70109977176866],[-0.500464881613104,43.701374325951726],[-0.501043467007932,43.70165924330762],[-0.500900843400616,43.70235197704285],[-0.500978228969384,43.70250080571455],[-0.500665091066687,43.703288198012025],[-0.501282701175673,43.70343945450168],[-0.501922886049226,43.70397998926704],[-0.502106097766198,43.705696254040916],[-0.502256569032529,43.705903077137876],[-0.502331864785667,43.70644378335402],[-0.503509360497441,43.706369836121596],[-0.506760076617786,43.70515630621196],[-0.507836089105568,43.70456136615659],[-0.508355145862945,43.7044410434841],[-0.508576010465859,43.70429701067225],[-0.510170935028524,43.70277017961877],[-0.510480732521627,43.7022341634337],[-0.510790017318165,43.701953065460806],[-0.510835051941431,43.701756156524155],[-0.510442643678423,43.70114732847518],[-0.511170118402014,43.700883355854586],[-0.51127582928729,43.70058270722492],[-0.511241513215989,43.700083918191865],[-0.512065939480981,43.700388763516884],[-0.512917768398847,43.700937712697225],[-0.513133057771476,43.701168548249555],[-0.51321185657534,43.701117364355106],[-0.514107569041813,43.700297599511124],[-0.515141609771755,43.69885996853903],[-0.51534478621399,43.698327383612906],[-0.51551547805623,43.69728604338753],[-0.515612418339605,43.69726759771419],[-0.516300059380883,43.6973264322405],[-0.51702965031287,43.697158726879756],[-0.517513572480103,43.697195318419226],[-0.518604243782617,43.69755004876311],[-0.518722593949913,43.69761737649547],[-0.518841262053603,43.697891858824555],[-0.519797687792442,43.698304063710054],[-0.519926823066012,43.698445800848305],[-0.5197025171172,43.698734984810834],[-0.519634390980253,43.69920196019444],[-0.518738444995185,43.70124855991679],[-0.519603034350209,43.701498908409114],[-0.522244206730116,43.7013044231878],[-0.523069781148036,43.70140468684834],[-0.523858370697035,43.70128726712873],[-0.524441226034208,43.70101437835708],[-0.525494127747418,43.70008854000311],[-0.526163101705595,43.700266814197356],[-0.526716019352096,43.700596566210095],[-0.527354968671012,43.70079111929585],[-0.527964822642494,43.70069477801716],[-0.528495688745333,43.70084779415649],[-0.529573422581203,43.701493773756425],[-0.530026227169097,43.70154843477761],[-0.530583179456028,43.701761843978026],[-0.53103944869225,43.70173172018956],[-0.531421878703529,43.70211472306069],[-0.531745548058311,43.702933783204855],[-0.531787583577376,43.703675518295945],[-0.531544807728563,43.704469736154834],[-0.531559647187503,43.70485116300827],[-0.531842697646856,43.70581656099232],[-0.531836873518323,43.70648689245856],[-0.531628372594675,43.7067701859129],[-0.529932631975681,43.707903400316546],[-0.529453884636313,43.708113492350584],[-0.528822054448189,43.70870054934856],[-0.528129154414396,43.708901369071924],[-0.526906524436334,43.709835439618594],[-0.526296342498528,43.70998852885521],[-0.52543552290043,43.71091085295902],[-0.526312700908334,43.71114093140971],[-0.525664430805624,43.71176453118813],[-0.526888734271576,43.71263007919843],[-0.527098783410925,43.71349968011629],[-0.526671912604763,43.71360539360249],[-0.52629849818789,43.71355084406593],[-0.52595810855513,43.71358889886882],[-0.525195217807574,43.71380367624473],[-0.523928298786801,43.71383931747548],[-0.521575215124826,43.71416411438802],[-0.519071408502482,43.71492608441229],[-0.5187202795857,43.71517343237547],[-0.517794130543099,43.71554115602599],[-0.51749583396001,43.71588046716297],[-0.517434692721391,43.71757311021085],[-0.517079758269557,43.7193554174854],[-0.517182364880368,43.719711491603356],[-0.517014928030631,43.719715102721544],[-0.516065380518138,43.719299031474264],[-0.514620975937587,43.719075482005906],[-0.513430017295433,43.71869150671789],[-0.512763384172894,43.71861485296094],[-0.512220210390795,43.71864770128054],[-0.510867227079449,43.71888142266322],[-0.510529382277707,43.71888061467905],[-0.508569224269703,43.71810346765491],[-0.508122005612145,43.7177566985682],[-0.507137383451255,43.71674630628129],[-0.506541209190785,43.71642054628848],[-0.505393449706794,43.71556401772012],[-0.505773867522594,43.715003220600174],[-0.50598817891084,43.714386526293936],[-0.504194746452058,43.71415877973949],[-0.50381552660031,43.71431330755653],[-0.50312046708138,43.714420358550385],[-0.501872067179837,43.71433264817253],[-0.504435621613811,43.71294135462389],[-0.504745959682141,43.71261520478472],[-0.505172728019916,43.71244653137374],[-0.50506130647278,43.71228979335825],[-0.504552075955056,43.71202427428124],[-0.5038524278535,43.71197475357256],[-0.503451393276348,43.7111031646788],[-0.503151143090469,43.71092458395251],[-0.503095682273495,43.71048501855382],[-0.502622596055275,43.70967339423342],[-0.502875892681817,43.70936890257497],[-0.502936263073507,43.70891479912478],[-0.502912035422688,43.70845801567771],[-0.502686280312971,43.70842115006007],[-0.502662764962125,43.706981663853334],[-0.500086667041742,43.707615820584834],[-0.499771825643653,43.70827446438113],[-0.499188575994078,43.7084220296465],[-0.498734736805754,43.707741276830326],[-0.498182085663351,43.70788154759134],[-0.49745535806222,43.70789590841382],[-0.497575918558493,43.70921878236703],[-0.497067053583779,43.7092630643476],[-0.496757471690499,43.70937839957522],[-0.496543756185467,43.709315013524304],[-0.49650388298996,43.70959731759438],[-0.495872939370152,43.709757206037814],[-0.495649210736868,43.709224868741344],[-0.495427025345344,43.70924641969192],[-0.495487557449383,43.709505681243684],[-0.494547471430542,43.709747552017646],[-0.494294075050125,43.710783404599674],[-0.493883870209206,43.71069479952014],[-0.492710705416603,43.70968134171954],[-0.492548266325183,43.71049899868934],[-0.492237865999782,43.7104179918276],[-0.491875343351304,43.711029502825696],[-0.49004424450099,43.710486588508886],[-0.489285412627249,43.711074775293994],[-0.489321086963968,43.71165999357156],[-0.489137029625468,43.71177758512948],[-0.488102508054087,43.71340501820847],[-0.485308155449421,43.712623590429054],[-0.484789978369113,43.71151610583213],[-0.484812148070218,43.71073808459484],[-0.482646367296291,43.710631803287264],[-0.482629704349599,43.710378337467965],[-0.482006949559711,43.710408180246134],[-0.479710494963121,43.70976560074697],[-0.479916932825701,43.70940321879662],[-0.478396475256588,43.709392400263745],[-0.478194476195414,43.70972581457255],[-0.477664132974963,43.70962117516666],[-0.47678720877419,43.70963659580068],[-0.476306537678213,43.709450199783696],[-0.474907979190523,43.70833838225623],[-0.473429981073812,43.70698049272187],[-0.472760385555321,43.706053435170844],[-0.472438685622288,43.705846636670884],[-0.471760479531814,43.70580073221205],[-0.471120236158956,43.704722313290596],[-0.469530684956575,43.70361022686278],[-0.466628111029176,43.702197711405745],[-0.465216005611849,43.70124564060143],[-0.467120553962126,43.70120656448364],[-0.468361832276816,43.701551586686804],[-0.469549961877717,43.701592955088536],[-0.470217286960758,43.70148069636696],[-0.471622009761718,43.70093778578572],[-0.473333375529101,43.70064086228333],[-0.474950490613539,43.700754938251464],[-0.476816964465088,43.70123390882376],[-0.477001554497191,43.70118657607267],[-0.477717790360657,43.70042870790473],[-0.478305914197419,43.699626294181265],[-0.478606136947726,43.69980674000157],[-0.478754774003174,43.699678590447185],[-0.479607028364564,43.69819760169662],[-0.478620513432656,43.69791841785012],[-0.47729705123795,43.69691503069414],[-0.477330005033262,43.69649695495428],[-0.47691633071541,43.69581754576109],[-0.476843251945829,43.69510473035099],[-0.47720924355946,43.69471293628195],[-0.477533853243836,43.69378294827009]]]]}}]}