{"type":"FeatureCollection","name":"COM_47124","crs":{"type":"name","properties":{"name":"urn:ogc:def:crs:OGC:1.3:CRS84"}},"features":[{"type":"Feature","properties":{"fid":4123,"ID":"COMMUNE_0000000009756965","NOM":"Lacaussade","NOM_M":"LACAUSSADE","INSEE_COM":"47124","STATUT":"Commune simple","POPULATION":208,"INSEE_CAN":"10","INSEE_ARR":"3","INSEE_DEP":"47","INSEE_REG":"75","SIREN_EPCI":"200036523"},"geometry":{"type":"MultiPolygon","coordinates":[[[[0.807527516203599,44.49247905459347],[0.806853320824567,44.49338242012389],[0.80576307192115,44.49433964439555],[0.805055722388631,44.49515588713408],[0.804799616525168,44.49637195217235],[0.804189279680573,44.49789616297786],[0.804164907970518,44.49910603487567],[0.803364691355154,44.50023741986599],[0.803276678619666,44.50123889587876],[0.803058000682588,44.50126425927008],[0.802941056512242,44.50139161133341],[0.80202778207964,44.50186962814073],[0.800820223149665,44.50302169830643],[0.798991207480588,44.503650737045454],[0.797824697540882,44.50394085258917],[0.797382608780786,44.50414455989241],[0.796191307328624,44.50519874602968],[0.796848997524532,44.50533976419632],[0.795882302006786,44.506184098382164],[0.795220091087646,44.50673912417617],[0.793639231623277,44.50729288753463],[0.793335003032651,44.50780012739364],[0.793320372194802,44.508206892552934],[0.793144394060942,44.50833035274294],[0.79272133790698,44.509172928296024],[0.792711105837842,44.50943478975873],[0.793210530278899,44.50969784170356],[0.79352044822837,44.50997961549445],[0.794166970477204,44.511503702961875],[0.794694844921165,44.51197354761126],[0.79531458772609,44.512185860985774],[0.798389241622437,44.512736270830196],[0.79891384846956,44.51293585823807],[0.799921317392128,44.5139546859978],[0.802993213604518,44.51496780309946],[0.803747515277781,44.51528181018234],[0.804681552959824,44.5159587157745],[0.80557885539373,44.51680418971259],[0.805912493064895,44.51699634231337],[0.808326899541197,44.51789806823691],[0.809379138609081,44.518061254527],[0.810618029660103,44.5184100494449],[0.812023202097738,44.5191457699139],[0.813536532411775,44.52007993922683],[0.814352631641423,44.520426616419854],[0.81832341388911,44.52102842865522],[0.818973672147408,44.52107460464087],[0.820144287516691,44.52101038194175],[0.821474930173967,44.521398689171654],[0.821945724528895,44.52175740300901],[0.824331451451796,44.519788102812555],[0.824677637810665,44.5196238210206],[0.825072386416979,44.519571264894665],[0.824965238571671,44.51915039022721],[0.826005577525325,44.51903580828378],[0.826044063615722,44.51836294460724],[0.825904356485555,44.518068409150835],[0.828310437800379,44.517035117413485],[0.828708446297524,44.516700736838665],[0.828991202595272,44.51674502511343],[0.829173577450245,44.5165847111548],[0.828964872977353,44.51641490119074],[0.829318454960999,44.516221032720836],[0.830379723194232,44.515330538557684],[0.831184221408062,44.51443949079196],[0.831515698256016,44.51423077232698],[0.834443351830758,44.513833492940456],[0.834839038058995,44.513656644180074],[0.836501552721789,44.51336325577933],[0.836552650468651,44.51340928572385],[0.836363189382976,44.51372256710641],[0.836335286595127,44.51441815211765],[0.836779670053427,44.514974406014616],[0.837802910294589,44.51546815774409],[0.839477123701151,44.51552797180155],[0.839999457450338,44.51542923135692],[0.841182271787099,44.5156676148059],[0.841651731659074,44.515602053200176],[0.842184731533706,44.51575116454822],[0.842997545410861,44.514044291847924],[0.842899594130807,44.51344530752531],[0.843483040653609,44.512536344631506],[0.844031448499614,44.51208327648416],[0.844353246883956,44.51143395998486],[0.84544901758872,44.51075203147192],[0.848810527521217,44.51233866511091],[0.850302102878205,44.51071342113488],[0.850562078743578,44.509768402918],[0.851873075315811,44.508354855177615],[0.853374512520777,44.50719355204317],[0.85390097396665,44.5071821818937],[0.854843446732532,44.506952861355444],[0.854936994317069,44.50687543195068],[0.855334785173474,44.50630861505064],[0.854623549254423,44.506148896183106],[0.855123765332609,44.50510497960135],[0.855513061992882,44.50462895310782],[0.856173271791924,44.50420952215884],[0.856440006260289,44.503912121192755],[0.856566685849656,44.503226563465844],[0.857724433687889,44.5021629927819],[0.857887536968717,44.501843764181835],[0.857776160793793,44.50169481194567],[0.857261346212703,44.50166590114009],[0.856320827109617,44.501780007702465],[0.855921453697801,44.50175963790119],[0.85522089105474,44.501353379299644],[0.854834204218986,44.501297230237896],[0.853773020630156,44.500910964870336],[0.853446555409409,44.500859584801546],[0.853205828346838,44.500671187956655],[0.853064800232381,44.50037576475242],[0.852557234857681,44.50022269709402],[0.852417804880262,44.5002163803034],[0.8522666148868,44.50035392217962],[0.851938075778207,44.500324110365575],[0.85158214812678,44.50041894044355],[0.849026726630997,44.499885542612645],[0.848588433424609,44.49973110562022],[0.84863740616017,44.49950242061756],[0.84822821568554,44.499211666203735],[0.847299150349363,44.49948801776278],[0.847127066025841,44.49938109586652],[0.846967281292849,44.49938067870015],[0.846327626656393,44.499491566454346],[0.845431502063387,44.49933267919905],[0.844103528938072,44.49927971464978],[0.842891639095632,44.498987656558015],[0.842442924590841,44.498381814729484],[0.840870368541395,44.496992110650986],[0.840072312045503,44.49644155775577],[0.839543578575804,44.496218672114914],[0.839121204552556,44.49614285648705],[0.838363318117918,44.4961874418874],[0.837555623401348,44.496415658727166],[0.837101525498977,44.49677418006548],[0.836541228811396,44.49675148406177],[0.836175587766221,44.49663984729218],[0.835441237825209,44.49606979709229],[0.835146171344242,44.495298536339796],[0.834565400961531,44.495153853565476],[0.834292985395224,44.49497379756817],[0.834350571916421,44.494390469859354],[0.834613671404016,44.493730127755974],[0.834522475210481,44.49348338710455],[0.834144390789876,44.49336879728975],[0.833195305396475,44.49341319377141],[0.832681648830052,44.49335627227909],[0.832325643027096,44.49309261832171],[0.830355232214282,44.492605397861865],[0.828585102289263,44.49260388109947],[0.82794087233358,44.49250744373087],[0.827495865819735,44.492301457407635],[0.8268688262481,44.49221615895722],[0.824830842195699,44.49214626469055],[0.823185830716652,44.492326339051004],[0.820852972685705,44.49239914242296],[0.82038783912679,44.49232421036305],[0.819254289955612,44.4924539960887],[0.818356574791364,44.49230836259274],[0.81705690953785,44.49169007923787],[0.816274452634809,44.49155751648895],[0.815458526250752,44.49177009908168],[0.814433258045912,44.49183263708553],[0.813756718667272,44.49198673157665],[0.812125612720207,44.49219663567933],[0.811817618649947,44.49232020565651],[0.810634183576171,44.49247052682035],[0.809191998822519,44.4923176106181],[0.808558251223022,44.49240588228315],[0.80806652455699,44.4923681930379],[0.807527516203599,44.49247905459347]]]]}}]}