{"type":"FeatureCollection","name":"COM_19094","crs":{"type":"name","properties":{"name":"urn:ogc:def:crs:OGC:1.3:CRS84"}},"features":[{"type":"Feature","properties":{"fid":4059,"ID":"COMMUNE_0000000009754102","NOM":"Juillac","NOM_M":"JUILLAC","INSEE_COM":"19094","STATUT":"Commune simple","POPULATION":1147,"INSEE_CAN":"19","INSEE_ARR":"1","INSEE_DEP":"19","INSEE_REG":"75","SIREN_EPCI":"200043172"},"geometry":{"type":"MultiPolygon","coordinates":[[[[1.241605477849663,45.30135224727542],[1.241090049272058,45.30175124360368],[1.239232045306782,45.301906651158326],[1.238437737332812,45.302366093697295],[1.238502949014905,45.30248330598374],[1.239130448601012,45.30265800579562],[1.239415653364938,45.30288135549237],[1.239527755179821,45.303251490539026],[1.239772907787725,45.30349042092691],[1.241084309572525,45.304035232123994],[1.240494920673962,45.306613567620616],[1.238593077010319,45.31234879034868],[1.235819968658382,45.32200076807464],[1.238549739584859,45.32260037869185],[1.238986637297542,45.32263247305316],[1.239662878004149,45.322605284126084],[1.241414808993001,45.3220302825776],[1.241865549778395,45.32194729815457],[1.245491673541014,45.32189702706855],[1.249478311568965,45.322115271994384],[1.250638612838269,45.321959587487534],[1.25177354116799,45.32192058081535],[1.252310152560447,45.32178575691239],[1.252495788109338,45.321647251813935],[1.252678312900919,45.320916062181546],[1.253159838880104,45.320949698755804],[1.254305311668221,45.32138818206033],[1.254513590858076,45.3213824242073],[1.255353242414671,45.32127302730164],[1.256259045112313,45.32100793986641],[1.258183589632524,45.32082535504481],[1.259624346251818,45.320354208651366],[1.262794374403293,45.32174274408534],[1.265056103272546,45.322908157481066],[1.265721237458071,45.32434421034385],[1.268821625045722,45.32613678753875],[1.270006991028497,45.32661355172385],[1.272045098360947,45.327754647674446],[1.2728871633946,45.32839270170005],[1.273174833719505,45.32887448922588],[1.273439338819594,45.32907401261231],[1.274162265914067,45.330096601141754],[1.274719173939555,45.33070862774454],[1.274845045816805,45.33163284185901],[1.275675416035353,45.33203291996334],[1.27619987792682,45.3331992444408],[1.276480293096981,45.33333956189208],[1.277742295619641,45.33456586816622],[1.278484902521412,45.33475021772563],[1.27962344143809,45.335304513776286],[1.280054764300316,45.33676120080134],[1.280647442862919,45.338204152734484],[1.280618493667814,45.34034096970504],[1.281613697008102,45.341695528886966],[1.281832996403708,45.3421213034819],[1.283288261775384,45.344752834918744],[1.284254991281428,45.34566831232268],[1.285433351273519,45.34775877838197],[1.286059474889086,45.34841413673661],[1.2864605844479,45.34969921077004],[1.286044673292817,45.35018100179128],[1.285655023628622,45.351012649070405],[1.285079701445621,45.35173427333046],[1.284872652886886,45.35215261047163],[1.283616808337706,45.35315291359931],[1.284832842808503,45.35311300399208],[1.285587013452512,45.35317949368971],[1.288191164210741,45.3537345116058],[1.288840584932039,45.354009231211215],[1.291054129615034,45.35522289746572],[1.294017316552151,45.356113797837985],[1.295514489224996,45.35648965434205],[1.299475510282305,45.35825932136122],[1.299775790183748,45.358299006408],[1.306406797203303,45.35789692084043],[1.307031015003273,45.35791266405272],[1.307671458133085,45.35802501900008],[1.308256165351571,45.356944962812825],[1.30831876882598,45.356650494041546],[1.31136626990134,45.355068109590256],[1.312004625866862,45.35461659992026],[1.313939976579549,45.35280122178101],[1.314406780268432,45.352951453405176],[1.315067684140369,45.35255520635665],[1.316040744981909,45.35243834922954],[1.316264606165253,45.351836477924905],[1.317457602257236,45.35188052963141],[1.317585360189653,45.351330350268455],[1.320585016904232,45.35025677374868],[1.321884264993244,45.34986825921457],[1.322611588149856,45.3497233451858],[1.323115925469588,45.34977232936997],[1.324148619701086,45.3503029619718],[1.325630233416052,45.35026298280272],[1.326238188101416,45.35009464462702],[1.327920910710079,45.34880213788708],[1.328680070318899,45.34831901678695],[1.327939190110247,45.347810797503236],[1.328790385314735,45.34728221669131],[1.330932694376243,45.34629013754353],[1.33181445033138,45.345762890888714],[1.332661024715873,45.34491718552418],[1.334176502127435,45.344252551654336],[1.335125955235421,45.3435947930751],[1.338408721837079,45.34212417484378],[1.338816287954503,45.34177626992115],[1.339391898722078,45.34153172851916],[1.339946670797493,45.34112926256062],[1.340130955419039,45.341287806432554],[1.34182422088953,45.34026455019186],[1.343502855242279,45.3394734187854],[1.343432077282275,45.33927693197964],[1.343054361812823,45.33905248581733],[1.342216685644362,45.33883563817014],[1.340452866550669,45.338842828256176],[1.339595400067133,45.338690513762906],[1.339102297773981,45.33788252672953],[1.338604645693745,45.33739870159378],[1.337897773569591,45.33707928763518],[1.33686114446868,45.33681261158547],[1.336302541560328,45.33657464676273],[1.336115036575759,45.33626834284087],[1.336152454881478,45.335870814374765],[1.335024794608039,45.33600175320873],[1.334291489674443,45.33592689810758],[1.333198024923241,45.335981772658705],[1.332264010552111,45.33582916196176],[1.331678534219558,45.33550881460219],[1.330457935848096,45.335630216510324],[1.329612669243768,45.335541952292054],[1.329313692409346,45.33537717560591],[1.328875597799502,45.33491220763458],[1.328693244797928,45.334605967596254],[1.32868972294957,45.33412767224948],[1.328463270104844,45.33363163782272],[1.327188934888069,45.33201485566493],[1.326587322739147,45.332701161566426],[1.326296178046274,45.3329138642323],[1.32539739905192,45.33070014373382],[1.326395551584232,45.329819831241345],[1.327314496121583,45.32940756280932],[1.327595402897308,45.32915237467765],[1.328191975616986,45.32795172120735],[1.329479118279031,45.32581930094902],[1.328377918012339,45.32550024264358],[1.328668219682508,45.325228981097425],[1.328759255443674,45.32483315654128],[1.327955943859781,45.323778212305285],[1.327257384518973,45.32314722982049],[1.327053969461393,45.32273619754622],[1.326130330769262,45.32216128546365],[1.325456174224644,45.321611714279754],[1.325308878836418,45.32069355509464],[1.32552432715809,45.31938724272181],[1.325268729743879,45.31926903615654],[1.325541041469037,45.31900111663785],[1.325824944404569,45.318474885204665],[1.326052002992437,45.31831076220138],[1.326058753251724,45.31795871157784],[1.326753345477317,45.317614246106736],[1.326928639816493,45.31734577346547],[1.328389759561189,45.31647056896292],[1.329195610472123,45.31586296202358],[1.329393962612555,45.315591227575275],[1.329827910714572,45.31538065057252],[1.331230079787145,45.313828149043744],[1.332564484387235,45.31112540406786],[1.332933529079623,45.310650861616786],[1.333295497544348,45.3094313831259],[1.333942964817576,45.30848094375873],[1.334050058577372,45.307972776228574],[1.33377443537598,45.30762913068049],[1.333056143993609,45.30723565932573],[1.33242831738771,45.30714614667727],[1.332300695762987,45.30693259404144],[1.332699408757556,45.306574677892684],[1.33272332931329,45.30624449952003],[1.332420663095099,45.30590945389465],[1.331984634154693,45.305126602459424],[1.33183549315293,45.305035215465004],[1.331078388573714,45.304959078099316],[1.330845921478558,45.305007847231984],[1.330448756899969,45.30522888246941],[1.329915767168698,45.30576581498703],[1.329633839302703,45.30580393629979],[1.32898691911543,45.30550066714207],[1.328333327992332,45.30537742263375],[1.327686672992236,45.30493815299475],[1.326498047501617,45.30448446939981],[1.326006361278605,45.30394303335786],[1.325697032588786,45.30404377952734],[1.325518132448699,45.30426356043698],[1.32517326617683,45.30490956200248],[1.325119058643217,45.305481558510934],[1.324672591830441,45.30521909164089],[1.324808489359665,45.30481673847576],[1.32420871719325,45.30438985859664],[1.323594907531503,45.30417531649849],[1.322312776849512,45.30381925722333],[1.321134349312903,45.30374934224254],[1.32079662466442,45.3040721075155],[1.320612709334979,45.30407655205659],[1.320292078561974,45.30391682810723],[1.318291890254266,45.303292355292996],[1.31864289386679,45.30307967546158],[1.318447212498494,45.30275520496104],[1.31864185686125,45.30231051104038],[1.319277754414234,45.30208770043582],[1.319424270786334,45.301503583369055],[1.319984650562277,45.301203079908895],[1.319859045281621,45.30084003610299],[1.31992608392316,45.300563645168204],[1.319801781992558,45.30036904093733],[1.320211655796447,45.30010770553643],[1.32032968778009,45.299705990281076],[1.31971295727047,45.29971744333516],[1.318320462431512,45.30031616102073],[1.317787743338789,45.30113764343859],[1.317569499806655,45.30181434674426],[1.317595462636025,45.30205340753011],[1.316899549676606,45.30181237528186],[1.31668565827311,45.30255579021846],[1.314365157947211,45.301933631087586],[1.313629378286458,45.30271510893251],[1.313309848853084,45.30353167931892],[1.310487974446727,45.30281902025941],[1.309699810662647,45.302674719962354],[1.309209388768977,45.302686222681395],[1.308517024414486,45.303001790166505],[1.306807923235717,45.304772724762564],[1.306288924963609,45.30425420264843],[1.306027857166304,45.303773808321935],[1.304855173737712,45.304606256115356],[1.30371634079175,45.30411615556976],[1.303090104329648,45.304773137393774],[1.302999436138842,45.30490055464976],[1.303039904619058,45.305080397203994],[1.302825384038687,45.305293298454544],[1.30163868232511,45.30478263623284],[1.30152223477952,45.305043857436544],[1.300811982630865,45.30577610672402],[1.300663849853535,45.30573693029956],[1.300021091604378,45.30584605116497],[1.29988530952365,45.30602952137279],[1.299596506109224,45.305957583816124],[1.29961228520307,45.305566041822885],[1.298467204647282,45.305364900424216],[1.297068078626667,45.30483204460808],[1.296275000669952,45.304389460161026],[1.296915663916123,45.30355530730697],[1.296980779136189,45.30309516672584],[1.296810870208527,45.30180645486325],[1.297203556201052,45.30119278696616],[1.298538759758657,45.29976215956977],[1.298847826705301,45.29778994010546],[1.299131021457669,45.2967900255144],[1.299797930638173,45.29655518811374],[1.299906044306379,45.29627402839807],[1.299899295790449,45.29595149452367],[1.299649205039007,45.29561625549999],[1.299709159987661,45.29544964667382],[1.300105406439455,45.29513503905179],[1.300255853259543,45.29484641664924],[1.299990565727429,45.29354545526828],[1.300049419364626,45.29303838561009],[1.300325885354165,45.29259226422782],[1.30018952899962,45.29250282954031],[1.299354374255362,45.29264954909509],[1.298404637216374,45.29232798489236],[1.297968585971744,45.292316847287914],[1.297575936490739,45.29234689764164],[1.296242340985741,45.29272828048909],[1.295673955779466,45.292746640827986],[1.294909241529602,45.29263411380644],[1.294065597254134,45.292390684586],[1.29375288228896,45.29243545035912],[1.293145741248682,45.29263603799276],[1.292529100491212,45.29310487031243],[1.292465788828256,45.29338040260502],[1.292083344786239,45.29349344921455],[1.291647433509458,45.29393531503426],[1.290898743240929,45.29429854755798],[1.290116666852516,45.29400289105789],[1.289058121916614,45.293859713297365],[1.287711312686992,45.29379587340178],[1.285744125785162,45.29390534312072],[1.285299801498995,45.29387241390992],[1.283821988443415,45.29445768858989],[1.274904651441473,45.2967747954143],[1.274076460776888,45.29710426827481],[1.27385944136893,45.297354003099414],[1.273759760274035,45.29764697836385],[1.272738365304423,45.297539345260425],[1.272182904032184,45.297673970964375],[1.270460462758721,45.29749874543392],[1.268584880859709,45.29806326203267],[1.267429448772928,45.29861368550709],[1.26724885224174,45.29822450745506],[1.266732327110364,45.29846058285913],[1.265723424113077,45.29950952039203],[1.26497432064803,45.29938622325788],[1.264144298762744,45.299361638226394],[1.263498950395139,45.299430880083555],[1.262930786378234,45.29968505059021],[1.262597849128467,45.29972131044181],[1.260383364108426,45.2994860491474],[1.257561470020744,45.29945383944484],[1.256858904854161,45.29935282833461],[1.251846203463529,45.29963396920795],[1.251097460072171,45.299418717133356],[1.250667465420226,45.299497556446276],[1.24987463714727,45.29946714248229],[1.248930766974582,45.29961358992266],[1.248226851825135,45.30004299178252],[1.247527767591302,45.30031845225245],[1.247292071468675,45.30034628280618],[1.246603600831587,45.300203096968865],[1.245947960262876,45.300354937525256],[1.245413326140739,45.30031142763447],[1.244734064229606,45.30076731396545],[1.243686568611096,45.301284965451416],[1.242432797839242,45.30138236073072],[1.241936341791023,45.30130160634694],[1.241605477849663,45.30135224727542]]]]}}]}