{"type":"FeatureCollection","name":"COM_86286","crs":{"type":"name","properties":{"name":"urn:ogc:def:crs:OGC:1.3:CRS84"}},"features":[{"type":"Feature","properties":{"fid":4081,"ID":"COMMUNE_0000000009747783","NOM":"Verrue","NOM_M":"VERRUE","INSEE_COM":"86286","STATUT":"Commune simple","POPULATION":382,"INSEE_CAN":"08","INSEE_ARR":"1","INSEE_DEP":"86","INSEE_REG":"75","SIREN_EPCI":"248600447"},"geometry":{"type":"MultiPolygon","coordinates":[[[[0.23044509078915,46.86680329117469],[0.230343585436749,46.866681925640854],[0.22954135269329,46.86634098387921],[0.228267535354208,46.86551298777048],[0.227208109929572,46.86539827430046],[0.225600628947683,46.86441805790965],[0.225121425176889,46.864029013246714],[0.223918271503132,46.86264499188642],[0.222636427411441,46.863282553930986],[0.222400256653671,46.86286782979757],[0.222175642403719,46.86156236026638],[0.221149455120875,46.86021320958783],[0.220822840960884,46.85992332890415],[0.217647665836394,46.85804382272443],[0.216947916493185,46.85750165365923],[0.216289179305373,46.85682623242821],[0.216274237697746,46.8563249495474],[0.216052637301306,46.85593488751304],[0.214292095880778,46.855973360959524],[0.21416112621219,46.855685493318205],[0.212983303104666,46.85540020179098],[0.212701712644076,46.855155532545545],[0.212461398595405,46.85507853640349],[0.211803399922898,46.85497700367082],[0.2104435497858,46.855268380802926],[0.208579820095019,46.85603492785518],[0.206382714906047,46.857687086212486],[0.204894795985363,46.8585491904967],[0.204001907561644,46.85963835894628],[0.203443380595927,46.860000478894676],[0.203075044184973,46.859986120774195],[0.197637875586022,46.85858079743176],[0.197260854681542,46.857998613566025],[0.196911385755458,46.857087353365856],[0.196503342843546,46.856571981504146],[0.196150243109858,46.856339942935506],[0.197597126392776,46.85599319154758],[0.197671714903922,46.855871578693],[0.197172176419519,46.85517018754801],[0.197198931449056,46.85503389553885],[0.195409455858994,46.85365328478657],[0.194502848341639,46.853129353784766],[0.194181883057784,46.85354497210139],[0.193740391772477,46.853397260546025],[0.192052558049066,46.852439815685266],[0.188963564788701,46.8548212733733],[0.18833469638836,46.854311285923565],[0.187206800911725,46.8537251282796],[0.186371276440724,46.85309835885666],[0.185625351962538,46.85211249316995],[0.184522100310937,46.851154816727245],[0.183906924492972,46.85020637377715],[0.182825150953091,46.849342002789065],[0.182092516028126,46.84898620232007],[0.180721560242259,46.848607548116306],[0.178498326038742,46.84843141419323],[0.176432463758979,46.84526251875455],[0.17434993277103,46.84287069505823],[0.170945323148402,46.844175390585725],[0.170037002819975,46.84273673943927],[0.169176391305005,46.84222003519077],[0.16876752737752,46.842229793543645],[0.168101452384115,46.84203590798547],[0.166478363819584,46.841211199695216],[0.165329098809403,46.84049094417406],[0.162660633189275,46.84087563308756],[0.16287147360051,46.840184388975175],[0.160322550691307,46.84061792145939],[0.161321028214297,46.83842709582211],[0.159435085475395,46.83718585518831],[0.159608175134061,46.83681442715557],[0.159463992297925,46.83668473118498],[0.158336171997521,46.836310000010066],[0.157264220650113,46.83607178327491],[0.155508159428086,46.83573555207351],[0.155150028589656,46.83580507852262],[0.154540613972538,46.83568458989672],[0.153756844586522,46.835409321614186],[0.152928075083599,46.83496625458982],[0.150570522673394,46.83431052721373],[0.149417455310258,46.8342179848758],[0.148429615855795,46.83432864224632],[0.147780567724968,46.83428822171255],[0.14686373874483,46.835767400317266],[0.146477313705784,46.83627407020144],[0.146095166209689,46.83659974980824],[0.146319661968845,46.83682425605093],[0.1462360761816,46.839581855893336],[0.14644618809742,46.843643235330994],[0.146812528511538,46.84446589768113],[0.147309596193033,46.84604771296555],[0.145821171955601,46.84738026574795],[0.144613667606324,46.847667441658885],[0.144228037334638,46.847883111623936],[0.141441729458506,46.850116789642165],[0.140750430087609,46.85077353618158],[0.139880074515717,46.85181144282556],[0.139815786545944,46.85208373950657],[0.139939170978438,46.853253562846454],[0.139486403693803,46.853893707787044],[0.141118189995588,46.85495146070788],[0.142403555830607,46.85563118840535],[0.14297923106612,46.85584730151459],[0.143450682321962,46.85592297603524],[0.144500055571094,46.85574900957262],[0.145749091071451,46.85569891458888],[0.1480950385168,46.85584358009089],[0.150797718917332,46.85684664138714],[0.152700480756557,46.85722800100091],[0.14716991832128,46.86938826832546],[0.145148723194217,46.869800342120826],[0.141995636815918,46.87092306907489],[0.138974271871644,46.87163904779387],[0.137091760934588,46.87253104201931],[0.135822194353931,46.8730112037394],[0.134253475897956,46.87350822985448],[0.132843983268093,46.87382630544885],[0.134688916961912,46.87563183757246],[0.134954842728276,46.87554745971136],[0.135279568917128,46.875642936037764],[0.140337328954602,46.87903650234218],[0.140131043541446,46.879135889012396],[0.139035162265925,46.88047902156984],[0.138272512794118,46.880986226641454],[0.137809579610081,46.88154052199069],[0.137180011296889,46.88146900669209],[0.13569439609363,46.88257627453071],[0.136131407039113,46.8829096925769],[0.136663614189735,46.88353018115059],[0.13819525629616,46.885503535560616],[0.138479112792116,46.88657192488023],[0.138721445123542,46.88710861452233],[0.13891321721518,46.887209783520774],[0.139011438765333,46.88724105526125],[0.138953784352,46.88736215322196],[0.139141088763197,46.88742356847127],[0.139765938535095,46.88818238715405],[0.140478503906488,46.88919655040321],[0.141065287233108,46.88823898710572],[0.143808890137571,46.88520868599698],[0.144509132859129,46.88578465221808],[0.147525032349853,46.88271777641665],[0.148012128286235,46.882052324137334],[0.147986052061375,46.88177418267066],[0.147846741969977,46.88165000253024],[0.148117826981932,46.88042060272896],[0.149047465045187,46.87918589190228],[0.149993917064965,46.87740651006755],[0.150149002525745,46.87730583864184],[0.150723487026244,46.87635152963666],[0.151373133735315,46.87554142982847],[0.151889751609797,46.878057979177136],[0.151700996189637,46.87914797306535],[0.152000439875716,46.880773502859604],[0.151691828164762,46.88144428821251],[0.152160836512782,46.88197033897958],[0.153895168540777,46.88474673370139],[0.155541853133695,46.887093877692706],[0.156466107087797,46.8887113988416],[0.157212677282296,46.890510119642975],[0.15756250903251,46.89105572491384],[0.159130715465912,46.8912746208703],[0.160292003745334,46.89123389591853],[0.160607538217483,46.89158223761884],[0.163352558533045,46.89284366010331],[0.163044094461541,46.89328743601812],[0.164533327971443,46.893886312758646],[0.164730264635415,46.89389026146543],[0.165908480340365,46.89335167081764],[0.167100360959845,46.89498649182697],[0.170144374761478,46.894206346427865],[0.170020831844102,46.89382941701469],[0.170134174680566,46.89364750864215],[0.170324531012635,46.89350082792741],[0.171288088741247,46.89314520590852],[0.171380605420896,46.89326099808788],[0.171202571458797,46.8939764804835],[0.172813686866005,46.89501159653124],[0.173756199834168,46.89573837305503],[0.174031375870471,46.89582981581776],[0.17393896025925,46.89629063327116],[0.174837455056351,46.89690460232767],[0.179590960591822,46.89651119960728],[0.182494202973761,46.89616063509021],[0.185204859143209,46.895671050429],[0.186522279712881,46.89556089980319],[0.188643625200826,46.89566136474931],[0.188787323017585,46.89572883983357],[0.189777668297999,46.89688008829966],[0.191087670231147,46.89888780769904],[0.192960090489412,46.90039388423144],[0.194331520090995,46.89929483040314],[0.196032941389355,46.898345244035056],[0.197437597302528,46.8980487964514],[0.198361331176771,46.89807938334975],[0.199792768795562,46.89787455342985],[0.200508608305679,46.89785862444934],[0.200460270462812,46.8970655285704],[0.200886732854947,46.895986667294025],[0.200933784973726,46.8956868991701],[0.20078065288543,46.89524261981358],[0.200990966297382,46.89488645790714],[0.201873423599005,46.89413850861812],[0.204535376953968,46.89234724537426],[0.204420266336326,46.892285889839606],[0.204177477757103,46.891821419407506],[0.202322000753696,46.890648378473564],[0.203483639780097,46.89031982967175],[0.203972703338862,46.890341617951655],[0.204556217957105,46.89013776118482],[0.208258170386275,46.887057202868704],[0.210289866749484,46.885474863281736],[0.210570338377454,46.88503029213205],[0.210659543796113,46.88444684720623],[0.21056177444379,46.883590393688586],[0.210967873196905,46.88328310467087],[0.212772294848029,46.88246101103078],[0.213517516688676,46.88184479568467],[0.214633908194759,46.88136909354079],[0.215184914455234,46.87962380514515],[0.216574260671355,46.87810600364359],[0.216974107253759,46.87745889218412],[0.216950075927086,46.877261907930354],[0.217502282122912,46.87712660418557],[0.217801792486597,46.877127537482416],[0.218399715124419,46.87730415594648],[0.219138221494484,46.87732740561505],[0.219607983869846,46.87718559542631],[0.220123673076509,46.876916960343294],[0.220475698929437,46.87689302799424],[0.221745880915623,46.87592636290271],[0.222807058973318,46.87496094841331],[0.224318497286247,46.8740018793368],[0.224631355926731,46.873665268423515],[0.225348149789664,46.87252215253266],[0.2242866826258,46.87200915502273],[0.224473814126009,46.87174158684594],[0.226270229854334,46.87067945275773],[0.227925209045014,46.86935081392338],[0.228572603007681,46.86920153535395],[0.229426034494705,46.86990318598334],[0.230588166770064,46.86780676582854],[0.23058227416501,46.86771653110976],[0.230228955505677,46.867535950793446],[0.230469097481716,46.86702729941275],[0.2303198311755,46.866838115697725],[0.23044509078915,46.86680329117469]]]]}}]}