{"type":"FeatureCollection","name":"COM_16290","crs":{"type":"name","properties":{"name":"urn:ogc:def:crs:OGC:1.3:CRS84"}},"features":[{"type":"Feature","properties":{"fid":4024,"ID":"COMMUNE_0000000009752386","NOM":"Rouzède","NOM_M":"ROUZEDE","INSEE_COM":"16290","STATUT":"Commune simple","POPULATION":232,"INSEE_CAN":"19","INSEE_ARR":"1","INSEE_DEP":"16","INSEE_REG":"75","SIREN_EPCI":"200068914"},"geometry":{"type":"MultiPolygon","coordinates":[[[[0.555470031652244,45.739266591652346],[0.557813138848683,45.738651597258574],[0.558872957368242,45.73828085077163],[0.559698210967579,45.73838520627116],[0.561311446847539,45.73795163974422],[0.561934355068034,45.73785970610258],[0.564749043520034,45.738218748622735],[0.566162031776832,45.73824115537068],[0.566810233626418,45.7380713613661],[0.568046972038953,45.73759623900196],[0.568239856076133,45.73759859815474],[0.56973327253324,45.73845423908233],[0.5704291057288,45.73816653066037],[0.570842565661038,45.73771687570743],[0.570811679394653,45.73736575473802],[0.572620172255484,45.73620379415642],[0.573623927761726,45.73505511837684],[0.573678234519599,45.7347851126392],[0.573978582477601,45.73444923034434],[0.574299532300389,45.733790363176894],[0.574545466010555,45.73363889651339],[0.574786518297228,45.73324678080548],[0.575522102776751,45.732959898276384],[0.575695477342325,45.73299606003519],[0.576177975629953,45.73290643500977],[0.576532538581247,45.73300595156544],[0.577913374410367,45.73261400443745],[0.578288766900688,45.732003144430735],[0.579156836517752,45.731598363283965],[0.579141236268485,45.73119081673333],[0.579330466687527,45.73083541751878],[0.579905562436252,45.73042253710934],[0.580941740483137,45.73014387609291],[0.582174531729066,45.730310869026766],[0.582368388746483,45.730260972680696],[0.582654248117592,45.729842775535566],[0.583511406392813,45.729656649148986],[0.583975855976727,45.729419756617226],[0.584125042464562,45.729449981599075],[0.5843164980881,45.729631564019726],[0.584955253826679,45.729792100052215],[0.585010074634974,45.72992120361665],[0.585091604682056,45.72988060773842],[0.585271691981212,45.729969151332895],[0.585503995004535,45.72989304607619],[0.585850230912537,45.73006532853782],[0.586096407348991,45.729966095606144],[0.586393465820104,45.73011570137041],[0.586613996481394,45.7303681730797],[0.587033787737088,45.73038797146132],[0.587277854201936,45.730513917670024],[0.587536927822065,45.73050234569055],[0.587929509856358,45.730379214994684],[0.588390674936176,45.72992241292235],[0.588692010367082,45.72988561626375],[0.589271812973956,45.72959891745624],[0.589379170274575,45.72964445708548],[0.590284294531677,45.72930164698413],[0.590977839603304,45.72876601857881],[0.591937530336237,45.728321658737975],[0.592265795743381,45.72790254322304],[0.593142050133823,45.728014952572046],[0.59366148203385,45.72834586478137],[0.594185946982657,45.727881382801954],[0.594529647330537,45.727166192905905],[0.595308087290993,45.7265107291119],[0.594973607887183,45.725328812733565],[0.594832602693931,45.72366183304507],[0.59453746940107,45.72284742284323],[0.59462533674905,45.72212857463799],[0.594964368917285,45.721549321479884],[0.594859878810575,45.72078762919683],[0.594044866555696,45.71944770454271],[0.593509150562138,45.717069589502515],[0.593693886330899,45.71577983560865],[0.594097931788088,45.714651521725706],[0.593947096533034,45.71327081859092],[0.592681853215978,45.71329604749524],[0.589710691455528,45.71245144718957],[0.58810904911735,45.71234690484843],[0.5865176450876,45.71236147860214],[0.582902718304607,45.71194975520862],[0.582663109501723,45.711812181538484],[0.582310571886834,45.711139747604456],[0.581633955820733,45.710585583376506],[0.580657246371001,45.709601544552584],[0.579220440467976,45.709611224896136],[0.578461209337959,45.70988770582957],[0.578177111067396,45.70991493339633],[0.57668444183379,45.70914499462289],[0.576044116676826,45.70905554444752],[0.575005214168096,45.71002058732753],[0.573448810987794,45.709385270650294],[0.571080040047618,45.709328825665395],[0.569914020004348,45.70920458294644],[0.568295804828395,45.70877777291068],[0.567645986921364,45.70843671501133],[0.566832067784269,45.708172290748976],[0.56677327639937,45.70807642519753],[0.566226454595051,45.70787902645773],[0.565835681649327,45.70781743077247],[0.565369881961268,45.70797043183393],[0.565124588151429,45.70796332928182],[0.5648098231863,45.707781749197665],[0.564699005259968,45.707611783944465],[0.5640207946023,45.70733225377392],[0.562969134143463,45.707298700105945],[0.562647551096085,45.70718453488691],[0.56242354489146,45.707190499696225],[0.561921704980999,45.70690666398302],[0.561660142349729,45.7069478511424],[0.561153412095432,45.706745889332495],[0.560924968983743,45.70670670931701],[0.560608816275362,45.7067611268691],[0.559977588754015,45.706612320812404],[0.559820882745495,45.706317030224135],[0.559026260675288,45.70587908930979],[0.558440843595724,45.70571234761704],[0.558155780278076,45.705353911388485],[0.557422306025388,45.704783948265394],[0.557270519136119,45.703941003190174],[0.557276274869326,45.70360688798362],[0.557484819824953,45.703251943875806],[0.557444556096622,45.70288259614649],[0.557202274065533,45.70254580573619],[0.557064146927861,45.70180135638847],[0.556332689318514,45.70063412107407],[0.555919566987966,45.70014857403583],[0.555898690678888,45.6997481140984],[0.556067896633699,45.69920673050698],[0.556014677265077,45.69892719269143],[0.555167209794556,45.69808806824655],[0.554905264376482,45.697673366642526],[0.554416035457943,45.69739787697209],[0.554207751798414,45.69716542290604],[0.554078680176562,45.696769820559396],[0.55357080522873,45.6960731937354],[0.553478168209358,45.695522523178816],[0.553229937756957,45.69511802518696],[0.552916200661353,45.69491571084403],[0.552636347850879,45.69484836849468],[0.552356117277786,45.69449903001813],[0.552207442539453,45.69364623398712],[0.55224797439433,45.693282243169136],[0.552478435808027,45.69295481252206],[0.552311424453463,45.69269081825691],[0.552428336516277,45.692460021143255],[0.552354911802282,45.69228905314807],[0.552147282601879,45.69224580165288],[0.552249370100322,45.69208855779792],[0.551936572360829,45.691516884536675],[0.551041795146114,45.69140193628801],[0.54967214222228,45.69095051871508],[0.549317951640643,45.690762629168105],[0.548838105805853,45.690712547287156],[0.548691786804382,45.6905913426295],[0.548746953006599,45.69024568956648],[0.547828609359033,45.689386944258516],[0.547641462541821,45.689345931927576],[0.546961166292744,45.68943922783946],[0.546655950122633,45.6893938404837],[0.546291552625744,45.68923364717656],[0.546169177344468,45.689007553099],[0.545687194381882,45.688832183028936],[0.545518729676378,45.68868886935933],[0.545031325929055,45.68866473277496],[0.544771943639135,45.68822393446907],[0.544612262563574,45.68823036354136],[0.544796733200944,45.68836051375967],[0.544450489523946,45.68880522729659],[0.543966742109963,45.689219913971314],[0.543847495023946,45.689560564222646],[0.543863164293688,45.69027893939892],[0.543763510426288,45.690467761364545],[0.544031541252384,45.69140876136975],[0.543946109733266,45.691682580171445],[0.54352983321433,45.691850983727086],[0.543608942111968,45.69273290835123],[0.543407792680334,45.692978076556344],[0.542933615233035,45.69306052881069],[0.542751061426172,45.69363944232078],[0.543187997447924,45.69488773941743],[0.543095872470995,45.69571728008091],[0.543522012858712,45.69619595366831],[0.543737128237295,45.696939399581055],[0.544034847745801,45.69724139297143],[0.544103686432969,45.697457312918935],[0.543751210455127,45.69775143630896],[0.544059899640858,45.69850142636815],[0.543492130231394,45.69932960597714],[0.54337748957654,45.699971264623],[0.543511904555545,45.70033186141262],[0.543570395461692,45.70101243134774],[0.544328437226482,45.70174879363443],[0.544425516624982,45.70263201036035],[0.544709054595972,45.70290666460683],[0.545029066852295,45.70291003484276],[0.545443700975588,45.70312808304735],[0.545890204753838,45.70401891056634],[0.546206716301479,45.70413031150653],[0.546550535120782,45.70461168352755],[0.546874436351694,45.7053683022897],[0.546823538956214,45.70587801583397],[0.546965514303592,45.705982010201346],[0.546972372428324,45.706117297557704],[0.54681250151052,45.706213818772476],[0.546885368665938,45.706397391263536],[0.546778981765965,45.706708595087925],[0.546931363186082,45.70683894273153],[0.546944158341338,45.70695634095637],[0.546844696100724,45.707024447143105],[0.547052829572244,45.70743439287241],[0.546990279792633,45.70774294764572],[0.54574976225955,45.70799521779237],[0.543759295688541,45.707963554137024],[0.542287531776905,45.707805330186204],[0.54110192625363,45.70873083564939],[0.54069956709761,45.709219363211076],[0.538909892157778,45.71094519419613],[0.538441783499459,45.71152327169399],[0.538228083789573,45.716063763599344],[0.537581283449271,45.71912268414333],[0.538367527395507,45.72035610919064],[0.538492128580599,45.72079307628356],[0.53849885426551,45.72142206824985],[0.537991041905911,45.72413176728193],[0.538819343023946,45.72786076610567],[0.539315788048836,45.73029058748365],[0.539003778234138,45.733051415807374],[0.539023644317928,45.73367438848476],[0.539578093703604,45.73561176786634],[0.53814359974294,45.73722914133682],[0.537722634633173,45.73801456330716],[0.542663500693089,45.73890527748509],[0.544200717079935,45.73902796679234],[0.545004474573031,45.73918151266332],[0.545700529186989,45.739442620523256],[0.547997676720488,45.740620562298005],[0.548637148581774,45.74082366259994],[0.54922228419915,45.74091746739511],[0.551026907601384,45.740814338337714],[0.553621662707956,45.73974902939302],[0.555470031652244,45.739266591652346]]]]}}]}