{"type":"FeatureCollection","name":"COM_23075","crs":{"type":"name","properties":{"name":"urn:ogc:def:crs:OGC:1.3:CRS84"}},"features":[{"type":"Feature","properties":{"fid":4285,"ID":"COMMUNE_0000000009749862","NOM":"Dun-le-Palestel","NOM_M":"DUN-LE-PALESTEL","INSEE_COM":"23075","STATUT":"Commune simple","POPULATION":1086,"INSEE_CAN":"07","INSEE_ARR":"2","INSEE_DEP":"23","INSEE_REG":"75","SIREN_EPCI":"242320109"},"geometry":{"type":"MultiPolygon","coordinates":[[[[1.67634089057023,46.280306211515736],[1.675922783897281,46.279709654219175],[1.675598108868838,46.27970767973615],[1.672149004802638,46.28058702934836],[1.671430078811311,46.280987518263295],[1.671170529919563,46.28103132126112],[1.668928449764201,46.27996853985761],[1.668598349181445,46.27970890900886],[1.667073973048079,46.27926058642405],[1.666420675492165,46.27883235463117],[1.666065053020007,46.27871471296004],[1.665154612586091,46.27951098661258],[1.665085001249891,46.27991544310416],[1.664630651091484,46.27995784801507],[1.663982397573446,46.279908816337176],[1.663461121535074,46.28008552224435],[1.664040455547419,46.28040393005278],[1.665138384095892,46.28081577381519],[1.665518470865538,46.28158214078224],[1.665902308382079,46.282035139622145],[1.665764881033578,46.2826639532037],[1.666347344142836,46.282802264364186],[1.666339803072375,46.28343169897305],[1.665659554571621,46.283787574966375],[1.664776762600934,46.28387269204777],[1.664386434307421,46.28400500690288],[1.664380644893688,46.284455241660964],[1.664769203325106,46.284502126482266],[1.66476054577402,46.285176578257754],[1.663393363373903,46.28557391829203],[1.663256599048532,46.28606764603555],[1.663126008690945,46.286202104556295],[1.662605571078746,46.28628875646379],[1.661966838816142,46.285475211837465],[1.661642130101888,46.285473197568],[1.661186827713945,46.28560563867849],[1.661336100847648,46.28646026704444],[1.661854209288475,46.28668160063922],[1.661674307288203,46.28707935556951],[1.660945907396793,46.28754181039012],[1.660321363547294,46.28827206167135],[1.660631733400504,46.28843601990116],[1.661150387465811,46.28852947689705],[1.661310528212377,46.28846201270437],[1.662403958986047,46.28938266991236],[1.662423211946807,46.290561788162755],[1.662032631939915,46.29064906227083],[1.661897141453991,46.291142803374306],[1.661699174274453,46.29132239964131],[1.660333845002649,46.29158373511729],[1.65978593299325,46.291994269559396],[1.660607628509139,46.292606440242196],[1.660904773690835,46.292621641983665],[1.661369936750562,46.29176973378541],[1.661693582049503,46.29181676615121],[1.661811884263315,46.292716959985405],[1.660899858760295,46.29298182626776],[1.660376638480623,46.29333861758222],[1.659467511095642,46.29337835532255],[1.658662260279282,46.29548799986179],[1.658467403894403,46.295486605690684],[1.658277675216959,46.29517005968508],[1.65757082021031,46.29453671090108],[1.65673157918841,46.29421610776132],[1.656668435879113,46.29403614251985],[1.657243490865949,46.293633147478324],[1.658013853244954,46.29379532944981],[1.658170696589808,46.29328022963375],[1.657976951920964,46.29323381734278],[1.658113586664752,46.292695063730534],[1.656424342426781,46.292865177537344],[1.655976655316967,46.29231412836134],[1.654922056083072,46.292670027024805],[1.654812489296373,46.29200048311322],[1.653796558608823,46.29015034166276],[1.654122209911855,46.29006232843817],[1.654322919656878,46.289613496065634],[1.654464346189752,46.28866952986427],[1.654983713110405,46.28862793245115],[1.654978974220379,46.289032248894074],[1.657314637937119,46.28909132951201],[1.657385228095867,46.28859682825925],[1.655405729213149,46.28773681190488],[1.654854577695706,46.28801489533042],[1.653437156432035,46.2878081173059],[1.653319002542751,46.28690791431023],[1.653123985851356,46.28686147837719],[1.65253692454539,46.28717334903756],[1.652399330772068,46.287802146144195],[1.652071663083166,46.28802522157519],[1.651746939609777,46.288023179095696],[1.65155432801292,46.2879317386115],[1.651755757945742,46.28734872852025],[1.65136610348348,46.2873459162149],[1.651105588347759,46.2874797233174],[1.649419251764745,46.28737958375211],[1.648643067356179,46.287194757890255],[1.648750441721424,46.28894951565539],[1.648100245919098,46.28908049327504],[1.648285106236849,46.289801372564796],[1.647697799302499,46.2900681855721],[1.648024416106991,46.29046743001869],[1.646674325768938,46.29126644624217],[1.645834763020003,46.29138345314907],[1.645401347647187,46.29120538245987],[1.645016959938691,46.29167092776061],[1.645332969043984,46.29239337214383],[1.646111072702196,46.29239812091534],[1.646238935218605,46.292533831318316],[1.64659476340582,46.29406368979645],[1.646132830528232,46.293987052064914],[1.645564900026332,46.29420365087549],[1.644853152278924,46.294246519787784],[1.644319424355873,46.29460311366692],[1.643391798939022,46.294758681807195],[1.643344462971938,46.29562000021729],[1.642760053778748,46.295661671038054],[1.642355615534792,46.29682854282805],[1.641832237609262,46.2971852488067],[1.64144157751566,46.29727245224389],[1.641555396730686,46.297816876590495],[1.639371531348024,46.29759537959706],[1.639733874396088,46.29911813351174],[1.638352437796969,46.2988134340914],[1.636815178174761,46.298088069744324],[1.636113996505345,46.29796529901906],[1.635560339278538,46.29859630012717],[1.635571934157128,46.29870451215666],[1.636461711477606,46.29960226657044],[1.636701076265368,46.29979966309278],[1.637051443666401,46.299870500754956],[1.637139570415549,46.29998413127036],[1.637237929760102,46.300208659040834],[1.637176939558182,46.300361933550484],[1.636817849862572,46.30048462290462],[1.636890894367808,46.300890771066435],[1.638414421045466,46.3004478795221],[1.639192818183396,46.30049770812666],[1.640355936125877,46.30090966543118],[1.640806730120038,46.30122755604555],[1.641155793880542,46.30187475457015],[1.640805503778908,46.30195703407902],[1.640437930618552,46.3023164935984],[1.639497873532886,46.3029140819396],[1.638955607255205,46.30387035499934],[1.637392351400812,46.30496572075108],[1.639997778418412,46.3052823461313],[1.6427488838063,46.30575194923282],[1.642560922350476,46.305890204584216],[1.642113419709473,46.30669451785425],[1.642812106035846,46.30681812092341],[1.643004201241215,46.30708969068673],[1.642999006793693,46.307403940741565],[1.64254067337548,46.30780645578952],[1.642344656543852,46.30785005109859],[1.642340735088183,46.30816521691953],[1.642856400081881,46.30843794036327],[1.643957711678306,46.30862487083893],[1.644666246724911,46.30903407172691],[1.645370165359401,46.3098926158345],[1.645686099415745,46.31057002527866],[1.646917411320378,46.31075757104719],[1.649180177081605,46.311490495309876],[1.651048357500083,46.31262667712991],[1.651888788978616,46.31285637152738],[1.653966667994649,46.31286922934893],[1.655000206314832,46.31328040192451],[1.657656863014378,46.313700791454835],[1.658432349991211,46.3139305725331],[1.65862435208584,46.31415708326223],[1.658486955909241,46.31483091833709],[1.657755092905324,46.31626596701431],[1.654800506586021,46.31881225627342],[1.654418022253374,46.319671419528675],[1.651988803423809,46.322142786544056],[1.653376255973399,46.321596312537686],[1.65444188687892,46.321554863522366],[1.656458962276809,46.32125174293093],[1.657759688156927,46.32116440189015],[1.657707329425722,46.32388090384243],[1.658367676347909,46.32441192964055],[1.65844750114902,46.325503498840924],[1.65866634010472,46.325538496330346],[1.65959316302232,46.32601861436605],[1.660121407265933,46.326637235203926],[1.660299753117989,46.32710494291503],[1.661664116816546,46.32776940550849],[1.661991170583342,46.32811097101769],[1.662293558539286,46.3286638873303],[1.662585039148641,46.33008845661731],[1.663005846900004,46.330424814747474],[1.66370370312459,46.33080944974898],[1.664334644194921,46.33074029410991],[1.665013504251643,46.33078517192651],[1.66718900622273,46.33044768993524],[1.668753132218525,46.32996253399936],[1.670171922152208,46.32556165422812],[1.671005747394303,46.32414843257948],[1.671209773723425,46.32372302659877],[1.671919037989313,46.32294056739685],[1.672040176201699,46.32255562162333],[1.671966088752431,46.32212697325092],[1.669427929756354,46.319111875400644],[1.669188560181272,46.318585831035534],[1.669104829479097,46.317646426849116],[1.668578224689605,46.31669284265256],[1.672576891643805,46.315330054032664],[1.672405705499639,46.31408252880047],[1.674014264177157,46.313887816814365],[1.67452640442215,46.314475563395796],[1.675565157493972,46.31457139781308],[1.675623335266142,46.315067404104255],[1.676140110481267,46.315249926902084],[1.676466085513119,46.31520688248463],[1.677062910472177,46.31417542158598],[1.676821803364494,46.31264430368536],[1.678320581987685,46.31220329347548],[1.678322311590676,46.31202409415627],[1.676841253321672,46.31098022033859],[1.677691358117368,46.310490256310395],[1.677694410738818,46.31031017169713],[1.677310255499979,46.30985811433545],[1.67581611977193,46.3098947950155],[1.675885689927503,46.30949033327293],[1.675182409542082,46.30858605998832],[1.674932149947971,46.30786537072623],[1.675409389263243,46.307584529117115],[1.675585569112256,46.307661327167565],[1.676245010134535,46.306348710256266],[1.679428749162714,46.306406372027],[1.679823992461483,46.30591382137278],[1.68099229344715,46.305966079292304],[1.680914303597297,46.30704499570851],[1.682080461186332,46.30718727732526],[1.683291277006667,46.30558199936843],[1.683191516257069,46.3047594994311],[1.683008337896048,46.30486545397882],[1.682228042861039,46.30478258180163],[1.681871981389077,46.30462085768624],[1.68126723860195,46.30383213818732],[1.680930095930971,46.30353283816222],[1.682042861675026,46.302220033672775],[1.683695614929713,46.30227876905388],[1.684480356903078,46.30217525879905],[1.685521507993526,46.30205398828833],[1.68584915432223,46.301450764343855],[1.686247531084595,46.30098614695128],[1.685670191720123,46.300786758991045],[1.684329136453238,46.30003368715117],[1.684243293686339,46.3000912346718],[1.683984314199565,46.29999998428236],[1.683662334753654,46.29977291530048],[1.684910139917718,46.29856611390931],[1.684028807033394,46.298149765024384],[1.683504812068449,46.29740882042885],[1.681930693905561,46.2976517911008],[1.682242110055124,46.29918011080634],[1.681722449188345,46.29917679995105],[1.680999864787098,46.29993754841588],[1.680480175094243,46.29993513224362],[1.679703707784195,46.29975051831355],[1.67990794776748,46.298986473969634],[1.679893699228866,46.298176668584375],[1.680382681957779,46.29805084657257],[1.680406421687663,46.29690465655011],[1.679803046786312,46.29687154762023],[1.679269684036897,46.29808297751734],[1.679259659652314,46.29833683080548],[1.678805939648715,46.29845495163828],[1.678293580683936,46.29825717987156],[1.678493013449359,46.297854223125896],[1.678821719062609,46.297586054475524],[1.679286432881915,46.296689041061356],[1.679287306722387,46.29659899106657],[1.678983710444269,46.296527024895404],[1.677911759341072,46.29835721874287],[1.676931646894784,46.29815941455913],[1.677004248071643,46.29757486676371],[1.676487426618101,46.29734731499723],[1.676364291437055,46.29685145384782],[1.675005897818276,46.296394365954725],[1.675082249281254,46.29549465192711],[1.674632393660145,46.29513187933705],[1.674448701513865,46.2941868110981],[1.674255148231859,46.29418545904778],[1.673473067804953,46.29445103731698],[1.67308336168039,46.29444829930963],[1.672372825848145,46.29417434187836],[1.672249528337565,46.29363344355743],[1.673551883617649,46.29323614162839],[1.673962202422179,46.291529774191474],[1.674873050604472,46.291309820739315],[1.67481094096102,46.29108484805148],[1.674171319308641,46.29040555452925],[1.674237140317485,46.29031626043605],[1.67566448330262,46.29027973056182],[1.675860200961773,46.29019104528739],[1.676083603809423,46.28965598264622],[1.67542145152384,46.28910251850814],[1.674254252481978,46.28832252472857],[1.673635603345368,46.28774433923445],[1.674126151813696,46.286907086597694],[1.675188250368813,46.28676814524],[1.674320688438885,46.28343392302561],[1.673938722579715,46.282846785409916],[1.673754014798854,46.28194583195972],[1.673822682085846,46.28163142035281],[1.674734664714541,46.28141148290056],[1.675125829943767,46.28118908243612],[1.675807092603739,46.28051885208911],[1.67634089057023,46.280306211515736]]]]}}]}