{"type":"FeatureCollection","name":"COM_86261","crs":{"type":"name","properties":{"name":"urn:ogc:def:crs:OGC:1.3:CRS84"}},"features":[{"type":"Feature","properties":{"fid":4217,"ID":"COMMUNE_0000000009748797","NOM":"Sèvres-Anxaumont","NOM_M":"SEVRES-ANXAUMONT","INSEE_COM":"86261","STATUT":"Commune simple","POPULATION":2354,"INSEE_CAN":"01","INSEE_ARR":"3","INSEE_DEP":"86","INSEE_REG":"75","SIREN_EPCI":"200069854"},"geometry":{"type":"MultiPolygon","coordinates":[[[[0.483602066464129,46.58954729828423],[0.485559174808028,46.588877688756824],[0.487207762183989,46.58789857662609],[0.488276928089545,46.58712835131265],[0.491281893774831,46.585692450071136],[0.493823524303892,46.58361751029408],[0.495138125293453,46.58242197154777],[0.505425217164558,46.580418696382104],[0.50227133692283,46.57776888489752],[0.499475148554145,46.575074541178225],[0.500377839291215,46.573994271190905],[0.501745174531406,46.57277999462892],[0.502249918408563,46.572114442560675],[0.502379188350766,46.57177402476036],[0.502217015947064,46.57095247876671],[0.502203096378236,46.570259391310415],[0.501815924268085,46.569331133404226],[0.500648395260639,46.567731789350844],[0.499661375032405,46.566071510955034],[0.499760687826695,46.56604214940605],[0.498765717446123,46.56350421953516],[0.498782365962076,46.562260452059874],[0.498507574232844,46.56124814958953],[0.498197065553508,46.56075758270721],[0.497464420435603,46.560159586858305],[0.497240386119835,46.559578116031325],[0.484484142812382,46.55943985762391],[0.485108329311764,46.558989614872566],[0.485015307928236,46.55882630989178],[0.46247663048098,46.55886477380381],[0.462186778233046,46.55939528571846],[0.461615211147847,46.56154207917521],[0.46163668423005,46.56217409011247],[0.461906734120662,46.5633296346261],[0.462410522473862,46.56445882930052],[0.461302282790784,46.56517209186342],[0.460209356499228,46.56606045967935],[0.459993350226574,46.56615476548343],[0.459813566720641,46.56608861282845],[0.45908828468952,46.56617972048058],[0.4595363628602,46.566626606710294],[0.457820951843902,46.567053383541634],[0.456295284762722,46.567779849798754],[0.454903725495678,46.568263331259466],[0.451538846566983,46.56873620800908],[0.451826567868035,46.56853360358609],[0.44975830658478,46.56633977050622],[0.448896648167375,46.56568902945141],[0.447372555824658,46.56484783060346],[0.4462356078969,46.564386425160905],[0.445719111195919,46.56495508504298],[0.443747557583406,46.56354708500717],[0.440553796776837,46.56160630764144],[0.438332414186627,46.56004486985806],[0.43606293105759,46.560422879200026],[0.435620303397895,46.5603922401061],[0.435235346925866,46.560579111533514],[0.431532709250196,46.56107445488682],[0.431542625590497,46.5615287393872],[0.428493302293619,46.56179540002764],[0.428849624690959,46.56290703010921],[0.430631174657335,46.56614619668859],[0.431002633098667,46.56727077015597],[0.43099177960373,46.56786062629401],[0.430274923675089,46.568158952767995],[0.428845243267256,46.569001633429046],[0.428585576736085,46.569244452674795],[0.42846988788954,46.56945356876889],[0.428263443639902,46.57127959193714],[0.426517964811874,46.5714493722186],[0.424578504315453,46.571521967021575],[0.424818520848659,46.57337965299971],[0.42481979390786,46.57542386182772],[0.423907740303451,46.57567541634171],[0.423049229596376,46.57540293442754],[0.42187338242371,46.57534852831145],[0.421600289888643,46.57526669999532],[0.421235704783032,46.574992716133075],[0.420757116677598,46.57500175330109],[0.420386412838068,46.575105113498644],[0.417636335036328,46.5762341193254],[0.417440704155757,46.57647475579054],[0.417417128257997,46.57691657518432],[0.417199779888388,46.57695401449404],[0.417084855996006,46.57706313535769],[0.417188600357463,46.57818081403415],[0.416590135037219,46.578044784355065],[0.41591513299865,46.57808991040809],[0.416459579995244,46.579088705978464],[0.416114216544734,46.58146474269316],[0.416125988434959,46.58179474466359],[0.416296448440079,46.58194724350907],[0.416250639883719,46.58225162106067],[0.416522834724431,46.58356409567526],[0.417387438122043,46.5832421555111],[0.418042887484224,46.58325243533732],[0.420588319787807,46.58424316457796],[0.42469985170049,46.58530420962006],[0.428789195671218,46.586616860632375],[0.432080468963232,46.58709523792802],[0.432811550495962,46.587109831180335],[0.435064241558738,46.58694590337379],[0.436723202719625,46.58729116824658],[0.439274719630965,46.587496913950666],[0.441202622228686,46.58807065205539],[0.444053690573854,46.58866046438429],[0.447714843752333,46.58969979892593],[0.449373220883281,46.58992143971971],[0.450195545504908,46.59010912548651],[0.450688401173863,46.590272352874294],[0.451400354595727,46.58865936734392],[0.452399860391755,46.58729511988726],[0.452862217685114,46.58699279325416],[0.455101520911792,46.586191236198836],[0.45619886342578,46.585582287889075],[0.456810727906871,46.584903987599255],[0.459004854866436,46.583023874095005],[0.459979600307512,46.58089595144447],[0.460076922254044,46.58035036192921],[0.461095775637894,46.58032791763109],[0.461436647769327,46.58035890049797],[0.461731598610556,46.58047805346457],[0.463199523985421,46.58164122298744],[0.46336365320387,46.58167999499711],[0.464803881794438,46.58172811440697],[0.465910566485996,46.5814192836393],[0.466442704906613,46.581355386000965],[0.467130359554669,46.58140303481621],[0.470420209363816,46.58224874634762],[0.472827283571448,46.58257938387629],[0.473772252230511,46.58282636508052],[0.47497643493138,46.582978155286966],[0.476016083114168,46.58304342290252],[0.476942144718134,46.582937710235484],[0.477830246232312,46.582692415916995],[0.478897711659089,46.582185300742985],[0.479393036710047,46.58300070708044],[0.479572236906523,46.58353257692799],[0.481612183929185,46.58618015176874],[0.482645815973981,46.588184848495736],[0.483602066464129,46.58954729828423]]]]}}]}