{"type":"FeatureCollection","name":"COM_19042","crs":{"type":"name","properties":{"name":"urn:ogc:def:crs:OGC:1.3:CRS84"}},"features":[{"type":"Feature","properties":{"fid":4027,"ID":"COMMUNE_0000000009754092","NOM":"Chanteix","NOM_M":"CHANTEIX","INSEE_COM":"19042","STATUT":"Commune simple","POPULATION":615,"INSEE_CAN":"15","INSEE_ARR":"2","INSEE_DEP":"19","INSEE_REG":"75","SIREN_EPCI":"241927201"},"geometry":{"type":"MultiPolygon","coordinates":[[[[1.602382371269766,45.32805843799903],[1.602564625177447,45.32852901714792],[1.603900833490822,45.3291103573767],[1.604287765612703,45.32936194271302],[1.604721902947131,45.32900351947571],[1.606263063291933,45.32823290865206],[1.606872300022891,45.328682679325794],[1.607306401552947,45.32842691238379],[1.60762271151645,45.32874605159635],[1.609207255821035,45.3282812379867],[1.609106508062379,45.32878791464888],[1.608596374848372,45.32978752537022],[1.609460327145061,45.32990633140828],[1.609761128851572,45.33059180891064],[1.609977376479625,45.33057288051766],[1.610074324325485,45.33124141618169],[1.609523653544625,45.331307524316976],[1.609619248570338,45.33203007869093],[1.609980028740599,45.33225700333752],[1.610578100488619,45.33325957254648],[1.611525966573152,45.33390714507851],[1.612742467570617,45.33412575905195],[1.613069169807346,45.33428650864962],[1.613184564398799,45.33436989131053],[1.613109437079857,45.33492552068611],[1.615442616864308,45.33660697125094],[1.616058219605361,45.336909974343335],[1.617552916595256,45.33683027889293],[1.617791018089228,45.336754868316326],[1.618061084072065,45.33719228305033],[1.618189296019309,45.33717135112478],[1.618176643900143,45.33793849097348],[1.618309325487007,45.338097730502106],[1.61859389252062,45.33820841154587],[1.618560904713526,45.339229264809056],[1.619109120142483,45.339264846801676],[1.619198784986603,45.3397171444717],[1.619138504302858,45.34013967468647],[1.619764459260206,45.34033651583256],[1.620563239053604,45.33886670445608],[1.621254848897827,45.3392480649886],[1.620714611682947,45.34033381644084],[1.622081412523943,45.3403686587361],[1.622095346019956,45.34021843305845],[1.622674568297222,45.34023996976309],[1.622913864899931,45.34001326513849],[1.623159988523802,45.33992353239331],[1.623688678270479,45.339922828454945],[1.623804045121256,45.33980176758707],[1.622727026256603,45.33822241187589],[1.62324008980758,45.3379234256167],[1.62419196361385,45.339348139528155],[1.624736175002301,45.339132382563946],[1.626621186301271,45.339020435709045],[1.628155434928447,45.338580851211134],[1.631445844707393,45.33755393638768],[1.631641282354258,45.33708352117174],[1.631849929965536,45.33690685600264],[1.633458942144064,45.33659059264213],[1.633644513330477,45.336209211128335],[1.633422731439701,45.3357246942631],[1.633626222894756,45.33549753060204],[1.633296370929604,45.3353584172126],[1.633244757066838,45.33517226782639],[1.633420783147213,45.334919553037906],[1.633508855572244,45.334504560813606],[1.632990367636064,45.33424786955714],[1.632985405100649,45.33413793835524],[1.633663179925251,45.33399131359778],[1.633612986498749,45.33343504400904],[1.633425804743062,45.33325804683648],[1.633967668240744,45.33313407672813],[1.634113324166105,45.33302598354609],[1.63427621100913,45.33237144944868],[1.635253943554794,45.33186284004942],[1.635524613108228,45.33181120446676],[1.635507208520427,45.331375112667715],[1.635704919084453,45.33138292601123],[1.635928559987428,45.33127037759066],[1.636225587209679,45.33128930660584],[1.636220317911948,45.33150448045502],[1.63648081137147,45.33160761795868],[1.636517853460572,45.33150270158827],[1.636681366050604,45.33149928970808],[1.636720633651589,45.33130344205603],[1.636902583154638,45.33143353986597],[1.63781130074712,45.331239270298546],[1.637888547099429,45.33110872602441],[1.638276838217345,45.33094594295367],[1.638386367426063,45.330748247802276],[1.638474262402834,45.33075652155697],[1.638615589463405,45.330981583595666],[1.639012988624618,45.330863937633076],[1.639477149396661,45.33036525718001],[1.640494909273643,45.33030557683088],[1.641114101945879,45.330150091161386],[1.641616973456725,45.330157095449415],[1.642019907820424,45.33044026259314],[1.642933082609833,45.33027122210382],[1.643180358259021,45.33039309576261],[1.643501196013384,45.33043030563324],[1.644127382405103,45.33030190540827],[1.644873391154743,45.329971422290654],[1.645579327749153,45.33008083088276],[1.646034538400578,45.33063028564832],[1.646649256028801,45.33065843275366],[1.647488616917321,45.33095225902836],[1.648172797811576,45.331011856565],[1.648266984226024,45.33086620023485],[1.648803254793306,45.33054936846307],[1.649367008315609,45.3303625486104],[1.649771596066457,45.329789260727125],[1.653231819465035,45.328881741859526],[1.653759921129529,45.32847833366377],[1.654378381552609,45.32819218340089],[1.654749305731941,45.328481223203305],[1.655065169150794,45.32830130197757],[1.655389071047768,45.32837003469775],[1.655793503493444,45.32832896309147],[1.656536693478968,45.32774080577521],[1.656726504472806,45.327440491334166],[1.657091384952261,45.32739803989383],[1.657084205310331,45.32711337273404],[1.658497439118064,45.32626757122266],[1.658560153947378,45.32583694870917],[1.657832344095894,45.32525906177566],[1.657662327433968,45.32426189045254],[1.657354910654712,45.32361609505927],[1.656280423765398,45.32322856199362],[1.655571870123086,45.322542822450146],[1.654841089373646,45.322619596021134],[1.655271693998488,45.322233021596865],[1.656214632065329,45.321616648383554],[1.65575330199472,45.321002321553664],[1.655314384938068,45.32062331137987],[1.654821738882886,45.32098932742574],[1.655195815578912,45.32130452040223],[1.654627208385466,45.32174977389313],[1.654282005597653,45.32145473876958],[1.653780971317617,45.321691867720276],[1.653184675653623,45.32148656754963],[1.654145744318652,45.32091275680953],[1.653286464670259,45.32065566337827],[1.653735637603606,45.31987036495865],[1.652915968855139,45.319137342230114],[1.65232607754975,45.319354482773306],[1.652285782133818,45.31922611623522],[1.651638662089812,45.3186959893656],[1.652075193632131,45.31801140958913],[1.652891931835677,45.31823107721877],[1.65386077798767,45.317650158955125],[1.652984811806525,45.317240665353616],[1.654045095236777,45.31720659286021],[1.655106350235443,45.31681499511547],[1.654606152821971,45.31627944665881],[1.655161412326503,45.31612041567896],[1.654985760845243,45.315306889880816],[1.653882814780939,45.31584027485242],[1.653429548906814,45.31515939292555],[1.652710551042528,45.31517505426019],[1.652458336629577,45.3147316378643],[1.652997289886733,45.314507580268824],[1.652089572180547,45.31393559413181],[1.651581621083447,45.3134062423881],[1.651895467307955,45.31320109120235],[1.651178404670142,45.312610681006866],[1.650836223964688,45.31261556162549],[1.650761067249065,45.31197705076061],[1.651078083728452,45.31190432421194],[1.651540454659431,45.31204858505615],[1.651851548227098,45.31195687294968],[1.652325460107668,45.31241556894274],[1.654002283609862,45.31184677793788],[1.653557903743962,45.31153883990008],[1.653273240457396,45.311646184486584],[1.652173750693555,45.31177523667652],[1.651998433573847,45.31147773746597],[1.652424137218809,45.311291043333604],[1.652836561652169,45.311495035573614],[1.653135546415628,45.31121765657052],[1.652753671174348,45.310806001355395],[1.652542837842472,45.31002446885116],[1.65199748734598,45.3100926477214],[1.651678813795735,45.309706966097266],[1.651257240892237,45.309828865895845],[1.650628833195482,45.30932147251218],[1.651502821531706,45.30901590848464],[1.65183924085214,45.30930094049573],[1.652655423616968,45.308957747659825],[1.652455457135246,45.30867706327248],[1.651799701137555,45.3081396283479],[1.652636551109668,45.307468877309454],[1.653111952641774,45.307600680862045],[1.653410062889204,45.30709454623406],[1.652383656049913,45.306527437361346],[1.651750877145427,45.306307279565324],[1.651732101210814,45.30550104287537],[1.651070637921973,45.30541201871339],[1.650584946631923,45.30581141874444],[1.650279991858051,45.30586177464181],[1.64975524975889,45.30550241960513],[1.648920689429611,45.30513121611057],[1.648623080469153,45.30466833082961],[1.647963891277527,45.30427582324301],[1.647988406567588,45.30421217896607],[1.647464459697255,45.303821302564124],[1.647039898945625,45.30417279537856],[1.646490771623824,45.30408330112141],[1.645342062903843,45.30445754491987],[1.645016925394561,45.30418343636773],[1.644550918753986,45.30445426717811],[1.644423997211926,45.304215879179424],[1.644206922875146,45.30406375403535],[1.643273002662939,45.30373993458806],[1.642798329517064,45.30347571345183],[1.642471119363348,45.30318266018422],[1.642126465295287,45.30245351754444],[1.642218596517375,45.301971929340695],[1.641620118355122,45.301447736419135],[1.640720326057085,45.30108738603955],[1.640291257122138,45.30068141772697],[1.640904259454654,45.300243083380735],[1.641359372511556,45.30020898615954],[1.641360262615787,45.29996314098878],[1.641654817500662,45.29960558868589],[1.642137933114266,45.29936469701395],[1.641795474892528,45.298860722957045],[1.640746558534319,45.29907042464846],[1.64053993380319,45.29807278273698],[1.640268751729737,45.29815233955252],[1.639921820403485,45.297152991064955],[1.63940719606986,45.29727371375706],[1.63935852081251,45.29696782809212],[1.638041899666995,45.29753357572009],[1.637270360293788,45.297619640581054],[1.637019348446299,45.29755264204069],[1.636889835495703,45.29731781594003],[1.637130098047324,45.29714603232688],[1.637380337669797,45.297244541235884],[1.637590509671484,45.297155242723264],[1.637934338005404,45.29687034608476],[1.639083997205748,45.29671412996829],[1.639272762264168,45.29635169487928],[1.638971453055736,45.29578427190302],[1.638433990163716,45.295586810461984],[1.637851749626197,45.295655370261485],[1.637726569602673,45.295452117958575],[1.637835046455862,45.294929306465804],[1.637509607497381,45.29456691582603],[1.637705739908019,45.294372980019126],[1.637664659876058,45.294278820339095],[1.636664388095909,45.293493943912715],[1.637965204110357,45.29289289922083],[1.637587014638033,45.29270547780657],[1.636557920018055,45.29247410037805],[1.635142906412963,45.29289272057475],[1.635184983297982,45.29383162937549],[1.634670956657579,45.29387668923296],[1.634650589004704,45.2936143743047],[1.634413426692381,45.29360787704975],[1.634735499754631,45.292700430052776],[1.634726850732624,45.29248058507635],[1.633687186364734,45.291848297738966],[1.634223402878549,45.29157386789056],[1.6336110794337,45.291309726960705],[1.631430018376087,45.29195759140283],[1.631427572716286,45.292161090736535],[1.632112835392135,45.29210463149787],[1.632527650293518,45.292202462244774],[1.633271094824928,45.292218752899295],[1.633358567001369,45.29255393368916],[1.63384443596409,45.29298043562347],[1.6338127768188,45.29312684214207],[1.632853126501644,45.293653659572556],[1.632772612615919,45.29386701165294],[1.632285589144322,45.29411141705133],[1.631876468071537,45.294456736707915],[1.631743001072168,45.29459199128097],[1.631748475102002,45.29478478071262],[1.6315928868414,45.29488554280371],[1.631154607752723,45.294963033275856],[1.630511721198986,45.29479936562099],[1.630125059537411,45.29557993070973],[1.629043126619605,45.295161418639886],[1.629292625279412,45.29482225839049],[1.629189256115797,45.29445986203099],[1.628943387275049,45.29454780667113],[1.628793261396162,45.293959693645625],[1.628049684129476,45.293947874733234],[1.627732447606271,45.294498736498255],[1.627089165537573,45.29419635588152],[1.627140157023539,45.294767945101604],[1.626951395866036,45.294971859649685],[1.62567422126253,45.29533171527375],[1.625251502858945,45.29467450582687],[1.625800884774085,45.29454166718632],[1.62567840556891,45.29417903255582],[1.626558457455661,45.29434834207493],[1.626959956637134,45.29348511839055],[1.626306477790392,45.2929241434923],[1.625641807364333,45.29297271521472],[1.62560887660501,45.291514282741346],[1.625422729787903,45.29119859600897],[1.62453765985026,45.29056271844705],[1.623446740891085,45.29118510314549],[1.622565101762705,45.291082391414456],[1.621554693411477,45.290099126052255],[1.620210456682904,45.290130282680686],[1.620080902881039,45.289952172022154],[1.61904222768476,45.2901122635755],[1.618771157417221,45.290393498047486],[1.617336763133587,45.29056129481381],[1.616105566812261,45.291896931317545],[1.61329948568301,45.29073375875753],[1.611491099083291,45.29065098667024],[1.611406606439834,45.28953592581532],[1.610476299659934,45.289186656911],[1.609584054386066,45.28777247232313],[1.608872374825839,45.287406094598694],[1.609558707943505,45.28653836889529],[1.607956644986764,45.286117685137704],[1.607624000540198,45.28610453880236],[1.606999915097312,45.28631830949298],[1.606912403227792,45.286501837589334],[1.607028178449262,45.28676984998769],[1.606465684850846,45.286815977186095],[1.606154131126477,45.286979602205825],[1.605553987650454,45.286694744201625],[1.60538660028917,45.28629730427008],[1.605257468125612,45.28620653701948],[1.604502207962156,45.285952159561674],[1.603988577458579,45.28593224121897],[1.60355233444276,45.28572596686153],[1.603035207921759,45.28574382467514],[1.602638054652093,45.28596310707126],[1.602576927799424,45.286467566875665],[1.602378229089673,45.28670914046336],[1.602484434741357,45.286849156355714],[1.60248407302187,45.28716885661113],[1.602269186181446,45.28744535030946],[1.601778853476213,45.28715734116315],[1.601210002341426,45.28745642474159],[1.601148303853544,45.28767809569067],[1.601226040304808,45.28793573238457],[1.601057267884683,45.288001164926335],[1.600712131046848,45.287977034977345],[1.600222123118668,45.2878286124985],[1.599931304812859,45.28792763843346],[1.599617991464541,45.28780483990691],[1.598164113619633,45.28783435828277],[1.598229595912304,45.28802069800136],[1.597942682781174,45.28806573309215],[1.598032087463057,45.28831541326315],[1.59782046543931,45.288511788284524],[1.59803022095483,45.2886432002557],[1.598028430677285,45.28886652116918],[1.598130546873388,45.288965964068815],[1.596644186597953,45.28922020056727],[1.596199986033835,45.2891272704336],[1.594661643959734,45.28916559002276],[1.594150437050375,45.29026237521752],[1.593935401079297,45.290138094147125],[1.593313661074371,45.290457187129675],[1.593022623801605,45.29122082034162],[1.592195627735606,45.29153282253233],[1.592293692467283,45.291842955544574],[1.592186106018269,45.29211177547777],[1.592221060011198,45.292495862400415],[1.592653403206616,45.29235180647797],[1.59277022632438,45.29237398955306],[1.593434963387865,45.29308210062069],[1.593456113978782,45.29406399855627],[1.593288112483599,45.294552702080324],[1.593883639025609,45.29461692593268],[1.594253060785967,45.294792679096126],[1.594317451917975,45.29507266801152],[1.594856603950925,45.295601777965025],[1.594831650124615,45.295731148020394],[1.594214704961292,45.29636370917806],[1.594367678336449,45.29687535978631],[1.595198814406148,45.2972622424638],[1.594665246929134,45.29924312173655],[1.594378550023104,45.2996312724809],[1.59336873558262,45.30060921926565],[1.594625990542626,45.30196328311568],[1.595040740404017,45.30201352133628],[1.59539782071485,45.30217470602867],[1.595441238360352,45.303337901158315],[1.59504280366898,45.30370303734519],[1.595343870938485,45.30406164659225],[1.595307219657127,45.3043511736012],[1.594821281444345,45.30509885824108],[1.594870267399194,45.305686652621],[1.594610322720275,45.305974275647166],[1.594555782194113,45.30626447845472],[1.594550653612304,45.306518378094054],[1.594770102321281,45.306875063083275],[1.594164251110625,45.30731594221775],[1.593906236841709,45.30767833640849],[1.593839003950645,45.30801611038062],[1.594081241455453,45.308430720456386],[1.593884855463325,45.30852551556318],[1.593785149702909,45.308784530824454],[1.594374165841497,45.3090116738862],[1.594726722181306,45.30905032438301],[1.594891251607317,45.30915595756438],[1.59487184606696,45.31002657691367],[1.594413133547525,45.30999649989383],[1.594586697102945,45.31050300618027],[1.595017361499757,45.31073446072012],[1.595417262764449,45.31112312933351],[1.596048509258787,45.31094192902178],[1.596686421264951,45.31090129960804],[1.596887638203494,45.31096956542827],[1.597057046800428,45.31138865908906],[1.5968552446882,45.31139423398804],[1.596912146501718,45.311466093490644],[1.597605205662841,45.311617974221875],[1.597369931348806,45.31214186586016],[1.597881650026468,45.312095144666536],[1.598084319752606,45.31256238433859],[1.598382729332295,45.31252199400775],[1.598358409881571,45.312930553648684],[1.598237501131865,45.31317039511652],[1.597733273123795,45.313578345443425],[1.597731136095456,45.314778795064164],[1.598210772516224,45.31519637057397],[1.599014915010606,45.31646545518597],[1.600030675713032,45.31723915922651],[1.600467474117831,45.318194737215684],[1.600328608175123,45.31980954648936],[1.601008281170721,45.32049888547597],[1.602178158157099,45.322053499848636],[1.602376253462201,45.32387605200088],[1.602131613372916,45.32390811953349],[1.60183945323086,45.325222924177204],[1.602489586814149,45.32521033034043],[1.602546170552418,45.32631335091876],[1.602382371269766,45.32805843799903]]]]}}]}