{"type":"FeatureCollection","name":"COM_64175","crs":{"type":"name","properties":{"name":"urn:ogc:def:crs:OGC:1.3:CRS84"}},"features":[{"type":"Feature","properties":{"fid":4051,"ID":"COMMUNE_0000000009762258","NOM":"Castet","NOM_M":"CASTET","INSEE_COM":"64175","STATUT":"Commune simple","POPULATION":141,"INSEE_CAN":"15","INSEE_ARR":"2","INSEE_DEP":"64","INSEE_REG":"75","SIREN_EPCI":"246400337"},"geometry":{"type":"MultiPolygon","coordinates":[[[[-0.419727430037622,43.077041958233686],[-0.418910752768063,43.07706249745567],[-0.416932361707135,43.07670939866581],[-0.416061754741576,43.07673162820459],[-0.414487672330579,43.07713176356623],[-0.413624708871887,43.077054703739506],[-0.410585145262823,43.07632372360615],[-0.408659929029658,43.076058814976285],[-0.406085401442785,43.07607008797092],[-0.402820838845087,43.075749320121744],[-0.396487197331427,43.07563246257264],[-0.395005964130773,43.07567018601837],[-0.391611940708996,43.0765117649825],[-0.390574932890292,43.07662815399191],[-0.389521623935744,43.07665502283611],[-0.38675162100298,43.07641092024686],[-0.385526653384371,43.076442250293915],[-0.383770674200857,43.076926870972706],[-0.381081695555134,43.0773543478359],[-0.373554825605558,43.07794067533037],[-0.370220746508361,43.07771022202533],[-0.367878214923098,43.07744594966944],[-0.365912077861916,43.077360706168285],[-0.365663160866685,43.07597404537369],[-0.363133942138393,43.07133504870558],[-0.362139330546461,43.07046860488387],[-0.361745406842203,43.07021894592254],[-0.361408475440767,43.07012594366237],[-0.357134375835133,43.0650921234971],[-0.355288095017028,43.06348791324124],[-0.352466052408368,43.06364516950339],[-0.348435454909411,43.06264898901756],[-0.345539317086199,43.062267348629724],[-0.345222538478572,43.06239422136284],[-0.344907843973305,43.062408503258],[-0.343811672533763,43.06222021625505],[-0.343761635516174,43.06180047727327],[-0.343592145708066,43.0614168567724],[-0.343078519674667,43.060898994575915],[-0.342959550014829,43.06058221935258],[-0.342412460865451,43.0602499347473],[-0.342351722868863,43.058858315508914],[-0.342224783037142,43.05863720864443],[-0.3423682266403,43.05837889830993],[-0.342676855248186,43.05687858790854],[-0.342447308163347,43.05624117793258],[-0.342208617174321,43.055976732460564],[-0.341181535082829,43.05498420546041],[-0.340627650182182,43.05474574637331],[-0.340530743116536,43.054406681400586],[-0.340061180546191,43.054246619452975],[-0.339215864070336,43.05416933116322],[-0.338942152369454,43.05399958625579],[-0.338379924834597,43.053892803141586],[-0.338163036004736,43.053537654653724],[-0.337891281274355,43.05338044931441],[-0.337264561586072,43.052772454917715],[-0.33569703357397,43.052005486098466],[-0.334488638423198,43.051015824088985],[-0.331783505311468,43.049483784128576],[-0.331710002995319,43.04814298535079],[-0.331507070741809,43.04807185289619],[-0.331356470097437,43.048142229036365],[-0.331067367416259,43.04793873612499],[-0.330648481955628,43.0479967121956],[-0.329798342557053,43.04781238117292],[-0.329169745635484,43.04780932732902],[-0.328368696342695,43.04412446585731],[-0.328935593149119,43.04166834486193],[-0.33248297130817,43.04106072767983],[-0.338974119881358,43.040788357552316],[-0.339979250674234,43.04061853066335],[-0.339317795135427,43.03632180054849],[-0.339938651891186,43.03259829849768],[-0.342225677302939,43.02708931157457],[-0.341878535836622,43.025751640045804],[-0.343499266267418,43.02581469398276],[-0.344069118217021,43.02573936776567],[-0.344960171913499,43.02582958381641],[-0.345260261189205,43.02579954715756],[-0.345299770711017,43.02565519086195],[-0.345593817726242,43.0256055373613],[-0.346478120094688,43.025578928290194],[-0.347504310355863,43.02567212017449],[-0.348388041244475,43.02563561128076],[-0.348990948662112,43.02575006676195],[-0.349601497701393,43.02565724071685],[-0.350004269490924,43.0256843047226],[-0.35054940503868,43.02583925844672],[-0.350692081057094,43.02597254083239],[-0.351477831514814,43.02598136711797],[-0.353306952695366,43.02587124773151],[-0.354903401699601,43.02566303377289],[-0.355469983582917,43.02551033340312],[-0.356012712488585,43.02556001408281],[-0.356534678738194,43.025442006650934],[-0.357048849119644,43.02546466777854],[-0.357521196241174,43.02559125237422],[-0.358645797606638,43.025561542759235],[-0.359159504628942,43.02578764893],[-0.3596929374646,43.02586730750347],[-0.360063689448349,43.025871029340976],[-0.360557742517588,43.025758375071916],[-0.360950699447283,43.02584871758825],[-0.361521513010079,43.02610723535863],[-0.361802125911251,43.02601654870532],[-0.362363938728778,43.02605659941345],[-0.36282736735335,43.02621944736397],[-0.363053670882081,43.02639780937462],[-0.363404377395032,43.02628872360947],[-0.371294282173603,43.026214553899],[-0.371014398200824,43.028340564928556],[-0.370298894943615,43.030066141300296],[-0.370343824636495,43.03389414139885],[-0.370199687607893,43.03605551752045],[-0.36990633812092,43.037635544684235],[-0.370042653465528,43.03791123499378],[-0.3707952643252,43.03829634485198],[-0.371122877669555,43.038737977490804],[-0.371330283674376,43.039496644660645],[-0.371650280463059,43.039533426744434],[-0.371887366949513,43.03934775738898],[-0.37268666214464,43.039417223577345],[-0.375122266854756,43.04039857421535],[-0.376133273954527,43.04104650315963],[-0.376916536303265,43.04206075234585],[-0.37745260943987,43.04304494909928],[-0.377548459261894,43.04376210188192],[-0.377320384450836,43.044396702643155],[-0.376915322651236,43.04490092747567],[-0.375563018785626,43.04610462386184],[-0.375279271865604,43.046605936606646],[-0.375356419888239,43.04691858774147],[-0.375733497903666,43.047133609424826],[-0.376041288085504,43.04717076307231],[-0.378080975441938,43.0462200433871],[-0.379538787687818,43.045689053375234],[-0.380938181645387,43.04548215222009],[-0.382271811485344,43.04517917750986],[-0.383492091988429,43.04505799132802],[-0.38601425950665,43.044993950545475],[-0.38675239413693,43.04506524034929],[-0.386942874994753,43.04519517576457],[-0.389520137907035,43.05202404198228],[-0.390175757881627,43.0529063041579],[-0.393534657759757,43.055257124069854],[-0.40097457181961,43.05704504865918],[-0.405746990861566,43.055053156139984],[-0.411244545915984,43.05568472740579],[-0.411654879602972,43.05531522881377],[-0.411837305343579,43.05526533390267],[-0.413464757391161,43.055987919420254],[-0.413897854497275,43.05606690424894],[-0.414027113151201,43.05619783800387],[-0.419138179970782,43.05847069641939],[-0.421796694118386,43.05974735444648],[-0.421813624621672,43.060158224215165],[-0.421610618059172,43.06091907726328],[-0.420958260985681,43.06620711346229],[-0.420669065345887,43.066943699766284],[-0.420488388660823,43.068352918624065],[-0.419925250506873,43.069544729310294],[-0.419417072171446,43.070254061624965],[-0.418742883565052,43.072247910942146],[-0.418681180598126,43.07272069852613],[-0.418728008955115,43.07303519716867],[-0.419370672336784,43.0744344716046],[-0.419805393029287,43.07514085898891],[-0.419727430037622,43.077041958233686]]]]}}]}