{"type":"FeatureCollection","name":"COM_17054","crs":{"type":"name","properties":{"name":"urn:ogc:def:crs:OGC:1.3:CRS84"}},"features":[{"type":"Feature","properties":{"fid":4232,"ID":"COMMUNE_0000000009754149","NOM":"Boresse-et-Martron","NOM_M":"BORESSE-ET-MARTRON","INSEE_COM":"17054","STATUT":"Commune simple","POPULATION":203,"INSEE_CAN":"27","INSEE_ARR":"1","INSEE_DEP":"17","INSEE_REG":"75","SIREN_EPCI":"200041523"},"geometry":{"type":"MultiPolygon","coordinates":[[[[-0.108793309194699,45.289721846899326],[-0.108693740551958,45.28953898163193],[-0.108903861174556,45.28934660438625],[-0.108851875624437,45.28914709688667],[-0.108935662456914,45.288887042642536],[-0.109614679683531,45.28815265852456],[-0.109635971143861,45.287573537917496],[-0.109477284148001,45.28724633394353],[-0.109489499208683,45.28703062308727],[-0.109791521783499,45.286906877498865],[-0.109841143765537,45.28676672252813],[-0.110510909686301,45.28669041792536],[-0.110561685081305,45.28657095659584],[-0.110388648979664,45.28632976092657],[-0.111071207277113,45.28600258139369],[-0.111305798962856,45.28547159258823],[-0.111132672861859,45.28509162586892],[-0.110720010497152,45.28462821075776],[-0.110238555932716,45.284624484426786],[-0.109392054197134,45.28393523419892],[-0.1095889923403,45.28369005496773],[-0.109570089610906,45.28355721293388],[-0.10912003198903,45.283452582912645],[-0.109041170692455,45.28338899333045],[-0.109070275692147,45.283155691453516],[-0.109492071637839,45.28279972722096],[-0.110219104864298,45.28258395673745],[-0.110453603369462,45.28228005825681],[-0.112281928288297,45.28196784408406],[-0.11305813309301,45.281947133086106],[-0.113644735466774,45.28161720142917],[-0.113694611886373,45.28145901469965],[-0.113619756601917,45.2808276015312],[-0.113118563007895,45.28042433438259],[-0.112850059046351,45.280050631397806],[-0.112069069686301,45.27831696660385],[-0.11199740281921,45.277742236039174],[-0.111687107392547,45.27751117246962],[-0.111499679258811,45.277194685000566],[-0.111706203832403,45.27703033663051],[-0.111742775318017,45.27649674861366],[-0.111991084727237,45.27628077295785],[-0.111899520505782,45.27566965013072],[-0.112142104831837,45.2752141319184],[-0.112226003328083,45.27470535895764],[-0.112786115283497,45.27387964324142],[-0.11269488011045,45.272589057507616],[-0.112875198629918,45.27195594589281],[-0.11288274680334,45.271497058862394],[-0.112985977013776,45.27108326707381],[-0.113376929411006,45.27058846918593],[-0.113523383296222,45.269966212161734],[-0.113144570725003,45.26928469394352],[-0.113177021371626,45.26904318757916],[-0.113380228420152,45.268774396392395],[-0.113353329687052,45.26849849789046],[-0.113135496051081,45.26811707860173],[-0.112905432340708,45.26799642694443],[-0.112819215794444,45.267846536848815],[-0.112877951014953,45.26768720277097],[-0.113233222011097,45.26762774481247],[-0.113557932287131,45.26695276229536],[-0.113578812131192,45.26670977592235],[-0.113433859875079,45.26633083272514],[-0.113112049053229,45.26623526588108],[-0.112843530718413,45.265837235668926],[-0.112883974044259,45.265670300883336],[-0.113111073760303,45.26546392382246],[-0.113082658082374,45.26504659003113],[-0.113224818424456,45.26462180129972],[-0.113035467739086,45.26420174156231],[-0.113190432130606,45.26382345509234],[-0.112877504605826,45.26333835165844],[-0.112966291730413,45.26319169743328],[-0.112832295772817,45.262894451877585],[-0.11298264614267,45.26215944614784],[-0.112642980232294,45.26192650299658],[-0.112586377540947,45.26178119513244],[-0.112581142139106,45.260864890507456],[-0.112735356165234,45.260267650790304],[-0.111736191083141,45.25816340304342],[-0.111911027946279,45.25777555389469],[-0.111811364050912,45.25745302133951],[-0.111896061992128,45.25718753264923],[-0.112945755347647,45.2561301052472],[-0.113201909591555,45.25559941204532],[-0.113073539599753,45.255037078650844],[-0.112868019964447,45.25487519407629],[-0.112464329813836,45.25479722767485],[-0.112362109444695,45.25468022468894],[-0.11245794581376,45.25443154674811],[-0.113135336117098,45.253813424413735],[-0.113473220788628,45.25326152958468],[-0.113835195069933,45.252912617707985],[-0.114416544184217,45.25251703915864],[-0.115352618926057,45.25216833869188],[-0.115676309267647,45.25161412887844],[-0.116687799011132,45.251291248715376],[-0.117297211123721,45.25071374405611],[-0.115399492092503,45.24805337136575],[-0.116704516954212,45.24823594845544],[-0.119084721363404,45.2493491060929],[-0.120298065435497,45.24955673017488],[-0.12065418155253,45.2498108159928],[-0.120773347141762,45.250367091041504],[-0.120902621353548,45.25042025151489],[-0.121511811074445,45.25043206981553],[-0.121931347557744,45.2503149153525],[-0.122215473917229,45.25042232104174],[-0.122556485317397,45.250406483212906],[-0.122817007580848,45.25020635932798],[-0.123153692208202,45.250181629229964],[-0.12327822015305,45.25008172689939],[-0.123018614745922,45.24986550244741],[-0.123106171280209,45.24965218972304],[-0.123437639702958,45.24973934509567],[-0.12606431110713,45.251444724762514],[-0.127694124135899,45.25197944501976],[-0.128894622523435,45.25247930635216],[-0.1300309579412,45.252631311512424],[-0.130617019815052,45.25279872451455],[-0.133197432505787,45.25426463969992],[-0.133748056091892,45.2544366353633],[-0.1341456850558,45.25470123159815],[-0.13457374155502,45.25482619740659],[-0.135701888176745,45.25537577946703],[-0.136092640881965,45.25567660787371],[-0.136643986250063,45.255747641906915],[-0.138311701104571,45.25683805600897],[-0.138616808827141,45.25718093195669],[-0.139237340395691,45.25750593488945],[-0.139606429005285,45.257942532133335],[-0.139949792455119,45.25803561459054],[-0.140926244017679,45.25881199247805],[-0.141704014276236,45.25911904582054],[-0.142074770886956,45.259720498403134],[-0.142456546082335,45.26010987123995],[-0.142552259941349,45.260449614573034],[-0.142893947268581,45.26101042990674],[-0.1428699165768,45.2617383297056],[-0.142362054748157,45.26311874722215],[-0.142456562850995,45.264002816554154],[-0.142415257968572,45.26469605755526],[-0.14208428021321,45.265389332826715],[-0.141757650156333,45.26674843116118],[-0.142392185336871,45.267206396629454],[-0.142780424031787,45.26764154716467],[-0.143034552093385,45.26818770452194],[-0.14313665255795,45.26936443380864],[-0.142972038151688,45.26995300595528],[-0.140738116017001,45.270463672294255],[-0.141196312422878,45.27082657366141],[-0.141910198337981,45.271084061126025],[-0.146885571958353,45.27170555991395],[-0.146942388293236,45.27379642781762],[-0.146452774087906,45.27595224262568],[-0.146434494144301,45.276397023741865],[-0.146618259173135,45.27718756580638],[-0.147309198937556,45.27841530535848],[-0.147718233135732,45.27957798696035],[-0.148006894816494,45.28127573657134],[-0.147759143096468,45.28348782928313],[-0.147503713069644,45.28393748623217],[-0.146379107583345,45.285271305731],[-0.145904066809473,45.2865796275834],[-0.145685596587375,45.28766174887308],[-0.145390627540734,45.28806745527034],[-0.143912271957796,45.288903850977476],[-0.14271739769972,45.290149490576496],[-0.141516992548475,45.29073202551503],[-0.139669174543759,45.29185629592198],[-0.138766813514244,45.292314182012475],[-0.137840660706243,45.29312057135148],[-0.137556294647613,45.29358002644461],[-0.135952724670617,45.29339882370321],[-0.135188663678467,45.29379692955141],[-0.134571261113645,45.294260306990665],[-0.133878749167293,45.29445544186391],[-0.131437253443339,45.29451753500684],[-0.130859415097737,45.294686009525186],[-0.129263507557174,45.29486855847809],[-0.128063123447972,45.2948417687233],[-0.126267613205361,45.294493677928884],[-0.124533369744806,45.29448628110975],[-0.124286311123614,45.29433818799598],[-0.124181464027096,45.293925690916204],[-0.122900723404435,45.293011664849416],[-0.121062641646359,45.292403351418095],[-0.119666439751859,45.291660125894644],[-0.119291997922463,45.29165345098294],[-0.118465555907407,45.29187385336496],[-0.11796431671125,45.291928383221354],[-0.116101724146108,45.291633369357136],[-0.114238706595524,45.29091930805751],[-0.113132980070994,45.29077978548711],[-0.11250080856129,45.29045585463234],[-0.112019896696493,45.290348488796745],[-0.111314710831598,45.2900428042489],[-0.110640188929502,45.28996605191351],[-0.110115752040688,45.28978779821742],[-0.1094784198329,45.28969108068199],[-0.109057571905321,45.28965322165799],[-0.108793309194699,45.289721846899326]]]]}}]}