{"type":"FeatureCollection","name":"COM_16345","crs":{"type":"name","properties":{"name":"urn:ogc:def:crs:OGC:1.3:CRS84"}},"features":[{"type":"Feature","properties":{"fid":4202,"ID":"COMMUNE_0000000009751873","NOM":"Saint-Quentin-sur-Charente","NOM_M":"SAINT-QUENTIN-SUR-CHARENTE","INSEE_COM":"16345","STATUT":"Commune simple","POPULATION":202,"INSEE_CAN":"10","INSEE_ARR":"3","INSEE_DEP":"16","INSEE_REG":"75","SIREN_EPCI":"200072049"},"geometry":{"type":"MultiPolygon","coordinates":[[[[0.673279479486175,45.8616659413127],[0.673788433821822,45.86124669995159],[0.673822862791403,45.86095011744658],[0.674184698742163,45.860747660850556],[0.673814509799378,45.860689590321485],[0.6738790904595,45.8605035363025],[0.673643309843558,45.860346432549065],[0.674012634603616,45.85978287677548],[0.673834218573075,45.85967199847816],[0.673503327835391,45.85963005088563],[0.673442635715044,45.85954051457635],[0.673803092744613,45.85848399404958],[0.673438076426826,45.85750892964378],[0.67383411315134,45.856250443426326],[0.673847487092345,45.85578045799899],[0.674753765773244,45.85440635059946],[0.67481038135465,45.85419490764229],[0.675308156793161,45.85373308961655],[0.675748120211403,45.85305206668994],[0.676192682892775,45.852690049084394],[0.676477315061532,45.8526968046617],[0.676615109290026,45.85251675974485],[0.676998131472023,45.85239130620322],[0.677425256991347,45.85180010156765],[0.677777812443075,45.8517550984442],[0.678243377216152,45.851261075478035],[0.678457234185998,45.85123393983241],[0.678720225263616,45.851019529311735],[0.679724072863682,45.850753672691674],[0.680620612274402,45.85021894354754],[0.68214102719167,45.84959340951728],[0.68327339814599,45.84964276453016],[0.683727258559475,45.84945658104106],[0.683924940952791,45.84953810997154],[0.684498711941604,45.84947419886285],[0.685991206821285,45.84957415013229],[0.686016685903331,45.849458458737764],[0.686616337866245,45.848961744635815],[0.687232679762893,45.84889688990605],[0.689435305066781,45.848015863516615],[0.689948147628118,45.84799031747795],[0.691156090021971,45.84765015895079],[0.691505302273901,45.84740685257731],[0.691858503097324,45.84676003401335],[0.692280501212736,45.846317317292204],[0.692886182870305,45.846044112283224],[0.693306707871315,45.84566712587712],[0.693608454582617,45.84563364908881],[0.693927719694281,45.84539693123371],[0.698592812691196,45.84616773397154],[0.700894729931451,45.84453628386842],[0.701886761499641,45.843651094654334],[0.702297929651453,45.84284687227965],[0.70255823932491,45.841919764073864],[0.703121247681067,45.841647439964596],[0.703568681223603,45.84111691554114],[0.704367297357441,45.84041695708921],[0.705128517152229,45.839500024306005],[0.705509324631065,45.839269030329824],[0.70586828735415,45.83891237025153],[0.706192033597699,45.838131584269405],[0.706570883893131,45.83773028256352],[0.707319605016028,45.83630589233867],[0.707206796776723,45.83576398036608],[0.707462650995207,45.83379356434018],[0.708597212646206,45.83272743834728],[0.709559937674665,45.83204338914911],[0.709007837128665,45.83031783338319],[0.709209671015247,45.82995707557097],[0.709221325780506,45.829738400525656],[0.708633171281109,45.82863371153748],[0.709142722653792,45.827192748274385],[0.706804539218618,45.826247118321135],[0.704635016972506,45.82490397927339],[0.704106787573885,45.824995038231606],[0.703378741775964,45.824933386780685],[0.702320561234597,45.824568626009615],[0.701016355370619,45.824325869006124],[0.699098416727786,45.82353637360659],[0.697940278652584,45.82377762349246],[0.6962891534892,45.824006101658256],[0.694333836078681,45.82383556311529],[0.694210828619151,45.82415826707449],[0.691217928612652,45.82322505965236],[0.690806683923289,45.82326079253448],[0.690565576765005,45.823510809132785],[0.689939066855197,45.82373312147068],[0.689444768120155,45.82409056493913],[0.689006999046822,45.823682517231944],[0.689003425985775,45.823029308409346],[0.688778801209734,45.82297786494291],[0.685338957117676,45.822351556706],[0.683550575435996,45.82192029437405],[0.682529768802363,45.82159034454774],[0.681135202168667,45.8208950602862],[0.678622452975279,45.81887860418297],[0.677978645604187,45.818868968124164],[0.677414279892287,45.81841052244852],[0.676061666271256,45.81843583962581],[0.675647969798948,45.81721473715043],[0.675005469620294,45.81720511064554],[0.67493731456645,45.81729379515056],[0.675111058252436,45.81797123245291],[0.675090955673532,45.818601435396594],[0.674189006536763,45.81863330727443],[0.672666911907852,45.819072200757276],[0.67197330815375,45.81978491252218],[0.671611359028823,45.81962970372793],[0.671467383776736,45.81980510911193],[0.671542121161461,45.81983547876645],[0.671487020493074,45.8199199261992],[0.671777377490305,45.820031317543894],[0.670779674843795,45.82126296576557],[0.670088187769951,45.82164959105925],[0.6694353634972,45.82124243131286],[0.668860004575483,45.82046570309133],[0.667848387443661,45.819798877415835],[0.662282888090901,45.81671175298406],[0.659139412160472,45.818742979629015],[0.657429031076118,45.82015432799142],[0.656910084639733,45.82318225289714],[0.656575449140069,45.824781590728435],[0.6563772830582,45.8252909837189],[0.655386829190538,45.82688751544549],[0.652970949280683,45.829456209421224],[0.651863192597237,45.83080703575709],[0.652692750084558,45.83136121279644],[0.65293889426857,45.8317248829695],[0.652477991964061,45.832077459951435],[0.652659718843387,45.832440692451314],[0.652459540444746,45.83266265447113],[0.651473915799609,45.83332233240996],[0.65127372943515,45.833544292334466],[0.651643591333145,45.834089815458526],[0.650918047744158,45.834663907454576],[0.65140780200295,45.835481291165785],[0.649976357380696,45.83595511058494],[0.650903879131371,45.83681313628022],[0.65224938888844,45.837814076375714],[0.653000306425113,45.838795437547944],[0.653273505292451,45.839463268259856],[0.652740410219509,45.83984497786041],[0.652577580727988,45.84024879571025],[0.652316358774474,45.84029922121256],[0.652461167575264,45.84077339648597],[0.652396705341412,45.84092520784001],[0.652039999427134,45.8410385120884],[0.652020063946911,45.84114350175272],[0.65262339580012,45.842322694841315],[0.65355249301296,45.84320775529286],[0.653983047012494,45.8438437179589],[0.654219724081925,45.84452249869394],[0.655913149901339,45.84598736567837],[0.656594118443452,45.846889771502305],[0.65340464185077,45.84777489561622],[0.650156572370997,45.84888303472552],[0.648567900661096,45.849558976296514],[0.646041263437696,45.850825258277375],[0.643970445130446,45.851558656355714],[0.646629296562082,45.852483439823054],[0.647264169708508,45.852832696643006],[0.648157155819499,45.853478311527525],[0.649722453347112,45.85420097040474],[0.651071611894091,45.8546110084232],[0.65151203831488,45.854622867748866],[0.653512610743886,45.855116685440834],[0.65493262959044,45.8556200387877],[0.655939523718803,45.85674362310181],[0.656409271908279,45.85709750814624],[0.658515937372117,45.858375406020016],[0.658877067494681,45.85867657931861],[0.659448701858886,45.85890914059951],[0.661749998690802,45.859553179244344],[0.664588625851623,45.85993260702417],[0.66892160736633,45.86083288550669],[0.671110574038439,45.86105730281881],[0.671841930320839,45.86120390452042],[0.673279479486175,45.8616659413127]]]]}}]}