{"type":"FeatureCollection","name":"COM_23177","crs":{"type":"name","properties":{"name":"urn:ogc:def:crs:OGC:1.3:CRS84"}},"features":[{"type":"Feature","properties":{"fid":4159,"ID":"COMMUNE_0000000009749867","NOM":"Saint-Agnant-de-Versillat","NOM_M":"SAINT-AGNANT-DE-VERSILLAT","INSEE_COM":"23177","STATUT":"Commune simple","POPULATION":1059,"INSEE_CAN":"15","INSEE_ARR":"2","INSEE_DEP":"23","INSEE_REG":"75","SIREN_EPCI":"242300135"},"geometry":{"type":"MultiPolygon","coordinates":[[[[1.535719240086566,46.24738142673324],[1.53570412016895,46.24687867805765],[1.535360057059038,46.24692918916272],[1.535154605003547,46.24703912413297],[1.534832513318775,46.246947616169685],[1.534060624469103,46.24649186134551],[1.533930923500926,46.24653612289973],[1.533731610056704,46.246804646181225],[1.533017960371141,46.24688911502234],[1.532494164755132,46.24715525422704],[1.532742340495847,46.24792219292004],[1.531897670796539,46.248050898040525],[1.531831668662245,46.248140110113596],[1.532521549114778,46.24923427344883],[1.532430401748407,46.24938980862751],[1.532961010357025,46.24950022276199],[1.533049848500783,46.24962475489757],[1.533001881563683,46.249864606147106],[1.534023769289974,46.249760691313284],[1.535365616227125,46.24987703776887],[1.536509906367503,46.25043934390016],[1.536638327869205,46.251998191574835],[1.537413634853898,46.25218378118199],[1.538243725184614,46.25308967532866],[1.538103703579815,46.25376335210029],[1.536993501447521,46.25629607891283],[1.535293679826284,46.25606256850422],[1.534790770641585,46.25583634097212],[1.53410202152036,46.254598106806775],[1.532102865351599,46.25342493264169],[1.531696890659158,46.25307115024734],[1.531404128028636,46.25246574875479],[1.531153813357789,46.25148803124763],[1.5291811549864,46.25194529571678],[1.529175555497286,46.25239554115174],[1.528195216470747,46.25288362132591],[1.527866066484638,46.25315045576783],[1.527672550224994,46.253104722047404],[1.526775495282672,46.25237800898818],[1.526047562903786,46.252218177854516],[1.52593124147598,46.25176455192708],[1.526039114280188,46.2512778041411],[1.52638609468875,46.250782444215346],[1.526436637108045,46.25020669138452],[1.525498857927415,46.250030629526066],[1.524857221952563,46.25004212865993],[1.524686876491648,46.248943845607805],[1.523978802638446,46.24857891271971],[1.523266220078124,46.248574171656685],[1.522946339804368,46.24825659867611],[1.522953263515152,46.2478072705389],[1.521981038796795,46.247755019881566],[1.521590599290146,46.247887745927045],[1.521202365642776,46.24779443926772],[1.520755137272309,46.24738604186442],[1.520431688125552,46.24724944332699],[1.520050489810812,46.24675183766195],[1.519884787514523,46.246254331699575],[1.518857721265012,46.24650305448674],[1.51727157532811,46.246687744937724],[1.516408370683519,46.24697280499527],[1.513304234364839,46.24903798981819],[1.512809303864151,46.24962324328113],[1.512934518623659,46.24998423454504],[1.514731790373078,46.251545094792434],[1.51463181573388,46.25192836279026],[1.514348786560788,46.252502878680566],[1.513127747892411,46.25396127930038],[1.511712626934792,46.25472363773846],[1.511576348957161,46.25472185567483],[1.509978030574865,46.25233766451124],[1.509570175351169,46.25191532795573],[1.509145792886057,46.25171883396601],[1.508241197945805,46.25156467961315],[1.505124602611809,46.250164719551506],[1.504558448521483,46.249978954736946],[1.503153253595952,46.249237266619055],[1.502958541456536,46.24923650675924],[1.50269954918231,46.24997252625703],[1.503161959500774,46.251008942654785],[1.503190027424261,46.2539724211543],[1.50329652667566,46.25473126073843],[1.502759263800007,46.25481696046736],[1.501383316888586,46.25475832305812],[1.501245169454172,46.25525185674777],[1.489340665499708,46.255291716995885],[1.489076845240592,46.25511258954719],[1.488399120611452,46.25548816582903],[1.488353717069943,46.25567489679816],[1.48801391022832,46.255614543333],[1.488098265295644,46.25575706501642],[1.487940558658704,46.25587295441983],[1.486905754666249,46.256389682171104],[1.485795225065717,46.25621640027447],[1.485802401235105,46.255722041844336],[1.485937033898904,46.255407706591264],[1.48587455000481,46.25527267933166],[1.484952737905386,46.25508388631914],[1.484649896914607,46.2549078315629],[1.484033955599692,46.25497348223213],[1.48365017778188,46.25486029252417],[1.482991778660458,46.25486502866769],[1.481607939318697,46.255091551427086],[1.481474633190842,46.25465476111465],[1.48037131418665,46.2546913722819],[1.479390572413835,46.2552231645591],[1.479067227961218,46.255131481536004],[1.478811329382502,46.25494883310665],[1.478224775700768,46.25512472406432],[1.477327749589466,46.25465249663721],[1.476767757015044,46.25476028630141],[1.47535901664461,46.254714404750146],[1.475203603476267,46.25507348226072],[1.474918495569232,46.25505435135705],[1.474729854709852,46.25464833361181],[1.473949795389721,46.25473244524603],[1.473535963537916,46.25630392937906],[1.473375635789714,46.25637293021762],[1.4723701120809,46.25616039599032],[1.471505222836091,46.255793929392354],[1.469002617465805,46.25590890093034],[1.469045400968723,46.25730458055369],[1.468591113177108,46.25734530300003],[1.468445266484393,46.25828902132335],[1.467926021846246,46.25833066848314],[1.467872201857124,46.25765535840727],[1.466499340435679,46.25831956225004],[1.466239723931322,46.2583169649101],[1.465616603232524,46.25678286747624],[1.464194880215568,46.25645747203785],[1.463855507465328,46.25735444231842],[1.463533499630413,46.257261832400026],[1.46256981376322,46.25666970192714],[1.462111768005831,46.25689047770667],[1.462558670799334,46.257344138006175],[1.462427622565255,46.257433333423904],[1.460149781519208,46.2579555395025],[1.45937215387228,46.25790448750569],[1.458665666535463,46.257494133359266],[1.458080227302635,46.25753483921341],[1.45769580658164,46.25726123701601],[1.457371303665458,46.25730367332736],[1.456457642707726,46.25765695110462],[1.45703178856019,46.2582015234954],[1.456900784192091,46.25833484517684],[1.455919695209832,46.258822302395245],[1.456174349805561,46.25913918311197],[1.454936076615831,46.25944481470784],[1.454144770471392,46.25950972558011],[1.453334288323612,46.25919609678482],[1.453183386483066,46.258930155320385],[1.452161205663468,46.260226708201756],[1.451499172835945,46.26067883764728],[1.450833144939081,46.260537379374114],[1.450060513849725,46.26017110391044],[1.449805889829633,46.259854209550056],[1.449558796011082,46.25908799161458],[1.450209132554975,46.25900318029495],[1.4502753061712,46.25891311538891],[1.450150532019489,46.25864212149679],[1.449241808010236,46.25863514848406],[1.449246837047576,46.258319988625644],[1.449645099595943,46.25782825376598],[1.449003559544741,46.25737369063697],[1.448289571450903,46.25736846248755],[1.447952484101189,46.25817535476325],[1.447942436614903,46.25880477405977],[1.446900122577896,46.25906705729201],[1.446699102478307,46.25947050878291],[1.445535814902578,46.25919073692234],[1.445221390034502,46.25864875247473],[1.445091568727118,46.258647879768056],[1.443778251118441,46.25958192243886],[1.443493344152482,46.261154170710455],[1.443880260751952,46.261292757460154],[1.443938867262565,46.26169795201697],[1.443778706448583,46.26354120125557],[1.443323042879958,46.263627738315876],[1.443181845069292,46.26434633006761],[1.443310418517724,46.26443725303422],[1.44382719997018,46.26453078143759],[1.443688502329676,46.265070177894096],[1.444389943124167,46.26579488379932],[1.442734145332968,46.2678968863083],[1.442405743813458,46.268119358243716],[1.441560550822012,46.26824739261352],[1.441490583956277,46.26860669614631],[1.441616602182811,46.26878765123903],[1.442389323974699,46.26915308339407],[1.442526453143199,46.26958276966513],[1.442449402793629,46.270008625093936],[1.441789835937814,46.270093267612744],[1.43989822933951,46.2707086273265],[1.439102662781091,46.27178210974108],[1.439984081692878,46.27239042302356],[1.44059654299243,46.27213672323668],[1.441694003098028,46.274555592020285],[1.441652421993481,46.27473875607873],[1.441820642628188,46.27503467112979],[1.442242186755173,46.27510078298995],[1.441159491355067,46.27535526015157],[1.440140334370271,46.275704265545905],[1.440156737522389,46.27590353457577],[1.43915240868322,46.275914088873364],[1.43921738749741,46.27664180671201],[1.439120487746455,46.279493747158604],[1.438501127342617,46.279485255402754],[1.438060472342229,46.27976922204133],[1.437294166822354,46.27990281253632],[1.437517393037081,46.28031927563037],[1.437795119371345,46.28128408297985],[1.438128894711066,46.2812409269463],[1.438205705022489,46.28146264042124],[1.438455555610781,46.28144715322348],[1.438579702942433,46.281967631620226],[1.438451476303466,46.28209106405244],[1.438973104586167,46.282384623505436],[1.439273622576275,46.282277962452234],[1.439523799831419,46.2822967021389],[1.439997966238922,46.28275172381362],[1.439299772324565,46.28304657747578],[1.439421469408149,46.283197753621266],[1.439889055738098,46.28315462468937],[1.440040324964592,46.28431943909216],[1.439974729623138,46.284341957473174],[1.440586655859907,46.28461332906354],[1.440788111398452,46.28575000838287],[1.440457985264239,46.2861201591795],[1.440783308502404,46.28632906179336],[1.441096412976859,46.28614601264926],[1.442347342425899,46.287108813526196],[1.442317313586691,46.287296638952775],[1.442651026448,46.28766776800318],[1.44240999433356,46.28792025668508],[1.441835393415263,46.288252842793256],[1.443072918739368,46.2888668992872],[1.442517157576775,46.289039430516155],[1.442443345048006,46.289578811791735],[1.442498163697655,46.29020911663277],[1.443698013838631,46.29023092269169],[1.44396816898938,46.289365485969064],[1.444224432173585,46.28944554225631],[1.444204663601441,46.28968394466656],[1.444526157222829,46.28966311778325],[1.444628077648366,46.289962625115756],[1.44490489154949,46.28986823425438],[1.445168458852857,46.289599836330446],[1.445346502372894,46.289003334243425],[1.445132186625861,46.28845281287248],[1.445833179029713,46.28828945628173],[1.447073233568971,46.28817487715259],[1.447921252114772,46.28791173909637],[1.448448307289166,46.28742176197621],[1.448578219606391,46.28746766366241],[1.449595920046072,46.288735227379696],[1.448811580455764,46.28904337712997],[1.447842476607389,46.288811315576446],[1.447581439609423,46.28885369079764],[1.447573866494771,46.28930391260833],[1.447826083497215,46.28975587401236],[1.44743646724026,46.28984242966357],[1.447431403107213,46.29011255563688],[1.44845539074063,46.29097582287872],[1.449225943701429,46.29147627078884],[1.449154745105038,46.29192562606241],[1.449931571622765,46.29202176278821],[1.450321249092924,46.29197933110832],[1.450454898971399,46.29175598721646],[1.452899481995322,46.292558373835725],[1.45342712629494,46.29218546622192],[1.454823369950747,46.29229358136459],[1.455564385082273,46.292830511118865],[1.455887887452209,46.29292316085135],[1.457548807227131,46.29286100523595],[1.457948570488397,46.29306005755518],[1.459418217119753,46.29300789390087],[1.45968117312225,46.2933131671175],[1.459728519569325,46.293523658148935],[1.460291448344305,46.29365015478391],[1.460731060422572,46.293079682840194],[1.462212318668595,46.293169041581244],[1.46393876918258,46.29266996355395],[1.464132346742419,46.2927167057341],[1.46438348885679,46.29325867834434],[1.465501543000277,46.293188185649136],[1.466714592777848,46.293529655199016],[1.467953722485936,46.29321849471139],[1.468514596538665,46.29281534358146],[1.469372041949705,46.293142996167035],[1.470047514691105,46.29300886912717],[1.471146157326721,46.293028124887684],[1.471565145116496,46.292866228395525],[1.472410120295452,46.29275687808217],[1.473551610198501,46.29333598523998],[1.473683041393643,46.29416723956187],[1.474472752525849,46.295807984205226],[1.475890288135703,46.29613588136874],[1.477438106185963,46.296732092465696],[1.478997304280924,46.29771480954596],[1.480408854465639,46.297699424888286],[1.481126995871898,46.29748024007497],[1.48149825357399,46.29749329574313],[1.481721987993154,46.298187070311386],[1.48371293525124,46.29812983060569],[1.485132171226627,46.29863506002699],[1.485976539500141,46.29859675086667],[1.486530995031453,46.30049006016836],[1.486828072943032,46.302246652642985],[1.48763523209862,46.3038857282675],[1.487736402033027,46.30473907648517],[1.488999422132399,46.30460272685292],[1.489312171395863,46.30532468410315],[1.490410549054569,46.30569229445093],[1.491761457182146,46.306422592327266],[1.491952767427177,46.30664848325581],[1.494005240996079,46.308238240533626],[1.493839508013679,46.30849903592647],[1.495506420864508,46.30880115874528],[1.496191896923926,46.30915875532597],[1.497353190097447,46.30946408278114],[1.498059856855476,46.31051813961121],[1.497924010421408,46.31092163530879],[1.496911022377744,46.31198183522681],[1.49638787359722,46.31176958725161],[1.49674199941381,46.31326121162518],[1.496710312295082,46.31351567378341],[1.496310755951909,46.31405528678428],[1.4962483534933,46.31429223136976],[1.496553569625639,46.315057297106065],[1.49295260607474,46.31550237534428],[1.492514629084046,46.315972118348924],[1.491085712200464,46.31579919588993],[1.490760018902684,46.316627071802394],[1.490627632648504,46.31676131456168],[1.490480879970541,46.31784013589175],[1.490279933119948,46.318197728816315],[1.490457176985971,46.31884043036244],[1.490773158081191,46.319307543506916],[1.491616859751245,46.31991763849131],[1.491615676640628,46.32000768655763],[1.490641071518054,46.32009024929695],[1.490767370877908,46.320271148954355],[1.492695192639793,46.32158997971342],[1.492186647681571,46.32221279730333],[1.493778134896141,46.32380545422454],[1.496683355389264,46.324004128358716],[1.497413614529271,46.322975326234],[1.497802365846071,46.323067812987276],[1.498461719001989,46.322442455131196],[1.499431608433848,46.32267498540161],[1.499095979628162,46.323346942625065],[1.499739919434738,46.32375710497953],[1.499999872754828,46.323758725591745],[1.501650534450474,46.32315359838],[1.502082723464624,46.32336912784085],[1.502015415774823,46.323548370049856],[1.501554610962827,46.32395029951744],[1.50187480965086,46.3242679300808],[1.502069722067091,46.32422365918311],[1.50272661861729,46.3237342407119],[1.503185084716967,46.32351240279462],[1.503187412998412,46.323332306495814],[1.502674701916665,46.32292388816731],[1.503005516083731,46.322521147467],[1.502436651375406,46.32221736450401],[1.502724786000845,46.32156909110981],[1.503164376637913,46.321181288681196],[1.503768047996696,46.32068756296539],[1.505032795733091,46.32154625506383],[1.505350679454584,46.322043972317765],[1.505610555119953,46.32200054751866],[1.505874024630812,46.32177794308997],[1.506001607732394,46.32191381024887],[1.506060669224575,46.32227393746631],[1.506320615683399,46.32227554366255],[1.507870632429859,46.3217815877315],[1.507244410561043,46.321292448041056],[1.507312997802426,46.321113219718896],[1.507902453508444,46.32075798397535],[1.508483694522199,46.3209421172407],[1.50881492642284,46.321189623121384],[1.509807281777954,46.320359611604275],[1.509166419615611,46.3199783669699],[1.50859239746724,46.32048331622481],[1.508106787058257,46.320129315082696],[1.509669118686595,46.318751074767185],[1.510562963115228,46.31910230027874],[1.512025867562354,46.319464553234596],[1.511947106870492,46.31992284754439],[1.514789813015865,46.32040754739411],[1.516192707296111,46.320732037941056],[1.517814629308807,46.31973813350035],[1.521906485556666,46.322439136411646],[1.523233908951136,46.321421521669485],[1.525547094227918,46.320578764288],[1.524605714293672,46.31967225430183],[1.523534093566751,46.319017125763715],[1.522381361251647,46.31775661172205],[1.52257976539729,46.31618578213182],[1.522134316573491,46.31564232883185],[1.522805326229465,46.31538984684085],[1.522889641451623,46.315203608634775],[1.523428100386806,46.31490167124082],[1.524087293616377,46.31402669283031],[1.524695227916691,46.313702233156846],[1.525105713513067,46.31265020686432],[1.527884304515159,46.311933213828226],[1.530313121355669,46.310977478879764],[1.532143380329032,46.310675045323464],[1.531497984215544,46.31002548033928],[1.530446568873154,46.3092995253721],[1.530272363841373,46.3092531473812],[1.52963291580349,46.30930253700566],[1.529354493897338,46.30921698609675],[1.527642620546486,46.30666680567528],[1.527974286568747,46.306511679908965],[1.529447962650256,46.3050140496721],[1.531048235339259,46.30470326325659],[1.529991697827324,46.30238221921864],[1.530816520683055,46.301523751274274],[1.531718011244191,46.30274672228385],[1.532552739079075,46.303698636473975],[1.532943438125014,46.30400628022104],[1.534035562429556,46.30301613693218],[1.533786555114853,46.30270671813138],[1.534586055216991,46.302403586316224],[1.534856361803436,46.30259709604284],[1.535117420719525,46.30255362057761],[1.535444446940824,46.30237589818464],[1.53518802126918,46.3021492450513],[1.535210374446961,46.30204235754264],[1.536186288825361,46.30150731929831],[1.536942782225405,46.30193673099014],[1.536808352158862,46.30225022467944],[1.53693714604464,46.302341941810155],[1.537263057473315,46.30225426289485],[1.537591277984274,46.302031518320426],[1.538556477135597,46.30257797796435],[1.539008902694484,46.30271617362867],[1.539269958879389,46.30267268864905],[1.539663027355404,46.30240573825683],[1.540191629996189,46.301734339917104],[1.540649637385423,46.30146821839818],[1.541738880886798,46.3012128793504],[1.542241780898365,46.301163477045364],[1.543379970395126,46.301216763628425],[1.543388928064945,46.30058733911963],[1.544429378076956,46.30050427134356],[1.544739836110556,46.3012899828498],[1.54499365644941,46.30137157971085],[1.545931710710309,46.3014258867883],[1.545631329351124,46.300749283368454],[1.547027413449853,46.30038793477762],[1.547866025126751,46.30066341260759],[1.548256962996831,46.30062156284825],[1.548261320959923,46.30026136753408],[1.549435023245094,46.29995479560473],[1.549628699476662,46.30000139242972],[1.5501833698279,46.30069473087288],[1.551002709547995,46.30066823017875],[1.552672451459688,46.30047240624327],[1.553645665691415,46.30052349412363],[1.554420638399679,46.30079901584637],[1.554484508709412,46.300889888923024],[1.55480919451463,46.30084717600336],[1.555464284837664,46.300446600961926],[1.555465362471681,46.30035655206446],[1.554049701619506,46.30013324862261],[1.554464714670531,46.29986832804364],[1.554700576307708,46.29925259087501],[1.554961324761163,46.29931804211609],[1.555161582541636,46.29886936879773],[1.558335214956084,46.29934187888073],[1.558596239682563,46.2992983496031],[1.558738156600576,46.298399520190635],[1.55900355347262,46.298041727192945],[1.558874709023873,46.297950935293095],[1.558161391537345,46.29790047970476],[1.558169495609072,46.297050391952375],[1.558569497454869,46.296959087554974],[1.558816308630279,46.2974548525639],[1.559076228635764,46.29750227146074],[1.559514701980068,46.29743036350819],[1.55968368146788,46.29713169154164],[1.561612462808416,46.2971596664883],[1.562326747440476,46.2970741184578],[1.562141928243463,46.29644314965077],[1.562149602827058,46.29590377236264],[1.562414732532037,46.295455905917336],[1.5624516703939,46.294742176725386],[1.561870762766297,46.29454931493974],[1.562050324606444,46.29369869020371],[1.562508298565493,46.293476612974295],[1.564832120568753,46.29285296485133],[1.564764062209328,46.2926737836266],[1.564470556699205,46.292619649788364],[1.564304712089952,46.292503180098066],[1.564169379023062,46.29221417487542],[1.563496489287417,46.29211112456187],[1.563551040052359,46.292012743838505],[1.563909104820582,46.29188396669351],[1.563992866457132,46.29166256849485],[1.563927148524443,46.291641926154476],[1.563698490118156,46.29183988216718],[1.563599454311782,46.2917026388787],[1.562760219787676,46.29130478300962],[1.562726691403199,46.29119628490925],[1.56296890284632,46.29107595557402],[1.562974053341551,46.29097875306132],[1.562183067085139,46.29082196838508],[1.561976746179252,46.29046631847966],[1.562097510431817,46.290369675045106],[1.562810757050439,46.29041920570177],[1.562652703019522,46.28995699170787],[1.563286982852711,46.288857225881515],[1.563636175197681,46.28857072849142],[1.561418470177045,46.28798074697606],[1.561154205904731,46.288248496917],[1.560501671018754,46.28855907255677],[1.559851154851974,46.28864451360785],[1.559732283334228,46.28787927962022],[1.55999869262718,46.28743143483845],[1.560588536248173,46.286984975959165],[1.560590765311698,46.28685081087872],[1.560332078578392,46.2867583790545],[1.559085101973634,46.287739601866335],[1.558825318022307,46.287738116009386],[1.55856897732447,46.2875565478967],[1.559227094641066,46.28688580347877],[1.557677591314045,46.28638075240143],[1.557679738743251,46.286200654292266],[1.558744109352704,46.284408373426345],[1.560105488474067,46.28450755170606],[1.560366302710058,46.284419885873426],[1.561026496614621,46.28356903262843],[1.562053334598005,46.284386262012745],[1.56231192040082,46.28443275686853],[1.562708058339485,46.283940611857545],[1.563835980125154,46.28308483771047],[1.564136564091088,46.283164280655356],[1.565788920405288,46.28321302226413],[1.566206191399768,46.283301134227536],[1.567828621010557,46.28305406446382],[1.568308540823786,46.28258456929748],[1.568376637124244,46.28231523800227],[1.567668897743975,46.281860528977674],[1.56689306798734,46.28167514600778],[1.566767544924768,46.28135924808318],[1.567246171017896,46.27969821408641],[1.568242819515043,46.2796341967163],[1.568019822330371,46.27946928013012],[1.567752542433278,46.27901110295207],[1.567205706053444,46.27781990127902],[1.565671482031915,46.27564809011295],[1.564974202196176,46.27380743083937],[1.563956505823225,46.2737369595569],[1.563195085126006,46.27256194272047],[1.562562228409526,46.27138854347928],[1.562502556382951,46.26935777683046],[1.561012524678942,46.26893006856548],[1.559670853448106,46.26947869674007],[1.559346219935194,46.26947729115693],[1.55870044201723,46.269292594553306],[1.558250387797953,46.268974378167364],[1.556534745617284,46.26853474711942],[1.556194472806167,46.268190895360085],[1.556180451096295,46.26788540446588],[1.555516345834091,46.26765812741794],[1.555863780740442,46.26713926994055],[1.556084176284517,46.26646389211016],[1.556043541859591,46.26593650892067],[1.555233698305025,46.26621353468861],[1.554405532603876,46.26570857610627],[1.554012666209956,46.265931445859394],[1.554073062292605,46.26620150109122],[1.553289719043043,46.266556303896856],[1.552900326382755,46.266598187576626],[1.551812383201236,46.26555583412762],[1.551618826930831,46.26550924084814],[1.551293157169438,46.265596961165016],[1.550565731588888,46.26516350513456],[1.549870525025382,46.26547527581132],[1.549545131667195,46.26540538440806],[1.549679422223946,46.26509097416365],[1.548969780219028,46.26477121365105],[1.54904033509499,46.26441186081437],[1.548918298992998,46.263871728330855],[1.548789551655096,46.26378092470453],[1.54454340875854,46.26392305271593],[1.544502098605058,46.26303450200549],[1.544909663329423,46.26294334483623],[1.54510101694594,46.26317004782746],[1.545490517505891,46.26317232335035],[1.545504022578849,46.26227276530732],[1.545700943592846,46.26209425438743],[1.546157524434588,46.26191725846985],[1.547323563517295,46.26201590346351],[1.547473406878914,46.26057680607054],[1.54715459029839,46.260260218394954],[1.547135380469704,46.25980965764973],[1.547381786005609,46.25952730234313],[1.546905710843312,46.25941224953768],[1.547310068300886,46.258461841041736],[1.547181440124503,46.25841606843638],[1.546138438362008,46.258723376084994],[1.545749072015182,46.258766135665105],[1.54505197622795,46.25763594092369],[1.54511796827102,46.25754672126591],[1.546417111026467,46.25742101952347],[1.546178086020186,46.25688749481276],[1.547696480839773,46.25657184382767],[1.548606790557572,46.25656634322106],[1.5494446672511,46.25615823086097],[1.549466036541272,46.255596509450235],[1.549897361189279,46.255635328821775],[1.550968907970239,46.25542381792608],[1.550944632665323,46.254820086271785],[1.55219277631077,46.255098053378546],[1.55298121095396,46.25503602930981],[1.553346795938764,46.25515505657108],[1.553722483735127,46.254547402447876],[1.552948168918489,46.25427187467318],[1.553148387177131,46.253868235731495],[1.553342983821337,46.253824777157334],[1.554052509537799,46.254144510750926],[1.554315346110237,46.2538767598853],[1.554833514836605,46.25396980090997],[1.555226157965095,46.25370279549422],[1.555359286592386,46.253479327850535],[1.554657637830485,46.25266435580828],[1.554078045170688,46.25239040741587],[1.553759043491188,46.25198287184298],[1.552731831720607,46.25125651470307],[1.55253832519405,46.25120992292237],[1.552275360981258,46.25143353716792],[1.552015880938008,46.25147616835889],[1.55130867582426,46.251021356284106],[1.550985259756262,46.25092897722089],[1.55078837227917,46.25110839780008],[1.550658591099721,46.25110674515359],[1.550337534695458,46.25092523180042],[1.550280136066883,46.25078850534915],[1.550734729009492,46.25038811041371],[1.5500869280421,46.250338430320355],[1.549635993359916,46.250110228608364],[1.549187236353903,46.24970192650267],[1.548928825639889,46.24965540168871],[1.548668239750224,46.24978897488195],[1.549119501932641,46.25059268825353],[1.54841771953466,46.251159243165986],[1.547105414822034,46.25071019467978],[1.546433451640652,46.25029903187351],[1.544762098784475,46.249585987333596],[1.544215978306882,46.249179121963984],[1.543557479116235,46.248897804959725],[1.542650103210807,46.248846561255824],[1.541227029236158,46.24861217705843],[1.541375880908662,46.24701996387308],[1.540208773940978,46.24682757398667],[1.540020080357219,46.24689360152528],[1.539677598337577,46.24815099516171],[1.539418100035048,46.24819449797236],[1.539160808137065,46.24805790175403],[1.539498816705136,46.247114773320384],[1.539282690137987,46.24674904395223],[1.538408732864228,46.24661443589132],[1.537998396800074,46.24768902539585],[1.535797917752197,46.247449085999435],[1.535719240086566,46.24738142673324]]]]}}]}