{"type":"FeatureCollection","features":[{"type":"Feature","properties":{"fid":77,"ID":"COMMUNE_0000000009756354","NOM":"Le Barp","NOM_M":"LE BARP","INSEE_COM":"33029","STATUT":"Commune simple","POPULATION":5713,"INSEE_CAN":"15","INSEE_ARR":"6","INSEE_DEP":"33","INSEE_REG":"75","SIREN_EPCI":"243301405"},"geometry":{"type":"MultiPolygon","coordinates":[[[[-0.815336358383369,44.607761116209446],[-0.813139020042812,44.61772795287316],[-0.811238715740032,44.61832710568943],[-0.810295734467695,44.62002074672835],[-0.806519793668664,44.625660612292535],[-0.815570741067938,44.62864992175554],[-0.816335175635059,44.62985471773203],[-0.82073928024064,44.63540606169442],[-0.819069071996034,44.63968648265218],[-0.818406850785328,44.6407747269103],[-0.817568268397439,44.64293081503197],[-0.817517946089786,44.64332462797206],[-0.815715722570105,44.64443329891411],[-0.815964597440013,44.645423369685574],[-0.816237840342925,44.64567351563917],[-0.817108602296254,44.64605895485008],[-0.81760565738702,44.6463698682968],[-0.818689581344223,44.64688222996401],[-0.819201356332353,44.6469817186363],[-0.819525227603906,44.64715890333023],[-0.820081537046509,44.64717032195],[-0.820835641581158,44.64741735644556],[-0.821273038132322,44.64772310645734],[-0.821856925865897,44.64776871454964],[-0.82210790308215,44.64808090756217],[-0.822515685597834,44.64834080829187],[-0.823203671063277,44.64845040878383],[-0.82371917562895,44.648641683665964],[-0.824445563609693,44.64855436018507],[-0.825322731100483,44.64929283736398],[-0.825547396161592,44.65014673100847],[-0.825404157541588,44.65045453471117],[-0.82462501787807,44.65034179172442],[-0.823784588218587,44.65008875403341],[-0.82349207940963,44.65013222205572],[-0.82295474411517,44.65041940369528],[-0.822797160525902,44.650888135834784],[-0.822203022856265,44.65165948774734],[-0.821862407125151,44.65192453833423],[-0.821946903193736,44.652369576077454],[-0.822158234590906,44.65261824552596],[-0.822817583439208,44.65297490296435],[-0.822952214574071,44.65319107198616],[-0.822970348296874,44.65351402144043],[-0.822773472061039,44.65481784103474],[-0.822144998629167,44.655660683338155],[-0.822204942705236,44.65671136196867],[-0.821965964299653,44.657060326871665],[-0.82164925202119,44.657324549738064],[-0.821712746253538,44.65781357861533],[-0.821621976230601,44.658132181600195],[-0.821283436239941,44.65846565881373],[-0.819803405227895,44.65859612627346],[-0.819348856814299,44.65880201177933],[-0.819133891074641,44.65913301507889],[-0.819101750149171,44.6594225502666],[-0.819423317263044,44.65967643102559],[-0.819620384388925,44.6600869371216],[-0.819371727911163,44.660610186530484],[-0.818979020368026,44.66081573618852],[-0.818914044278694,44.661421870559785],[-0.818486376202564,44.66165206047332],[-0.818391394376359,44.66187165981849],[-0.818220142084035,44.66191633166669],[-0.817919459650279,44.66217548252611],[-0.817718718496504,44.66247444505265],[-0.817294274354044,44.664391804667076],[-0.817350973271614,44.66461337640789],[-0.817221411612144,44.66493782139548],[-0.816620982388924,44.66524697551237],[-0.816034940985985,44.665377166645634],[-0.815002604198618,44.66581748947757],[-0.814272479133369,44.6656479940468],[-0.813796939017117,44.66588071730717],[-0.813451993936661,44.665841240013826],[-0.812785309310385,44.666049005082535],[-0.812339971822856,44.666373516828195],[-0.811423762190926,44.66731724705444],[-0.810944363788698,44.668314414742675],[-0.810801863650607,44.66902686732416],[-0.80985408550803,44.66965440438111],[-0.809082750488464,44.66973505909064],[-0.804029972392298,44.67285002918693],[-0.803440799614042,44.672879309754904],[-0.801264832762759,44.674270065869884],[-0.80116446393556,44.6744673005419],[-0.799830374148841,44.67543790895206],[-0.795893817778625,44.67786697056237],[-0.791856060905929,44.68005509505791],[-0.789847954847691,44.681038768646964],[-0.7897510878278,44.68157026098337],[-0.787935458148677,44.682693315094035],[-0.786435197983082,44.683735237942386],[-0.780106335616395,44.68762008644731],[-0.772464869737573,44.692482182386655],[-0.771499849302384,44.693222620468205],[-0.742576754771633,44.67893163183481],[-0.733404811399563,44.67425122409263],[-0.730251845567032,44.67258930995825],[-0.730085265871694,44.672439007239284],[-0.707450496491487,44.654399760385246],[-0.701998003043698,44.649361486156565],[-0.694129743874684,44.64348808083611],[-0.691259919099889,44.64076574882081],[-0.691116203049832,44.64051819833684],[-0.682839959167199,44.63166828735521],[-0.68134672106778,44.63017872161267],[-0.68144414559987,44.63010517885356],[-0.680491458809716,44.62918069732753],[-0.67530840578205,44.62361232851744],[-0.661934069943908,44.60900410869173],[-0.661949809556844,44.60887741539963],[-0.681175499499619,44.59029393647873],[-0.685219672264398,44.58671634181069],[-0.688199457358589,44.58436016680852],[-0.688656134631282,44.58388077723613],[-0.696041862660615,44.57756487807378],[-0.712701220802562,44.5671436136403],[-0.713838018851994,44.56641051557125],[-0.713996200956141,44.566189797315936],[-0.719088965557124,44.566699650220755],[-0.724229177238565,44.56704815057716],[-0.735855267312966,44.567272611366356],[-0.736773975463786,44.5673622797368],[-0.738720685965046,44.56782088469028],[-0.763715950293209,44.572368171112984],[-0.766689116673288,44.57284086401402],[-0.767201787043315,44.57283328280072],[-0.767867196196023,44.57335674074593],[-0.768841984734864,44.57333968621721],[-0.77023315109809,44.57345891456767],[-0.772068165078542,44.57333313531829],[-0.772558263976638,44.573138836197444],[-0.772537070829087,44.57451850626896],[-0.771491852153143,44.57612243476649],[-0.770984344139187,44.57777287747256],[-0.771004907258361,44.5790609948388],[-0.770818788372129,44.58142598407996],[-0.7704662499424,44.582962078445284],[-0.770620858098785,44.58433124149194],[-0.770603003879966,44.58687434793293],[-0.770352444879848,44.58803112933742],[-0.770269342669644,44.58937236175775],[-0.770374190854032,44.590072678381546],[-0.77007057060453,44.59066256624976],[-0.769950461573599,44.591639144579716],[-0.769607432882827,44.592941484065115],[-0.769203234837317,44.59610254252461],[-0.768908912566967,44.599568089603906],[-0.768770225679163,44.59956921744742],[-0.768626073731147,44.600111299019964],[-0.768779325264689,44.600988421735785],[-0.769437716760584,44.60126968311927],[-0.770182548664141,44.601315459620395],[-0.77544427054307,44.60323569939527],[-0.782318695237116,44.605475421734305],[-0.784051630407599,44.605862200854986],[-0.786911394003486,44.605969679248375],[-0.788742331114231,44.606161952314736],[-0.792175729479264,44.60555021197352],[-0.794948945153976,44.6048592024115],[-0.795602336002021,44.60493228691533],[-0.795772524909179,44.60487416284446],[-0.815336358383369,44.607761116209446]]]]}},{"type":"Feature","properties":{"fid":105,"ID":"COMMUNE_0000000009756804","NOM":"Saint-Magne","NOM_M":"SAINT-MAGNE","INSEE_COM":"33436","STATUT":"Commune simple","POPULATION":1235,"INSEE_CAN":"15","INSEE_ARR":"6","INSEE_DEP":"33","INSEE_REG":"75","SIREN_EPCI":"243301405"},"geometry":{"type":"MultiPolygon","coordinates":[[[[-0.661934069943908,44.60900410869173],[-0.619042423934627,44.611262126557634],[-0.618020458697823,44.610435856213044],[-0.616690595796999,44.6090771359973],[-0.615300921553062,44.60790600744714],[-0.609007989110407,44.60364456624914],[-0.610166170000931,44.60075172959222],[-0.610763788177349,44.60005809953599],[-0.610802731150223,44.59974050698156],[-0.612706058698274,44.59562558968169],[-0.615930358005916,44.58198503998184],[-0.614318704100669,44.578362759465634],[-0.613551416671369,44.57601054201426],[-0.612619346122914,44.574470278061696],[-0.609493680719191,44.56623296811844],[-0.608780603308171,44.56456476687043],[-0.608659939575772,44.563939687779666],[-0.608485866324721,44.56374081092269],[-0.608523573445685,44.563660274269395],[-0.608042114414123,44.56332635591191],[-0.608215360653859,44.562861991798194],[-0.608016681828528,44.562751333280175],[-0.607767387008391,44.56275587758911],[-0.607799415446254,44.562625961963214],[-0.607417387243591,44.56256545332586],[-0.607486254194373,44.56232168634868],[-0.607416824891702,44.56212299261762],[-0.60757635407691,44.56213399962158],[-0.607534676647205,44.561837071513914],[-0.607233604205972,44.56189918022319],[-0.606637617115047,44.56133108861643],[-0.606574387273635,44.56118986741432],[-0.60669854327779,44.5611010994805],[-0.606679288282917,44.56097736606307],[-0.6063727258422,44.56069720416573],[-0.60655738887362,44.56049020725417],[-0.606805265699012,44.56038477971743],[-0.606343422933188,44.56012050647119],[-0.606117435840381,44.55970073224516],[-0.605789566926557,44.55961952441439],[-0.605682502760768,44.55952209037932],[-0.605493770401754,44.55952735494458],[-0.604387840064145,44.558986725254066],[-0.603828652039544,44.55834262166615],[-0.603797231862146,44.558048061929696],[-0.604145396935693,44.5577960784472],[-0.604407176819188,44.55719816002139],[-0.604014080542546,44.55708212965281],[-0.603977172538062,44.55697789737544],[-0.60429202701873,44.55681621748855],[-0.604660696977428,44.556352687377455],[-0.604537347523683,44.55625668572403],[-0.604151266292147,44.55625037037413],[-0.603577162061994,44.555332797186644],[-0.603547979053472,44.55505348475856],[-0.602235012702014,44.55507832606571],[-0.602129341252736,44.55500247196317],[-0.60210168835893,44.55401658931129],[-0.601739016741538,44.553409320543295],[-0.601619331650776,44.55307438567521],[-0.601674784596681,44.55285719551545],[-0.601861421959607,44.552582554439844],[-0.601645966991615,44.55240574729463],[-0.601581178560912,44.551686923758155],[-0.602107858107098,44.551270513622406],[-0.602084240645425,44.550821599494874],[-0.602334013358706,44.550252916811736],[-0.602143910060314,44.54994010762531],[-0.60218349530352,44.549829773600344],[-0.601487594874066,44.549055852598244],[-0.601634598457744,44.54875276686428],[-0.602283162268815,44.54827199866354],[-0.603193055088624,44.5479566193916],[-0.603571233382906,44.547721680198556],[-0.60402585617197,44.54680926499681],[-0.603823708562785,44.546544614713646],[-0.603807436872767,44.54623063725961],[-0.603551329049958,44.54614708211067],[-0.603398263739767,44.54580242641296],[-0.603758657710155,44.544835414926354],[-0.604002671409002,44.54482834611019],[-0.604292314188576,44.544687314076405],[-0.604404635644281,44.54451242240108],[-0.604411319158766,44.54376873791485],[-0.604338337544611,44.54343498528434],[-0.604207190967597,44.543354559323085],[-0.604145370630146,44.542879859483506],[-0.604186157752708,44.54243334895107],[-0.604378898849404,44.54245228544009],[-0.604491757489415,44.54236478966989],[-0.604421891327967,44.54211925024564],[-0.604604464232276,44.54197901132023],[-0.604582445419642,44.541575105210406],[-0.604431398065591,44.541084396329204],[-0.603967442116328,44.54064626407065],[-0.604000584752224,44.5400603224686],[-0.603864042264516,44.53987553711402],[-0.604143033813247,44.539193250165596],[-0.604003781665239,44.538926547247115],[-0.604119347794299,44.538743439421395],[-0.604169714126983,44.537677513757906],[-0.604306370997319,44.53750903658428],[-0.604165064634845,44.537427140805356],[-0.604107271142609,44.537015392560065],[-0.603660531839371,44.53574131599834],[-0.603434044467863,44.533812105943575],[-0.603844087982946,44.53324899966109],[-0.604134572256853,44.53306288096079],[-0.604211701240831,44.53281073784866],[-0.604647675775105,44.532791987057614],[-0.604927178078518,44.532059216651874],[-0.605379628593212,44.53176596958765],[-0.605513408525141,44.52918606315917],[-0.605376178456991,44.52893101274152],[-0.605366315477239,44.528480752202555],[-0.605224634589412,44.52841238850164],[-0.605533044089131,44.52740291551353],[-0.605444432069242,44.527277846451355],[-0.605499989124311,44.526806523393006],[-0.605950091168907,44.52478131086757],[-0.606131350175192,44.52448340761542],[-0.606377670268498,44.52429692354399],[-0.606436344554425,44.524111167502404],[-0.606163342094904,44.52380108130158],[-0.606025908800282,44.522753916035256],[-0.606923732387957,44.522650663452],[-0.607276700374836,44.522260630986445],[-0.608519433465664,44.52211454328949],[-0.60901729627278,44.52160711859169],[-0.609215088380829,44.52099686573452],[-0.609196722021192,44.520788396505395],[-0.609746445310641,44.52056043458489],[-0.610133581304913,44.52052793768881],[-0.610147892573071,44.52031839892243],[-0.610382942206902,44.52003494828642],[-0.610886676853355,44.51891092530182],[-0.610744568545471,44.51873714723167],[-0.610778348182799,44.5186351108483],[-0.610946913801573,44.518552992953005],[-0.611027173211117,44.51838995779485],[-0.611430705168072,44.51825959320641],[-0.612110333362423,44.517818294404485],[-0.61230135726422,44.517378577342555],[-0.612213006849496,44.51719853462894],[-0.612286045202462,44.51674555986442],[-0.612655532648676,44.51578813497754],[-0.616084371843542,44.514203253566876],[-0.61803599880686,44.513664327158544],[-0.618551062590262,44.51334914138457],[-0.621870550333448,44.512341703848605],[-0.629553654286093,44.51342913664961],[-0.630317703226056,44.51359864031022],[-0.631254664649093,44.51359753050719],[-0.632549656900787,44.51311240449207],[-0.634591836079989,44.512202516882596],[-0.636159186125556,44.51176244017039],[-0.63694651156348,44.511257050662174],[-0.642527565109443,44.510114885970495],[-0.650529253315687,44.50903651040173],[-0.651460328788728,44.50875064772253],[-0.652725885300981,44.508885364028295],[-0.653680432484015,44.507930927742],[-0.658772916494804,44.506721199992576],[-0.659275832887915,44.506825269919624],[-0.659590678031757,44.50735012536639],[-0.660501410798738,44.50785880482208],[-0.661589380050295,44.508342667172876],[-0.662092718107607,44.5087053519347],[-0.662549130056121,44.50882987722666],[-0.665160876414698,44.50911799149212],[-0.667858619857488,44.50964380247374],[-0.668822897542497,44.50969553438999],[-0.671000858361007,44.50941216924915],[-0.67325670431777,44.50953260450924],[-0.67504746065145,44.50951168759419],[-0.675838591783912,44.50963131138795],[-0.677271502449179,44.50970429569784],[-0.678428851829459,44.50956836458606],[-0.67976569148969,44.50975176388955],[-0.680431060188719,44.50960339010884],[-0.682086589519431,44.50998069635285],[-0.683365122182397,44.5100614605833],[-0.684377204333544,44.51022771530684],[-0.685881769576969,44.50987372874333],[-0.68725383994615,44.51048032690654],[-0.688005244771473,44.510723756768094],[-0.691714569322741,44.510843861190615],[-0.693720807339221,44.51143996368859],[-0.694999617565305,44.51163954480967],[-0.695654375965285,44.51165635493728],[-0.696524198420052,44.51189936475581],[-0.697116320248136,44.51195972157463],[-0.698184540178653,44.51184729912085],[-0.699896406126362,44.51190883444065],[-0.699893968347145,44.51177553724901],[-0.70017583874408,44.51163720643793],[-0.700660708825547,44.511656082592935],[-0.700716538152715,44.51177767470077],[-0.701119169783419,44.511694768432086],[-0.702102215444007,44.511896985214634],[-0.702597668722736,44.5118659310557],[-0.704051019228393,44.511999166827344],[-0.706057350157203,44.51274735294708],[-0.707593827930045,44.51297598168734],[-0.708704042820857,44.51239071021933],[-0.709027350351472,44.51205900384241],[-0.709039321577972,44.511915308108115],[-0.709560548730588,44.51175898803511],[-0.709678912290073,44.51154772682637],[-0.709848435521065,44.511482543494175],[-0.710346938049615,44.51151714037865],[-0.710686439579802,44.51141289125453],[-0.711608499488211,44.511587336401725],[-0.712086130700243,44.51228141685793],[-0.71317279364288,44.513349722916345],[-0.714070490158936,44.51397647938747],[-0.715117413762235,44.51442066209181],[-0.71568686899282,44.51671941193481],[-0.716678470126941,44.51861821416116],[-0.717271603456175,44.51932370653687],[-0.717981455222497,44.52459356126272],[-0.719050238533808,44.53561467650651],[-0.719335681061538,44.53623681454603],[-0.719291436144223,44.536597896646974],[-0.719487713646976,44.536727364722005],[-0.719799178767472,44.53667360389426],[-0.72064062883207,44.537109361323225],[-0.720675782702479,44.53773813560373],[-0.720054133548269,44.538610762211604],[-0.719927695876911,44.53923507210267],[-0.720093518838327,44.539533195374524],[-0.719979191389641,44.539767765470394],[-0.720037258409686,44.539960473350256],[-0.719301340257429,44.54047645604156],[-0.719097196403764,44.541336803395964],[-0.720286528729442,44.54238449135412],[-0.721584247021455,44.54253358839399],[-0.722081858033028,44.54300887518584],[-0.721865493770091,44.54364523487728],[-0.721630881788294,44.54396677804569],[-0.72164287260363,44.54441608896075],[-0.721839680369564,44.545183609864864],[-0.72167220385785,44.54556777728198],[-0.721820734999233,44.54598544582459],[-0.721579006380269,44.54646674733297],[-0.721701238814751,44.54700156249958],[-0.722211001607007,44.547354774380366],[-0.722371458595786,44.5485453001861],[-0.722151791076238,44.54936111856637],[-0.722257997533066,44.550168647936566],[-0.72208156335478,44.55039810597352],[-0.721980379335769,44.55085123569395],[-0.721966642444967,44.55175113261893],[-0.721231137337074,44.553001619623515],[-0.721488565097262,44.55312091381888],[-0.721656478151349,44.553316226640945],[-0.721902625520282,44.554047840273185],[-0.722915637783085,44.55446248521061],[-0.723125586520323,44.554778946413265],[-0.723148517855979,44.55518372986162],[-0.722704924578498,44.55608280967135],[-0.722215824300384,44.55655984051258],[-0.722201268237725,44.55695056761347],[-0.721830593411207,44.55756059034935],[-0.721671124118813,44.55810490886797],[-0.721110846273515,44.55821032077399],[-0.720273751882042,44.558227728095886],[-0.719396333861515,44.558895378970526],[-0.719027846401335,44.559042081584245],[-0.713996200956141,44.566189797315936],[-0.713838018851994,44.56641051557125],[-0.712701220802562,44.5671436136403],[-0.696041862660615,44.57756487807378],[-0.688656134631282,44.58388077723613],[-0.688199457358589,44.58436016680852],[-0.685219672264398,44.58671634181069],[-0.681175499499619,44.59029393647873],[-0.661949809556844,44.60887741539963],[-0.661934069943908,44.60900410869173]]]]}},{"type":"Feature","properties":{"fid":1047,"ID":"COMMUNE_0000000009757010","NOM":"Belin-Béliet","NOM_M":"BELIN-BELIET","INSEE_COM":"33042","STATUT":"Commune simple","POPULATION":6205,"INSEE_CAN":"15","INSEE_ARR":"6","INSEE_DEP":"33","INSEE_REG":"75","SIREN_EPCI":"243301405"},"geometry":{"type":"MultiPolygon","coordinates":[[[[-0.919067041146595,44.44348594206388],[-0.909190391905583,44.45150071097207],[-0.908850760826564,44.4518660741197],[-0.908543254859076,44.452041022994244],[-0.90769731199431,44.452345032826685],[-0.87480996223355,44.46077568609381],[-0.873940006108971,44.46100907012896],[-0.873944600510485,44.46114950903194],[-0.866301912704521,44.46296999823338],[-0.862552862189739,44.46398295346175],[-0.851437025607667,44.471747234758084],[-0.852289140176095,44.471525475304176],[-0.851744439221116,44.47199155058492],[-0.850598955964467,44.47272917389061],[-0.847977752614175,44.474698097373775],[-0.843419744058605,44.47780523543839],[-0.84202784303089,44.47892087990825],[-0.841668596430001,44.479247047238715],[-0.841118387314594,44.48006024847266],[-0.839139154962488,44.481278339048146],[-0.837896872042925,44.482578883752964],[-0.837513739514001,44.48309153050786],[-0.831695558484834,44.487591224530895],[-0.826179731649749,44.493017414968584],[-0.823624890184163,44.495304263385066],[-0.82343235367585,44.495640806527206],[-0.823464618335368,44.49611736079863],[-0.823197056691254,44.49635015575208],[-0.822483826194291,44.496658789648954],[-0.822111730416572,44.49698443220758],[-0.822117132292813,44.49819915740921],[-0.821264431334968,44.49899660028768],[-0.819895762495199,44.500562673414706],[-0.818927075914362,44.50199230074046],[-0.82005350559908,44.505333044300656],[-0.820399291027466,44.50694425521321],[-0.820330521345083,44.50724946580966],[-0.819841730148333,44.50812261031718],[-0.819775678418195,44.5086169937972],[-0.820365856224291,44.50926078524347],[-0.820627499369847,44.50918142005863],[-0.821111901219254,44.50919257360239],[-0.822283362907632,44.509566556674045],[-0.82304985659055,44.5096886935219],[-0.823684274152638,44.50944137591176],[-0.823856253964183,44.509191166041944],[-0.823847174257924,44.5090013117402],[-0.823289641201483,44.50785439551927],[-0.823362298056447,44.50745801891436],[-0.823791552210682,44.507194381072544],[-0.825083214809769,44.507130650939516],[-0.825419515327956,44.50729833723902],[-0.82608869031159,44.50786184884703],[-0.827243381900829,44.5080254622913],[-0.828414066650476,44.50881489683638],[-0.828421530261998,44.50970510070529],[-0.828897457030357,44.510389769905885],[-0.828816535761761,44.510942360139644],[-0.827919872334968,44.51126009895365],[-0.827911553010082,44.511546093174495],[-0.828064827455449,44.51170750869459],[-0.828774135893479,44.51219300572524],[-0.829231041688858,44.51220688189468],[-0.82978574480961,44.512047017555034],[-0.830246004800799,44.51211034341478],[-0.830577948056351,44.512528723312094],[-0.830756071595177,44.5137059174237],[-0.831007904400297,44.513945922154456],[-0.831603022573217,44.51406584481486],[-0.832292823168294,44.5139661660729],[-0.832582146830312,44.51399756957465],[-0.832756057017333,44.51409156730189],[-0.83305398340335,44.51460215307358],[-0.833320991240009,44.51476862166776],[-0.834340298534308,44.514976529678485],[-0.834808368953664,44.51530274098453],[-0.835127494592617,44.51532769401705],[-0.835322951610674,44.515201025252395],[-0.8360345950728,44.51436601661277],[-0.836363488044448,44.51427526167261],[-0.83685128990497,44.51437275284257],[-0.837206021245501,44.51427298472973],[-0.837475365020342,44.514306873390936],[-0.837880888066901,44.51449104297346],[-0.838488920456071,44.51533781766376],[-0.838877587964164,44.51557033895035],[-0.840228566571822,44.515598106286774],[-0.840973901397898,44.51577764112376],[-0.841700875053097,44.515761329938925],[-0.842194828912238,44.51559721033849],[-0.842607295912524,44.5152908205552],[-0.843096113496189,44.51462575921576],[-0.843461806842834,44.51453910794118],[-0.843654834834085,44.51459907516426],[-0.844000802440504,44.51507371147073],[-0.844200499851747,44.5156940473886],[-0.844124040080055,44.515903108133905],[-0.843875075288361,44.5161317014411],[-0.843243115939417,44.516452055048575],[-0.842609930073528,44.51727266306936],[-0.842353501596309,44.51779893819103],[-0.842651207650567,44.5182121709428],[-0.838020498312597,44.517711887472835],[-0.82703357925105,44.52522106305217],[-0.822669141954397,44.53061157332464],[-0.816999397301939,44.53737645952999],[-0.808141906320011,44.5446575798615],[-0.792211137811298,44.55732032111771],[-0.782083951563003,44.56563150938246],[-0.777242824299837,44.569360022964645],[-0.772558263976638,44.573138836197444],[-0.772068165078542,44.57333313531829],[-0.77023315109809,44.57345891456767],[-0.768841984734864,44.57333968621721],[-0.767867196196023,44.57335674074593],[-0.767201787043315,44.57283328280072],[-0.766689116673288,44.57284086401402],[-0.763715950293209,44.572368171112984],[-0.738720685965046,44.56782088469028],[-0.736773975463786,44.5673622797368],[-0.735855267312966,44.567272611366356],[-0.724229177238565,44.56704815057716],[-0.719088965557124,44.566699650220755],[-0.713996200956141,44.566189797315936],[-0.719027846401335,44.559042081584245],[-0.719396333861515,44.558895378970526],[-0.720273751882042,44.558227728095886],[-0.721110846273515,44.55821032077399],[-0.721671124118813,44.55810490886797],[-0.721830593411207,44.55756059034935],[-0.722201268237725,44.55695056761347],[-0.722215824300384,44.55655984051258],[-0.722704924578498,44.55608280967135],[-0.723148517855979,44.55518372986162],[-0.723125586520323,44.554778946413265],[-0.722915637783085,44.55446248521061],[-0.721902625520282,44.554047840273185],[-0.721656478151349,44.553316226640945],[-0.721488565097262,44.55312091381888],[-0.721231137337074,44.553001619623515],[-0.721966642444967,44.55175113261893],[-0.721980379335769,44.55085123569395],[-0.72208156335478,44.55039810597352],[-0.722257997533066,44.550168647936566],[-0.722151791076238,44.54936111856637],[-0.722371458595786,44.5485453001861],[-0.722211001607007,44.547354774380366],[-0.721701238814751,44.54700156249958],[-0.721579006380269,44.54646674733297],[-0.721820734999233,44.54598544582459],[-0.72167220385785,44.54556777728198],[-0.721839680369564,44.545183609864864],[-0.72164287260363,44.54441608896075],[-0.721630881788294,44.54396677804569],[-0.721865493770091,44.54364523487728],[-0.722081858033028,44.54300887518584],[-0.721584247021455,44.54253358839399],[-0.720286528729442,44.54238449135412],[-0.719097196403764,44.541336803395964],[-0.719301340257429,44.54047645604156],[-0.720037258409686,44.539960473350256],[-0.719979191389641,44.539767765470394],[-0.720093518838327,44.539533195374524],[-0.719927695876911,44.53923507210267],[-0.720054133548269,44.538610762211604],[-0.720675782702479,44.53773813560373],[-0.72064062883207,44.537109361323225],[-0.719799178767472,44.53667360389426],[-0.719487713646976,44.536727364722005],[-0.719291436144223,44.536597896646974],[-0.719335681061538,44.53623681454603],[-0.719050238533808,44.53561467650651],[-0.717981455222497,44.52459356126272],[-0.717271603456175,44.51932370653687],[-0.716678470126941,44.51861821416116],[-0.71568686899282,44.51671941193481],[-0.715117413762235,44.51442066209181],[-0.715378203438236,44.51459392211753],[-0.716814419871743,44.514809581577225],[-0.717098909342728,44.514653995030564],[-0.718371575932415,44.51357198279428],[-0.720479828964186,44.513397233102864],[-0.722538264120979,44.513345789422566],[-0.723046308959394,44.513276367088004],[-0.723198615776992,44.51306484486962],[-0.723436537973459,44.5130820457447],[-0.723647682707866,44.513247049613064],[-0.724196852654243,44.51345741477332],[-0.728154893656832,44.51440153648891],[-0.728515230515979,44.51436502061653],[-0.730268153233075,44.51176698441105],[-0.734904755558985,44.505376250718065],[-0.739497103730175,44.50282062257884],[-0.734233303532666,44.49964107188678],[-0.733977214360055,44.49955782099542],[-0.729107745063952,44.49671526814416],[-0.723282574376474,44.49227901245967],[-0.717289709162826,44.48901070456135],[-0.715441228241065,44.48831691277833],[-0.71594136181547,44.48535580571509],[-0.715869178999932,44.48517709649704],[-0.710747692997172,44.48346612115431],[-0.709331362130795,44.485170209227434],[-0.706909324893308,44.485957335269994],[-0.706412599811683,44.48606145636323],[-0.705908220554384,44.48602975090798],[-0.702662842776492,44.485300702986514],[-0.702293476585135,44.48544648820581],[-0.701025782866016,44.486426310356045],[-0.698978196546142,44.48576327076619],[-0.698884652323553,44.48518063087448],[-0.698623518988246,44.48499924104743],[-0.698736980347433,44.48477103521573],[-0.69897779734466,44.484584516381474],[-0.698913245561291,44.48454072161004],[-0.697822058001718,44.48412132989319],[-0.693608631024209,44.48306131574699],[-0.695770651256218,44.47993468908452],[-0.694893108083472,44.47575553877226],[-0.694798059807627,44.47420597100445],[-0.697835689502229,44.468541922327866],[-0.697684028089158,44.46805135659612],[-0.696922958214569,44.466767463952],[-0.69679276057234,44.46668171320613],[-0.70164954668284,44.46330680905435],[-0.702214140527427,44.460726653515174],[-0.702962616761364,44.459974238532475],[-0.703584153882773,44.45953158912599],[-0.704536928299536,44.45930489872912],[-0.706772589843469,44.45824469796423],[-0.707201525500575,44.458127529139325],[-0.706749815424027,44.457705650157806],[-0.705439065589511,44.45698192932671],[-0.701197305184464,44.4549805909673],[-0.6976786974018,44.45410474256219],[-0.693871610838729,44.45326008784372],[-0.685877878722975,44.45172548328871],[-0.682497189372771,44.45085446436088],[-0.678639609204599,44.45023177535892],[-0.679655720685741,44.44819632973728],[-0.679793212706027,44.446965239411064],[-0.68161873681315,44.444225048569365],[-0.684001038586469,44.44342986041221],[-0.688031364813957,44.44273444957447],[-0.690393895831195,44.4410413073995],[-0.692723893842814,44.44060454211888],[-0.698670888312309,44.442830966153984],[-0.698959872352652,44.44299879411197],[-0.702716973030696,44.44347364113466],[-0.703021211286386,44.44364364974511],[-0.70489273333256,44.44398444328735],[-0.729263756389546,44.44822399688733],[-0.730209945400073,44.446281413173566],[-0.731998804683973,44.44597569001403],[-0.733684290300202,44.44583836135777],[-0.73767183704176,44.445204753057055],[-0.764501056684629,44.44073843364857],[-0.765223486275837,44.440611900195606],[-0.765453553265685,44.440402161857],[-0.765658539765336,44.440344684997974],[-0.767921927766399,44.440123978109405],[-0.768391993278273,44.440193510608125],[-0.768677692612217,44.440007095642045],[-0.769007052358318,44.43998500993277],[-0.770138026218743,44.44017520880934],[-0.771480498647192,44.44029236472892],[-0.774978458804891,44.44017432370099],[-0.776863652225223,44.440243069922325],[-0.777546288374614,44.440406210719],[-0.777983274344978,44.440356974680874],[-0.778825511944371,44.439953170031075],[-0.779079593914152,44.44000933980882],[-0.779907173981516,44.440496439375124],[-0.781004056226711,44.4405146631886],[-0.780993282812685,44.44033478798773],[-0.780795447152229,44.440160433547476],[-0.779816951416704,44.439504584037586],[-0.779661651063177,44.43896917955545],[-0.779459067687608,44.43870486368694],[-0.778809291010762,44.4383180057171],[-0.777404532917118,44.43790837694491],[-0.777203712843812,44.4376890581736],[-0.777159742316152,44.43688036772746],[-0.777381084346603,44.436333845108145],[-0.777938516180613,44.43579111327899],[-0.778511453352281,44.43566871704738],[-0.780140189319944,44.43559119092099],[-0.780463859029096,44.43546562464734],[-0.780833133192854,44.43493113879739],[-0.780695056771284,44.434709672366346],[-0.780241439310002,44.43445307585508],[-0.779345359071597,44.43416299793806],[-0.778693945408718,44.43373203822021],[-0.778427325229114,44.43346901803066],[-0.778397603665646,44.43293020644755],[-0.779289123109109,44.43200470010495],[-0.779389635625521,44.43155154110106],[-0.779359905905289,44.43101273023867],[-0.77907912230486,44.4302554284496],[-0.779219866587029,44.42938813036192],[-0.780468747435618,44.42814663627465],[-0.780787320953328,44.42822762239897],[-0.781411946269177,44.42816471684172],[-0.781793260401081,44.42824354542282],[-0.782307881959036,44.428453878023284],[-0.783157125449361,44.4290600641979],[-0.783982572040378,44.42921645111835],[-0.784294319970369,44.42949593108255],[-0.784569478815717,44.42960453429838],[-0.785868606952251,44.42964098521037],[-0.787478559419858,44.42998035611445],[-0.788093717733972,44.42973839490597],[-0.78882355514086,44.429312239119994],[-0.789449941930683,44.42929428873731],[-0.789956865006668,44.429145262873796],[-0.790721290804264,44.42934786038803],[-0.791163655142702,44.42936146969364],[-0.79146753520884,44.429316759918386],[-0.792700404541742,44.428796650837874],[-0.793074005472475,44.428741423905535],[-0.793141775193897,44.428945470397906],[-0.793408731912035,44.42910029716631],[-0.793595756428893,44.42909475503872],[-0.793518802479652,44.42864138514418],[-0.793733767664321,44.4285087082474],[-0.794318026182043,44.42859402008463],[-0.794436804409847,44.42839616296352],[-0.794306487039183,44.42830962972661],[-0.794250529608838,44.42835661937649],[-0.793745903376054,44.42823972432795],[-0.793742294363902,44.42801724551147],[-0.794036837636612,44.4278710113526],[-0.795772190347336,44.427567870030515],[-0.796429313499928,44.42718382208937],[-0.796693669119318,44.42720624987316],[-0.796847310907581,44.427321716527985],[-0.797247381937494,44.42728629049002],[-0.797527426571325,44.427523569005764],[-0.798064188886789,44.427706930459806],[-0.798666437714297,44.427311243074726],[-0.798889486116722,44.42698090741377],[-0.799163233509507,44.426937215452575],[-0.799476564098904,44.426771392063124],[-0.799897459012137,44.42678390406671],[-0.799966192632265,44.42688967958025],[-0.800099209309381,44.426904014661176],[-0.800518111972278,44.42641911384799],[-0.800937674720734,44.426411840702315],[-0.801432419017105,44.4261946871885],[-0.801891257153217,44.42591117886868],[-0.802020782059172,44.42566788006919],[-0.802690750577918,44.42528875670363],[-0.802633819789838,44.42507803241657],[-0.802736583660286,44.4249978785322],[-0.803370356302004,44.425015641414596],[-0.803520961966527,44.42484280971941],[-0.804115593555409,44.42478351324432],[-0.803975442931531,44.42466308430673],[-0.804373852270182,44.424453751311646],[-0.804508466217707,44.424454507226294],[-0.804518905971347,44.424291924760155],[-0.804351410569459,44.42419497202738],[-0.804362184700567,44.42407473593895],[-0.804889383053187,44.423910518461824],[-0.805073583107948,44.42369506682058],[-0.805200170771651,44.42374476574175],[-0.805370066074812,44.424064238546784],[-0.80583073592924,44.42393926639044],[-0.805996899309531,44.4237361525798],[-0.80619230800565,44.423705965323826],[-0.80645856054391,44.42379409362085],[-0.80709591380631,44.42375313070362],[-0.807102634764595,44.42331129419411],[-0.807451654037585,44.42328390391228],[-0.80766994002248,44.423182626631096],[-0.807668711612656,44.42280955866683],[-0.808113905720932,44.422567050197024],[-0.80830111864213,44.422265871364324],[-0.808987150476083,44.42190237399995],[-0.80932968791679,44.42185357210457],[-0.809558158811261,44.42095164323231],[-0.809954608110263,44.420676566581406],[-0.809913765230642,44.42044365937052],[-0.810002328794933,44.42033965635386],[-0.810576807976214,44.42031797124841],[-0.811053844697574,44.42054839684999],[-0.81155314098689,44.42062393885225],[-0.812084759137056,44.420451421238916],[-0.812604883615245,44.42068665706926],[-0.813669561268134,44.420717374018544],[-0.8143993528177,44.420966067025354],[-0.81556630253451,44.4210959633764],[-0.816205666947908,44.4208989628553],[-0.817169963611231,44.4208583229822],[-0.817511233354957,44.42075366243981],[-0.817594623704778,44.42057322703652],[-0.817948356096737,44.42056005914669],[-0.818734753608647,44.42026872180331],[-0.819752965550695,44.42026313951916],[-0.820890954434679,44.420355230890536],[-0.828372415031844,44.42030621295953],[-0.831294597993209,44.419559265701615],[-0.834179838392601,44.41902892293786],[-0.835538189116889,44.41901405080685],[-0.837892241334318,44.418810341081425],[-0.842054989326199,44.41857591708658],[-0.842634460370655,44.41851693830699],[-0.842990604673281,44.41837292384373],[-0.844888780405925,44.41917725417883],[-0.853132843419311,44.4214440814469],[-0.908299906795621,44.43605883592098],[-0.911969597585612,44.43680819561881],[-0.91286645829101,44.43787951923766],[-0.919067041146595,44.44348594206388]]]]}},{"type":"Feature","properties":{"fid":1051,"ID":"COMMUNE_0000000009756805","NOM":"Salles","NOM_M":"SALLES","INSEE_COM":"33498","STATUT":"Commune simple","POPULATION":8128,"INSEE_CAN":"15","INSEE_ARR":"6","INSEE_DEP":"33","INSEE_REG":"75","SIREN_EPCI":"243301405"},"geometry":{"type":"MultiPolygon","coordinates":[[[[-0.992423882672064,44.461275540765136],[-0.980623029906171,44.48279417574766],[-0.980912061243317,44.48435840184685],[-0.981743273616061,44.48752277901349],[-0.987551669480894,44.50808471092781],[-0.987909477919863,44.50854949430888],[-0.991167493410212,44.51192621532103],[-1.01117728692008,44.510251816685106],[-0.986798419098643,44.5246376804332],[-0.986443810730821,44.52471900358453],[-0.979944129230816,44.52853219910661],[-0.978507643736151,44.529282588920466],[-0.978231534162736,44.529548537782404],[-0.958415219274721,44.53979972647946],[-0.941984962856599,44.5511475586043],[-0.926283271947831,44.55765903158382],[-0.925520448921607,44.55803769764531],[-0.924537241902342,44.55838363539542],[-0.920707847878153,44.56007819106685],[-0.917898615417271,44.56094410890362],[-0.904488317959279,44.56693650234608],[-0.903886753182078,44.56735347162258],[-0.902641967375273,44.56902531801449],[-0.901349219880713,44.57056995227382],[-0.896185117096404,44.57632895589352],[-0.891498260972093,44.58190953240034],[-0.889564649337943,44.584045349381],[-0.888188360371477,44.58526647230398],[-0.888099960624351,44.58559406793827],[-0.88428929972587,44.58837092662579],[-0.874839252020402,44.59502854927451],[-0.873838263978649,44.59584512841398],[-0.873574222338966,44.59616985854764],[-0.871138537322717,44.59299514837417],[-0.869604161018503,44.59151756772323],[-0.867131874930718,44.591793462340746],[-0.864494596140474,44.5925149242033],[-0.864305069508739,44.59262070344994],[-0.856370559107404,44.59801853309587],[-0.855901463995564,44.59818723788895],[-0.855715109365144,44.598413668408206],[-0.85397002007021,44.59955166960003],[-0.849293762923066,44.602178986448074],[-0.848871825231715,44.60244786568835],[-0.848862462639775,44.602587897231956],[-0.848279017800111,44.602875021128135],[-0.847252708633114,44.60343895407849],[-0.844381186218261,44.60471427247848],[-0.842543311149531,44.60684766656034],[-0.842167134643383,44.6071780188354],[-0.838488430060995,44.60925909127271],[-0.837981139941712,44.609313673979756],[-0.836978730183034,44.609935260672714],[-0.834718260122598,44.610630265434],[-0.815336358383369,44.607761116209446],[-0.795772524909179,44.60487416284446],[-0.795602336002021,44.60493228691533],[-0.794948945153976,44.6048592024115],[-0.792175729479264,44.60555021197352],[-0.788742331114231,44.606161952314736],[-0.786911394003486,44.605969679248375],[-0.784051630407599,44.605862200854986],[-0.782318695237116,44.605475421734305],[-0.77544427054307,44.60323569939527],[-0.770182548664141,44.601315459620395],[-0.769437716760584,44.60126968311927],[-0.768779325264689,44.600988421735785],[-0.768626073731147,44.600111299019964],[-0.768770225679163,44.59956921744742],[-0.768908912566967,44.599568089603906],[-0.769203234837317,44.59610254252461],[-0.769607432882827,44.592941484065115],[-0.769950461573599,44.591639144579716],[-0.77007057060453,44.59066256624976],[-0.770374190854032,44.590072678381546],[-0.770269342669644,44.58937236175775],[-0.770352444879848,44.58803112933742],[-0.770603003879966,44.58687434793293],[-0.770620858098785,44.58433124149194],[-0.7704662499424,44.582962078445284],[-0.770818788372129,44.58142598407996],[-0.771004907258361,44.5790609948388],[-0.770984344139187,44.57777287747256],[-0.771491852153143,44.57612243476649],[-0.772537070829087,44.57451850626896],[-0.772558263976638,44.573138836197444],[-0.777242824299837,44.569360022964645],[-0.782083951563003,44.56563150938246],[-0.792211137811298,44.55732032111771],[-0.808141906320011,44.5446575798615],[-0.816999397301939,44.53737645952999],[-0.822669141954397,44.53061157332464],[-0.82703357925105,44.52522106305217],[-0.838020498312597,44.517711887472835],[-0.842651207650567,44.5182121709428],[-0.843217101410987,44.51854936155904],[-0.84377887413706,44.51877042671896],[-0.844825381681225,44.51908004121438],[-0.84582249956829,44.519182268921085],[-0.846452427153204,44.5194604295761],[-0.846536980071527,44.51990632401594],[-0.846458532758876,44.52006768767453],[-0.84597760456846,44.5203494407666],[-0.845121411810129,44.520670413841515],[-0.845006576163337,44.520796993381595],[-0.84518057508806,44.52111358930941],[-0.845860696504461,44.52148103467608],[-0.846249459813037,44.52188026900106],[-0.846452287803083,44.522102123490875],[-0.84666139043105,44.52261938309988],[-0.847051639120579,44.5230032414555],[-0.847289668804377,44.52311300766213],[-0.849781098556589,44.5235118653034],[-0.852392315138498,44.52411468353561],[-0.852987527192046,44.524270545340585],[-0.853415769764744,44.52450884833153],[-0.853280960949893,44.525062448905324],[-0.852518499005032,44.52561273904629],[-0.851973037110574,44.52614913587736],[-0.851804445697053,44.52648489884982],[-0.85184869912636,44.52678258428128],[-0.852005796936016,44.52701684303562],[-0.85226890075874,44.52714284856869],[-0.853098920899784,44.527378836915446],[-0.854310676887747,44.52748521230124],[-0.855206608049926,44.52785587963233],[-0.8556936835802,44.528309332459564],[-0.855991103094886,44.52912182281452],[-0.855694030764737,44.52964234449642],[-0.855459032294584,44.5306473983161],[-0.85522664359739,44.53095295049895],[-0.853665701813857,44.53193403451115],[-0.85359499716914,44.532245650948035],[-0.853663639582216,44.53254969520623],[-0.853840663832156,44.5328355320545],[-0.854476964287431,44.53329639682964],[-0.855332762523431,44.53366846967205],[-0.856373397244359,44.53361046201825],[-0.857664769926229,44.53316512827017],[-0.857998156642293,44.530281915973646],[-0.858324006526699,44.52581448044528],[-0.861916360085471,44.52099566864606],[-0.862282803729881,44.52066197229905],[-0.862355062649288,44.52018986353603],[-0.862813786213014,44.519824091626106],[-0.864795987465753,44.51692545497425],[-0.864976574971462,44.516784831786445],[-0.8651443458339,44.5164202334221],[-0.870974900472802,44.50792462583682],[-0.875940934783209,44.50085789810642],[-0.878520514218438,44.49736205386384],[-0.87898447441995,44.49667335780663],[-0.878734153633274,44.49599897942615],[-0.88051801464584,44.49590014483763],[-0.880558212504184,44.49573379143445],[-0.885979850021835,44.4946991763211],[-0.886983377021611,44.49402116347888],[-0.890413950661342,44.491615326073976],[-0.89084988508713,44.49107087191464],[-0.89247873119937,44.48883490377414],[-0.891886256180813,44.48878822799296],[-0.891969399946107,44.48738195913994],[-0.892952422910265,44.48651894208343],[-0.893197806978611,44.48620653442946],[-0.896178096050066,44.4855514208711],[-0.900453537151114,44.48521993256487],[-0.904004902523642,44.48426768805031],[-0.907314473131359,44.483570857854104],[-0.911439392105789,44.48277739188962],[-0.913732509628448,44.48249408614259],[-0.966428067659926,44.47172281884588],[-0.966505193088072,44.47163802032368],[-0.974687793360724,44.468389437677494],[-0.978454879058379,44.46681312037716],[-0.992423882672064,44.461275540765136]]]]}},{"type":"Feature","properties":{"fid":2279,"ID":"COMMUNE_0000000009757011","NOM":"Lugos","NOM_M":"LUGOS","INSEE_COM":"33260","STATUT":"Commune simple","POPULATION":1137,"INSEE_CAN":"15","INSEE_ARR":"6","INSEE_DEP":"33","INSEE_REG":"75","SIREN_EPCI":"243301405"},"geometry":{"type":"MultiPolygon","coordinates":[[[[-0.842651207650567,44.5182121709428],[-0.842353501596309,44.51779893819103],[-0.842609930073528,44.51727266306936],[-0.843243115939417,44.516452055048575],[-0.843875075288361,44.5161317014411],[-0.844124040080055,44.515903108133905],[-0.844200499851747,44.5156940473886],[-0.844000802440504,44.51507371147073],[-0.843654834834085,44.51459907516426],[-0.843461806842834,44.51453910794118],[-0.843096113496189,44.51462575921576],[-0.842607295912524,44.5152908205552],[-0.842194828912238,44.51559721033849],[-0.841700875053097,44.515761329938925],[-0.840973901397898,44.51577764112376],[-0.840228566571822,44.515598106286774],[-0.838877587964164,44.51557033895035],[-0.838488920456071,44.51533781766376],[-0.837880888066901,44.51449104297346],[-0.837475365020342,44.514306873390936],[-0.837206021245501,44.51427298472973],[-0.83685128990497,44.51437275284257],[-0.836363488044448,44.51427526167261],[-0.8360345950728,44.51436601661277],[-0.835322951610674,44.515201025252395],[-0.835127494592617,44.51532769401705],[-0.834808368953664,44.51530274098453],[-0.834340298534308,44.514976529678485],[-0.833320991240009,44.51476862166776],[-0.83305398340335,44.51460215307358],[-0.832756057017333,44.51409156730189],[-0.832582146830312,44.51399756957465],[-0.832292823168294,44.5139661660729],[-0.831603022573217,44.51406584481486],[-0.831007904400297,44.513945922154456],[-0.830756071595177,44.5137059174237],[-0.830577948056351,44.512528723312094],[-0.830246004800799,44.51211034341478],[-0.82978574480961,44.512047017555034],[-0.829231041688858,44.51220688189468],[-0.828774135893479,44.51219300572524],[-0.828064827455449,44.51170750869459],[-0.827911553010082,44.511546093174495],[-0.827919872334968,44.51126009895365],[-0.828816535761761,44.510942360139644],[-0.828897457030357,44.510389769905885],[-0.828421530261998,44.50970510070529],[-0.828414066650476,44.50881489683638],[-0.827243381900829,44.5080254622913],[-0.82608869031159,44.50786184884703],[-0.825419515327956,44.50729833723902],[-0.825083214809769,44.507130650939516],[-0.823791552210682,44.507194381072544],[-0.823362298056447,44.50745801891436],[-0.823289641201483,44.50785439551927],[-0.823847174257924,44.5090013117402],[-0.823856253964183,44.509191166041944],[-0.823684274152638,44.50944137591176],[-0.82304985659055,44.5096886935219],[-0.822283362907632,44.509566556674045],[-0.821111901219254,44.50919257360239],[-0.820627499369847,44.50918142005863],[-0.820365856224291,44.50926078524347],[-0.819775678418195,44.5086169937972],[-0.819841730148333,44.50812261031718],[-0.820330521345083,44.50724946580966],[-0.820399291027466,44.50694425521321],[-0.82005350559908,44.505333044300656],[-0.818927075914362,44.50199230074046],[-0.819895762495199,44.500562673414706],[-0.821264431334968,44.49899660028768],[-0.822117132292813,44.49819915740921],[-0.822111730416572,44.49698443220758],[-0.822483826194291,44.496658789648954],[-0.823197056691254,44.49635015575208],[-0.823464618335368,44.49611736079863],[-0.82343235367585,44.495640806527206],[-0.823624890184163,44.495304263385066],[-0.826179731649749,44.493017414968584],[-0.831695558484834,44.487591224530895],[-0.837513739514001,44.48309153050786],[-0.837896872042925,44.482578883752964],[-0.839139154962488,44.481278339048146],[-0.841118387314594,44.48006024847266],[-0.841668596430001,44.479247047238715],[-0.84202784303089,44.47892087990825],[-0.843419744058605,44.47780523543839],[-0.847977752614175,44.474698097373775],[-0.850598955964467,44.47272917389061],[-0.851744439221116,44.47199155058492],[-0.852289140176095,44.471525475304176],[-0.851437025607667,44.471747234758084],[-0.862552862189739,44.46398295346175],[-0.866301912704521,44.46296999823338],[-0.873944600510485,44.46114950903194],[-0.873940006108971,44.46100907012896],[-0.87480996223355,44.46077568609381],[-0.90769731199431,44.452345032826685],[-0.908543254859076,44.452041022994244],[-0.908850760826564,44.4518660741197],[-0.909190391905583,44.45150071097207],[-0.919067041146595,44.44348594206388],[-0.948659892808591,44.43542563466002],[-0.966020085448565,44.43024823557918],[-0.966446629676247,44.43010668486175],[-0.966599525983275,44.42997318856006],[-0.968436173054327,44.4295816273756],[-0.975197790090654,44.428858202731206],[-0.975588032897732,44.42870170223246],[-0.978920139614496,44.428328059772674],[-1.029204005642681,44.42275596881375],[-1.007345119825618,44.43662158122611],[-1.007072483394217,44.4407083179004],[-1.003877126213279,44.44264797623383],[-0.994504929555907,44.45775963656581],[-0.994414357967076,44.45804504416081],[-0.992423882672064,44.461275540765136],[-0.978454879058379,44.46681312037716],[-0.974687793360724,44.468389437677494],[-0.966505193088072,44.47163802032368],[-0.966428067659926,44.47172281884588],[-0.913732509628448,44.48249408614259],[-0.911439392105789,44.48277739188962],[-0.907314473131359,44.483570857854104],[-0.904004902523642,44.48426768805031],[-0.900453537151114,44.48521993256487],[-0.896178096050066,44.4855514208711],[-0.893197806978611,44.48620653442946],[-0.892952422910265,44.48651894208343],[-0.891969399946107,44.48738195913994],[-0.891886256180813,44.48878822799296],[-0.89247873119937,44.48883490377414],[-0.89084988508713,44.49107087191464],[-0.890413950661342,44.491615326073976],[-0.886983377021611,44.49402116347888],[-0.885979850021835,44.4946991763211],[-0.880558212504184,44.49573379143445],[-0.88051801464584,44.49590014483763],[-0.878734153633274,44.49599897942615],[-0.87898447441995,44.49667335780663],[-0.878520514218438,44.49736205386384],[-0.875940934783209,44.50085789810642],[-0.870974900472802,44.50792462583682],[-0.8651443458339,44.5164202334221],[-0.864976574971462,44.516784831786445],[-0.864795987465753,44.51692545497425],[-0.862813786213014,44.519824091626106],[-0.862355062649288,44.52018986353603],[-0.862282803729881,44.52066197229905],[-0.861916360085471,44.52099566864606],[-0.858324006526699,44.52581448044528],[-0.857998156642293,44.530281915973646],[-0.857664769926229,44.53316512827017],[-0.856373397244359,44.53361046201825],[-0.855332762523431,44.53366846967205],[-0.854476964287431,44.53329639682964],[-0.853840663832156,44.5328355320545],[-0.853663639582216,44.53254969520623],[-0.85359499716914,44.532245650948035],[-0.853665701813857,44.53193403451115],[-0.85522664359739,44.53095295049895],[-0.855459032294584,44.5306473983161],[-0.855694030764737,44.52964234449642],[-0.855991103094886,44.52912182281452],[-0.8556936835802,44.528309332459564],[-0.855206608049926,44.52785587963233],[-0.854310676887747,44.52748521230124],[-0.853098920899784,44.527378836915446],[-0.85226890075874,44.52714284856869],[-0.852005796936016,44.52701684303562],[-0.85184869912636,44.52678258428128],[-0.851804445697053,44.52648489884982],[-0.851973037110574,44.52614913587736],[-0.852518499005032,44.52561273904629],[-0.853280960949893,44.525062448905324],[-0.853415769764744,44.52450884833153],[-0.852987527192046,44.524270545340585],[-0.852392315138498,44.52411468353561],[-0.849781098556589,44.5235118653034],[-0.847289668804377,44.52311300766213],[-0.847051639120579,44.5230032414555],[-0.84666139043105,44.52261938309988],[-0.846452287803083,44.522102123490875],[-0.846249459813037,44.52188026900106],[-0.845860696504461,44.52148103467608],[-0.84518057508806,44.52111358930941],[-0.845006576163337,44.520796993381595],[-0.845121411810129,44.520670413841515],[-0.84597760456846,44.5203494407666],[-0.846458532758876,44.52006768767453],[-0.846536980071527,44.51990632401594],[-0.846452427153204,44.5194604295761],[-0.84582249956829,44.519182268921085],[-0.844825381681225,44.51908004121438],[-0.84377887413706,44.51877042671896],[-0.843217101410987,44.51854936155904],[-0.842651207650567,44.5182121709428]]]]}}]}