{"type":"FeatureCollection","name":"COM_17113","crs":{"type":"name","properties":{"name":"urn:ogc:def:crs:OGC:1.3:CRS84"}},"features":[{"type":"Feature","properties":{"fid":4084,"ID":"COMMUNE_0000000009754567","NOM":"La Clotte","NOM_M":"LA CLOTTE","INSEE_COM":"17113","STATUT":"Commune simple","POPULATION":708,"INSEE_CAN":"27","INSEE_ARR":"1","INSEE_DEP":"17","INSEE_REG":"75","SIREN_EPCI":"200041523"},"geometry":{"type":"MultiPolygon","coordinates":[[[[-0.110983343439712,45.11540073750427],[-0.111043389534758,45.115313456973354],[-0.112005036362423,45.115350590557156],[-0.113088099253627,45.11500856535188],[-0.113454284727594,45.11502537045252],[-0.113706697339577,45.11382255708539],[-0.114932562926606,45.113919866014896],[-0.11599804536002,45.112464539602406],[-0.116929516236195,45.11063809106564],[-0.119087415258608,45.10926391311859],[-0.119681349499917,45.10873366053445],[-0.120851738371704,45.10824944001051],[-0.122993311293288,45.10792993174096],[-0.123510525752882,45.10771268855984],[-0.12466722543604,45.10716663397122],[-0.125188038503104,45.1066726423539],[-0.125913335972727,45.10617201160406],[-0.127375820086987,45.10567952645278],[-0.129237377069661,45.10449728289662],[-0.12969045158794,45.10397633539551],[-0.130307156668077,45.101924314399916],[-0.130879495661929,45.10055747630687],[-0.130813872579701,45.099953776371436],[-0.130201890586753,45.098999576484324],[-0.130052927681935,45.098543295747376],[-0.130201694481596,45.0973829979425],[-0.130844035398976,45.096494483180486],[-0.131772708796761,45.09560782896486],[-0.133590381989179,45.094830432911024],[-0.134848901542992,45.094382324585986],[-0.135743054616515,45.093834521522545],[-0.13693751178695,45.09283491133287],[-0.139001488340784,45.09329762248592],[-0.139215654006438,45.09323752206281],[-0.141453593936426,45.09029810397562],[-0.141790462508903,45.090135416358706],[-0.144241986016002,45.089573349948594],[-0.14449955226913,45.08958410284957],[-0.145234461837752,45.0898264825385],[-0.147230379230025,45.08964576505738],[-0.148172662069594,45.08900728767548],[-0.150714221851042,45.08911926756244],[-0.151115321930469,45.0889457232099],[-0.152315940327163,45.08873874460198],[-0.152789389422137,45.08905875962743],[-0.154398830527015,45.08946916660151],[-0.155887835045382,45.09029206920996],[-0.156419489772109,45.09031305283003],[-0.1567716066236,45.09012825992212],[-0.156979289208854,45.09011156181098],[-0.158182057123007,45.090415392391726],[-0.158957077334782,45.09084848462891],[-0.159338985827077,45.09123594949998],[-0.159905109726163,45.091506450130915],[-0.160804702870063,45.09225228989269],[-0.161470355035408,45.092325317876295],[-0.1617686440175,45.09247094477431],[-0.161484358340501,45.09270789605233],[-0.161587299387917,45.09281851601748],[-0.163233061224535,45.09389009322845],[-0.165863951970636,45.096607945606365],[-0.165776492397169,45.09681588630083],[-0.165747114329644,45.09834141936815],[-0.166099370063784,45.10040489393521],[-0.166177358434648,45.10187150848666],[-0.166551746650987,45.102415962421716],[-0.167350935084333,45.10286724101064],[-0.169377965955449,45.10461906750669],[-0.16962359203333,45.10497883960501],[-0.170271302786138,45.106684269224175],[-0.170329999677616,45.107113337755315],[-0.170161252646508,45.10783994016461],[-0.168710521263837,45.11071163431783],[-0.168485414461981,45.110871225590756],[-0.168293062178503,45.111159647431315],[-0.168069535765517,45.11186347308285],[-0.167950370993678,45.112702204316165],[-0.168142704318461,45.11328877751989],[-0.168083442268611,45.114039298255456],[-0.168293565424487,45.11509665533363],[-0.16901562853655,45.11618181163513],[-0.169546720010469,45.11798338500422],[-0.170194667183732,45.11899494879556],[-0.170239580908769,45.11933790264402],[-0.169251542646185,45.12110427574719],[-0.168855076379466,45.12212571222624],[-0.168828036185037,45.123556572618654],[-0.169008674218806,45.12391369166724],[-0.168984817838418,45.12407657311455],[-0.167873282381967,45.12483447500479],[-0.167638269905055,45.12533677392634],[-0.165300537061217,45.12611146078748],[-0.16319308416431,45.12693002647674],[-0.162455746440829,45.12737447457791],[-0.161494255415663,45.12781716409613],[-0.161314263398183,45.12873060389176],[-0.15829241456937,45.12938756310852],[-0.158038119633584,45.12939296429758],[-0.157766075077285,45.128994262365055],[-0.157511832729469,45.12900056203877],[-0.153866102550452,45.13019771869669],[-0.153202677401779,45.13053277810644],[-0.154782684668882,45.1316406192246],[-0.155872845091135,45.132662281246084],[-0.156968029040727,45.13408749619559],[-0.157013688711462,45.134850358335036],[-0.15623105125323,45.13496893567669],[-0.155034990233503,45.13536413736544],[-0.153028718853788,45.13631480437364],[-0.151647781857836,45.136728712924985],[-0.151208925871381,45.136825821945195],[-0.148727911748285,45.13690041567022],[-0.147794544554881,45.1371916987713],[-0.147328952459534,45.137176005595215],[-0.147366074263986,45.13745070122889],[-0.147053026742378,45.137385644884546],[-0.145025706475499,45.137581616854995],[-0.144156506184707,45.14021217188399],[-0.143848318796946,45.140188420719944],[-0.143915580207293,45.14133815768226],[-0.143267160640185,45.141490703906165],[-0.143313213133873,45.14156239663418],[-0.143128296998602,45.14167033667271],[-0.142112900686722,45.142157622539365],[-0.141234607810344,45.14272844551789],[-0.14092534333428,45.14322916845476],[-0.140099758738592,45.14378678271511],[-0.139612793277483,45.14398071754222],[-0.138953756276456,45.144126327553906],[-0.137650550837644,45.14447839341488],[-0.136268149413973,45.14566530482159],[-0.134751011853166,45.1462450266514],[-0.13593993031585,45.14446883767772],[-0.136363885935722,45.14322058029601],[-0.134784927369167,45.1429018259882],[-0.132844857797475,45.14290948725691],[-0.131536731327371,45.1426515637886],[-0.130945849757354,45.14242305146762],[-0.133244319540104,45.14151865434202],[-0.132539805107652,45.14114826364938],[-0.133679118715573,45.140576484126946],[-0.131727439187955,45.137968515705126],[-0.13030649883421,45.13664953358415],[-0.130470209143941,45.136026773040754],[-0.128054267253108,45.13603510124514],[-0.127281270306797,45.133734616334166],[-0.127461897473893,45.13018457478805],[-0.126706854803155,45.13004535411806],[-0.125429636464508,45.13001538441492],[-0.125218979512829,45.12970860412422],[-0.125095491732487,45.12970846111518],[-0.123383128319165,45.12988710644127],[-0.123121979351374,45.12995209313175],[-0.122676826574777,45.13020966374941],[-0.121015686981115,45.128958580052306],[-0.120196061912255,45.129827662134424],[-0.117812271084868,45.130042130894765],[-0.115549228112285,45.126920883921734],[-0.113875656176608,45.12491672609297],[-0.112302989043928,45.12223119964562],[-0.111259849232061,45.12000125406507],[-0.110374343154321,45.11724066064969],[-0.110450363466773,45.11634284478846],[-0.110983343439712,45.11540073750427]]]]}}]}