{"type":"FeatureCollection","name":"COM_19118","crs":{"type":"name","properties":{"name":"urn:ogc:def:crs:OGC:1.3:CRS84"}},"features":[{"type":"Feature","properties":{"fid":4004,"ID":"COMMUNE_0000000009753393","NOM":"Le Lonzac","NOM_M":"LE LONZAC","INSEE_COM":"19118","STATUT":"Commune simple","POPULATION":819,"INSEE_CAN":"15","INSEE_ARR":"2","INSEE_DEP":"19","INSEE_REG":"75","SIREN_EPCI":"241927201"},"geometry":{"type":"MultiPolygon","coordinates":[[[[1.709248019945414,45.50047192343576],[1.70980369670657,45.50047740964618],[1.710612955630539,45.50020662354822],[1.711396074418156,45.50012375436559],[1.712336699242857,45.50064878114365],[1.712901434230586,45.50153422912358],[1.713619279546635,45.50194771980924],[1.714250028681487,45.5020855295611],[1.715217406287937,45.50245323536804],[1.716824570883102,45.50245810524546],[1.717708349865647,45.50273117297843],[1.71873080757089,45.50287793305091],[1.719570959382969,45.50287761063645],[1.720142318146534,45.50231495473916],[1.723645850110814,45.501665888633674],[1.723687332840599,45.501755518085375],[1.724396667588806,45.50170684224069],[1.725381933124716,45.50179998471374],[1.725739234393121,45.50168876549677],[1.72746530548007,45.50170113681901],[1.72793836490737,45.501400298760196],[1.73034868116583,45.501340223998724],[1.731842262417961,45.50183081038124],[1.732179078952359,45.50205525700545],[1.732371014927179,45.50290397241248],[1.73230786230206,45.50308968017724],[1.733220087235169,45.50357908601026],[1.734076528194219,45.50331406728886],[1.733513071783509,45.50179563418179],[1.733914913315495,45.50147145338039],[1.735052173498307,45.50085206264078],[1.734505869506761,45.50015425901006],[1.733909325310642,45.498739922911085],[1.732707594250838,45.497584425811716],[1.732218773797743,45.49605422058893],[1.731803235906962,45.49535337701614],[1.730744767853357,45.49465787295645],[1.730590890684064,45.494275186659536],[1.72917754061004,45.493925080287475],[1.728409794466591,45.493397650980384],[1.728868755888886,45.493038112616794],[1.729544102720378,45.493182646057626],[1.729467196383019,45.49251444391536],[1.729856580540952,45.49245310764391],[1.73025477497402,45.49200642038509],[1.731055254338946,45.492390113826616],[1.731208123210496,45.492592671547264],[1.731572011185337,45.49258237436528],[1.731614435578551,45.4927431573531],[1.731896729847437,45.492773363973036],[1.732409506076364,45.4931402885713],[1.733022505608029,45.493267886493506],[1.733059521588372,45.49304856221921],[1.73320237796758,45.493016852810946],[1.733232567794327,45.492872199774],[1.734300994703692,45.49245647455234],[1.734637354478197,45.49213695756136],[1.735432726337359,45.49201533562577],[1.735601789297535,45.491788492243224],[1.73597508437394,45.491645901352456],[1.736240440135905,45.49129496046929],[1.737263467633455,45.490846275719434],[1.737538415965805,45.49041078523603],[1.737801895981399,45.490254345265186],[1.73912238988435,45.49001161893835],[1.739368566407201,45.49005310873058],[1.739966635965715,45.49032999758129],[1.740211288908917,45.49021296624835],[1.740470826968487,45.49034286043056],[1.741239319389801,45.49021909506497],[1.741825108766183,45.490247276077014],[1.742190900933743,45.49009557494971],[1.742396914388262,45.489818703309204],[1.742799041706886,45.48981510241909],[1.743294835825856,45.48951986030118],[1.743684978062191,45.489423362379455],[1.743891362695304,45.48924285430652],[1.74465151461497,45.48931710001521],[1.744855822045453,45.489171689580026],[1.745427825283018,45.489242925553974],[1.745708143045446,45.48902001267737],[1.74608549602125,45.489035936001414],[1.745980980006872,45.4889014827499],[1.746236585649963,45.48880887651362],[1.74623839570315,45.488615272215334],[1.746351853011158,45.48858051620484],[1.748732658978964,45.48849720931471],[1.749761031051849,45.488998582425225],[1.750682819467344,45.48905927753258],[1.75125288548433,45.489216917710955],[1.752162941572039,45.48934411287696],[1.752727855834042,45.489332379551165],[1.754261926205649,45.48875413238312],[1.754585812361986,45.48869918870894],[1.756650952518856,45.48887517987866],[1.756880043732743,45.48910826488862],[1.75732012999409,45.48883846156596],[1.757316449519885,45.488716842906896],[1.757655708865563,45.48843241344702],[1.757718113282443,45.48816112982241],[1.758528911551186,45.48722989770572],[1.759073752620558,45.48714136168111],[1.759347939634589,45.486960674858096],[1.760337428170067,45.48662578556924],[1.760812069721232,45.486641833340016],[1.761200157170694,45.48680732013794],[1.761715067826829,45.486740054898846],[1.762107167968263,45.486783104448314],[1.762603164063437,45.486013177348795],[1.76268578821486,45.48563764745049],[1.762990856073675,45.485449187195876],[1.763034576643474,45.484750822279516],[1.763473284325198,45.484367507997305],[1.764091452116078,45.48414647066245],[1.764635933649953,45.484072313355526],[1.765658533903688,45.48402952895892],[1.767077279219215,45.48419281609939],[1.767551339936294,45.484118771721526],[1.768023553134485,45.48383937405845],[1.768662607351462,45.48388781285508],[1.769141625838536,45.4834742996501],[1.769454981480313,45.482968010413096],[1.770257238969131,45.48275706285344],[1.770635196117918,45.48251264475949],[1.770792980985375,45.482209078273705],[1.770756617731984,45.48188537399362],[1.770928802547814,45.481625192621195],[1.77129062392169,45.48153099159743],[1.77153990787247,45.48137341816722],[1.77234589334642,45.48133990985692],[1.772459379910495,45.481128615747366],[1.772864419332653,45.480932217013915],[1.773109174536934,45.48092138413382],[1.773328784092117,45.48100573667644],[1.773614260002059,45.481179965256146],[1.773614580931375,45.4813393702416],[1.773948762918554,45.48156906509893],[1.774351472554904,45.48159417657352],[1.775030762839195,45.482023060558774],[1.777306822230365,45.48208840371547],[1.777562057627409,45.48235775336774],[1.777329547223307,45.48262629323223],[1.777424247903898,45.482860573150255],[1.777608810177647,45.483025586990316],[1.778290031952237,45.483310380263745],[1.778387535370705,45.483533882967215],[1.778526526909521,45.48361734772891],[1.779346461781779,45.48359114521543],[1.779554093735462,45.48334754672432],[1.780197513328674,45.48308076692502],[1.780663772988383,45.48248605192992],[1.780863085610419,45.48174614553672],[1.781516960391691,45.481701913342455],[1.782185409925198,45.4819271064814],[1.78248311247614,45.48160342860792],[1.781455857894008,45.48116090681508],[1.78087867338805,45.48109430067455],[1.780045712311806,45.481423865206374],[1.779676411069957,45.4814513706067],[1.778980809108872,45.48170497150537],[1.778974297852418,45.48130234480452],[1.777205579693467,45.48122094980749],[1.777493537271283,45.480643217288076],[1.776943634478284,45.480442702636545],[1.777283555399572,45.48012129956953],[1.775873773632483,45.47955478188373],[1.775460053104297,45.47985556294655],[1.775005453828208,45.47939761400647],[1.774145505318754,45.47915137407035],[1.774160616790925,45.47910470932638],[1.773552825868987,45.479034128621805],[1.773339337274896,45.47890481470349],[1.772917368544481,45.47836165927914],[1.772718028182843,45.47776600197651],[1.772777959779707,45.47742894244358],[1.773391736154315,45.47612621940234],[1.773526991185622,45.47550810360247],[1.773481752686982,45.4748321797579],[1.772460955903017,45.47404832744852],[1.772055366259771,45.473866477447764],[1.77144281514979,45.4737823240346],[1.771141748706176,45.4736205269215],[1.769854358067684,45.47262389734841],[1.769815398288166,45.47247577631454],[1.770025159657812,45.47207822120873],[1.769961662981207,45.47188210094202],[1.769037231710005,45.47125957488216],[1.769284982867048,45.47047609221319],[1.769005401828823,45.46634209937034],[1.769881656034457,45.46491709770123],[1.770747057970035,45.4640962546526],[1.771314333813522,45.46367649765187],[1.771844466981437,45.462157634345985],[1.772147360985141,45.46182863867769],[1.773428256660838,45.46119693945275],[1.774438936071025,45.46184919013925],[1.775491657270826,45.46187239150415],[1.77761746546996,45.462272910550965],[1.777415183789286,45.46192758932554],[1.777459125595991,45.46173354496241],[1.77770595841098,45.46144985290654],[1.781079597522494,45.46132175026504],[1.781231140261283,45.46106403250596],[1.781244679539025,45.460563462984894],[1.78030661812283,45.45788308109581],[1.780314428519144,45.45770215159982],[1.779914275846865,45.4572186978274],[1.779165007345214,45.456958387547665],[1.779046715587062,45.45680940689008],[1.779037146976612,45.456487799528524],[1.779577708496366,45.45553007227204],[1.779520500673078,45.455279992308476],[1.779074384210872,45.454734796698006],[1.779010268816991,45.45433334570518],[1.779076474089098,45.45417376497342],[1.778973816761555,45.45383763604759],[1.779120766225792,45.45373026653675],[1.7797531109295,45.45354442475915],[1.779935213374465,45.453176271659764],[1.779714459750393,45.45274069706449],[1.779473132320619,45.45260118526635],[1.778993554206952,45.45177464781737],[1.779197474993465,45.45146166817852],[1.780032937040409,45.450997958676204],[1.780422686497558,45.45067078750338],[1.780296533332802,45.450297481233],[1.779534667988481,45.44979928568931],[1.779537052820337,45.449574169569466],[1.781089322135308,45.44932808159624],[1.780998742087115,45.44902450647391],[1.780570134584765,45.44849931968328],[1.78033246322294,45.44836885506739],[1.780335719379349,45.448045586584556],[1.780127123445182,45.448047821139944],[1.779872016860308,45.44713817466162],[1.778949640214635,45.44631942772653],[1.779166252020264,45.44566076871691],[1.778989028885756,45.44516712965853],[1.779178531630178,45.44440280926938],[1.779479711286739,45.44426199613929],[1.779698574532391,45.44396628964185],[1.780672744808939,45.443239319405265],[1.781192416513688,45.44299370935813],[1.781431801637353,45.44222812672535],[1.780895814191887,45.44187648448355],[1.780784714236283,45.44145921489947],[1.779396361582376,45.44106677670543],[1.77883607889989,45.44054105054659],[1.778561795584366,45.44068125401648],[1.778287916377713,45.440570202960174],[1.776833257336577,45.44133243854872],[1.775636805604735,45.441811994695016],[1.775459047382769,45.441809153534926],[1.774692997580079,45.442320415121316],[1.774818733359409,45.44241995058478],[1.774511156897562,45.442560681289656],[1.773823824090885,45.44246041075702],[1.77395219204783,45.44267254702278],[1.773628437198018,45.442908558754745],[1.772399095948516,45.44417932146708],[1.77199079798681,45.44430363339608],[1.770709299955514,45.444227456623956],[1.770371639418429,45.444281391881965],[1.770147601194851,45.44446175114559],[1.769742332512258,45.444564474524675],[1.769299461026534,45.44486310801423],[1.769282078883469,45.4449547753774],[1.769126031919765,45.444895426629344],[1.768862438923164,45.44512848295],[1.768677018521036,45.445182282937274],[1.768464573519429,45.445127717552474],[1.768206190691093,45.44529869027728],[1.767704920080653,45.44528778087603],[1.767292887133609,45.445464267949276],[1.767079822457981,45.44537997431948],[1.766875814046274,45.44552182289735],[1.766708476282202,45.44545244037312],[1.766613686264772,45.44551533857357],[1.765982070035696,45.445439948230074],[1.765119268574394,45.44523232724092],[1.7647020415633,45.44506653098078],[1.764963493757196,45.44481544927381],[1.764237883407879,45.44459492276037],[1.764148933595946,45.44399236178506],[1.764678437240512,45.443768549354445],[1.764479854427038,45.44360876229684],[1.765118873007311,45.44317722191959],[1.765912286377858,45.441956676709275],[1.765986518652159,45.43999605305474],[1.76300461482132,45.43844304271667],[1.762593217447767,45.43801793836112],[1.760942726214443,45.437860127496236],[1.760247849168992,45.437700251957935],[1.755442871888711,45.437485831230525],[1.754801140137164,45.4377524815908],[1.752668033505838,45.437953920622284],[1.752213284876535,45.438836825699454],[1.752178177907934,45.43937497700406],[1.752531512895744,45.440047131864304],[1.752357009006194,45.440640468794605],[1.749923393978968,45.44122936220323],[1.749663873265614,45.44173349169924],[1.749094936506999,45.44177487817656],[1.748833955068311,45.44257077519691],[1.748643636682759,45.44278478950022],[1.748774560861599,45.44333379842453],[1.747581419381056,45.44393737463873],[1.746566039795653,45.44386209160688],[1.74620584508501,45.4437229798128],[1.74577560834261,45.443739783434715],[1.745465352383624,45.443882206600925],[1.744788653810778,45.44376566635166],[1.74432681755591,45.44399194448768],[1.743927539192204,45.44399738016603],[1.74311524435728,45.444219728217035],[1.742834081733956,45.44364111038966],[1.741906934818433,45.4434551027682],[1.741798055845252,45.44323504192681],[1.741833836788747,45.4428977279985],[1.74125948670804,45.44227348989371],[1.740343740031964,45.44294044091361],[1.740236406931033,45.44310404055258],[1.740503227148313,45.443862619022035],[1.739672943418552,45.44448279428813],[1.737518609348573,45.44751962211089],[1.738603942084578,45.44874310619729],[1.73847438091575,45.449039739694356],[1.738250628845236,45.44920202844895],[1.734190643177632,45.44690935005476],[1.733998759838024,45.446908085101015],[1.733360229851033,45.447586215023456],[1.733660534376241,45.448107437033265],[1.733761334782524,45.44856876944745],[1.733643399113753,45.45043163141608],[1.732776956045392,45.451395370367685],[1.732212208695299,45.4515285787106],[1.731272151867794,45.45156748245187],[1.730486276247336,45.4512983246903],[1.730123831074744,45.45125729865994],[1.729394763492728,45.45135801298622],[1.729190539394291,45.451615966537176],[1.728841770587499,45.45153636646849],[1.728839587564456,45.45163180296106],[1.728195987109145,45.45157587691719],[1.727637046842907,45.45179018022334],[1.726582164023266,45.45170256195781],[1.726210931095277,45.451430875526846],[1.725482233141451,45.45112450737647],[1.724530109879929,45.451131697260045],[1.724264249357765,45.45106383244205],[1.723504680708756,45.450765205410775],[1.723088019072733,45.45046687470405],[1.722962485473271,45.450306043269336],[1.722937172143597,45.44995993293639],[1.722265608433839,45.45006395724239],[1.722110585153444,45.449516440686544],[1.721845888295445,45.44923154383804],[1.722238314729133,45.44896944337235],[1.721973003249671,45.44865572131047],[1.72153083042921,45.44852189985361],[1.720686508149409,45.44851677652526],[1.720755202409145,45.44758906335186],[1.719828534403134,45.447604608155615],[1.719259188413617,45.44793762716848],[1.717650623465389,45.447839998495915],[1.717260843321243,45.44798683913607],[1.716618170853489,45.44800380363195],[1.716121024838521,45.44814580959159],[1.715795819772401,45.44804482433444],[1.715433528590831,45.44821989137785],[1.715041188449608,45.44803438117019],[1.714960815335482,45.44791368333786],[1.715078317026956,45.447867298659276],[1.715135604923056,45.447381641868866],[1.713989918139913,45.447518008869245],[1.713532643613071,45.446711249283624],[1.713445492911627,45.44622033429845],[1.713304056875932,45.446029590193135],[1.712264206328582,45.446403105253154],[1.711113326023394,45.44604676570053],[1.710497964820823,45.44643144549104],[1.710074033389163,45.446505822184285],[1.709648520055824,45.446758494039074],[1.708612656844439,45.44712391637103],[1.708383598933827,45.4471807173681],[1.707951949851191,45.44692628524663],[1.707270253891852,45.44730117782547],[1.706671413556762,45.447468987485074],[1.706225702414379,45.44743412833727],[1.704915806480737,45.44764325708546],[1.70469517077512,45.44777759788185],[1.704919196678257,45.44815662773287],[1.704332589286159,45.44818317501776],[1.7039647263941,45.44832121723941],[1.704109574665758,45.44852912396083],[1.703753623737194,45.448540321096594],[1.703783370153184,45.448800933007945],[1.703940151069655,45.448990966204846],[1.702801282654129,45.44910658505849],[1.703138189935393,45.450185775717415],[1.701367935576297,45.45032559950829],[1.699885712920446,45.45067766934371],[1.699572907663462,45.44988333173371],[1.699280761000302,45.44968271688341],[1.697754554148723,45.44940023790557],[1.697997664289942,45.450382894416215],[1.699026565955887,45.450757766923054],[1.698807907917288,45.45113437631122],[1.698525793941795,45.451160822842574],[1.697493453532224,45.45104167151968],[1.697184637290029,45.451115535555786],[1.696414523581151,45.45154517311621],[1.695785840492474,45.45140007631229],[1.694719838390892,45.451951443152595],[1.694244267126915,45.45258712446397],[1.694278484384895,45.452927943578],[1.69412104182789,45.45320259030306],[1.69422526787353,45.45350459868769],[1.694497423243873,45.4538481870557],[1.694760458858024,45.45398093190679],[1.69485611594624,45.454157658764494],[1.695234676764218,45.454220600288906],[1.695514261567352,45.45435713815171],[1.696314084213573,45.45511752287333],[1.696764214939598,45.45605755918537],[1.697146891419352,45.45741918433358],[1.697777489642952,45.45743100857541],[1.69773541819438,45.45802490581553],[1.697501992758067,45.458593166542876],[1.696359960546696,45.458561890587355],[1.696222323930699,45.46011920334045],[1.69673288442273,45.46023050361725],[1.697133411558616,45.4606683366734],[1.697571129826251,45.46083012049639],[1.697711895349995,45.461048795373976],[1.69609655673459,45.46078867751211],[1.696055169374285,45.46118895682211],[1.696768295682261,45.46123056406414],[1.697387967833273,45.46138275430811],[1.697300678042291,45.46177619698368],[1.698509854718554,45.462276545499535],[1.698186214876467,45.46232502479716],[1.697593558878135,45.46222088368973],[1.697138217650885,45.46242813522666],[1.696648536088975,45.46251700941822],[1.696630239145221,45.46307876196236],[1.696011495656021,45.463158929473884],[1.695040646534953,45.462591981012885],[1.694751852334306,45.4629002243383],[1.694841623759352,45.46343711697661],[1.69392894673928,45.46355347937112],[1.69325449634325,45.46377077296397],[1.693411035456595,45.46413463146274],[1.692458840019825,45.4644612590271],[1.692163309532708,45.46451094932593],[1.691893526927382,45.46417368697798],[1.691143833915924,45.46427031287788],[1.690232465508644,45.465035983623636],[1.690574518129681,45.465239005498574],[1.689550810248762,45.46626272907125],[1.688930932790526,45.46633473958294],[1.688148194469745,45.46614907601329],[1.687842288110567,45.46652914928539],[1.687221572811985,45.46696137556567],[1.686171284803781,45.466290753390886],[1.687507411333459,45.46542651635077],[1.68785820608419,45.46509650132175],[1.688268130190588,45.46448439224696],[1.687358612937424,45.46446565046247],[1.685356076413686,45.464178333354795],[1.684392722658008,45.46448765113545],[1.682991974212591,45.46440547547878],[1.681986276754921,45.464071255918654],[1.682311357083364,45.46374726006009],[1.682213258974372,45.46329671460416],[1.682634267413965,45.46308281565818],[1.682284430579558,45.46223845923911],[1.682850365626092,45.46211902212584],[1.683654915577221,45.46127290615172],[1.682634054609911,45.46060889900731],[1.68121202491111,45.460834451121116],[1.680427030699518,45.460855841323614],[1.680414286653388,45.46139244184647],[1.680843497724371,45.46153347786511],[1.680578118377442,45.462684911231406],[1.681193670435042,45.46279391459359],[1.681469106102048,45.46337532922103],[1.681005545329177,45.463656267776216],[1.681092989550823,45.46417783565349],[1.680720631418574,45.46471381108235],[1.682434431274795,45.465519261366516],[1.680842049859849,45.46698472154838],[1.680699112145709,45.46685966040004],[1.680401626650147,45.46677510931523],[1.680018921578406,45.466452700138866],[1.679917021288771,45.46627048303644],[1.679962771026466,45.466176459447425],[1.678107892948352,45.46742805576995],[1.678669806596036,45.46828753192339],[1.68048507131077,45.46746504095986],[1.680813937118747,45.46816866516009],[1.681603905045884,45.46939824713369],[1.681203940910985,45.46953223792989],[1.680557343995618,45.46948771277329],[1.680179283316246,45.46956161803428],[1.678209429660888,45.47020756998343],[1.67779662183497,45.47082681534329],[1.677313266529073,45.47134436177883],[1.676151097209318,45.47048230170566],[1.675673572714981,45.47086211970386],[1.675312118346484,45.47088306992898],[1.67400975251585,45.471391831891154],[1.673672241681496,45.47142836984359],[1.672656320532467,45.47296537402684],[1.672329477062551,45.473037157294094],[1.673794623377429,45.47370110585889],[1.67450328037518,45.47415076774061],[1.675107072545319,45.474757691033254],[1.675394811148589,45.475198774692146],[1.677434476499737,45.477167205224134],[1.677804014137086,45.47788392652391],[1.678040311724977,45.479197069410795],[1.678502281261095,45.47963479334347],[1.679240761876611,45.480127103245486],[1.68004316412761,45.48089303885259],[1.680586483361205,45.48259613971921],[1.681188763451361,45.483327292858235],[1.682229392667113,45.4840383733409],[1.683424475405457,45.4846080618483],[1.683983296501628,45.485122548076376],[1.684501914271127,45.48544293337591],[1.686568686839074,45.48640284936188],[1.687513814359436,45.48725955830537],[1.68936734812552,45.48754869066898],[1.689910788726491,45.48747037916058],[1.690718111205285,45.48765811533589],[1.691125040294655,45.488102348544516],[1.691198191675078,45.488421109494965],[1.691095540696296,45.48864776168708],[1.691298316424106,45.48895362454473],[1.691488527243419,45.4892494340747],[1.692307899837,45.48963362741131],[1.693171169742008,45.48989404440247],[1.694599245158356,45.4900943805502],[1.694997642991645,45.48997743326987],[1.695249816228564,45.48998036458353],[1.695983420247443,45.49047430618383],[1.696976061268723,45.491879943801216],[1.698613375806235,45.49348127049907],[1.699288906736058,45.493942996037035],[1.700295343364924,45.49569548964611],[1.701261092673995,45.49656222482093],[1.701579486482356,45.49718461179571],[1.702442000345367,45.49951179747848],[1.702579444989595,45.499658380592],[1.70324588147998,45.49985610395228],[1.703769639848237,45.500131427937994],[1.705758603527056,45.50056594175683],[1.706483136384116,45.50063463069048],[1.707102030754699,45.500565209183286],[1.707524614676064,45.500456600523016],[1.708029062140745,45.500076954897736],[1.708479627072602,45.50014157747982],[1.709248019945414,45.50047192343576]]]]}}]}