{"type":"FeatureCollection","name":"COM_16404","crs":{"type":"name","properties":{"name":"urn:ogc:def:crs:OGC:1.3:CRS84"}},"features":[{"type":"Feature","properties":{"fid":4140,"ID":"COMMUNE_0000000009750834","NOM":"Vieux-Ruffec","NOM_M":"VIEUX-RUFFEC","INSEE_COM":"16404","STATUT":"Commune simple","POPULATION":108,"INSEE_CAN":"06","INSEE_ARR":"3","INSEE_DEP":"16","INSEE_REG":"75","SIREN_EPCI":"200072049"},"geometry":{"type":"MultiPolygon","coordinates":[[[[0.408654478836281,46.035807898409296],[0.408145528102767,46.03540793944175],[0.407828749762929,46.03496552274062],[0.40754236092279,46.03418052793296],[0.40715707012896,46.03368248318861],[0.407643112192986,46.03363503853076],[0.406769519500635,46.03095626816398],[0.407948298038005,46.03056428173253],[0.407061023263701,46.02990428991573],[0.406875814880952,46.029580205051744],[0.406783787076451,46.02859693471646],[0.406654334840564,46.028489458880884],[0.406558758747196,46.02703309376081],[0.405816576470316,46.02209316192264],[0.405133734065104,46.022119872076615],[0.404389785726013,46.022016338422326],[0.402345028275036,46.02100362930891],[0.399979252660104,46.020025861498674],[0.399147869867893,46.01958422037246],[0.397231638112339,46.017936470200624],[0.395943270205976,46.017232931202685],[0.394648650152281,46.01671663733595],[0.394819838273752,46.01586013579772],[0.39416789434414,46.013817030885534],[0.394114373295496,46.01306347935626],[0.394714066713644,46.01233306063304],[0.394918393125583,46.01156832050753],[0.395248649431091,46.01098396922463],[0.395647459627241,46.00919748114382],[0.395980950999341,46.00840777868758],[0.396221270128056,46.00805651399237],[0.396801528912271,46.0077076555478],[0.396897724296119,46.007232345875906],[0.396726409171708,46.00669953263394],[0.395947451845414,46.00551035143006],[0.39609590737704,46.004586653736254],[0.396020775733822,46.00404343635768],[0.395569639467912,46.00311316135181],[0.39540261150349,46.002490345821265],[0.394637627742128,46.00144473105277],[0.394372674908986,46.00136115165193],[0.392876421213824,46.00202498265516],[0.392058335875855,46.002836856003086],[0.390953440260291,46.00345291129426],[0.390315618549852,46.003434613840035],[0.389691081551235,46.00302739365827],[0.38908779925644,46.002799054729536],[0.388561972493905,46.00270944799255],[0.387984089737341,46.002708736844944],[0.387612417025937,46.00285783759687],[0.386894187361578,46.00336203970316],[0.386767665200576,46.00335821976661],[0.386526900762303,46.00284721183459],[0.386438472427398,46.002286560319206],[0.385434031153239,46.000570425939934],[0.383223860492991,46.00115638210956],[0.381654187643285,46.001349858147385],[0.380749992725905,46.00182179238424],[0.380566946038227,45.99874248742409],[0.381176077397341,45.997569972882204],[0.382190357399682,45.99695642351958],[0.382795589119184,45.99640819545757],[0.38371447757645,45.99527165847173],[0.383925321804531,45.99456204661443],[0.386434553458134,45.99431454791961],[0.386526634918679,45.99422657435656],[0.386416834148312,45.99395284367474],[0.385617452376853,45.99320189076177],[0.385131660685245,45.9929519135199],[0.384855001653868,45.99268063509589],[0.383793167998566,45.99323634511982],[0.383706960963497,45.9930919976272],[0.383338780183628,45.99322314408609],[0.382898337076186,45.99269940375346],[0.382829419189897,45.99249058398912],[0.38225043512569,45.992297905342674],[0.381918078557244,45.99230103402018],[0.381796207733446,45.99220000880735],[0.381259042615642,45.99324715001176],[0.381100892902707,45.99336512618337],[0.380225379446791,45.99350885595619],[0.379502368766179,45.993490326134],[0.378014956141096,45.99405055100583],[0.376840304324445,45.9940422695781],[0.376382227833032,45.994160499803485],[0.375695983311552,45.99461761927793],[0.375092850667023,45.99514783946102],[0.374021831800951,45.995703248368656],[0.373680505159439,45.99624583876068],[0.372482042996799,45.99749294260043],[0.371417380752441,45.99837373391817],[0.370099353014073,45.99892878094955],[0.368546397416656,45.999421592695036],[0.368180628520398,46.00004108575196],[0.365095539505354,46.000022514538564],[0.363993293301707,45.99955267621548],[0.363593359908503,45.99948119882195],[0.363073381297756,45.99892038804555],[0.36175092065135,45.99805616969416],[0.360742494426101,45.99786869322403],[0.360168442300237,45.998193187747106],[0.359586696782052,45.99840847964846],[0.3586608711708,45.99916625344057],[0.357093609792405,45.99981985556022],[0.356454703339361,45.99931390149732],[0.355449586699653,45.99894985977299],[0.354676719574997,45.9988912659339],[0.352041208270119,45.99920269199146],[0.352085322862368,45.999790273592396],[0.352239975677118,46.00025700248956],[0.352216539959138,46.00074389493043],[0.352750051184239,46.00166637438898],[0.35280983787631,46.00227774770874],[0.352676504464658,46.002469247081066],[0.352344060420533,46.002553378303034],[0.349729538304204,46.00274721465661],[0.349658446142379,46.00341769691976],[0.350173784762459,46.00418028673837],[0.350761489976609,46.005641939833914],[0.350889600090652,46.00580080890191],[0.352141542981535,46.00657250428018],[0.352311775753594,46.007548660943776],[0.353096293440806,46.00897976070217],[0.353059636719885,46.01009073599704],[0.351993067427496,46.01032799991612],[0.352638906432958,46.011417084953045],[0.353425155560283,46.013807784188316],[0.352186835460208,46.01379686851749],[0.351073541869689,46.01395554756283],[0.351182582282711,46.01443022051006],[0.350526793882724,46.014621214469244],[0.350507392788816,46.01714445919916],[0.350708688842815,46.01769066686344],[0.353223950125041,46.017585473414364],[0.353083360248242,46.01833001732131],[0.353966584761856,46.01830469729604],[0.35535987441597,46.01840300134205],[0.35653596608446,46.01890347122973],[0.357379226763021,46.018929449792026],[0.360593113951159,46.01852323427891],[0.361736170246434,46.01847327265291],[0.362550741504754,46.018558010403964],[0.362875210660799,46.018506998544886],[0.364142964659453,46.02249276325856],[0.364288104494602,46.0233502815573],[0.364073742346617,46.02417961519353],[0.364075734617521,46.02454276200841],[0.364210112084433,46.02489637445104],[0.364098645559066,46.02503613853164],[0.36492048129136,46.02491740137603],[0.365948615904003,46.02608106222156],[0.3664767473783,46.02599152551477],[0.367060871985143,46.026947537792644],[0.366162527999731,46.0278258517418],[0.368599017982811,46.02829420995823],[0.369232729647587,46.028620666848695],[0.369862618062291,46.02908127900156],[0.370887111505159,46.02932399338251],[0.372110630357585,46.029435264228916],[0.373515980939574,46.02991023127126],[0.375906368007353,46.03104949812235],[0.376113765828028,46.03147416119775],[0.376556262342736,46.031987157425164],[0.377054446673587,46.03241764868353],[0.377836962714065,46.032880845368304],[0.383378429539273,46.03446311807627],[0.385397610137841,46.03514671574988],[0.387547843060719,46.0357413967933],[0.390579162877771,46.03630767220238],[0.393755791534366,46.03705740308493],[0.395301281572097,46.03676677632755],[0.396223066519435,46.036287912312716],[0.397977823990321,46.03600295836219],[0.399749472596719,46.03522372721573],[0.399942556788591,46.03527140405862],[0.400625081110504,46.03604838789745],[0.40252970399886,46.03702636975634],[0.404724973914214,46.03831640522679],[0.407393021226346,46.03663407618938],[0.408654478836281,46.035807898409296]]]]}}]}