{"type":"FeatureCollection","name":"COM_64212","crs":{"type":"name","properties":{"name":"urn:ogc:def:crs:OGC:1.3:CRS84"}},"features":[{"type":"Feature","properties":{"fid":4240,"ID":"COMMUNE_0000000009761341","NOM":"Espéchède","NOM_M":"ESPECHEDE","INSEE_COM":"64212","STATUT":"Commune simple","POPULATION":157,"INSEE_CAN":"23","INSEE_ARR":"3","INSEE_DEP":"64","INSEE_REG":"75","SIREN_EPCI":"200067296"},"geometry":{"type":"MultiPolygon","coordinates":[[[[-0.181814823440468,43.29525730134134],[-0.183432641114526,43.29495756408116],[-0.184180715216807,43.294933719731716],[-0.186823084296271,43.29559855877014],[-0.188364613500672,43.2957916590907],[-0.191865141012929,43.29597009809916],[-0.192808220692977,43.29621772558134],[-0.193415360796499,43.296163770812974],[-0.195005707617947,43.295835861434874],[-0.19579836967012,43.297683244910054],[-0.197287715720054,43.29971168215832],[-0.198301975990988,43.302440201226574],[-0.198614331956956,43.303048566069855],[-0.199967245151417,43.3043472685454],[-0.201158944365557,43.3052726028356],[-0.203843314129252,43.30681361068402],[-0.204221665981583,43.30681139607968],[-0.20478155564279,43.30712520820651],[-0.205299763748867,43.30786430151692],[-0.205518312135786,43.307981162069254],[-0.205808339916993,43.308319179656124],[-0.20580946636163,43.30842808422986],[-0.206026056282122,43.30855400513973],[-0.206433990180793,43.309216238019616],[-0.206651226233572,43.309287219496134],[-0.206790323158668,43.30963781630486],[-0.206750291751945,43.30980466217429],[-0.207160738484848,43.3102237335911],[-0.207197189274532,43.31052425772151],[-0.207638734520541,43.311191792635555],[-0.208111522577617,43.31160090821444],[-0.208473718834669,43.3123266159129],[-0.208464354026333,43.31264560651895],[-0.208763210676907,43.31311930461008],[-0.208769027038856,43.313290192475584],[-0.208581138297182,43.313569467559915],[-0.208752743147271,43.31401633304723],[-0.209010114426147,43.31494052249075],[-0.20886389886279,43.3155696858745],[-0.20911437108388,43.31636983695008],[-0.209033131199738,43.31670446753328],[-0.209070700847288,43.317246245902865],[-0.210489442038417,43.3200923505237],[-0.210113346959855,43.32071213995397],[-0.210358412324433,43.3212153457889],[-0.210301615386881,43.3215681594492],[-0.210546012665974,43.32177157677744],[-0.210904668054342,43.32245417434358],[-0.211443251929345,43.32269206647758],[-0.2117638087911,43.32306698187239],[-0.212077663636298,43.32358704840859],[-0.212210423881572,43.324243043543106],[-0.2126572310897,43.32458179360053],[-0.212903663608068,43.324931899787565],[-0.212790557967057,43.32520355945058],[-0.214043315781379,43.327609815324024],[-0.214992573084549,43.32868629565216],[-0.215340118513918,43.328858726706606],[-0.215866976510337,43.32930492600141],[-0.216426464503191,43.330291252976345],[-0.216925292224343,43.3308535250337],[-0.217703799894916,43.33118959029071],[-0.218256934933698,43.33157557565962],[-0.218849852364298,43.33143727875288],[-0.219522411593309,43.33175307733437],[-0.219880194208207,43.3317991431489],[-0.220333489998694,43.331987316994486],[-0.221610145594094,43.332981968728],[-0.221860412706341,43.33333284552424],[-0.22186474388561,43.33407189473564],[-0.221696378581452,43.33454598877497],[-0.222043332523507,43.33514788046814],[-0.222311865448139,43.33595738649519],[-0.222253017119208,43.336360692397676],[-0.222388016260488,43.33738485877977],[-0.222309818569924,43.33792739447815],[-0.222500096750129,43.33826385354091],[-0.222569994088228,43.33955736365948],[-0.222894026410604,43.34049846860297],[-0.222921559552017,43.34092441110548],[-0.223169459471445,43.34136449296468],[-0.214992023305409,43.34014669217282],[-0.212997048365352,43.34005203431942],[-0.21243115644452,43.33879667031913],[-0.211800659937278,43.33795287780817],[-0.211315111182893,43.33712008337025],[-0.210591732899621,43.33536160309938],[-0.209913242741403,43.33469569440074],[-0.209247596466366,43.333728689701324],[-0.209028634011513,43.331857095833],[-0.208667434791104,43.33068658218585],[-0.208112160399809,43.33085881854879],[-0.208215129879502,43.331223998181855],[-0.205890865339485,43.330082004088354],[-0.203439291740215,43.32919942927852],[-0.201049813078584,43.32801245370568],[-0.199403057283181,43.327406667173506],[-0.197509153587218,43.327013441108264],[-0.196914536500924,43.32669880833665],[-0.194095901698279,43.32757621128127],[-0.192386697996127,43.32771132925419],[-0.191268807351367,43.3275453648201],[-0.189711874014096,43.32766874259731],[-0.18893846570306,43.32753220350217],[-0.187290473012397,43.32785990381971],[-0.185617942378488,43.32830174176266],[-0.184376656669562,43.328692137610425],[-0.183240202991621,43.32917216480739],[-0.183138373264924,43.32911484187678],[-0.183074499619545,43.32869537389967],[-0.182713005824305,43.32784441368605],[-0.182187033756495,43.3271189373041],[-0.182001254749105,43.32743951648494],[-0.181047137799804,43.32758103626684],[-0.180447251842154,43.32634274711579],[-0.178738994985591,43.32649472754059],[-0.178558011934731,43.323907147563396],[-0.178107733800978,43.32374752698584],[-0.178223818322315,43.32363877749042],[-0.178202161001929,43.32353677870524],[-0.177770166455615,43.322724793993245],[-0.177000604863743,43.32205237509008],[-0.176944812296985,43.321778520003576],[-0.177289433035969,43.32136415163174],[-0.177069771300286,43.32100328184699],[-0.175972403133458,43.320423320392905],[-0.175202373508545,43.32059179286938],[-0.174290407294296,43.32024314979399],[-0.174303274930885,43.31980522245139],[-0.174578529815636,43.319586466697565],[-0.174641216663013,43.31942617148647],[-0.174302054228642,43.31886533773728],[-0.17434625460859,43.31863806269357],[-0.174420387817022,43.31855125669215],[-0.174664929620279,43.318558479399556],[-0.174939979088735,43.318806087684926],[-0.175482220761448,43.31889009284623],[-0.17643698141454,43.31885213573827],[-0.177228284784445,43.318622707941145],[-0.178049772061573,43.31880652852936],[-0.179312592110629,43.318764889669566],[-0.180200893244669,43.318662231139974],[-0.180386209486406,43.31857935193253],[-0.180828187837163,43.31816480821486],[-0.180836742245515,43.31789536403664],[-0.180560468571499,43.31771532948766],[-0.179365192286246,43.31752811913711],[-0.178584384092936,43.31732150546644],[-0.177899279910679,43.31663671043226],[-0.177403399083132,43.316297468751685],[-0.177026745295717,43.31570533580191],[-0.175865519047906,43.3143899062115],[-0.17608660232686,43.31424026120909],[-0.175279962332984,43.313608541322324],[-0.174754953913655,43.31367978320873],[-0.17312905905675,43.313551971573155],[-0.172877150962375,43.31300748189183],[-0.172628031607444,43.311662542327326],[-0.172493200562549,43.31158727381829],[-0.17239889581662,43.31043405632205],[-0.172230019720188,43.31007619257906],[-0.17380949227403,43.30956436397153],[-0.173255149362228,43.308855901135644],[-0.174160443198062,43.30810187340855],[-0.175019480930634,43.3081198530772],[-0.175705400398014,43.30794934883658],[-0.175699669883913,43.307890097448556],[-0.175583218169887,43.30754420319384],[-0.173711244887423,43.30578779533893],[-0.173807196213828,43.30544826615831],[-0.173013233090334,43.305603925246125],[-0.172919748579808,43.305450918761785],[-0.17310150030119,43.305236713276805],[-0.172214141421482,43.30537530232547],[-0.172139909813902,43.3048553095739],[-0.171227225365674,43.30509366652759],[-0.171159851052237,43.304989408773544],[-0.172621863419511,43.304607984323994],[-0.173440287060369,43.30447141605618],[-0.17592773645375,43.30348273710634],[-0.179711908281062,43.30303024007632],[-0.179726505440557,43.3030937317214],[-0.182100828060689,43.30327412299304],[-0.182732141952437,43.30216076651253],[-0.182773983810343,43.30193625996658],[-0.183063531889683,43.30168825161678],[-0.183584109574605,43.301449641471095],[-0.183723242157528,43.30126818336246],[-0.183535674347438,43.300929795531054],[-0.183087087077114,43.300552281437],[-0.182856510795928,43.30012693056338],[-0.183383127032478,43.29977470590682],[-0.183386962826683,43.29901834312172],[-0.183284642461984,43.29852709459807],[-0.183115033750234,43.29782175742421],[-0.181814823440468,43.29525730134134]]]]}}]}