{"type":"FeatureCollection","name":"COM_16121","crs":{"type":"name","properties":{"name":"urn:ogc:def:crs:OGC:1.3:CRS84"}},"features":[{"type":"Feature","properties":{"fid":4224,"ID":"COMMUNE_0000000009752410","NOM":"Douzat","NOM_M":"DOUZAT","INSEE_COM":"16121","STATUT":"Commune simple","POPULATION":432,"INSEE_CAN":"18","INSEE_ARR":"2","INSEE_DEP":"16","INSEE_REG":"75","SIREN_EPCI":"241600303"},"geometry":{"type":"MultiPolygon","coordinates":[[[[0.025155494051219,45.69166899188287],[0.024401849961663,45.69042895938555],[0.023817314819982,45.69001341372494],[0.02382557259821,45.68993162963019],[0.022787810702811,45.68931306111108],[0.020883580144967,45.687856946150504],[0.020703383720181,45.68726374384688],[0.019739529776241,45.686301068101606],[0.01911413523801,45.685881711315275],[0.016720460340865,45.68725922397415],[0.015850248164467,45.687946255426425],[0.014825983137439,45.68850934711033],[0.014132906117807,45.68870093551491],[0.01376804416334,45.68893366440861],[0.013524964925874,45.68929217544634],[0.012565385226818,45.68763297627076],[0.010799997059591,45.685421614443214],[0.007523274436517,45.68721884915061],[0.006074614882787,45.68685593561214],[0.004430779551202,45.687105988090856],[0.003886668414427,45.68758533342155],[0.002991245254053,45.6872632309519],[-0.002591546192114,45.684707576992324],[-0.003389288336923,45.68443488535168],[-0.004561291333238,45.683904389614405],[-0.006410870429817,45.68512562550345],[-0.007081961587841,45.685787163847685],[-0.009739579975206,45.68789151108856],[-0.011585791353607,45.68902264502858],[-0.012936056243003,45.69011205113254],[-0.013399975384003,45.68991850899589],[-0.013950042260309,45.68939464400425],[-0.014476783129735,45.68811263976399],[-0.01492659009073,45.68756622122254],[-0.017202335150429,45.68608056314363],[-0.018899915336365,45.68538173629433],[-0.019463232508595,45.68531436618832],[-0.020985020366283,45.68539970953906],[-0.021894316096872,45.68535818926967],[-0.02324888652691,45.68468922581401],[-0.025085353016573,45.685239165632446],[-0.02715913527859,45.6859899606723],[-0.028175159444335,45.68655920160863],[-0.028429956075756,45.6869155116472],[-0.026742517609465,45.688268443773296],[-0.025828534330276,45.688883256778055],[-0.025026983501669,45.68995552716258],[-0.024495916935428,45.69103674770278],[-0.023819641530866,45.69235526089344],[-0.022804795925143,45.69498501172815],[-0.024119700179192,45.69497404314595],[-0.025570783932696,45.694561094258724],[-0.02582976446005,45.69623928032771],[-0.02634471822554,45.696273205113144],[-0.026985931408111,45.69774466832436],[-0.026996854038584,45.698014718894946],[-0.026490398671601,45.69815989650516],[-0.027149843842342,45.70008144341038],[-0.027992370457812,45.70172862321917],[-0.028737118859296,45.70562859463866],[-0.03021320735066,45.705597007083774],[-0.030779092998387,45.70604227028901],[-0.028896096303156,45.70667596026081],[-0.028013418054293,45.7071394508004],[-0.024993564891023,45.70831818147319],[-0.024281722650114,45.7088960050835],[-0.023729702614553,45.71002103573447],[-0.022101710263295,45.711182141268786],[-0.021230062927746,45.71147316068214],[-0.02004177353124,45.71201957554901],[-0.019534631139337,45.712154823937084],[-0.018311826482458,45.71270574940644],[-0.01698688391886,45.713106201784925],[-0.015473706034895,45.71375858969465],[-0.014373054088015,45.71390879705615],[-0.01408309953639,45.714441920696494],[-0.011966677433758,45.71637199471494],[-0.010942101614302,45.71629034216477],[-0.009959123602642,45.71600391127036],[-0.00968182037437,45.71620326219887],[-0.009062900540864,45.71646039818682],[-0.007974929628767,45.716797639631515],[-0.007420783057705,45.71682685085577],[-0.006165792593526,45.7167188639722],[-0.004941568720621,45.71682181026451],[-0.004304910908425,45.7169424194116],[-0.003259167334824,45.71732354523472],[-0.002591572476247,45.717443166814924],[-0.001609870292867,45.71777210642609],[0.001557324091433,45.71637316796336],[0.002150074720674,45.71628350845466],[0.003609801633125,45.71643227761804],[0.004809228612962,45.716660617040475],[0.005902383570736,45.717996316449145],[0.007085000944716,45.71898744393439],[0.008009839905265,45.720344782347446],[0.00947087322954,45.72128019586441],[0.010124412160473,45.72313584930918],[0.010796489279341,45.723769153305874],[0.011167240352169,45.7236699507951],[0.013335971042536,45.72272539594873],[0.014991467961171,45.72265932544659],[0.016395614282219,45.72212519726915],[0.017038029202226,45.719923625100854],[0.016954740660896,45.7188445705754],[0.017024361093317,45.71874638841502],[0.014866526483557,45.718611742866024],[0.013994751272745,45.718460682348365],[0.010913400366787,45.71718137527003],[0.010346599571662,45.71686265537348],[0.01120344215544,45.71505248655096],[0.010793977509751,45.714869507370935],[0.011448215080357,45.71357031056965],[0.011879322285074,45.71221022396586],[0.012875583897235,45.710102766536934],[0.013242751035783,45.709520458928296],[0.013586006406462,45.70933311259392],[0.014277213886836,45.70803758679614],[0.014548225558845,45.70778254064335],[0.014616470259322,45.70737613751513],[0.014548561048057,45.707061645833676],[0.01430619786378,45.706762355288355],[0.012126687078822,45.70677575686843],[0.011472483502758,45.706838603683394],[0.011446007538878,45.70678113003683],[0.01241644016771,45.70619770701589],[0.013276736662137,45.70531938996302],[0.014853950464288,45.70447809074856],[0.016218292960507,45.7031237968267],[0.017307463754185,45.70224430557736],[0.018257621296029,45.70162875983307],[0.018818236171077,45.7008911575021],[0.020507604335874,45.69956344165565],[0.021633707450709,45.69899848130093],[0.022674012039022,45.69821136772467],[0.023447779952268,45.69774070569483],[0.025472334890644,45.69677592085851],[0.026640737280655,45.69602009119432],[0.027080974280372,45.69562891034353],[0.026113435495641,45.69451480924317],[0.024595670027971,45.69347086932028],[0.023790322068463,45.693072018453435],[0.023275411954455,45.69253305410162],[0.023298302852119,45.69241831515255],[0.02369425095442,45.692085451368996],[0.02465627948418,45.69198561542085],[0.025155494051219,45.69166899188287]]]]}}]}