{"type":"FeatureCollection","name":"COM_47179","crs":{"type":"name","properties":{"name":"urn:ogc:def:crs:OGC:1.3:CRS84"}},"features":[{"type":"Feature","properties":{"fid":4199,"ID":"COMMUNE_0000000009756962","NOM":"Monsempron-Libos","NOM_M":"MONSEMPRON-LIBOS","INSEE_COM":"47179","STATUT":"Commune simple","POPULATION":2104,"INSEE_CAN":"09","INSEE_ARR":"3","INSEE_DEP":"47","INSEE_REG":"75","SIREN_EPCI":"200068930"},"geometry":{"type":"MultiPolygon","coordinates":[[[[0.947841656847145,44.48090592854296],[0.942877584075649,44.47912857165231],[0.941494188795416,44.478467892091224],[0.941085438487564,44.47819100688284],[0.940614142767085,44.478629760748944],[0.9404632354071,44.47911231911738],[0.940569254361844,44.4795510485734],[0.941225232121945,44.480430493321805],[0.941089897684648,44.48058915849806],[0.94078973563457,44.48054212982342],[0.937661405629376,44.480994257102836],[0.937436961078234,44.48107830963485],[0.937302510160009,44.48124689263456],[0.936913358885414,44.4812945439176],[0.936353826052892,44.48149569513096],[0.935698780633073,44.48207327249124],[0.934859810845709,44.48238265004151],[0.934605316574345,44.482600311304004],[0.933806003520523,44.48278795357145],[0.93324378576372,44.48309620090693],[0.931363903545943,44.48376605737192],[0.930954554398926,44.4840555487157],[0.929833830523487,44.485461838193935],[0.928521936846932,44.48590457278561],[0.927636125974813,44.486562419807015],[0.927394509630119,44.48704506082931],[0.927363456224618,44.48754876896748],[0.927495272813229,44.4881392866068],[0.927067835002635,44.488337472428434],[0.926588098844411,44.489103803217],[0.925100512311397,44.4900114683796],[0.923253415238879,44.49029368593647],[0.922511951014152,44.49058049612897],[0.922332770937671,44.49049247149172],[0.921164382107959,44.49103058019938],[0.920674969145485,44.49116813950379],[0.92074549543026,44.49143962652554],[0.919906407321791,44.491677752036026],[0.918778265592743,44.49224901462674],[0.918667449107855,44.49249096583275],[0.918792522098443,44.49329659503716],[0.918395605128848,44.494132897489244],[0.918375007948511,44.4948286157164],[0.918257679144185,44.49490564760909],[0.917873795332977,44.49473900811953],[0.916885377087022,44.495818087063974],[0.917269759688803,44.49600545153528],[0.917291485866519,44.49613283615486],[0.917232741865883,44.49629292130964],[0.916718511833678,44.49655606966836],[0.916566369410961,44.49757709627843],[0.916705361616834,44.49766347072102],[0.916170501079114,44.498826755942844],[0.915947419581416,44.49910980997569],[0.915255437604451,44.49938130073511],[0.915381041651856,44.50017163784535],[0.914282637871906,44.50091992651708],[0.914181772888907,44.50119808417848],[0.913813504715734,44.5014936981012],[0.91405591947745,44.5019485478056],[0.911411111820865,44.50334025339321],[0.9111524103662,44.50315614902391],[0.910338948920306,44.50402236339244],[0.909950796595884,44.50427616432774],[0.909265214543066,44.50508625996528],[0.909002765312173,44.50507137967537],[0.908464549447196,44.50536735787689],[0.908721528510201,44.50542806293782],[0.909137240215575,44.50609603412507],[0.90974674021044,44.50594819015778],[0.911042222491765,44.50753155266481],[0.912035228080801,44.507869140333966],[0.912358140122623,44.50924496324306],[0.912782001007477,44.50931962275645],[0.912281442097616,44.51135436442657],[0.913754939824944,44.51320041749411],[0.915672528050163,44.514065152901935],[0.915918871224589,44.51434717115741],[0.917936872626545,44.51535784846773],[0.91823008481635,44.51583706238879],[0.918590042741809,44.51706677972137],[0.918807314614198,44.51742118630093],[0.921267010921575,44.519259618021565],[0.921673182731504,44.51940685214684],[0.922216355521409,44.52031221353675],[0.922565967780868,44.52052591934753],[0.922753752341492,44.52106707413416],[0.92331427082905,44.52198086147403],[0.923560518720859,44.52213048173031],[0.924038249078467,44.52221511534014],[0.924508427560432,44.522128503123334],[0.924942517112927,44.52189352254793],[0.925589897114069,44.52202006255758],[0.926082981988156,44.52199511069045],[0.926652344261674,44.52212107859913],[0.926919441080001,44.52208016961698],[0.927154652824208,44.521947707073274],[0.928195347503432,44.521989764898336],[0.928674377673537,44.52179883936689],[0.929328194540386,44.52116632836802],[0.929456557159106,44.52085805309465],[0.929905286202545,44.520669255581694],[0.931357320228861,44.52058031807624],[0.931956620556742,44.520610462877805],[0.931841965420984,44.52085415933526],[0.932255005486454,44.52067729095286],[0.935970347785927,44.52041185293801],[0.936140320956858,44.520272748336915],[0.936237312025372,44.51934071196611],[0.936458662078517,44.519104410100326],[0.936803023004459,44.519049613564675],[0.938357779733963,44.519075972471214],[0.93941735888372,44.51877157423488],[0.940936473202554,44.51853247579268],[0.941407502828244,44.517695668327576],[0.941819298556473,44.51606619049055],[0.942094790999323,44.515724626029254],[0.942268210051755,44.51549012117726],[0.942558437742707,44.51415644983413],[0.944140116839838,44.51136458601326],[0.944256054917119,44.51077239981427],[0.944525592461932,44.50654675966275],[0.944726664123127,44.50620830712169],[0.945736942128977,44.505141094400805],[0.945963618243278,44.50465182911337],[0.946405782282781,44.5040846278094],[0.946357337821084,44.50361725569783],[0.946588166646615,44.502494100005194],[0.946234761307528,44.50186616122719],[0.94619824418703,44.50134768180797],[0.945460283535285,44.50088007676481],[0.945153343154278,44.500462821310094],[0.945177767050086,44.49989504775326],[0.945097212028552,44.49968822841144],[0.942836523076193,44.49777750923137],[0.942804045161273,44.497632820228915],[0.943281888169146,44.496257632171506],[0.943560603141983,44.495790056253696],[0.943768071456601,44.495655244243004],[0.943947114714544,44.49481479553873],[0.944418303623505,44.4944165436892],[0.944459077559719,44.494021975938644],[0.94467272963587,44.493647739856655],[0.94489383997567,44.4934834631705],[0.945819407548703,44.49318282283207],[0.946178592139828,44.492819399312474],[0.946042163155334,44.49165789284303],[0.945830017063103,44.491472037284694],[0.946035996054367,44.49051232048622],[0.945915294753963,44.48992203515232],[0.946033536779397,44.48961085765771],[0.946770842522523,44.48919233920172],[0.946959434117165,44.48877981185771],[0.946900161705099,44.48857609238748],[0.945529289717341,44.48742491799858],[0.945690929174136,44.48702719972992],[0.945071877140421,44.48620069972897],[0.944796425031432,44.48564625229408],[0.944678131890024,44.48523251222916],[0.944610044210042,44.48402635435764],[0.944932893743529,44.48358841783277],[0.945544651366334,44.48323060613463],[0.94574282099025,44.48296954690088],[0.946153372155558,44.482748463795524],[0.94707017216441,44.48202621428578],[0.947172196152577,44.48174535255729],[0.947635450106795,44.48135414803595],[0.947841656847145,44.48090592854296]]]]}}]}