{"type":"FeatureCollection","name":"COM_40236","crs":{"type":"name","properties":{"name":"urn:ogc:def:crs:OGC:1.3:CRS84"}},"features":[{"type":"Feature","properties":{"fid":4079,"ID":"COMMUNE_0000000009759595","NOM":"Poyartin","NOM_M":"POYARTIN","INSEE_COM":"40236","STATUT":"Commune simple","POPULATION":765,"INSEE_CAN":"04","INSEE_ARR":"1","INSEE_DEP":"40","INSEE_REG":"75","SIREN_EPCI":"200069631"},"geometry":{"type":"MultiPolygon","coordinates":[[[[-0.832565523194176,43.668846701377696],[-0.83335029322858,43.668890196012555],[-0.834474336612507,43.6694225994422],[-0.837268759653748,43.67119419030997],[-0.837798294735925,43.671225043278554],[-0.838678013184979,43.67146243936567],[-0.83892411686426,43.67157896917415],[-0.838905612289163,43.671710249137135],[-0.839033132389227,43.67177961697668],[-0.840611024948095,43.671749102055976],[-0.83966597324239,43.67398061943224],[-0.840480148846509,43.67440589839492],[-0.840480127458827,43.67455364257924],[-0.840919248442242,43.674549839093835],[-0.841066291883645,43.67570587164727],[-0.842583105911629,43.67565136456128],[-0.84251745373482,43.67587530084714],[-0.842717684410684,43.676214159661576],[-0.84390799387427,43.67658377766453],[-0.843120384866689,43.67814581948495],[-0.845042002242159,43.67910937692181],[-0.846086814236073,43.6793075478158],[-0.846540862252848,43.67928517718998],[-0.849243876920064,43.678797619950245],[-0.850474869167019,43.67895852658076],[-0.850589295689686,43.67853736492683],[-0.849890215481734,43.678404469968086],[-0.849528898817074,43.67843978708754],[-0.849530800271777,43.678338820977906],[-0.849994125069619,43.67753143898193],[-0.850691290537186,43.676713069395376],[-0.85103311045745,43.67655411705325],[-0.851793684952303,43.676549692594136],[-0.854484181698323,43.67584172704822],[-0.855918326961503,43.67507556414332],[-0.856705165907779,43.674484598546194],[-0.856979282538208,43.67437127115116],[-0.857391732402073,43.674358437699375],[-0.858646305953157,43.67455715007179],[-0.859641630646191,43.67437136664827],[-0.860745450499156,43.67428532244929],[-0.861471517298294,43.67406404040139],[-0.86221234175861,43.673693582768976],[-0.863017998438532,43.67369558465348],[-0.863383662568682,43.67344925947318],[-0.863854957025282,43.67340728320065],[-0.864595496161777,43.67362149465754],[-0.864887567186378,43.67384804391997],[-0.867040202930624,43.6747183203319],[-0.868654577830338,43.67458340159372],[-0.870047106452157,43.67465545399013],[-0.870206870063703,43.67457679378483],[-0.871094469874248,43.67340375918365],[-0.871025854575098,43.67332512253165],[-0.870713792809609,43.67331731645159],[-0.870369496399006,43.67319984769206],[-0.870316465112289,43.6730395756321],[-0.870305518451329,43.672840868642844],[-0.870744412851115,43.6725216406799],[-0.87070327122151,43.67202311171262],[-0.871601990779783,43.67174966633812],[-0.874382519232775,43.67285598736797],[-0.876176047592016,43.67395690150459],[-0.877057770040167,43.67533896105896],[-0.877514332970484,43.675720872221085],[-0.878108964236454,43.675887046453525],[-0.878880318042792,43.676243307360686],[-0.879793286946774,43.67685757116406],[-0.880841974860487,43.67714806503277],[-0.880685535614457,43.67835634992557],[-0.881199289556701,43.6786289994387],[-0.881737479992854,43.67931699017072],[-0.882206696357335,43.67922546013582],[-0.88326717052537,43.680238035331804],[-0.883156870343147,43.680496930492666],[-0.884257435175272,43.68116662405401],[-0.884672202681,43.68116892119385],[-0.885487857362464,43.68190193720735],[-0.885958903457498,43.68209320997959],[-0.88623439199183,43.682494175128184],[-0.886666574112411,43.683466117691864],[-0.888577275797327,43.68379779627277],[-0.889312521071124,43.68402194838432],[-0.890994042923394,43.68520053048764],[-0.891256651696885,43.685192032667295],[-0.891419718555408,43.685289800799445],[-0.892675633946385,43.686379087526326],[-0.892742788284802,43.68709290750049],[-0.893369727956641,43.68773172830174],[-0.893260656357038,43.687898699077294],[-0.893990515424422,43.68848067796655],[-0.89412750268304,43.68881541600188],[-0.894584782077668,43.68898552650731],[-0.894737833142335,43.68915482144282],[-0.894709351541311,43.689575667507796],[-0.894419018121749,43.69003472206009],[-0.894083230862033,43.69104856507973],[-0.894057009228087,43.69261619520751],[-0.894672405167066,43.693157227081265],[-0.895640971369626,43.69357839475091],[-0.896348325587619,43.69401071650037],[-0.896314975066682,43.69426867303925],[-0.89707297882172,43.69502530834804],[-0.897972134770686,43.695338132024396],[-0.898172962455738,43.696190410079026],[-0.898149613885646,43.69626692434664],[-0.897792054782481,43.696377040828054],[-0.897375418634504,43.69640368611267],[-0.897143100481584,43.69649309505299],[-0.896717444382367,43.696934483933155],[-0.896164868992807,43.6977552010222],[-0.895412539332493,43.69850559173241],[-0.895381413729887,43.698832839632864],[-0.895500206171063,43.6990457060307],[-0.895861515208032,43.699355292151694],[-0.895852430379883,43.69947724187495],[-0.895725037463001,43.699685413653924],[-0.8956629273955,43.7001777394674],[-0.89525717869921,43.700401287285544],[-0.895087303721504,43.70102540352462],[-0.895122212743298,43.701337673724694],[-0.895416223147342,43.70191724635326],[-0.895522643491054,43.7026233608948],[-0.895802106684182,43.70291606012392],[-0.895576027135866,43.703280022951404],[-0.895637904758713,43.70349582976761],[-0.895575289876483,43.70356113723195],[-0.895352529131349,43.70366371312768],[-0.894572048887129,43.70378265846559],[-0.894713660742577,43.7042577789031],[-0.894197685769338,43.70441319569555],[-0.894190792687368,43.70471344972722],[-0.894075712236276,43.70484730313659],[-0.893176927381629,43.70521732645065],[-0.892258255094861,43.70503939230122],[-0.891586958906202,43.705084136005595],[-0.890210272457501,43.70604241728499],[-0.889791702130612,43.70697362518381],[-0.889228236125009,43.706942423281916],[-0.888460209683184,43.7070626795007],[-0.881964929986058,43.707043349218466],[-0.881249737160046,43.70497604555421],[-0.880339493625501,43.70488510025128],[-0.877761220761237,43.70508426768553],[-0.876013399278469,43.705058282413425],[-0.875177490023972,43.70547816497501],[-0.874933453456218,43.705670646036175],[-0.874722506360707,43.70600339091649],[-0.873426785564137,43.70671261611059],[-0.873234423167031,43.70693478472217],[-0.873023040996825,43.70770178134298],[-0.87285806620698,43.70781486449258],[-0.87110587172584,43.70732138019212],[-0.870876580165801,43.70787909681877],[-0.870428491235606,43.70777251934713],[-0.869825063943891,43.707370563024014],[-0.868843051294833,43.70724693879209],[-0.867648201532758,43.70487409881036],[-0.86728725412822,43.70438422776369],[-0.868371352275768,43.70390603011454],[-0.867364460503355,43.70253101969522],[-0.866142694041912,43.70273572167576],[-0.865781029916867,43.70269452362044],[-0.865162321386674,43.70180750136119],[-0.865003276389947,43.700555491582435],[-0.865086779062262,43.70041288377116],[-0.858299371792001,43.69899444450443],[-0.857984743125988,43.69891371513581],[-0.857315650204636,43.69843745144313],[-0.856498771553765,43.69733399531528],[-0.856568609538166,43.69678557498918],[-0.857128261162421,43.695914378147286],[-0.855235573620997,43.69520762659738],[-0.855144205430487,43.69486492216946],[-0.854541813046221,43.69482501605213],[-0.853927919696167,43.695554878082305],[-0.852218381820243,43.69662805723818],[-0.849455512975606,43.69690247060315],[-0.849086673589291,43.696255172270156],[-0.848616480632733,43.69589163777139],[-0.845104373310282,43.69464202428432],[-0.844565152707538,43.69432235574077],[-0.844442363300885,43.69406543926833],[-0.844405587575725,43.69338837058607],[-0.844286094350423,43.69312503144154],[-0.844601093281615,43.692398589714024],[-0.845251122331911,43.69248281036975],[-0.846576591258566,43.691126038211],[-0.847385553775924,43.69071183722366],[-0.847864539632553,43.6896921994732],[-0.848203424397605,43.68948831714673],[-0.848343504531333,43.689189669921184],[-0.848389093799902,43.68851959777468],[-0.84986151115479,43.68896296134333],[-0.851180105526089,43.688134293630725],[-0.852157406878244,43.68730779168086],[-0.852127544467412,43.68701155643789],[-0.851351646434023,43.68588590696711],[-0.849953077583287,43.68624444365176],[-0.849448196459562,43.686157817437525],[-0.849049916481063,43.68593948928276],[-0.848216330827908,43.68565368652098],[-0.847477474422575,43.68566902467214],[-0.84641097668028,43.685408567305664],[-0.845639106744717,43.68543136719408],[-0.84504845418446,43.685786485246055],[-0.843564632265121,43.68583714871053],[-0.8430304088594,43.68599747150375],[-0.84235467403089,43.68578802557007],[-0.842227553575644,43.68561414327009],[-0.841578103199275,43.68566682144121],[-0.841109870348949,43.68610767986684],[-0.840549892495543,43.68632835823155],[-0.840324037176101,43.686718309783075],[-0.840175887775492,43.68680462181738],[-0.839626159744627,43.68690061148766],[-0.838601610930966,43.68693228357484],[-0.837682872533955,43.687301645038346],[-0.836805511009583,43.68736233812379],[-0.835923097964051,43.68731059231974],[-0.835722846719778,43.68773116081168],[-0.834919846320423,43.688049569259846],[-0.834687989938989,43.688091079215035],[-0.833971801022778,43.68792625006953],[-0.833389275884497,43.687235996211854],[-0.833997658982664,43.686755096870314],[-0.833876179707593,43.68588642970067],[-0.833374706216602,43.6860356396365],[-0.832714156620981,43.686089556666126],[-0.833082829195491,43.685328831813486],[-0.832495965080682,43.68494412571673],[-0.832178997713875,43.684882327342855],[-0.832122696009311,43.68404109193727],[-0.833108439314836,43.68369013546532],[-0.833317891433209,43.683444018611524],[-0.832576689118841,43.68201433542063],[-0.832446708058718,43.68151893214441],[-0.832555809969912,43.68129437187824],[-0.832461210017494,43.68097519379899],[-0.832507488370233,43.68042402932477],[-0.833051118194157,43.67914364048806],[-0.831094275949826,43.6777802318845],[-0.829084149282369,43.6776789863162],[-0.828353659984058,43.67737229278419],[-0.827331709661774,43.67679028114134],[-0.82840633307573,43.67567229957651],[-0.827500051535693,43.67509342447838],[-0.826818889923199,43.67526424721126],[-0.826241080457682,43.67557016139014],[-0.825896369805827,43.67592822692273],[-0.824364618420266,43.675331699686765],[-0.822143711694455,43.67402337932694],[-0.821306274503471,43.673656441218945],[-0.81969036884857,43.67235473367637],[-0.821807250250426,43.672347891878005],[-0.822702527012448,43.67200110911013],[-0.823175840961536,43.67200788534907],[-0.823528766438683,43.67218195059053],[-0.824252688553225,43.67209432471829],[-0.825653165992581,43.67156308207991],[-0.82629027978207,43.6711794103486],[-0.827386570948481,43.6709255076268],[-0.828507508665217,43.669777967891434],[-0.830483025577109,43.66986692045011],[-0.831030644512307,43.66966744753545],[-0.831640917542889,43.66968107028831],[-0.832565523194176,43.668846701377696]]]]}}]}