{"type":"FeatureCollection","name":"COM_64319","crs":{"type":"name","properties":{"name":"urn:ogc:def:crs:OGC:1.3:CRS84"}},"features":[{"type":"Feature","properties":{"fid":4214,"ID":"COMMUNE_0000000009761379","NOM":"Larribar-Sorhapuru","NOM_M":"LARRIBAR-SORHAPURU","INSEE_COM":"64319","STATUT":"Commune simple","POPULATION":185,"INSEE_CAN":"22","INSEE_ARR":"1","INSEE_DEP":"64","INSEE_REG":"75","SIREN_EPCI":"200067106"},"geometry":{"type":"MultiPolygon","coordinates":[[[[-1.025446358532873,43.30368269168958],[-1.022400116002897,43.30444379328],[-1.022258894598855,43.30454092681913],[-1.021846295521939,43.3044608104294],[-1.020831558723409,43.303952737737],[-1.020530165960253,43.30405222755752],[-1.020235714621806,43.30428656863437],[-1.019926147161976,43.304251250477755],[-1.018966044937253,43.30364204714572],[-1.018598107690629,43.303653933667896],[-1.018375228691295,43.30406575388725],[-1.017187782866533,43.30500704976077],[-1.01554614120363,43.30433398571942],[-1.015303114888532,43.30438625432118],[-1.013516736611833,43.303263671341476],[-1.011257945856345,43.304619401495394],[-1.009046917291197,43.30703527186647],[-1.008529747307252,43.30701212822284],[-1.006991162317036,43.30831671872798],[-1.006535311342562,43.308235445464895],[-1.005889952589424,43.30910065992611],[-1.004990522588063,43.30767752509862],[-1.003005541420315,43.30916253607461],[-1.001705297143043,43.30892877707879],[-1.001035448811779,43.30860770672645],[-1.000494119864088,43.30848543812744],[-1.000310496035905,43.308292275903746],[-1.000091925872295,43.307577985593504],[-0.999976623958214,43.30620144104716],[-0.999622754319172,43.30524356080878],[-0.999450494415678,43.303525951760655],[-0.996531737501345,43.304013176796545],[-0.996086492771076,43.30328385010352],[-0.992909458046346,43.30748339653775],[-0.99252290055467,43.30740490847406],[-0.989563387619242,43.30627394798014],[-0.989207869353196,43.30694640356381],[-0.987250490286287,43.306750249092296],[-0.987572974512331,43.306295192688786],[-0.984527861188781,43.305689676225605],[-0.984765328119756,43.30528910567865],[-0.987523669830489,43.30192943415431],[-0.988177601365158,43.29788900627541],[-0.98853112431647,43.294640593935824],[-0.988965888220632,43.292976237463776],[-0.986867037077191,43.29099561283731],[-0.98512266974207,43.28955671102897],[-0.984100432682154,43.288913492185465],[-0.982672362580658,43.28742866258807],[-0.981803073941019,43.2862321583793],[-0.98197958708896,43.28609234641074],[-0.982416911292381,43.28505212323256],[-0.982391615679531,43.28388304590197],[-0.983876404475737,43.28281859621261],[-0.984562307659953,43.27925804493078],[-0.984733811922479,43.27902834319762],[-0.985450749935993,43.27864610898701],[-0.986388494673305,43.277624328918755],[-0.98635600264038,43.27596013871377],[-0.985721644371126,43.275521498950795],[-0.986237475940112,43.27408566214512],[-0.988889240921343,43.27209446718573],[-0.990740476801969,43.27000850004568],[-0.991011356350693,43.26857989281565],[-0.990836104562183,43.26773971863617],[-0.9908752440558,43.26748607762208],[-0.991508376392982,43.26555770561246],[-0.991846337122937,43.265258789606335],[-0.992143965654717,43.26517843083515],[-0.993055870345434,43.26519424421944],[-0.99333562525928,43.26542528241487],[-0.993587531810598,43.265432176730535],[-0.995784841788596,43.264841979433555],[-0.996645619087938,43.26426249402703],[-0.997342553689517,43.26366655085741],[-0.997849023241838,43.26357664138433],[-0.998244676929534,43.26389704724264],[-0.99869191476744,43.26481900754547],[-0.998414997162186,43.265677720027156],[-0.998407884054683,43.26589505137883],[-0.998507284024461,43.26603097795561],[-0.998800026978285,43.266253415800115],[-0.999493091230218,43.266436704611344],[-1.000714974227093,43.26615905169601],[-1.001123957795248,43.2661204768752],[-1.001247195423352,43.26617355417484],[-1.001507540559687,43.26644402220321],[-1.00128113344627,43.26724863168579],[-1.001486634085721,43.26743916913144],[-1.00205439463236,43.26745054946409],[-1.003599032488272,43.26713477896279],[-1.005119007764031,43.26641098242752],[-1.00600800951686,43.26648698332891],[-1.006304457460596,43.266638109150044],[-1.006434750752795,43.26684583969686],[-1.006466498675361,43.26716080800946],[-1.005832812969145,43.268400270613334],[-1.005671701620103,43.26939882313219],[-1.005374659493047,43.27039251109636],[-1.005419248469249,43.27082139351846],[-1.005313851294731,43.27138013746529],[-1.004739335494183,43.27194637492957],[-1.004655886468101,43.27221788014706],[-1.004782079812661,43.272437475076615],[-1.005233303607693,43.272775615602136],[-1.005797130495918,43.272853776453054],[-1.006547812904351,43.272782689249915],[-1.006529928441886,43.27307518178856],[-1.00621033487076,43.273389677898564],[-1.005598700205228,43.27368798638638],[-1.00579828915263,43.274183176187584],[-1.005021000458252,43.27440386103102],[-1.003683497911305,43.2750956672508],[-1.003116262276726,43.27525270518141],[-1.002957875178678,43.27584763901065],[-1.002856411519303,43.27704934051663],[-1.002714360809298,43.27720502443501],[-1.002409912269628,43.278199882196326],[-1.002899684201425,43.27893291804672],[-1.002881366676294,43.27905969628037],[-1.003470333796868,43.280102500350935],[-1.005935473441386,43.280361455083444],[-1.008372344783366,43.279273937917615],[-1.009103540207848,43.27963049668677],[-1.011327988927012,43.27974334152669],[-1.011549031594335,43.279854925094],[-1.011671183166884,43.28021067292683],[-1.012581394807922,43.28035789804329],[-1.012785464941689,43.28088083627655],[-1.012350589785201,43.2814698506729],[-1.011306425517898,43.28253365693693],[-1.011574165662731,43.28271376234398],[-1.011222338773937,43.28394730230383],[-1.011625314056274,43.28451149470217],[-1.012256569292663,43.28483031622361],[-1.012893788993565,43.28498678340042],[-1.014582025713776,43.28500960556709],[-1.015454511917167,43.28486187561911],[-1.016583212228279,43.284410073753435],[-1.017442606362714,43.2843754043389],[-1.018785128485904,43.285257699406635],[-1.019062090477477,43.285551836577454],[-1.019517255599606,43.28636806523598],[-1.019588242023258,43.28676714587675],[-1.019389886627769,43.28811300451189],[-1.018778145346667,43.29026778615668],[-1.018431504183495,43.2909021849688],[-1.017995683688946,43.29308734892827],[-1.017994335172204,43.293333297664525],[-1.018131473184445,43.29362003165327],[-1.018612234662267,43.294166001080704],[-1.019199182237523,43.29459002215633],[-1.020912607799732,43.29521710957981],[-1.021522762878065,43.29526645211479],[-1.024103789283956,43.295231572726905],[-1.024814954788245,43.29520867775667],[-1.025181067283924,43.2951184723403],[-1.026762426980452,43.29433083544825],[-1.028216060346535,43.29383347057879],[-1.028857944149028,43.293842856435475],[-1.029055931121936,43.29394085695839],[-1.029860843736642,43.29502954114914],[-1.029986380826356,43.29541397512452],[-1.029960796061117,43.29624720992382],[-1.031883920156519,43.296502408328],[-1.033532753779264,43.29731366427674],[-1.034182685846965,43.299991613859405],[-1.033949813477909,43.30022369458908],[-1.03027009276069,43.30276782808331],[-1.029958270136915,43.30291187037217],[-1.029279543830985,43.30288854884257],[-1.027646325022576,43.302354967041005],[-1.02733990308313,43.30236459005988],[-1.025446358532873,43.30368269168958]]]]}}]}