{"type":"FeatureCollection","name":"COM_79085","crs":{"type":"name","properties":{"name":"urn:ogc:def:crs:OGC:1.3:CRS84"}},"features":[{"type":"Feature","properties":{"fid":4097,"ID":"COMMUNE_0000000009750620","NOM":"Chérigné","NOM_M":"CHERIGNE","INSEE_COM":"79085","STATUT":"Commune simple","POPULATION":133,"INSEE_CAN":"09","INSEE_ARR":"2","INSEE_DEP":"79","INSEE_REG":"75","SIREN_EPCI":"200069755"},"geometry":{"type":"MultiPolygon","coordinates":[[[[-0.197570080781182,46.13569460865332],[-0.19631005279925,46.135072198330136],[-0.19575749747095,46.134688512064734],[-0.195416578487339,46.134666566125],[-0.195393884646942,46.13456626768833],[-0.195609011428881,46.134453867366474],[-0.195371817632787,46.13403156098919],[-0.195159579078158,46.134126756323575],[-0.194775510459795,46.13398706136748],[-0.194564010383261,46.13402816128285],[-0.19323742264591,46.13355268907079],[-0.192333979604996,46.13310856170558],[-0.191777937920879,46.13310977796171],[-0.191737670588658,46.13304151594227],[-0.192615598856424,46.132156158643085],[-0.19245818718644,46.131856873261306],[-0.192281330318632,46.131824896876466],[-0.191940365288463,46.13202464340816],[-0.191696345372894,46.13204141831009],[-0.191620532441255,46.131919181063225],[-0.19185711935889,46.131774641530065],[-0.191839766833683,46.13167689606236],[-0.191492797237256,46.13155056709838],[-0.191157977633619,46.131231934931556],[-0.190600993020723,46.13101597765126],[-0.190181645124946,46.13069250896381],[-0.188763791298067,46.13071882998243],[-0.188233239474488,46.13053366171501],[-0.187672367385754,46.13018351769747],[-0.187753745824931,46.12982164473981],[-0.187349361294955,46.12964374401619],[-0.187612487594855,46.12937590191675],[-0.18665063496035,46.129352440775534],[-0.18645253716996,46.129266978661214],[-0.186285188626067,46.12908602481048],[-0.186180126226745,46.12863836328359],[-0.186065845406784,46.128567670981305],[-0.185928576027138,46.12868147296432],[-0.185696059164342,46.12869520880998],[-0.185178675302062,46.12849073187616],[-0.184423492161707,46.12838755257752],[-0.184239706798242,46.12823589615871],[-0.184104981301611,46.12774580677629],[-0.182877280683725,46.12767479749974],[-0.182406105833853,46.127283361428844],[-0.181662697671781,46.12695813425937],[-0.181506076711362,46.126179364839],[-0.180949945858026,46.12628958005743],[-0.180405170838357,46.125969592894194],[-0.17911965983165,46.126443598735484],[-0.178776367000994,46.126424374603566],[-0.178156445999251,46.126238960535126],[-0.177165650434647,46.126453251301335],[-0.176429248053905,46.126494590266404],[-0.175858450162696,46.126441169186904],[-0.175264213991323,46.12672185106229],[-0.174574582681864,46.12719084831143],[-0.174315719754575,46.12719718687486],[-0.172718652849641,46.12654339808512],[-0.172023917358636,46.12752981936544],[-0.172108860964173,46.128461104190976],[-0.171996323157148,46.12882383389304],[-0.169526293770002,46.12860804884016],[-0.167935213792695,46.12778820290129],[-0.166980274872954,46.12772653228576],[-0.165246224006642,46.127145855773044],[-0.163995978614512,46.12657059379972],[-0.163150696119549,46.12649952640248],[-0.160654936108159,46.12569938415612],[-0.159532625834018,46.12522865769208],[-0.159259522187053,46.1249199353357],[-0.159310026077925,46.124604007522514],[-0.160025926221699,46.123801827904664],[-0.161065065765469,46.1240216252254],[-0.161223187881242,46.12397666676235],[-0.161493341287356,46.12360415177676],[-0.161240682709154,46.123335419028045],[-0.161090061886972,46.12330807183269],[-0.160992917215077,46.123399096036216],[-0.159888349556159,46.122875609944],[-0.159462890573591,46.12280183963406],[-0.157923684710973,46.122224645523296],[-0.157763545771575,46.12223450843693],[-0.157638609676713,46.12274356250115],[-0.157332872785961,46.12276828994602],[-0.156798673781369,46.12235868046065],[-0.156652043955356,46.122085186672386],[-0.15593731711218,46.12227719401773],[-0.155762630300035,46.1224622929322],[-0.155419055557636,46.122617841223324],[-0.154813065454184,46.12271759849557],[-0.154573803418561,46.12229797793398],[-0.154729292252583,46.12209448922462],[-0.15471507090151,46.12177946196608],[-0.154522953748161,46.12161627620668],[-0.155423339578519,46.1210469172026],[-0.155676282209287,46.120712745930106],[-0.154333363930397,46.12052748013172],[-0.154027853650928,46.11936079690337],[-0.154455419001706,46.117803342783155],[-0.154601728926803,46.11647089599599],[-0.154966756467619,46.1159677877371],[-0.155589346072624,46.11541425831301],[-0.156368580070102,46.114047083067014],[-0.156879042529119,46.11233320381267],[-0.155780943971011,46.11194017996417],[-0.154183537462283,46.11171963874785],[-0.152367837522763,46.1119169914801],[-0.151848495857898,46.11187644434432],[-0.150796489256363,46.111563201801616],[-0.14952839216089,46.11089366323984],[-0.148545044444619,46.11051180579983],[-0.148784198093554,46.110298793613964],[-0.149429865001687,46.10935713898031],[-0.149838440397126,46.109025869785405],[-0.153017911276177,46.10575179603914],[-0.154365749111809,46.10460855009004],[-0.155428391361674,46.10341824499547],[-0.156667573124243,46.10223473250896],[-0.157061977836576,46.10165869985121],[-0.157726812241021,46.10127971350463],[-0.159161774063836,46.10012316501409],[-0.159219972346157,46.09998636281602],[-0.159412742066503,46.09993683524661],[-0.160092058880589,46.099247414136435],[-0.163031515540324,46.09702151279477],[-0.163395037900163,46.096473352534076],[-0.165233536693565,46.09706283223832],[-0.17046323338356,46.098252395415884],[-0.172931849493355,46.09846726069027],[-0.175245462216944,46.099540765800974],[-0.175649231366679,46.09989175367436],[-0.175675971667075,46.10062279410747],[-0.177949614848329,46.100980897788084],[-0.180178376693097,46.10121224161475],[-0.179456627417457,46.102462635758464],[-0.179067650820961,46.103866821076586],[-0.178471512240894,46.10496048023566],[-0.179584389041718,46.10525013221614],[-0.181696540824753,46.10614891853214],[-0.182034355280313,46.106455773339256],[-0.182563704726866,46.10671399630871],[-0.184463557042021,46.10721223770875],[-0.185132800491275,46.10769272955728],[-0.185795464108588,46.10803731796652],[-0.187684916034714,46.108310493774944],[-0.187398031538362,46.10912695014061],[-0.187796698055552,46.1093428586663],[-0.189614974457921,46.109482819900386],[-0.189802521454002,46.10934326532616],[-0.190887379596797,46.109438032549946],[-0.19052220704035,46.11086863076646],[-0.190023435900959,46.11167302748558],[-0.189324604991186,46.11311570369678],[-0.188685288768335,46.11399974615611],[-0.186723450022841,46.11848706790015],[-0.184385630475168,46.12143659783273],[-0.18352895483923,46.122307778691436],[-0.185392077347599,46.12328019098112],[-0.188427436958522,46.124462078435194],[-0.192545099309595,46.12548637778418],[-0.194573115866574,46.12619175199572],[-0.196588582842681,46.12643601699796],[-0.197064724607393,46.12655508656868],[-0.196014489487552,46.12817352557812],[-0.19587353707695,46.128245987504854],[-0.195477291120129,46.12825263741238],[-0.194875153212697,46.12926454038653],[-0.195511467261367,46.12988559741956],[-0.197363505266035,46.130704028404345],[-0.199731416803797,46.13127627475112],[-0.197570080781182,46.13569460865332]]]]}}]}