{"type":"FeatureCollection","name":"COM_47158","crs":{"type":"name","properties":{"name":"urn:ogc:def:crs:OGC:1.3:CRS84"}},"features":[{"type":"Feature","properties":{"fid":4251,"ID":"COMMUNE_0000000009758219","NOM":"Marmont-Pachas","NOM_M":"MARMONT-PACHAS","INSEE_COM":"47158","STATUT":"Commune simple","POPULATION":165,"INSEE_CAN":"15","INSEE_ARR":"1","INSEE_DEP":"47","INSEE_REG":"75","SIREN_EPCI":"200096956"},"geometry":{"type":"MultiPolygon","coordinates":[[[[0.60130672757413,44.078070613292056],[0.599385078749314,44.07805461426066],[0.599307238829765,44.07815285727892],[0.597216161040549,44.078599537243825],[0.597000656686652,44.07834898610171],[0.59456136244008,44.079024791836076],[0.591891503954847,44.08001153254513],[0.591272842901704,44.079400027006464],[0.591479453779384,44.07894534228116],[0.592268945971452,44.078264856396174],[0.590884527406627,44.07691795016162],[0.587189600844715,44.07695275228418],[0.586416818726043,44.077032069381445],[0.585156127552177,44.07686470387912],[0.58511490423505,44.076688206856794],[0.584411505104504,44.0774281701476],[0.582077577430405,44.07900197467334],[0.580340421668652,44.08028636919119],[0.580018752658081,44.08112388721295],[0.579693786849892,44.08142195946123],[0.579136155703225,44.081727493972],[0.578851292613552,44.08175811482048],[0.578228221780033,44.08207480446579],[0.578081938088109,44.08207787248001],[0.575475234067791,44.081190870012726],[0.574559624059083,44.0811904040798],[0.574243425560521,44.0826007195199],[0.573810986485763,44.08269379173274],[0.571569519227855,44.084255029217005],[0.571041656023646,44.083861527804146],[0.569890585147691,44.08475175844457],[0.568348657721095,44.085666617386835],[0.567250289054702,44.086052834088775],[0.566508233514076,44.087045765563396],[0.567494383346355,44.0871226018523],[0.568531311921949,44.08788220619583],[0.570140615956095,44.08811152255364],[0.571139961635653,44.08852358992939],[0.571872342186841,44.08957085809294],[0.572190334747556,44.090638651635935],[0.572883678348962,44.09151846236837],[0.572953758682613,44.09177934849168],[0.573132170137166,44.0938354565934],[0.573360977421794,44.09415388731773],[0.573149237915573,44.09425545071035],[0.573019498425447,44.097267330432835],[0.5744796263154,44.0987161039334],[0.576148952731773,44.09983181219174],[0.576082095451762,44.10025715335027],[0.576174124347145,44.1006193759027],[0.577400242718504,44.101991794622485],[0.57778531765118,44.102662152327376],[0.578741678631144,44.103915132070085],[0.579219310507769,44.104760420009576],[0.579296576053593,44.105117811656726],[0.579767962721609,44.10531732469049],[0.580881989444807,44.10642068926088],[0.581332626401222,44.10660893155454],[0.582321387697928,44.106809048816146],[0.582580354951303,44.107008363777396],[0.583137703008862,44.10709720041112],[0.583773992373055,44.10732824797312],[0.584259213496997,44.10773245210971],[0.584713450955802,44.10786583111737],[0.5847378809219,44.10817342866886],[0.585372032551339,44.10830806967532],[0.58537944442147,44.10860448640204],[0.586070586626871,44.10863322384222],[0.586605821922783,44.10841899871502],[0.586867085499939,44.108505795599726],[0.587153021461978,44.1084823779581],[0.587852410058093,44.10872919841083],[0.589748767042909,44.10918965055365],[0.591075598961585,44.109258452812924],[0.591687696407574,44.10947181270986],[0.592778847283176,44.10955792481342],[0.59463303645967,44.11021906853919],[0.594771751380319,44.110367088563265],[0.595111198699194,44.11049700311314],[0.595050796657198,44.11089098090736],[0.595476872365785,44.111129950993636],[0.595585110419875,44.11137815306673],[0.597005590235,44.11195319712264],[0.597405449581614,44.112043908448626],[0.598173976229247,44.1116618532447],[0.598418646757437,44.111609586945434],[0.598520185998746,44.11172076863848],[0.59846324341296,44.11215174291012],[0.600367940984442,44.11342620929427],[0.600775487366205,44.11389797241226],[0.600980862262173,44.114362606206775],[0.601401265818139,44.11435200000415],[0.601569936438474,44.11453128266991],[0.601558389768219,44.11424198115552],[0.601341858467829,44.11368615754913],[0.601034016143033,44.11289511445824],[0.601298248390944,44.11092708616308],[0.600205443536796,44.1082431919004],[0.60018598581555,44.106927192757176],[0.601882147396864,44.103926185804816],[0.602318220002394,44.10345308545565],[0.602579661557906,44.10326881074124],[0.60445603799743,44.102777688537884],[0.602449861078464,44.101664056463115],[0.601093259029106,44.10040883473328],[0.600505100833393,44.09957023401898],[0.599723132791426,44.09891287750164],[0.599393451764965,44.098375284020996],[0.599599192361716,44.098207805614834],[0.601110360152711,44.09786992289443],[0.603343986074591,44.09773332309917],[0.60402039465094,44.09733751348525],[0.604185235512292,44.097013353746476],[0.60510208647081,44.09696046684262],[0.607634554650644,44.0956885403844],[0.60754940911681,44.09503925562053],[0.606563752266299,44.094827726696025],[0.605221379472886,44.094156363087905],[0.605444973502132,44.094127934777546],[0.605687372998546,44.09394954160649],[0.606197705927566,44.09340151566525],[0.607018736727344,44.09238753957206],[0.607240665671829,44.09177467900459],[0.607197395569497,44.09164496929353],[0.606363108527428,44.091044148103855],[0.605904342471589,44.09084232500626],[0.606232504148723,44.08838766829566],[0.606295065269568,44.08698973833912],[0.605997025406618,44.085997232905],[0.605682448172268,44.08551672018192],[0.605844175097092,44.08434517186667],[0.605140267849274,44.08281612926358],[0.604859096698611,44.08186901330816],[0.604600322516992,44.08157701118845],[0.603635292377837,44.08088146316252],[0.603321208412606,44.0805090082894],[0.601917451541882,44.07952470330578],[0.60151932236491,44.07913149316422],[0.60135184260734,44.078719022128034],[0.60130672757413,44.078070613292056]]]]}}]}