{"type":"FeatureCollection","name":"COM_33525","crs":{"type":"name","properties":{"name":"urn:ogc:def:crs:OGC:1.3:CRS84"}},"features":[{"type":"Feature","properties":{"fid":4253,"ID":"COMMUNE_0000000009754778","NOM":"Tauriac","NOM_M":"TAURIAC","INSEE_COM":"33525","STATUT":"Commune simple","POPULATION":1330,"INSEE_CAN":"13","INSEE_ARR":"1","INSEE_DEP":"33","INSEE_REG":"75","SIREN_EPCI":"243301223"},"geometry":{"type":"MultiPolygon","coordinates":[[[[-0.478231121149602,45.057540131022414],[-0.478688218514161,45.057324868229855],[-0.478882512872068,45.05713674213534],[-0.479510243875753,45.056884599634834],[-0.479805515032302,45.056888890118444],[-0.480067288737729,45.05676354366179],[-0.480337713055334,45.0560620186726],[-0.480920452479363,45.05525068814194],[-0.480994156728405,45.05449402599951],[-0.481394055453749,45.05317649177719],[-0.481608816731752,45.052888581374276],[-0.483510560781429,45.05194314721044],[-0.485793184099145,45.04994929838724],[-0.486585579535076,45.04950539478731],[-0.487215297241687,45.048879118258924],[-0.487929288925855,45.048564738962575],[-0.488077007295838,45.048425821791525],[-0.488206656208642,45.04793597702928],[-0.489678447560128,45.04692999864152],[-0.49038028531155,45.04658443928621],[-0.491021530756095,45.04561439535292],[-0.493044205336931,45.04563475838463],[-0.49319685618421,45.04553443360981],[-0.493420045845975,45.04511825369806],[-0.495750800747148,45.04402664615714],[-0.496675183556532,45.04388675501045],[-0.498302830060974,45.04324257602428],[-0.499269637178917,45.04302922778068],[-0.500932583135436,45.04290933987299],[-0.502794081596882,45.0426308637047],[-0.504065506871278,45.042349303445995],[-0.504375852770496,45.04216919228302],[-0.504817922118922,45.04127112466069],[-0.505323032657698,45.04079106262075],[-0.505418003632833,45.04031850857755],[-0.505320218774269,45.039751984144196],[-0.50570656354016,45.038127439605],[-0.506478382349491,45.03608247313178],[-0.50664831183807,45.030518978295056],[-0.50969771702355,45.03103030236066],[-0.510300665213575,45.03134205159686],[-0.511634758686953,45.031618110491976],[-0.511647493668165,45.03153749528473],[-0.512848231303939,45.03177448693068],[-0.513224899564522,45.031295736035716],[-0.513418106642514,45.03129594517828],[-0.513077800325365,45.03253602701832],[-0.514990411281541,45.03236928213369],[-0.516977767745176,45.03171345263064],[-0.517993905320817,45.033036854625486],[-0.520651094655535,45.035673783620275],[-0.520873121276064,45.03599031890073],[-0.520821503662408,45.03668503570648],[-0.520609754272231,45.03738031180521],[-0.52021483327728,45.03795249827137],[-0.51974188083589,45.03833517844575],[-0.521421406808576,45.03872367793115],[-0.522247562051831,45.03902470023958],[-0.522381473031814,45.039213336343906],[-0.523428179269736,45.03984715319286],[-0.523573287792432,45.04003182848315],[-0.524375110362675,45.04041021540437],[-0.524579487535272,45.04086970644299],[-0.525293735427339,45.04135090301323],[-0.525504416935419,45.0421725089438],[-0.52629998867497,45.04261236888776],[-0.527680740216862,45.04315895707991],[-0.529868645220472,45.04428740125701],[-0.531016432554686,45.04529108043744],[-0.53162164582884,45.04609745883471],[-0.532291252862406,45.04653406589153],[-0.53298206261601,45.04682308638823],[-0.533888827981183,45.047028637494144],[-0.534292967262038,45.04829383407526],[-0.535071576567342,45.04997164640838],[-0.533801423020827,45.05035446465405],[-0.532601273102444,45.05049710620556],[-0.530890920187801,45.05097677718455],[-0.529535959593295,45.051104466961405],[-0.529445169937685,45.052688203735144],[-0.528971203352198,45.05265275742369],[-0.528871493628084,45.05302724859786],[-0.526825895735431,45.0529307428578],[-0.526612763450881,45.05326105660772],[-0.52706244711788,45.053516295071056],[-0.527579525082247,45.0541344176061],[-0.527666474038303,45.05438402283799],[-0.527609426996993,45.054931109247335],[-0.527165287198547,45.05633676906324],[-0.527134571090798,45.05679739877616],[-0.52568776118274,45.05696309724452],[-0.524830351528834,45.05717951664879],[-0.524583691036773,45.057341445677515],[-0.524381597927115,45.057625439515085],[-0.524176370559331,45.05771845948205],[-0.523503659361045,45.057516232659744],[-0.522619578873999,45.058843862368626],[-0.521304222936255,45.0587151289377],[-0.520232000266899,45.05879229740527],[-0.519625674829134,45.058695200940306],[-0.519113407522265,45.05833465727598],[-0.518594121482144,45.05782201642886],[-0.518434254883724,45.057463851578525],[-0.518284866342496,45.056605143431334],[-0.5179019685237,45.057027326676554],[-0.517366058454097,45.05724073871849],[-0.516791555027817,45.05773025827889],[-0.516151090368731,45.057959584697386],[-0.516057297304094,45.05818696606148],[-0.515315646562935,45.05850600598364],[-0.515010584707614,45.058750872119056],[-0.514868784100762,45.05979272418119],[-0.515170615658813,45.06018426570839],[-0.515163394414769,45.060372861671794],[-0.514751021386867,45.06093385967799],[-0.514661789059514,45.06159821759687],[-0.514220832206473,45.06194741307189],[-0.514203828872685,45.062648245980206],[-0.513772812608032,45.063196309038624],[-0.513497996504095,45.063315838906355],[-0.513350876054339,45.063544900412204],[-0.513265008450074,45.06395949569588],[-0.513452773223849,45.06472146357334],[-0.513501462263687,45.06551666094613],[-0.513952664674408,45.066807480585645],[-0.514791650384137,45.06805541653292],[-0.515108350679907,45.06835906659243],[-0.515053792137064,45.06852301993802],[-0.517088280615254,45.07015319677109],[-0.513164690693794,45.071371206365455],[-0.509019200628483,45.074244510028436],[-0.507808619180441,45.07352016295256],[-0.507076932083467,45.072136307679465],[-0.506869766034196,45.07114511397399],[-0.506564130210255,45.070266977288526],[-0.506318495538651,45.0698790498389],[-0.505135963613342,45.07010734889832],[-0.502811396059166,45.06997229744438],[-0.502516438464614,45.07009603731532],[-0.502042841144393,45.07014968706206],[-0.500149650198199,45.06995685082768],[-0.500250544502465,45.06955711773676],[-0.498922069374708,45.06942492066509],[-0.498950143894622,45.06841010306381],[-0.496758326439142,45.06840324419747],[-0.496376617281708,45.06636663329427],[-0.494237362178367,45.0666500893966],[-0.491895060718559,45.0667983715332],[-0.491566070616994,45.0673548585034],[-0.490621328701029,45.067358340496725],[-0.488294594590843,45.067817897281365],[-0.487857442493184,45.068047895421415],[-0.487286935471261,45.06815859406264],[-0.486457286678854,45.06864151641381],[-0.485414176225052,45.068536275968],[-0.484439905174217,45.06827024860029],[-0.483948254755194,45.068319879913275],[-0.483301638324919,45.06808685211008],[-0.483005908501176,45.06783112967908],[-0.483139315641217,45.06766562992788],[-0.483059360722212,45.067505001411476],[-0.482786111679521,45.06732428185086],[-0.482413503366561,45.06622196896776],[-0.482397021474114,45.06522207818321],[-0.482229136404751,45.065038062539344],[-0.480638432748815,45.06426584261403],[-0.480138195011036,45.06411564557261],[-0.477378923705919,45.06361062193405],[-0.476692013610345,45.063403151097646],[-0.476922956956714,45.06251540547727],[-0.477280882707317,45.06170660996618],[-0.477747510724378,45.061030508686024],[-0.478384077083031,45.05981554831817],[-0.478112809451456,45.0579277651091],[-0.478105729929008,45.05771168318497],[-0.478231121149602,45.057540131022414]]]]}}]}