{"type":"FeatureCollection","name":"COM_17300","crs":{"type":"name","properties":{"name":"urn:ogc:def:crs:OGC:1.3:CRS84"}},"features":[{"type":"Feature","properties":{"fid":3913,"ID":"COMMUNE_0000000009750154","NOM":"La Rochelle","NOM_M":"LA ROCHELLE","INSEE_COM":"17300","STATUT":"Préfecture","POPULATION":79961,"INSEE_CAN":"99","INSEE_ARR":"3","INSEE_DEP":"17","INSEE_REG":"75","SIREN_EPCI":"241700434"},"geometry":{"type":"MultiPolygon","coordinates":[[[[-1.174735159595902,46.174416704152584],[-1.174482266865686,46.17390839934902],[-1.173746210081134,46.17094166291669],[-1.173304558541636,46.17092002245337],[-1.17240603787225,46.171171264123686],[-1.172072704245699,46.17115736132655],[-1.171268090801847,46.17074957593315],[-1.170526158610596,46.17053425954768],[-1.169906353567352,46.1696210136772],[-1.168098815803705,46.170326713461954],[-1.166479402591095,46.17082709725306],[-1.164544294676909,46.17171686422696],[-1.16116705507698,46.17306793833209],[-1.159617044533194,46.173492635131886],[-1.157937797680942,46.17414747576284],[-1.157580410115654,46.174227289361404],[-1.157476304459935,46.174155355098904],[-1.156667250396282,46.17445819799657],[-1.154623618157591,46.17576925994972],[-1.152401725527602,46.17700744719522],[-1.151573796772489,46.17735332270616],[-1.150404034887212,46.177899244936306],[-1.147759637128623,46.17868567895735],[-1.146749892481176,46.178842482455686],[-1.145573565008821,46.17892510390113],[-1.14412452655102,46.178800348521634],[-1.14361833617309,46.179436500743066],[-1.143272334808636,46.17954741228224],[-1.140536149097904,46.17984287519358],[-1.139866935754364,46.17983390747013],[-1.138306295318439,46.179658140486104],[-1.137397325842883,46.179121369537526],[-1.13566980241414,46.177301496693],[-1.13469161112948,46.17675820999146],[-1.134442949026279,46.17671406155329],[-1.134416357064855,46.17656804917393],[-1.134563199069785,46.176501386131136],[-1.134430956060403,46.1762970014426],[-1.133531645261716,46.17568049983389],[-1.130005610469969,46.174690657583376],[-1.126530094304602,46.1734563130836],[-1.12394139003869,46.17206883568456],[-1.122925106290964,46.17117156311493],[-1.121646653791856,46.17039470975245],[-1.121109786145596,46.170141878001374],[-1.120899425327097,46.17014049527222],[-1.120690737161058,46.16995420029044],[-1.119088363909552,46.16951188773874],[-1.116498825134007,46.16893762725499],[-1.115606395028954,46.16870216910709],[-1.11528326878028,46.16844336748351],[-1.115457915324804,46.16805561437891],[-1.116242879724517,46.167084873623295],[-1.117454775563681,46.16611397432724],[-1.118450431484024,46.16558192261829],[-1.120143984120878,46.165167009173096],[-1.121831920569509,46.16488482539115],[-1.121993920572743,46.1642261032112],[-1.121350698151311,46.16424945331311],[-1.120940619027718,46.16369716018685],[-1.121073322639173,46.16366709556281],[-1.120932189530557,46.16318799798358],[-1.121007919315938,46.16296973972082],[-1.121171391686919,46.16284838673235],[-1.122065293775382,46.16237950639857],[-1.121982595134645,46.161900993448796],[-1.121919923668784,46.16179235793298],[-1.12176910691278,46.161823081315774],[-1.12173633664951,46.161715163599354],[-1.121843287268577,46.161687836244845],[-1.121612035102644,46.161097493456985],[-1.12065735256305,46.15961817046577],[-1.119708810851793,46.15866882565414],[-1.11562604717138,46.155430082090355],[-1.114442687933953,46.15411590383257],[-1.113675106801439,46.15294715302075],[-1.111069031885213,46.14892255961233],[-1.113487015034473,46.148295735828206],[-1.118753736269561,46.147338290396796],[-1.119563974311408,46.14724396282356],[-1.120850813001475,46.147242336142845],[-1.122610294565447,46.14748773149651],[-1.123077428396369,46.1477304578321],[-1.124109500694202,46.14806717526488],[-1.124334584856124,46.14800669727544],[-1.125587525901888,46.148295700521025],[-1.127288501171041,46.149141892795605],[-1.128757537760004,46.14962949853398],[-1.129109492149474,46.14972039371524],[-1.129398165714839,46.149694563028184],[-1.129585201039203,46.14959397977117],[-1.129765080163918,46.14967400047475],[-1.130083064293857,46.149744487362945],[-1.130336410770596,46.14933580695497],[-1.130668888594634,46.1490820472063],[-1.130845230023193,46.14897734227285],[-1.131179793095024,46.148957952310255],[-1.131203451057388,46.14870370778139],[-1.130910713723401,46.14815890215921],[-1.130993015910239,46.148045896928565],[-1.131426768206139,46.14789665511092],[-1.131608779520811,46.147729523677],[-1.131812479167496,46.14728206889613],[-1.131817349052004,46.14700235810466],[-1.132123486917493,46.14665757658118],[-1.1321437471511,46.14580741756113],[-1.132716275532582,46.14577845690771],[-1.135197359959518,46.14528772460933],[-1.135786718748234,46.14496597661219],[-1.136035911002729,46.14457185997754],[-1.136078407876794,46.144309713160595],[-1.135976798857309,46.143908542034545],[-1.134257021097116,46.142761088406274],[-1.133627508590908,46.14246390653212],[-1.133243828126384,46.141486887537155],[-1.133620882710245,46.14151553590843],[-1.135236201562454,46.14208699534042],[-1.135678070524757,46.14214934440753],[-1.136041598758049,46.14211896408219],[-1.136467194173183,46.141948356644114],[-1.137263633090445,46.14136296183734],[-1.137717892301763,46.14141763736365],[-1.137935352144485,46.141187884533046],[-1.137848618447225,46.14115587959047],[-1.138454388698302,46.138663064077456],[-1.138572962152564,46.13849823286512],[-1.13886217891388,46.138497604309364],[-1.139727802753271,46.138726630057846],[-1.143053366184313,46.139340179415385],[-1.145476269344527,46.139937916673915],[-1.147051129113291,46.14004178895409],[-1.147215991493705,46.13971745353724],[-1.147550075757684,46.13897213722055],[-1.14788879031092,46.13809950622504],[-1.147535802587391,46.137857217709936],[-1.14746555352866,46.137717311637545],[-1.14795050938201,46.13581136162226],[-1.147710134171862,46.13563439108857],[-1.149172477262487,46.133138139759104],[-1.149527077096497,46.13335060628995],[-1.14966956157473,46.133348100999065],[-1.151060691048148,46.13421428235976],[-1.151851408663562,46.13532153871365],[-1.153249240513128,46.136857439739806],[-1.153908005528764,46.13726616059209],[-1.154731940094687,46.13752635685449],[-1.15612620222202,46.13772959203108],[-1.158833694028021,46.137768367594155],[-1.160569748909171,46.137518072439114],[-1.161508932052996,46.13709137873771],[-1.162647376869374,46.13739318753351],[-1.164215500518452,46.1380065511197],[-1.166371372553829,46.13843329878852],[-1.167743095035193,46.13839014368517],[-1.168837888373254,46.138458140655686],[-1.169471585741393,46.13839879008307],[-1.170671519114479,46.13851881466154],[-1.171433488824963,46.13847457722612],[-1.172212434831873,46.138312483548866],[-1.173537880814444,46.13851352937248],[-1.174284202416758,46.138502311105036],[-1.174101571560624,46.13876151785807],[-1.172983279653426,46.13923728646655],[-1.172480453755308,46.13953351265412],[-1.171912632098419,46.1397257197972],[-1.171550781042006,46.14054518170733],[-1.171416718526486,46.140539288528124],[-1.171347161314246,46.140613984805746],[-1.171478318976844,46.14068400875779],[-1.171552235535452,46.14138284957444],[-1.171632241363251,46.14139433667653],[-1.171702512805033,46.1416018602769],[-1.171624384136442,46.141700317133086],[-1.171909238661792,46.141829616724756],[-1.172214792100527,46.141770591620734],[-1.171671929901159,46.14195015638137],[-1.171638940123126,46.14223271352502],[-1.1718546855624,46.142732465696504],[-1.171988305640456,46.142817728416475],[-1.172821639566065,46.14480159211325],[-1.173012629849065,46.14550424399064],[-1.17286866355497,46.14616961506137],[-1.172639936719618,46.146522490939354],[-1.172274671905197,46.14685423483464],[-1.171473526708438,46.1473570980951],[-1.170360514040335,46.147717216081915],[-1.169823689851307,46.14802820230445],[-1.169588157772174,46.14805308631],[-1.169625696708641,46.147898410868166],[-1.169851430475869,46.14789823381245],[-1.171781811957195,46.14704368282356],[-1.172125118478769,46.14679841363382],[-1.172393128481579,46.14641614076142],[-1.170358312694741,46.14192268804622],[-1.167263592551457,46.14259544570449],[-1.16713629273887,46.14293466635959],[-1.167270450688145,46.1432660903405],[-1.167140745652121,46.14377853379221],[-1.16773935226703,46.14412716963135],[-1.167687238165926,46.14427787089053],[-1.167830575269958,46.144303266547155],[-1.167731194692947,46.14465138172705],[-1.167573625936205,46.14462650850028],[-1.167427157436873,46.14485010841617],[-1.166784285595164,46.14449948888293],[-1.166168600032486,46.14498468444327],[-1.165186713021001,46.1443552375986],[-1.165621670000444,46.14295960973119],[-1.165532120902253,46.14290789025936],[-1.165609481264913,46.14267961548043],[-1.166293729829143,46.142533665382146],[-1.166600332077869,46.142283447904965],[-1.166721771271827,46.141918292545306],[-1.16655820337271,46.1415753234727],[-1.166149207073565,46.141314405187394],[-1.165992536698565,46.14130121980552],[-1.164064825441634,46.14171102070896],[-1.163694481036225,46.14194192783159],[-1.163118045577083,46.1435934203584],[-1.162626070716837,46.14379451872919],[-1.161761039605956,46.14637906542858],[-1.162151294405504,46.14646124120313],[-1.162128838421581,46.1465414177349],[-1.161870214122074,46.14650130569701],[-1.161846802170246,46.14656889286383],[-1.162102774120963,46.14662533353451],[-1.16167113291457,46.14663034026072],[-1.16118641303192,46.14807285924257],[-1.161622878922721,46.14833639605524],[-1.162146306265117,46.14822432428221],[-1.162096173828716,46.14814500608672],[-1.162357166402323,46.14806239450389],[-1.1624689917309,46.14813403974187],[-1.16261872734023,46.148106906711504],[-1.166906756835662,46.14718669289114],[-1.167067634502045,46.1470843001664],[-1.167346418872892,46.14711644647148],[-1.167431122751632,46.14734328074259],[-1.167258537423412,46.14746233518918],[-1.161268235742748,46.148723619991436],[-1.160952622532889,46.14878749124501],[-1.159897356355689,46.15223564116335],[-1.155745617273592,46.15398468675227],[-1.155824214896016,46.154097231405515],[-1.155765446813692,46.15416070086185],[-1.155650692606506,46.1541360463612],[-1.15545923617842,46.15380129760947],[-1.153190221010865,46.15414854426379],[-1.152763902050334,46.154327354728466],[-1.152747558322135,46.15440279647686],[-1.152311496558329,46.154418747879646],[-1.152225481135688,46.15376272746252],[-1.152204635727372,46.15083195615034],[-1.152086689460798,46.15083356537977],[-1.152047600817497,46.151122648003465],[-1.152033914098184,46.149999589396934],[-1.151846306004001,46.15002358471592],[-1.15183881162244,46.150832713192415],[-1.15172467885573,46.150833280826774],[-1.15171160645926,46.15047216413057],[-1.151259028036923,46.15047519075432],[-1.151204082721819,46.15410216422165],[-1.149840876721435,46.15412585702162],[-1.149843775512197,46.154849841362264],[-1.152354947823095,46.15476973604548],[-1.152331178950487,46.15457583117808],[-1.152782905430003,46.154543977224506],[-1.152810964873453,46.15462320498193],[-1.153664845384196,46.15479575610312],[-1.153233421641822,46.15528404953458],[-1.153153340273881,46.155734239111275],[-1.153525462115304,46.15571341046926],[-1.153473774001482,46.15583613393852],[-1.153311346952399,46.155935856973464],[-1.152983830785259,46.15587750397411],[-1.152754795641725,46.15592014853585],[-1.152350323877001,46.15625055051218],[-1.151623778817232,46.15632040674368],[-1.151623577571717,46.15595791769118],[-1.151441874930746,46.155905950098976],[-1.149848292612835,46.15597233175738],[-1.149856844114178,46.15670242149881],[-1.150098471432912,46.15701460481883],[-1.151329146848185,46.156987642456855],[-1.151629224044825,46.15670073865619],[-1.151607909159353,46.15645354177183],[-1.152082602976697,46.15648487425953],[-1.150810702660088,46.15792095593025],[-1.151019380551411,46.15803776483132],[-1.15138579702999,46.15807847020013],[-1.152681946837014,46.158059018806085],[-1.152842542794416,46.15798641592953],[-1.154141823921783,46.15617598985619],[-1.154029034316981,46.15595468372863],[-1.153790666026995,46.155891267346796],[-1.15451316169445,46.155305753217085],[-1.155095042412155,46.15533044479224],[-1.155800648037616,46.15505303151959],[-1.15617952335901,46.15525828226688],[-1.157377626248866,46.154768051403565],[-1.157305814012936,46.15443703909667],[-1.157608659157367,46.15435831746652],[-1.157896274281411,46.15452362162994],[-1.158575287631207,46.155332855137395],[-1.158966596669544,46.1552058023967],[-1.158975925140531,46.1551919345775],[-1.15900610426945,46.155264771324354],[-1.15902876003638,46.155084495639215],[-1.158919431944482,46.15490905546742],[-1.160245832969565,46.15412643832287],[-1.159878461503268,46.15441493140477],[-1.160086324057802,46.15450379991357],[-1.160726720152148,46.15509441288028],[-1.160885864008958,46.15543033844911],[-1.161185797343548,46.15545000349116],[-1.161633617436074,46.155657218304334],[-1.163246678556075,46.15571078920517],[-1.164037345422002,46.1555970257237],[-1.164293797950291,46.155471293938234],[-1.165052407662638,46.15546510453795],[-1.166747277375636,46.1550755741733],[-1.167512532102575,46.15498616396286],[-1.169403712157165,46.15460200991734],[-1.170651183450465,46.15428475923469],[-1.172003180744568,46.15378961600487],[-1.17197731487917,46.15363727003557],[-1.172780367972799,46.1534481438491],[-1.172746391957137,46.1531040243653],[-1.174276947450724,46.15289265057032],[-1.174471688731739,46.152825973814494],[-1.175195995929662,46.152795727874356],[-1.176915333488098,46.1533934557062],[-1.177519574750792,46.153490250875834],[-1.180004834748947,46.15341138605329],[-1.181239286538383,46.15362201925699],[-1.182506861833783,46.15373944032945],[-1.184548911172205,46.15353162368741],[-1.186654572607199,46.15368122332804],[-1.187099060827483,46.153554814738136],[-1.187935819961706,46.153128076501204],[-1.188056165663834,46.152936973217635],[-1.18797968215302,46.15261516343773],[-1.187666740225117,46.15237421768445],[-1.187721897923716,46.15226397226237],[-1.187427688873149,46.152132348865514],[-1.187622655041048,46.15191594936084],[-1.185459745183686,46.15091361907267],[-1.186794326127451,46.151433407097386],[-1.186979310940295,46.151477081999865],[-1.187429686872273,46.15142800510014],[-1.190306932557339,46.15053729729545],[-1.190530268350432,46.15040370815859],[-1.191570497242669,46.15026340095599],[-1.192586786438728,46.14989492189869],[-1.193717005845109,46.14937072849297],[-1.194401691728903,46.14916237197487],[-1.195455197293395,46.148975547610895],[-1.197323989126595,46.148354578380975],[-1.197881403730321,46.148094095419836],[-1.19845507401078,46.14765626303362],[-1.19939358020723,46.14737446060241],[-1.200028656144195,46.14733202465298],[-1.20100360983565,46.14739062775115],[-1.201765440472984,46.14730922338138],[-1.202549640499964,46.14704573105025],[-1.203035432483404,46.14676532923534],[-1.20497203945032,46.14623550038431],[-1.206179039452918,46.146156508699114],[-1.20670644302313,46.14604678542338],[-1.2074683331365,46.14611863994099],[-1.208253066231463,46.146352862317706],[-1.208934265105756,46.14687768109626],[-1.209208332309641,46.14700007724371],[-1.209224498463265,46.147092359785496],[-1.209405968350941,46.14715777108598],[-1.210332498108309,46.147971066907154],[-1.210844444094416,46.14823432864091],[-1.213342163793639,46.14718936758177],[-1.213697071406215,46.14713110353861],[-1.216125552087399,46.147819148298765],[-1.218214050118984,46.14751069492701],[-1.220710741082815,46.14741517244855],[-1.224949597813456,46.14756857521568],[-1.226735819791736,46.147698657682845],[-1.227310291173402,46.148115527314886],[-1.227363222793226,46.14828038494124],[-1.227179303406827,46.14828452958036],[-1.226672590051949,46.14782094887092],[-1.226397810166585,46.147757235382635],[-1.221017457380784,46.14753993414986],[-1.220962140046034,46.1478999960008],[-1.221107384906196,46.14789910326951],[-1.221112109211667,46.14802788138992],[-1.221652360881317,46.14801770753257],[-1.221655104466741,46.148087042181636],[-1.221114921340968,46.1480981152524],[-1.221123522348206,46.14827724859393],[-1.221182593282715,46.148303006744264],[-1.221124002360339,46.14833404256369],[-1.221132304973195,46.148492446178054],[-1.221190290073238,46.14852095004001],[-1.221131491242331,46.1485492882618],[-1.221138707832822,46.14871043758946],[-1.221486057925878,46.14870563507529],[-1.221487555144267,46.14875878412249],[-1.220999526407023,46.148823826644566],[-1.221034594645746,46.149093956727036],[-1.22153376401661,46.14927468440196],[-1.221704280934745,46.149062737459744],[-1.222523363734387,46.14881494093345],[-1.222577673136958,46.14889678564231],[-1.221767714971032,46.14914514490491],[-1.221657061842307,46.14930887483777],[-1.222278218225866,46.149506704742045],[-1.222400768888014,46.149329004920915],[-1.222499277958207,46.149361411296816],[-1.223624642151193,46.14899670439875],[-1.223677728880889,46.14907949592279],[-1.222606796315707,46.14940971438801],[-1.222493765354059,46.14957623899446],[-1.223074798403436,46.14975842365188],[-1.223194482448101,46.14957722245466],[-1.223287609534023,46.149607123102335],[-1.224419996615557,46.149249361227],[-1.224472807659634,46.149328555584844],[-1.223394250879911,46.14966086878093],[-1.22328346303679,46.14982280189456],[-1.223804725381732,46.1507448600961],[-1.223963494362317,46.1507173092096],[-1.224107327621352,46.15098429310619],[-1.226725013258696,46.150167227417434],[-1.226033276972066,46.14905403895892],[-1.225887151394653,46.14900988177679],[-1.225882993277498,46.148905430363854],[-1.225988342233763,46.148858222648634],[-1.226142322463834,46.1489201227883],[-1.226996663414055,46.15022384289402],[-1.22719301946245,46.15024628897911],[-1.22833313520578,46.14992156565504],[-1.228780553419397,46.14993555773634],[-1.230342863391746,46.15081158507517],[-1.231795924437205,46.15196941444976],[-1.233007961517713,46.153399536232165],[-1.233615692054334,46.1546321522612],[-1.233563975785256,46.15475221453186],[-1.233361624297661,46.15478681462839],[-1.233247471042015,46.15468646506508],[-1.233293601272092,46.15442683506849],[-1.232931175674436,46.1536990859065],[-1.232059047769842,46.15252051244907],[-1.230922404211004,46.151444677042456],[-1.230777949599103,46.15133824062278],[-1.230619827066731,46.15134052714089],[-1.230174693930276,46.1514572148435],[-1.229941124145192,46.151608400523735],[-1.23001528176508,46.15184641227017],[-1.230258654143394,46.15207451065981],[-1.224244846217063,46.154941581617926],[-1.224054857955296,46.15474935895403],[-1.223419700027489,46.15509492646212],[-1.223574566165951,46.15530288535785],[-1.223441887177928,46.15545030247176],[-1.224129247125683,46.15502433791673],[-1.224366832467285,46.15526168160528],[-1.223552073064114,46.15554990710921],[-1.223839552801174,46.15555904965629],[-1.225236011428195,46.15697607464485],[-1.225473238270936,46.1573937852412],[-1.225488762441562,46.15769620449027],[-1.225828289392709,46.157757511742055],[-1.225791711466695,46.15780486399823],[-1.223811467326405,46.15751875239542],[-1.223828755589139,46.15740628890725],[-1.223729399926124,46.15736309332151],[-1.223674007755352,46.157503126007775],[-1.223527354330478,46.15743553851471],[-1.223145034371483,46.157458779902136],[-1.223087479364843,46.15740230562125],[-1.2229967828443,46.15747150922952],[-1.222408495829504,46.157432071532014],[-1.221880995373771,46.15688447442975],[-1.221706191332477,46.156956804993776],[-1.222003380138892,46.157310971185325],[-1.221287334845281,46.15760091808703],[-1.220943368681402,46.157633547077396],[-1.220951958583431,46.157694548337254],[-1.221573042106009,46.157654319621926],[-1.221796512757971,46.157556733319424],[-1.221852586663596,46.157627691690315],[-1.220640985379852,46.15775119930092],[-1.220672574586417,46.157959236419856],[-1.220556644076696,46.158004126443515],[-1.220809151006492,46.15803080928436],[-1.22085582710592,46.15826624043711],[-1.217832694236948,46.15845795913144],[-1.217823464493676,46.15837173191062],[-1.218495653218839,46.15828723828231],[-1.218249623379377,46.158209810357135],[-1.218234324838298,46.15806158634057],[-1.218502946949322,46.158011024779015],[-1.218490415587487,46.157898768852725],[-1.218216327939642,46.15787829345739],[-1.2181524220177,46.157351327547666],[-1.217978282864199,46.15741551147835],[-1.217959946702498,46.15734585452549],[-1.218003915208317,46.15720895494196],[-1.217976078211452,46.15716760595828],[-1.2178160217401,46.15716182991859],[-1.218572731904181,46.15630408079594],[-1.218523596892607,46.15622204187177],[-1.218313819986121,46.156210900142526],[-1.217574071639191,46.15718795297528],[-1.217244664962501,46.15720740504943],[-1.218440080133639,46.155811231735676],[-1.218254309035692,46.15565671776788],[-1.218097370310776,46.15569140620162],[-1.216870453546858,46.15723483291327],[-1.210465217505704,46.157640312602695],[-1.210514129305602,46.158226451140656],[-1.213047960481403,46.158067516091556],[-1.213062001093841,46.15819955512076],[-1.210497591445934,46.15836593677761],[-1.210621465135399,46.15943805318044],[-1.217905705033302,46.15896835492705],[-1.217868826510289,46.15865771189477],[-1.220889728458743,46.158470584465384],[-1.221681256424228,46.15872250544716],[-1.221654347302371,46.15887861138071],[-1.22126028793038,46.159052878906444],[-1.221261599084595,46.15912046323211],[-1.222216268171443,46.16012560905133],[-1.222956218790157,46.159707617817794],[-1.22289614286027,46.1596521389181],[-1.22301579628725,46.1595881707973],[-1.223183802051641,46.15973071395806],[-1.22306033572994,46.15979572586399],[-1.223007630210023,46.15975169592094],[-1.222262503280656,46.1601698799987],[-1.223279402985777,46.160971607771785],[-1.223404220171865,46.16121044384003],[-1.223937236164036,46.161037311677724],[-1.23070259769739,46.157541691573165],[-1.231000696143882,46.15782275838334],[-1.231359892897788,46.1576344247924],[-1.231538042792572,46.15762237357956],[-1.231694766075175,46.15776983424113],[-1.231844077207248,46.157737214839315],[-1.232188679142209,46.157864144197276],[-1.23238566248455,46.15806240635653],[-1.232482720291474,46.158344652393275],[-1.23244098006109,46.15886292927641],[-1.232914585507571,46.15889577068242],[-1.232363116195105,46.16215733326421],[-1.231866511949805,46.16211272089557],[-1.231702375921497,46.16259227384961],[-1.231556482688699,46.16273658594463],[-1.230281276262819,46.16331525700162],[-1.230130646649875,46.164491379304756],[-1.230606182283288,46.16522123591709],[-1.230774434519935,46.165652329537416],[-1.235844337715681,46.16572481036887],[-1.236368857352565,46.16569351707638],[-1.237311872861398,46.16543468413839],[-1.238015870164935,46.164921444290094],[-1.23833639979,46.164299872795425],[-1.23918003075337,46.15946727149437],[-1.241140236303285,46.15960958361827],[-1.241490594254247,46.15781456326817],[-1.24129732188306,46.15778210580869],[-1.241332480813705,46.157582399112954],[-1.24189493207181,46.1576398387686],[-1.241857924571816,46.15783240049094],[-1.241584565913525,46.157804739615166],[-1.241238120926465,46.159616748130546],[-1.241517346448574,46.15968657494517],[-1.240866346503558,46.16304750517863],[-1.238500612711461,46.164291938844244],[-1.238387200471694,46.16463794911188],[-1.237835992883111,46.16528075620707],[-1.236969184811315,46.16570267796871],[-1.23642052949521,46.16580791907053],[-1.230781493721874,46.16577741388084],[-1.230499613300727,46.1662451196512],[-1.23011360347621,46.16654085714904],[-1.227496720623515,46.16768077932575],[-1.225888811133036,46.16867667971437],[-1.224084805119456,46.17046349327946],[-1.223509903906052,46.171290163955724],[-1.222869896829522,46.17256923780097],[-1.222551329665065,46.17298327592097],[-1.219878178447187,46.17378603071167],[-1.219820440338961,46.17480627758251],[-1.219962808849448,46.17512111626605],[-1.220347479915237,46.17524479183198],[-1.221474801485185,46.175403984808554],[-1.222573344813057,46.175324365020224],[-1.222705617724719,46.17545741789302],[-1.222680652809191,46.17585783221072],[-1.221930409080535,46.175909173770094],[-1.219695503835619,46.17625195255091],[-1.218957928574077,46.177648247072874],[-1.218639711876426,46.178961325125975],[-1.218301561328926,46.17940853981061],[-1.218248658017891,46.17983433733842],[-1.217720724370921,46.180379677770595],[-1.216990843288714,46.18088201498976],[-1.215745751997378,46.182483792850086],[-1.215407377915111,46.18254053930803],[-1.214436982547298,46.18303916012764],[-1.214271263905482,46.18321394014752],[-1.213782086830203,46.18338629285577],[-1.212229572413358,46.18365940525394],[-1.211076833589883,46.18369493762184],[-1.209368983277532,46.18407566895135],[-1.208746676020567,46.1840870083279],[-1.208691075492844,46.184022338062604],[-1.207992454612897,46.18390213824934],[-1.20723236863799,46.18411425687191],[-1.206435800246542,46.184510779403034],[-1.205025864782649,46.185661336069046],[-1.204284300745829,46.186470616308355],[-1.204272552107506,46.18665591245886],[-1.20356553154299,46.187340367047334],[-1.201812110208714,46.18965153112618],[-1.201054715457052,46.19093299240187],[-1.199914744519271,46.19047647459271],[-1.197963350846879,46.189512489190435],[-1.194460502682907,46.18837943403569],[-1.193942341149181,46.18803876677005],[-1.193850505848368,46.18789066261914],[-1.193046818086369,46.18753438275439],[-1.192820274155111,46.18730558394786],[-1.193578876231059,46.186801451350924],[-1.193565588497221,46.18644123963928],[-1.193059653324424,46.18610733181199],[-1.192417708738044,46.18548897893994],[-1.191387878842919,46.18509504654746],[-1.19132289685347,46.18465287956744],[-1.191392104464471,46.1843356132556],[-1.191194240989922,46.18426085525574],[-1.190949338777559,46.18396149230793],[-1.190586782779124,46.18378730508261],[-1.188588886417195,46.1832965057593],[-1.187657583022064,46.18289981013627],[-1.184555857115323,46.181961789658246],[-1.181579909480223,46.18095232800911],[-1.181263439227774,46.180990130430686],[-1.180869907020401,46.181157915377455],[-1.180319375530671,46.18170119448131],[-1.180060796714818,46.181834251284634],[-1.177866383811397,46.18227118549243],[-1.176900568118077,46.1823400739432],[-1.175803229435484,46.182216307682964],[-1.174882290343571,46.18222671901107],[-1.173360698314855,46.18200400238354],[-1.173118825727151,46.181862298751724],[-1.172503302084933,46.18192819746859],[-1.173717121348562,46.17923517461933],[-1.173306129081634,46.17867947425109],[-1.172929066228941,46.17792143708251],[-1.172298011389768,46.176026614839664],[-1.172293137093815,46.17574094120335],[-1.172447234322024,46.175343922688405],[-1.17395983716095,46.17553631581026],[-1.174980122588287,46.17550241705318],[-1.175048129889543,46.17504904412373],[-1.174735159595902,46.174416704152584]]]]}}]}