{"type":"FeatureCollection","name":"COM_23040","crs":{"type":"name","properties":{"name":"urn:ogc:def:crs:OGC:1.3:CRS84"}},"features":[{"type":"Feature","properties":{"fid":4208,"ID":"COMMUNE_0000000009750068","NOM":"La Celle-sous-Gouzon","NOM_M":"LA CELLE-SOUS-GOUZON","INSEE_COM":"23040","STATUT":"Commune simple","POPULATION":159,"INSEE_CAN":"10","INSEE_ARR":"1","INSEE_DEP":"23","INSEE_REG":"75","SIREN_EPCI":"200067544"},"geometry":{"type":"MultiPolygon","coordinates":[[[[2.18291057289481,46.2288124147808],[2.192893348377004,46.22850995139082],[2.19353931185468,46.229230452004934],[2.193863064366564,46.229185918927236],[2.195227522210152,46.22825452670954],[2.195418057636578,46.22888714447437],[2.1957923154029,46.229379677746834],[2.196031148807055,46.22928590972065],[2.20382686127758,46.23108234908233],[2.203588557007642,46.23176508169568],[2.203645339961104,46.23267951384646],[2.204644178787467,46.23279366301022],[2.204738321549657,46.232476435143305],[2.205004879774724,46.23252872741048],[2.205263104845895,46.23261878296101],[2.205456408756416,46.23306949573103],[2.20578081709646,46.233249164341025],[2.20701294021447,46.23320552756042],[2.208553023617635,46.23304334947379],[2.209017738608788,46.23348243563427],[2.209366922990919,46.234104424420416],[2.211223837844718,46.23402005531644],[2.211614611981092,46.23346713917919],[2.213140033854991,46.233963982209204],[2.213438611879216,46.234137146452795],[2.213703297891513,46.23450188762211],[2.214231247799273,46.234969305303636],[2.214650272205257,46.235250460498925],[2.2150661357143,46.235390209847196],[2.215297737675784,46.23561964014463],[2.21553891868715,46.23599592159079],[2.215844269348297,46.23714799678627],[2.21638038000892,46.237320088144045],[2.216631012354849,46.23749021200112],[2.215471969921869,46.238043254025605],[2.21529580754224,46.239288365894275],[2.215554153556166,46.240007865395356],[2.216300201244097,46.24047587546068],[2.216484943028785,46.241170551562774],[2.216750602161417,46.24128944853219],[2.217172044071596,46.2413148615359],[2.2175620225055,46.2410897108429],[2.218467994324834,46.241630847836035],[2.21751547846934,46.24253113044836],[2.218010141075724,46.24351970417026],[2.218399502588109,46.24342962496201],[2.218983487935783,46.24307072302153],[2.218984729280296,46.24271052186533],[2.218790583874695,46.24203559715422],[2.21918054795411,46.24181134136593],[2.220817681326958,46.24168388176086],[2.223129646419328,46.241285447192105],[2.226130910358224,46.24050713186536],[2.227605428676108,46.240310929752305],[2.227626684220071,46.240184100216865],[2.228583645057353,46.23996726157338],[2.229534414142142,46.23954415317853],[2.230538877580319,46.23936274022432],[2.230467628346305,46.239168645940794],[2.229560945644502,46.23867262624104],[2.229431040472446,46.238312437818266],[2.231961919660751,46.23728043846032],[2.23287011026285,46.23674174822728],[2.233065447242431,46.23678629005984],[2.234228772758293,46.238047652749856],[2.234747794493804,46.23786833820482],[2.232613928466999,46.235481989916885],[2.232938131208833,46.23494206089176],[2.23255004230333,46.23476204092594],[2.231189926308509,46.234400754541745],[2.231254104775432,46.234266109630674],[2.232227881314605,46.23395209809938],[2.232487419086932,46.233952048020015],[2.233652330925535,46.234538035716206],[2.233846980040062,46.23453844599465],[2.234172501679167,46.23408857472852],[2.234106903561846,46.23395395524019],[2.233167054529381,46.233420818969165],[2.232472466212784,46.23242555987394],[2.231271732706973,46.23189965267293],[2.231398293896786,46.231295355747854],[2.23135716319104,46.23098980033847],[2.230169930787261,46.23079896726945],[2.229074931257235,46.23041693511256],[2.227606268950389,46.230216963690786],[2.22806625028679,46.22961943578505],[2.228690154151003,46.22945166698147],[2.228645895390141,46.22909295829569],[2.229037460376081,46.2278231715846],[2.230474039431625,46.22716200689937],[2.231042465644291,46.227154143433324],[2.231527962181943,46.22704575882977],[2.235858963368908,46.22519373678343],[2.235517957963672,46.22480512110865],[2.235231954539097,46.22419444472956],[2.234606661025767,46.22112305456198],[2.236205457347308,46.220999622428614],[2.238215116847931,46.221091443619656],[2.239982978724898,46.22047020040926],[2.241587015884982,46.22005946086775],[2.241133405584241,46.2197448545634],[2.241135482615827,46.21884524533971],[2.237767599668926,46.217447627472296],[2.237443818925524,46.217222127377454],[2.236476701202223,46.214567197682136],[2.23654209761821,46.21434250552894],[2.237774785932535,46.21375912828856],[2.238163903561876,46.21366898122906],[2.238940387836982,46.21389480786915],[2.238939337662047,46.21434416243618],[2.239587937484964,46.2143448982985],[2.239588982342996,46.21389554372554],[2.239006304413355,46.2134449867724],[2.237387684866206,46.21267860573314],[2.236519978229393,46.21136702379018],[2.234294234714408,46.2118194337482],[2.233152435681159,46.21221157431753],[2.232853196522876,46.21208978656568],[2.232788184551981,46.211730038545355],[2.23324490863154,46.2105156085178],[2.233245855304588,46.20970604277857],[2.2330518126355,46.20939045113691],[2.232015960494039,46.20907458103452],[2.232016507600566,46.20885035390836],[2.2326661564318,46.208400874094686],[2.232859972028574,46.2081761497299],[2.232667038467022,46.20741120264305],[2.232732925357013,46.20678127935712],[2.232021342092608,46.206375742528735],[2.231697089371661,46.2063753534868],[2.231502574926156,46.20646499232673],[2.230206813709439,46.206374281117455],[2.228976036851489,46.206643305540766],[2.228328191474025,46.20668753996566],[2.227163211041573,46.20587635996869],[2.226388545758656,46.20470581198254],[2.222114084115308,46.20348705825244],[2.218746428699374,46.2027192364159],[2.218098068041028,46.20334785104248],[2.217707778696169,46.203977337087146],[2.216995089452988,46.20393190851383],[2.21679991647123,46.20406654416761],[2.216670272368836,46.20442586221422],[2.216547144972277,46.20451056414226],[2.216241651629537,46.204468835929774],[2.214765366868646,46.203947152293445],[2.21434387782008,46.20394514169944],[2.213802576796793,46.20379641579833],[2.213701363656889,46.20389027144792],[2.212351031335624,46.20345137502695],[2.212591879576109,46.20311714599794],[2.201285053702996,46.19892827761186],[2.200084230454215,46.19892343869407],[2.194416471807938,46.19860246120662],[2.193610903579955,46.20188008504084],[2.192575303568924,46.20192406690613],[2.189268487169345,46.20286410729955],[2.190427690701518,46.20542987220008],[2.183868896645683,46.21072944501693],[2.183803959008306,46.21090908517689],[2.184190206588279,46.211539526223454],[2.180926034360234,46.21461209153057],[2.181611854388624,46.21507449771292],[2.181392978242087,46.2152242118526],[2.181069970715763,46.215223687804844],[2.180292445137049,46.21490830455452],[2.179968815929558,46.21486274634055],[2.179645086203126,46.21499729266652],[2.177176602617013,46.21697323844537],[2.175811052107284,46.2183204527346],[2.175290264129618,46.21921991090921],[2.175157383767108,46.220118578036136],[2.174831051692176,46.22119864967495],[2.174892938468378,46.221827669217426],[2.180457641499748,46.22502965633035],[2.181297874455532,46.22602088586859],[2.182848961838511,46.22746207849105],[2.182978535103933,46.22782232037499],[2.18291057289481,46.2288124147808]]]]}}]}