{"type":"FeatureCollection","name":"COM_33094","crs":{"type":"name","properties":{"name":"urn:ogc:def:crs:OGC:1.3:CRS84"}},"features":[{"type":"Feature","properties":{"fid":4248,"ID":"COMMUNE_0000000009756081","NOM":"Caplong","NOM_M":"CAPLONG","INSEE_COM":"33094","STATUT":"Commune simple","POPULATION":243,"INSEE_CAN":"27","INSEE_ARR":"5","INSEE_DEP":"33","INSEE_REG":"75","SIREN_EPCI":"243301371"},"geometry":{"type":"MultiPolygon","coordinates":[[[[0.129223898938283,44.76573358719121],[0.129315216157483,44.76609991845498],[0.128840403742243,44.7670524830389],[0.128473884661246,44.767419562321194],[0.128377377893507,44.7680215680967],[0.128822308551315,44.76827364060991],[0.128803774408734,44.768413701447166],[0.129208541814596,44.769080949488895],[0.129113308632581,44.76928659094365],[0.128924706486357,44.769339361807326],[0.128465029104366,44.769796820953104],[0.128175473624857,44.76989472217453],[0.128137993566178,44.769984742165654],[0.128344729441212,44.77031983189277],[0.128992703581351,44.77209429063946],[0.129490970807585,44.77236756182578],[0.129754882446464,44.77319332178503],[0.129491859522394,44.77331623870031],[0.129837097872997,44.7736143726585],[0.129684468639077,44.7737302395549],[0.129742406296056,44.77529571361972],[0.12981812543686,44.775571550506456],[0.130193765360047,44.77614164350113],[0.130255133747889,44.77642611749075],[0.129941110778174,44.77665582400455],[0.129790861556182,44.77702220516096],[0.130057945712567,44.77776156013262],[0.13006750097611,44.77806991785808],[0.129402685202186,44.77845630469047],[0.129066351551672,44.77830524824476],[0.128897907044464,44.77838376766214],[0.1292421183471,44.778553947761665],[0.12999265141045,44.77866888454344],[0.130897125443192,44.77928690450063],[0.132668106804172,44.779309318335734],[0.134591252591574,44.77989510100497],[0.135633706839687,44.779916645249415],[0.136999245442355,44.78005193293556],[0.138091160653931,44.78059275193915],[0.138336378848366,44.78064593144984],[0.13954316848277,44.781763577990354],[0.139745722131309,44.78210844694325],[0.140130415128919,44.78215531201145],[0.141312479235966,44.782093917627265],[0.143375049214209,44.78267773463166],[0.14412233809567,44.783256455152454],[0.144899031220245,44.78353052181066],[0.145262358009194,44.78342546665225],[0.145984270801934,44.78335847425273],[0.146860168641192,44.78374679346584],[0.1475847940444,44.783825806497745],[0.149290793096149,44.78341114328616],[0.15126905563003,44.783264714364726],[0.152139667216287,44.78285916242596],[0.152070861680606,44.782594331628616],[0.156417175177348,44.78199602945145],[0.15787422859339,44.783650516613044],[0.159002347845855,44.78265422072495],[0.159755882169472,44.78206092563443],[0.162147548666407,44.78053932233825],[0.164516706592606,44.779787359524974],[0.164595973479699,44.779645244708625],[0.164425582280921,44.77883548623018],[0.164446537275262,44.77724144173482],[0.16406773744289,44.77640112502491],[0.164546072566052,44.77428996279886],[0.164481204795044,44.77214057748777],[0.170487781210697,44.771202247813335],[0.171509221390316,44.77111031079885],[0.17312563665759,44.771157867977095],[0.17335507394762,44.76978896768267],[0.173260252319635,44.769486553313065],[0.17302640809964,44.769182393638],[0.170919853544145,44.76741603905179],[0.170414351836522,44.766881516571196],[0.1701805338339,44.7665773511681],[0.169908632992902,44.765446999963665],[0.168998836121105,44.765131868627655],[0.169107326570284,44.76486077112922],[0.168659465187909,44.763910602242014],[0.16890843221072,44.763737688166344],[0.169501223618412,44.763567252222494],[0.169684012636776,44.76342778030131],[0.169826011691111,44.76246565797066],[0.170071274892717,44.762039498102176],[0.170503201357271,44.76167305952006],[0.17095366240025,44.76103862899844],[0.171099387025909,44.760781093610106],[0.171144735200549,44.76040748350072],[0.170501224633814,44.7575658752376],[0.169179477171425,44.75388262513531],[0.169278416040646,44.75324822902552],[0.169024789992369,44.75328859314473],[0.168012159818599,44.75371405081307],[0.167729375165967,44.75423293692862],[0.1674107964215,44.75430767209116],[0.166909676632973,44.754341702395486],[0.165284879746107,44.75424427917915],[0.164854188777726,44.75416028477431],[0.162417911753786,44.75333214807803],[0.160185099240363,44.75270736791978],[0.158434760221285,44.751742673100054],[0.157591763493068,44.75088682177995],[0.157191513948055,44.75077655130365],[0.156517180430593,44.750786268594766],[0.156330631066385,44.750575176068764],[0.156254269711587,44.75031015635091],[0.155732442639903,44.750329189465944],[0.155515754233042,44.750264166272785],[0.153826741455867,44.750364018904975],[0.151539744311436,44.750713330792934],[0.148780396035371,44.75155133361018],[0.145852847085478,44.75261286194271],[0.144641354369111,44.75319154305023],[0.144188714824268,44.753490682243395],[0.143803969243665,44.75347355489768],[0.143174411668344,44.75357173318396],[0.141838731467573,44.754005741622265],[0.140396710109308,44.754790140393396],[0.138890784112231,44.75546296170845],[0.137972390898531,44.755621217865375],[0.137782502465326,44.755774869382655],[0.137481920916073,44.75636439716168],[0.137095966151164,44.75654451227817],[0.136874823253684,44.75686492164524],[0.136394533117158,44.75691106509958],[0.13613601030772,44.75704672364395],[0.135636990772748,44.757162649729764],[0.135380682922041,44.75767674127791],[0.135357636144762,44.757955423886415],[0.135461038768685,44.7581346739612],[0.13529919075409,44.758283641448735],[0.135461434781343,44.758424773613875],[0.135427583868888,44.758568042089486],[0.135125142927729,44.75884580588584],[0.134986881173231,44.759102590011864],[0.134683201395936,44.759181221970415],[0.134643146642439,44.75929730285924],[0.134754876167231,44.75938758000641],[0.134290904418731,44.759361164183915],[0.134047328829961,44.759724231810075],[0.133671068884373,44.75981269510016],[0.133601808356056,44.75995594792765],[0.133063322560368,44.76025012133554],[0.13325806009647,44.760473178766254],[0.133165953833081,44.76064286722234],[0.133183518742594,44.761042420715754],[0.132285928643319,44.761584054135405],[0.132003397011017,44.761545208633244],[0.131693833583255,44.761267824562644],[0.131218804789679,44.76128435321418],[0.130451883883339,44.76179241909908],[0.130338992021164,44.762542649062105],[0.130126466082115,44.76279209915396],[0.130272775520634,44.76299769132717],[0.130145341929083,44.763215111396384],[0.130315647151541,44.76342132510802],[0.130203347144017,44.76415985908515],[0.130024109125368,44.76445071219789],[0.129407513103688,44.76486176567832],[0.129223898938283,44.76573358719121]]]]}}]}