{"type":"FeatureCollection","features":[{"type":"Feature","properties":{"fid":289,"ID":"COMMUNE_0000000009758447","NOM":"Ygos-Saint-Saturnin","NOM_M":"YGOS-SAINT-SATURNIN","INSEE_COM":"40333","STATUT":"Commune simple","POPULATION":1344,"INSEE_CAN":"13","INSEE_ARR":"2","INSEE_DEP":"40","INSEE_REG":"75","SIREN_EPCI":"244000691"},"geometry":{"type":"MultiPolygon","coordinates":[[[[-0.770026347128808,43.97244843534332],[-0.769932559508596,43.97291658933131],[-0.771511469248957,43.97311527901161],[-0.772296923751328,43.97331431462041],[-0.772509286099345,43.97345024200207],[-0.772878937713146,43.97390780259881],[-0.774425290978439,43.97433012448207],[-0.775674533476023,43.97409054155408],[-0.776810005211842,43.97399813714593],[-0.776970784443567,43.974917914564344],[-0.779493518371933,43.97781392297597],[-0.783563373140643,43.98310889187822],[-0.783911988957231,43.98377348414403],[-0.780538981431016,43.98476962085149],[-0.779679436181042,43.985093085018235],[-0.778712256204861,43.98458412254833],[-0.777818772794622,43.98650354091029],[-0.776634416407705,43.987236456554456],[-0.775923355608541,43.98925497308637],[-0.77546073401603,43.989185359652666],[-0.774513054394091,43.989347840781925],[-0.772874643356659,43.98919988560682],[-0.770237692446285,43.989275571796455],[-0.769631598416976,43.98924422090461],[-0.768848963109984,43.98907209018318],[-0.768517064036837,43.989167329630114],[-0.76687111911642,43.98922587638914],[-0.765763674894616,43.988954094738325],[-0.764624211400272,43.98904741286644],[-0.76435044676482,43.98894601892668],[-0.764154164255826,43.988732933592594],[-0.762536463594259,43.989577923477476],[-0.761954515257937,43.99042237958516],[-0.761789122636049,43.99088488382916],[-0.76187479927779,43.99231453878765],[-0.761768635006934,43.992747974352746],[-0.760840918008575,43.99415934670407],[-0.759772013508206,43.99534220606809],[-0.75853418819434,43.99697325886294],[-0.757851842818671,43.999438457770964],[-0.757518800748356,44.00029325305435],[-0.756086746620821,44.00235082444702],[-0.755992677152992,44.0027982553337],[-0.756022357662354,44.00425146853239],[-0.755388208423115,44.00688258810427],[-0.754234691169284,44.008775591912],[-0.752770577620132,44.010010692959696],[-0.75152226632227,44.01166094348131],[-0.751762292734134,44.01558833896763],[-0.751660578345988,44.0159963852184],[-0.751191778176168,44.01648009726777],[-0.750961837119322,44.017140321412974],[-0.751469670973061,44.01730580486737],[-0.751099426334444,44.01966475523395],[-0.750753418233464,44.02303652112072],[-0.749881020046554,44.02704354135837],[-0.749914549804755,44.02882280904825],[-0.749770458176496,44.02949810978753],[-0.749860194364175,44.03023477189685],[-0.748982881802601,44.03949854365907],[-0.744512870870595,44.045275860934964],[-0.743630669914045,44.04656298769879],[-0.742782455445581,44.04755070416467],[-0.729206380873114,44.04610958538507],[-0.713791968492334,44.04412645818845],[-0.706514449937563,44.04328126702578],[-0.698016811131264,44.03613021898434],[-0.697489344507811,44.03560475030949],[-0.694070348101329,44.02974398863247],[-0.688383775309985,44.0212125657421],[-0.68786040064747,44.020631063721666],[-0.687132412138024,44.01953118630669],[-0.686660653624492,44.01939933176436],[-0.686247121682701,44.01881682322018],[-0.683593858059977,44.01209934197141],[-0.682055006773384,44.00770396352769],[-0.676713311884623,44.00248062428578],[-0.676179483515606,44.00003082726319],[-0.675898236894268,43.99685266728769],[-0.677430151434639,43.99456043714075],[-0.678221398045509,43.991970568082124],[-0.677726086361875,43.99143134162664],[-0.677576673677458,43.99112733881172],[-0.677186510850773,43.989780913860145],[-0.677125427955832,43.98924058981041],[-0.677419328523134,43.98814864576431],[-0.675836541320414,43.987696454267265],[-0.675483645572704,43.98748758792668],[-0.675817543723588,43.9859708537613],[-0.677113043092133,43.985820057157895],[-0.678050757086367,43.98304597930834],[-0.681409234915563,43.97900200104646],[-0.681641872009814,43.97885631637753],[-0.682537937347788,43.97779812726378],[-0.682743608882763,43.97569106135345],[-0.683179346271374,43.9740168099194],[-0.683208820210351,43.9727742976224],[-0.683801551025768,43.968743258886384],[-0.68409883167778,43.967514242933156],[-0.684537939511199,43.96367488645276],[-0.685587954778915,43.959099569527055],[-0.686675557790594,43.95260125740247],[-0.686988524453281,43.94992028508712],[-0.687239960884643,43.949604573881324],[-0.688380189757712,43.948820989605146],[-0.702946935096734,43.93920503066314],[-0.705393328115761,43.940050924345684],[-0.708718323842036,43.942882363977255],[-0.708772031877508,43.943401291774705],[-0.710230871487537,43.948075453895896],[-0.711206538674419,43.9525462017052],[-0.720855035917737,43.95569025483247],[-0.723760894439281,43.956719240247715],[-0.732460300348408,43.95929011970142],[-0.733015788247567,43.959354027127915],[-0.736432786782888,43.96035350989854],[-0.733154731210172,43.96501733060981],[-0.741997556345305,43.9670861773593],[-0.747617957156893,43.96880181164398],[-0.753212825903366,43.970067550929684],[-0.753858529202662,43.970248991061446],[-0.754052046772557,43.97038379765426],[-0.756606052597692,43.97033114721846],[-0.75794525356655,43.96971566162577],[-0.759694820354283,43.9690806313626],[-0.761182580432528,43.96890238102699],[-0.762011224221421,43.9692847043149],[-0.762413347458047,43.96955557167344],[-0.764216786855971,43.97030344679516],[-0.767095573021796,43.971162885969555],[-0.767551491968272,43.97141656408059],[-0.767373910530318,43.97176867228947],[-0.768403824656058,43.97158989384565],[-0.770026347128808,43.97244843534332]]]]}},{"type":"Feature","properties":{"fid":2185,"ID":"COMMUNE_0000000009758243","NOM":"Onesse-Laharie","NOM_M":"ONESSE-LAHARIE","INSEE_COM":"40210","STATUT":"Commune simple","POPULATION":1057,"INSEE_CAN":"13","INSEE_ARR":"2","INSEE_DEP":"40","INSEE_REG":"75","SIREN_EPCI":"244000691"},"geometry":{"type":"MultiPolygon","coordinates":[[[[-1.080428797301575,44.01967558264758],[-1.079584654144528,44.02098409080911],[-1.079616993845181,44.02112166951681],[-1.080089516669503,44.02158077384449],[-1.080449900855867,44.02171241829596],[-1.080367926173352,44.022049824753154],[-1.079994845113863,44.022159275450896],[-1.079754268249892,44.0223575058425],[-1.079926901672896,44.023372129484656],[-1.079749524903551,44.023563495406144],[-1.079025482622355,44.02374281357508],[-1.078316807884089,44.02404952467719],[-1.078489860740714,44.02421610094306],[-1.078199226040398,44.02448288404235],[-1.07839541014575,44.02465851101536],[-1.078437432654516,44.02486151714452],[-1.078952076996107,44.02515864233064],[-1.078905474872413,44.02576328764735],[-1.078414975912903,44.02630879004464],[-1.078022065554947,44.02631623525469],[-1.077072864358028,44.02668327652575],[-1.077012763756521,44.02711719499219],[-1.076822779572075,44.02730722344979],[-1.076856532428673,44.02746457718858],[-1.076577566599414,44.02820855961512],[-1.076664092061922,44.028666751301124],[-1.076568794601123,44.02923716300039],[-1.076187003968778,44.02988854893966],[-1.076264907491266,44.0301740310352],[-1.076188024050599,44.03030396722005],[-1.076365008429067,44.030629915007054],[-1.076640064249333,44.03072059620653],[-1.077214203692615,44.03142916856423],[-1.077665899680871,44.032172044531144],[-1.077758899072983,44.03275526356728],[-1.078678051340563,44.03329235150382],[-1.078926027622854,44.03370216488565],[-1.07961465370407,44.03435148379054],[-1.079979068992151,44.034573104453436],[-1.080751320124692,44.03469839691252],[-1.081620266277015,44.03521390489378],[-1.081938233459213,44.03551926361012],[-1.082130261232541,44.035862667611845],[-1.081925516953534,44.036474122963234],[-1.081765549016339,44.036664842497174],[-1.08132829902385,44.03704795538021],[-1.080854114850329,44.037125130917744],[-1.080730660462191,44.03737216392152],[-1.080390990627534,44.03763537511688],[-1.080209681899023,44.03794674976561],[-1.080199884414849,44.03817602343905],[-1.079934022179308,44.03824902704478],[-1.079754206273414,44.03898211298521],[-1.079813944891018,44.03924033514997],[-1.079696089628468,44.03940875248957],[-1.079791704396974,44.03966203157568],[-1.079635799552363,44.0399967903686],[-1.079663854932359,44.04005702636808],[-1.079971530372171,44.04006177064489],[-1.080063968790511,44.04023586131938],[-1.079819511133715,44.040590145861295],[-1.079901400562232,44.04086106019194],[-1.079696924210349,44.04091915587107],[-1.079873231128592,44.04125233689651],[-1.079667479368158,44.04169349624962],[-1.079732614610926,44.04183526093007],[-1.079268824636325,44.04211030772319],[-1.07923691719277,44.04229264194547],[-1.079051015970856,44.0424356588347],[-1.079164591822567,44.042747749294875],[-1.078833913468824,44.04277089650594],[-1.078833210359998,44.04326659089092],[-1.07909214005162,44.043863452165766],[-1.079063101177695,44.04436470978974],[-1.078801658903308,44.044342917297314],[-1.078743707793917,44.04458029565308],[-1.078768282177999,44.04469653726653],[-1.078992017890575,44.044819771080675],[-1.078987374580735,44.044911868264535],[-1.078874514806702,44.044958434283885],[-1.078971738329133,44.04549553816315],[-1.078888825065704,44.04561128223246],[-1.078467120822524,44.04561979793906],[-1.078081544628684,44.04583604705614],[-1.077756125455517,44.04643847603059],[-1.078218525406514,44.04701513777993],[-1.078579776753576,44.047104406593775],[-1.079223704076685,44.04754632301137],[-1.07927947491626,44.04778396692212],[-1.079151351355318,44.04796628497312],[-1.079252263056226,44.04824099787646],[-1.079448640370164,44.048383276211084],[-1.079556423680307,44.04898036881304],[-1.079408013978282,44.04922833152601],[-1.079386906907607,44.049578791437895],[-1.079233426276483,44.04973862361481],[-1.079347837058359,44.049922711553684],[-1.079325980360609,44.05014072036533],[-1.079585706614419,44.05029505585752],[-1.079708043902753,44.05074651003635],[-1.079876604724044,44.05095381219575],[-1.080037905429889,44.051042423971126],[-1.080673314974578,44.05110343651959],[-1.081327120963711,44.05135121290271],[-1.081529956756585,44.05126974465328],[-1.081960447157478,44.05124376759971],[-1.082192100893406,44.05135498519436],[-1.082640941931031,44.05134093774981],[-1.082760720013167,44.05159962387677],[-1.082769336371471,44.052172479239225],[-1.083164834346426,44.052720980987914],[-1.084593485046048,44.05319576149616],[-1.084851634013976,44.05343215605607],[-1.084932303311954,44.05377250994778],[-1.08469967293626,44.05464006306807],[-1.084929465120956,44.05545610288384],[-1.084628765421645,44.055915239605355],[-1.08391012231713,44.05634942349692],[-1.083463355733381,44.05695009439607],[-1.083367893611261,44.057239345851265],[-1.08338592299583,44.057682075487094],[-1.08402635265831,44.05882165134417],[-1.083973020384762,44.05964556040533],[-1.084473292163854,44.0600162141146],[-1.085484020530113,44.06126452656155],[-1.086007115282321,44.06160458169038],[-1.086295957668204,44.06165868232014],[-1.086922558566382,44.06236076657925],[-1.087537143407868,44.062738854238496],[-1.0875395318332,44.063293922702506],[-1.088051156860982,44.06394352024763],[-1.08835199477901,44.0640773773945],[-1.089230371193276,44.06412566233927],[-1.08961713106662,44.064220255521576],[-1.090397310314167,44.06474534869953],[-1.090651694699568,44.06477188745648],[-1.091217848675761,44.06459750918262],[-1.092737794900362,44.064755156930424],[-1.093392586744875,44.064440463859945],[-1.09417572986209,44.06434627242275],[-1.094553113291177,44.064640372336505],[-1.094831782634518,44.064656980254675],[-1.095659570828396,44.06393294620876],[-1.095934612890362,44.063899217795175],[-1.096622402806419,44.06409517112682],[-1.096784465805248,44.0640719794314],[-1.097239043134244,44.0637196972916],[-1.09766000640939,44.06352548717166],[-1.097950685599461,44.063049562134445],[-1.09868343913377,44.06272470587263],[-1.098969348631653,44.06242559890068],[-1.099228338654754,44.06236001877217],[-1.100035226799293,44.06237033916708],[-1.100768323520467,44.06258800042537],[-1.101219500283801,44.06291716400474],[-1.102589946852031,44.06327224210579],[-1.103578586049407,44.06302968304751],[-1.103863979096746,44.06315686807062],[-1.103944321921548,44.0634909181292],[-1.104633287564263,44.06372012374726],[-1.105499598566082,44.06417248717918],[-1.106118296634515,44.06434574006377],[-1.107577509465892,44.06452709221443],[-1.108298532554499,44.064992099374116],[-1.109468050676038,44.065972893425474],[-1.111311954223145,44.0677232379803],[-1.111915075685805,44.06792228077077],[-1.11269529873588,44.06837512432223],[-1.113432154213002,44.06855651503986],[-1.114863147714051,44.06945172450493],[-1.115874398751535,44.06964170659263],[-1.11565900094582,44.07025815254575],[-1.114629743502126,44.070994428724006],[-1.114955425485118,44.07191948205197],[-1.11544285444211,44.07254013796083],[-1.115532027256398,44.07283960464985],[-1.114665436802129,44.0742871586333],[-1.114213709534436,44.07473043530628],[-1.112843145698924,44.07527764391242],[-1.112524344848758,44.07551944431696],[-1.112465170182793,44.07625708914505],[-1.112716690898022,44.07662345862216],[-1.112733436309663,44.076889599828235],[-1.112389340076326,44.07735225579527],[-1.111974409315424,44.077665260627604],[-1.111859579977229,44.078030977227606],[-1.11132517559456,44.078213280601744],[-1.111233946167808,44.07842129204014],[-1.110645103373424,44.07855967318729],[-1.109370719271823,44.07931501603141],[-1.108673089321606,44.07941871721635],[-1.10845261679323,44.07982805082372],[-1.107320738853162,44.08037613823619],[-1.106954914486234,44.08117936246145],[-1.106643099645907,44.081310929635556],[-1.106449094402707,44.081584979345884],[-1.106343963007456,44.08281282245349],[-1.105812541386124,44.08312386401762],[-1.105586819693092,44.083409015676416],[-1.105513564972503,44.08511332595007],[-1.105384801203323,44.08535608633573],[-1.104618436292468,44.085703872536556],[-1.103954243620419,44.085821608063654],[-1.103635528912339,44.08577137183122],[-1.102921447361782,44.085215033723074],[-1.102437249162734,44.084985340078056],[-1.101899533316532,44.08501901253682],[-1.101567502241706,44.0853387818389],[-1.100680834088774,44.086758127045066],[-1.100758842382899,44.08744105550308],[-1.10006657899142,44.08779414311567],[-1.100057923369203,44.08807295353823],[-1.09883416921396,44.088841589198886],[-1.098419502106017,44.0894726699277],[-1.097928368152586,44.08961543079221],[-1.097181842301685,44.08970195821225],[-1.096938535951902,44.090316704600795],[-1.096659490175874,44.09055696714303],[-1.095611208593942,44.090863866188315],[-1.094934860444007,44.09143893215593],[-1.093410077348581,44.09190152498158],[-1.09258907897078,44.09293441100264],[-1.092406499769568,44.09303857178821],[-1.091966072726494,44.09310460521527],[-1.091658827253616,44.093474786630445],[-1.09142344400644,44.09397476459368],[-1.091531257088026,44.094743104362806],[-1.091272796705902,44.095026743843945],[-1.090974157637742,44.09574268081679],[-1.090873746430495,44.096641372919784],[-1.090953117448431,44.096875435261424],[-1.091492048340752,44.097291498694254],[-1.091511534952935,44.09742325404464],[-1.091026158031591,44.09823809822491],[-1.090291102515011,44.09846834569992],[-1.090471252761641,44.09886897933566],[-1.0904440427317,44.09908178965853],[-1.09069051489679,44.099343856392665],[-1.090899164962115,44.09986238983003],[-1.090047377756638,44.10086936826012],[-1.088876612905687,44.10178911558225],[-1.088925175789283,44.102394744460646],[-1.089287061088378,44.10295712735687],[-1.089391249764467,44.10331013114124],[-1.089322429707016,44.10416168029565],[-1.089204012348904,44.10444549111243],[-1.088755209095765,44.10493540958411],[-1.088199084959915,44.10516797052942],[-1.087816742463952,44.10545172042876],[-1.08687174439532,44.10638194072762],[-1.086553466962228,44.1069480898515],[-1.086128511476342,44.10716132374438],[-1.0850766011718,44.107509704168706],[-1.084808212546573,44.10767383110219],[-1.08457906607224,44.10801854601452],[-1.084313039052236,44.10950381711617],[-1.08450517068007,44.109705740482504],[-1.084541842779801,44.11000719296015],[-1.084326744667105,44.111226498717144],[-1.084371201281059,44.11149701856729],[-1.083611901152855,44.11544939193728],[-1.083073253411568,44.11627519790179],[-1.079003135704855,44.127998079952164],[-1.07890659681847,44.12860551728177],[-1.076605014967306,44.13526136946444],[-1.075756725210673,44.135281218376036],[-1.058341685244669,44.132384977840346],[-1.05807977449206,44.13232708760201],[-1.05811703611855,44.13223558250524],[-1.057440122456964,44.132113755035896],[-1.020532022623327,44.126024212585826],[-0.988554518492726,44.120349606963885],[-0.986459900430365,44.12007620432657],[-0.983232883428269,44.11935280141671],[-0.961208876863402,44.11523654535531],[-0.945495204337642,44.112946181474015],[-0.94511390518886,44.11273282339774],[-0.942892814285742,44.11091675551939],[-0.928902812248345,44.0993512699362],[-0.929639054049466,44.09786317174508],[-0.936742539222807,44.08595421315017],[-0.946762659282668,44.0642765712045],[-0.946893740459115,44.064202454477915],[-0.949846797057644,44.06380482054455],[-0.953031842682354,44.06494780532805],[-0.955101072075006,44.061005280904645],[-0.962087444186638,44.04680176701671],[-0.97145594407561,44.04793811215751],[-0.972859693197102,44.04832329684641],[-0.976181631266044,44.04892712628113],[-0.981861171773022,44.04992087713668],[-0.984103725319452,44.05016724658345],[-0.986246751486376,44.05063347723591],[-0.987573382152854,44.05100326678747],[-0.990432050402456,44.051374840078424],[-0.990287616278886,44.049992311492666],[-0.990582047879381,44.04943366147353],[-0.99194580900675,44.04828447775496],[-0.992226236587587,44.04777589816751],[-0.993067805871613,44.047874948159894],[-0.993369138487676,44.04807391968836],[-0.993757492646028,44.048088578572916],[-0.994292650362535,44.048236655417625],[-0.99643162836136,44.04442859221607],[-0.996627714551015,44.04387622122982],[-0.998800155698226,44.04396263396149],[-1.000205295238835,44.04363729800946],[-1.001870092758803,44.04346915984594],[-1.004487459045192,44.04371761154273],[-1.008435413298652,44.04424977963704],[-1.010151007504414,44.04464288823004],[-1.011838504987447,44.0432724984189],[-1.013410462623882,44.04076092612233],[-1.012050445834598,44.03997002833636],[-1.01208182606398,44.03958227348905],[-1.011621043209696,44.03907108812884],[-1.011064491164454,44.03886710899517],[-1.010143372763573,44.038364689665045],[-1.009726379487932,44.03836826353774],[-1.009748222471643,44.038181821264025],[-1.009421008885772,44.03812983438175],[-1.009338972464346,44.03786969973042],[-1.009149434591345,44.03780365313144],[-1.008465685187911,44.03721231516742],[-1.008428412374497,44.03680725334833],[-1.008267899561049,44.036674356153114],[-1.007972325180331,44.03671672977957],[-1.007503474597178,44.03646265915712],[-1.00722916660585,44.035955439258935],[-1.007298141812715,44.035906051048464],[-1.007214191849581,44.03570726522811],[-1.006387062391064,44.0352788747941],[-1.006040231617124,44.03498338067745],[-1.005966566020984,44.03484189223704],[-1.006104326009029,44.03474042087556],[-1.006345683277845,44.03492172564962],[-1.006539466468604,44.03483532352389],[-1.006343712339225,44.03453880134411],[-1.006577197703405,44.034182396520414],[-1.006612895034773,44.033837743645776],[-1.006006540377077,44.03377704986848],[-1.005797186354529,44.0333404432211],[-1.00612771395949,44.033085020188345],[-1.006419561892107,44.03249307545551],[-1.006152183506919,44.03203065950386],[-1.005997607093682,44.031200940885995],[-1.005809517019868,44.03106634804406],[-1.008284449937732,44.02876779951539],[-1.014719146127317,44.02222896769725],[-1.014461716999886,44.0214120503437],[-1.014228015902898,44.02084298358306],[-1.010315054298133,44.01443873679073],[-1.008678623024737,44.01279826776165],[-0.993884600013776,43.99062100358787],[-1.003965423484748,43.99281225758935],[-1.030752416681901,43.998240187558395],[-1.031715787768028,43.99821726957653],[-1.033726033270065,43.99838100121124],[-1.03491221379325,43.99854268100209],[-1.038213769274406,43.99917051336275],[-1.038688103092153,43.99915208512663],[-1.039922845141421,43.99959308222441],[-1.040474156705857,43.99992055378246],[-1.042779889391132,44.000429160970405],[-1.04351277899756,44.000394839687765],[-1.044407056658203,44.00047079275768],[-1.045329849835329,44.00029786047479],[-1.046309916578391,44.00036882030544],[-1.04675973606816,44.00025123456479],[-1.047992248243371,44.000238034411296],[-1.04851435253313,44.000259248505735],[-1.049260659405696,44.000448784241115],[-1.050040002261488,44.00045325095337],[-1.050944070391788,44.00029808690649],[-1.05199431149177,43.999407542678966],[-1.052664333306659,43.99922679598404],[-1.052865984380693,43.99925356307806],[-1.053011488926794,43.99912290359681],[-1.054334232525031,43.99890442095488],[-1.055151047743552,43.99897955464737],[-1.055960448291706,43.99917841901252],[-1.056073299400212,43.9994833353403],[-1.056069172040931,44.00014405301332],[-1.056415701260094,44.00045201217084],[-1.057553201531297,44.00090994346482],[-1.058357129322202,44.00103149322019],[-1.05840348760794,44.001173960854516],[-1.058720756535345,44.001193720753164],[-1.059016786722781,44.00145848880718],[-1.059368766258194,44.001492277906806],[-1.059402583781963,44.00165143232127],[-1.059685229987473,44.001605787967605],[-1.06014312135232,44.001916809621285],[-1.060952380033265,44.00220035609627],[-1.061355807033834,44.00260531758643],[-1.061580868679794,44.00271500947606],[-1.06148695029871,44.00288611975224],[-1.061514696117722,44.00311759425541],[-1.061756571576529,44.003287941650555],[-1.061705978800459,44.00345383735021],[-1.061956755155426,44.00359141098777],[-1.062123583242162,44.00381230954118],[-1.062358279954888,44.00442450347028],[-1.062799934077772,44.00487490200086],[-1.063157805134413,44.0050959075882],[-1.063230569571096,44.00529326602085],[-1.063968012772439,44.00586423785038],[-1.064023859659798,44.006366826313304],[-1.064497453791556,44.00656460056818],[-1.064642101027589,44.006859317366306],[-1.06496975774644,44.00709405818862],[-1.065113743564167,44.00778171746875],[-1.06559027027968,44.00782797889017],[-1.065980470141656,44.00818655744607],[-1.06651952337405,44.00823409389235],[-1.067113900270946,44.008584171584744],[-1.067775719529576,44.00867219366207],[-1.06814073184362,44.00883524304737],[-1.068580253264021,44.00878283686462],[-1.069198887925441,44.009140111854634],[-1.069986185552635,44.0098479762268],[-1.070329199840957,44.00991270675823],[-1.070943786941088,44.010597256970996],[-1.07115937860643,44.01062617674502],[-1.071514106367999,44.01052284547399],[-1.072026584571882,44.010844407573444],[-1.072215759329745,44.01078328873483],[-1.072581257013437,44.011040030661654],[-1.072733662991338,44.011355177919924],[-1.073008203477362,44.01150986764548],[-1.073498016832961,44.01154929269305],[-1.073520156899837,44.01170167093134],[-1.073294722271477,44.0118668794384],[-1.073610632558699,44.01211104710738],[-1.073879311923047,44.01267239291923],[-1.073615972063855,44.01304088269073],[-1.073566838857644,44.01359334474304],[-1.073809447426967,44.014052025249654],[-1.074034128047133,44.01415540062879],[-1.074042050156688,44.014353368816536],[-1.074438334872885,44.01455128220616],[-1.074380547877333,44.01477332823493],[-1.074673995190998,44.0156455652358],[-1.075000565262335,44.01563699745755],[-1.075262971488783,44.01586603352016],[-1.075695927171024,44.015808437880175],[-1.076038460614759,44.015970499774916],[-1.076622622377372,44.016071281028466],[-1.076545766498765,44.016393171721255],[-1.076913286790488,44.01645066138586],[-1.076984500919689,44.01667781168728],[-1.077224159801632,44.01686803914261],[-1.077124249997007,44.01707723897922],[-1.077470959818515,44.01726257241311],[-1.077716903025397,44.017261509975185],[-1.077733489869904,44.017510524019336],[-1.078119441351423,44.017615987391274],[-1.078111627907917,44.0180299303966],[-1.078282070705797,44.018020868716775],[-1.078739639707105,44.01825433277024],[-1.079014297098678,44.018305367239236],[-1.079036347698231,44.018438823680135],[-1.079463383138301,44.01882122149674],[-1.080152826438251,44.01910100111822],[-1.080309913677603,44.01928889720499],[-1.080239603260698,44.01952763666122],[-1.080428797301575,44.01967558264758]]]]}},{"type":"Feature","properties":{"fid":2717,"ID":"COMMUNE_0000002200276557","NOM":"Morcenx-la-Nouvelle","NOM_M":"MORCENX-LA-NOUVELLE","INSEE_COM":"40197","STATUT":"Commune simple","POPULATION":5005,"INSEE_CAN":"13","INSEE_ARR":"2","INSEE_DEP":"40","INSEE_REG":"75","SIREN_EPCI":"244000691"},"geometry":{"type":"MultiPolygon","coordinates":[[[[-0.824428966430355,44.08275680140198],[-0.824916730208596,44.0769052125374],[-0.827051738677504,44.05702928188376],[-0.8244318628871,44.04640081606093],[-0.822559939997607,44.03711226063513],[-0.821604142781447,44.0334062460258],[-0.820413455627157,44.03217194220583],[-0.817093419032857,44.0290566728655],[-0.816523912014643,44.02818089835136],[-0.815664876951841,44.025910477941004],[-0.815310039973928,44.02447306075102],[-0.815175058238799,44.02329738876845],[-0.814657035263411,44.02138089962126],[-0.81463728830593,44.020564333613144],[-0.814951521382146,44.01984964839126],[-0.814979727890806,44.01911520771541],[-0.814872843806205,44.018544966929014],[-0.816248079171775,44.016894004070146],[-0.817522095339863,44.01518708758086],[-0.818254794862646,44.013899128459556],[-0.82019837060036,44.0092962431997],[-0.820224410307262,44.00892139756347],[-0.820020049247039,44.00803379675131],[-0.819129168202243,44.00703592660729],[-0.819090069577978,44.00675075927329],[-0.81918470108786,44.00656093624119],[-0.819566113348965,44.006440385420596],[-0.819591513376319,44.006074573475495],[-0.819694703868818,44.00601239972124],[-0.819626077602196,44.00584540064276],[-0.819106474746025,44.00558062621536],[-0.819017408750864,44.00482956139421],[-0.819611123451483,44.004319548817534],[-0.820376046110441,44.00412882734519],[-0.820589586323558,44.00394385768488],[-0.820773380537604,44.003464383784134],[-0.821041087030151,44.00319372246627],[-0.821050132719693,44.00295643085298],[-0.821029632945441,44.00276252128043],[-0.818913879066136,44.00188946051835],[-0.817179226812439,44.00107693898609],[-0.816451799904738,44.00022472343699],[-0.81598037739698,43.99905721249305],[-0.815576149432813,43.99503556129929],[-0.815972525220948,43.994599134952814],[-0.820874045103663,43.99285196656944],[-0.83496347217303,43.99154933685914],[-0.838693137506952,43.99131477602854],[-0.839351338039572,43.99137725468595],[-0.840847972350258,43.99200946602956],[-0.841292514133422,43.99201276415133],[-0.842302643803661,43.99179704448822],[-0.843017208117726,43.99136284146377],[-0.843438403863704,43.99090921649566],[-0.844088762814042,43.98994924676775],[-0.844985096187687,43.98960144460566],[-0.845834066127517,43.988848025322156],[-0.847051684227838,43.98858260794747],[-0.848736154483117,43.988466529827996],[-0.849503829186566,43.98789615434072],[-0.860714791429621,43.98500652402012],[-0.863454051063894,43.97817969598047],[-0.863839651886027,43.97797773944494],[-0.87541571955603,43.97612785519083],[-0.875899285926005,43.97602780387256],[-0.90494205582222,43.978424046946614],[-0.908960436119601,43.97864709734312],[-0.915947634274753,43.979216884772605],[-0.973591448509711,43.98771662599335],[-0.974580331803508,43.98689938635132],[-0.976425552723192,43.988069501331374],[-0.993884600013776,43.99062100358787],[-1.008678623024737,44.01279826776165],[-1.010315054298133,44.01443873679073],[-1.014228015902898,44.02084298358306],[-1.014461716999886,44.0214120503437],[-1.014719146127317,44.02222896769725],[-1.008284449937732,44.02876779951539],[-1.005809517019868,44.03106634804406],[-1.005997607093682,44.031200940885995],[-1.006152183506919,44.03203065950386],[-1.006419561892107,44.03249307545551],[-1.00612771395949,44.033085020188345],[-1.005797186354529,44.0333404432211],[-1.006006540377077,44.03377704986848],[-1.006612895034773,44.033837743645776],[-1.006577197703405,44.034182396520414],[-1.006343712339225,44.03453880134411],[-1.006539466468604,44.03483532352389],[-1.006345683277845,44.03492172564962],[-1.006104326009029,44.03474042087556],[-1.005966566020984,44.03484189223704],[-1.006040231617124,44.03498338067745],[-1.006387062391064,44.0352788747941],[-1.007214191849581,44.03570726522811],[-1.007298141812715,44.035906051048464],[-1.00722916660585,44.035955439258935],[-1.007503474597178,44.03646265915712],[-1.007972325180331,44.03671672977957],[-1.008267899561049,44.036674356153114],[-1.008428412374497,44.03680725334833],[-1.008465685187911,44.03721231516742],[-1.009149434591345,44.03780365313144],[-1.009338972464346,44.03786969973042],[-1.009421008885772,44.03812983438175],[-1.009748222471643,44.038181821264025],[-1.009726379487932,44.03836826353774],[-1.010143372763573,44.038364689665045],[-1.011064491164454,44.03886710899517],[-1.011621043209696,44.03907108812884],[-1.01208182606398,44.03958227348905],[-1.012050445834598,44.03997002833636],[-1.013410462623882,44.04076092612233],[-1.011838504987447,44.0432724984189],[-1.010151007504414,44.04464288823004],[-1.008435413298652,44.04424977963704],[-1.004487459045192,44.04371761154273],[-1.001870092758803,44.04346915984594],[-1.000205295238835,44.04363729800946],[-0.998800155698226,44.04396263396149],[-0.996627714551015,44.04387622122982],[-0.99643162836136,44.04442859221607],[-0.994292650362535,44.048236655417625],[-0.993757492646028,44.048088578572916],[-0.993369138487676,44.04807391968836],[-0.993067805871613,44.047874948159894],[-0.992226236587587,44.04777589816751],[-0.99194580900675,44.04828447775496],[-0.990582047879381,44.04943366147353],[-0.990287616278886,44.049992311492666],[-0.990432050402456,44.051374840078424],[-0.987573382152854,44.05100326678747],[-0.986246751486376,44.05063347723591],[-0.984103725319452,44.05016724658345],[-0.981861171773022,44.04992087713668],[-0.976181631266044,44.04892712628113],[-0.972859693197102,44.04832329684641],[-0.97145594407561,44.04793811215751],[-0.962087444186638,44.04680176701671],[-0.962107168956517,44.046708234219885],[-0.961997238764808,44.04667256550389],[-0.940803409021153,44.04337854691693],[-0.935491613683244,44.06437345028599],[-0.924708415179121,44.081359771448334],[-0.924364272702331,44.08178934127128],[-0.923490552022199,44.08244335577837],[-0.922952078385873,44.083426881540504],[-0.922643415867348,44.08362808540194],[-0.913247914475882,44.08512776846471],[-0.911829269130841,44.0852595799822],[-0.911452389198777,44.08537848158861],[-0.910594773275189,44.08525142546877],[-0.910470326486954,44.0853324682686],[-0.877925153962562,44.081216954803395],[-0.864408702715281,44.07892499555272],[-0.862323777622507,44.07888955596289],[-0.845214170783514,44.07641834605865],[-0.838587566194811,44.087539816182435],[-0.826671680825268,44.082591012500615],[-0.824428966430355,44.08275680140198]]]]}},{"type":"Feature","properties":{"fid":3414,"ID":"COMMUNE_0000000009758672","NOM":"Lesperon","NOM_M":"LESPERON","INSEE_COM":"40152","STATUT":"Commune simple","POPULATION":1030,"INSEE_CAN":"13","INSEE_ARR":"2","INSEE_DEP":"40","INSEE_REG":"75","SIREN_EPCI":"244000691"},"geometry":{"type":"MultiPolygon","coordinates":[[[[-1.167756009637078,43.97285122143276],[-1.164122212215138,43.9721877075194],[-1.161715790767382,43.97158366665309],[-1.159620055536916,43.970875819504826],[-1.158523515194702,43.97084637329917],[-1.158122199333917,43.97064806027971],[-1.157554043008057,43.970181222763365],[-1.156734051828658,43.97031607040202],[-1.156502865478487,43.97048258182656],[-1.156514272542749,43.97062183746671],[-1.155571316424952,43.97150035835132],[-1.154314200146356,43.97229799246722],[-1.154592052122513,43.97253165693463],[-1.152812618349817,43.97395385727832],[-1.151742025624472,43.97393867526486],[-1.151379942271575,43.97402183001091],[-1.151181662389891,43.97477737972603],[-1.150296227798479,43.976755861520566],[-1.149074927989981,43.98042967751991],[-1.148123848746503,43.98015487025308],[-1.147689340762645,43.98016956453701],[-1.147079909865017,43.98040448701851],[-1.146547549896407,43.980909551477],[-1.145460538014325,43.98240267226412],[-1.145412557892788,43.98263520594297],[-1.145825026293115,43.983054846402545],[-1.145783485795217,43.98311860712287],[-1.14613384151515,43.98367939217155],[-1.146375735988437,43.98470481866744],[-1.145893597813715,43.98502592608468],[-1.145607797437238,43.98533507582312],[-1.145014253887904,43.98637237374292],[-1.144833633410655,43.98687489947428],[-1.143528307821011,43.98696496292413],[-1.142462937711662,43.987179294846875],[-1.142038638722452,43.98731794650328],[-1.141690207881299,43.987796185774044],[-1.141209013686646,43.9877017712045],[-1.140982506672735,43.988140239281854],[-1.139568092675911,43.98958081589129],[-1.137276793469281,43.98963965732568],[-1.136747428247958,43.98932895091493],[-1.134863441100684,43.9894444188656],[-1.134429045600769,43.98970238301581],[-1.134212247053791,43.99012064111173],[-1.133955935721757,43.990338520174014],[-1.133162980295121,43.99048927988582],[-1.133001047405259,43.990597242697824],[-1.132835469223747,43.990827007849354],[-1.13280099529607,43.99124647791948],[-1.131111583894414,43.991928596394615],[-1.130322502530065,43.99249465024916],[-1.128314647012156,43.99445046590009],[-1.128109228938772,43.994768245376456],[-1.124789218421635,43.99844891672061],[-1.123762429326234,43.99825154643831],[-1.122078591730379,43.99770404499097],[-1.12148533058907,43.99766603869407],[-1.111045248664631,43.99857295476565],[-1.111158061227833,43.99934014811218],[-1.111004163170974,44.0003904417899],[-1.109237365885915,44.00218721204214],[-1.106799348113595,44.00518705797933],[-1.104548963199631,44.00757148122368],[-1.102964566634344,44.00849162283409],[-1.100365539067526,44.01058172624677],[-1.096244837139139,44.01301177399218],[-1.08981356316032,44.01730260096405],[-1.088740409475648,44.017870850310345],[-1.088442066495983,44.01818571496274],[-1.088218048551069,44.01821391891443],[-1.087552602153062,44.01807748511863],[-1.086503067220052,44.01814015246544],[-1.083972655193257,44.0186591758616],[-1.08332400308282,44.01889608927059],[-1.082488340635899,44.0190678857569],[-1.082160639602917,44.01923512946172],[-1.080597462307346,44.019519687624545],[-1.080428797301575,44.01967558264758],[-1.080239603260698,44.01952763666122],[-1.080309913677603,44.01928889720499],[-1.080152826438251,44.01910100111822],[-1.079463383138301,44.01882122149674],[-1.079036347698231,44.018438823680135],[-1.079014297098678,44.018305367239236],[-1.078739639707105,44.01825433277024],[-1.078282070705797,44.018020868716775],[-1.078111627907917,44.0180299303966],[-1.078119441351423,44.017615987391274],[-1.077733489869904,44.017510524019336],[-1.077716903025397,44.017261509975185],[-1.077470959818515,44.01726257241311],[-1.077124249997007,44.01707723897922],[-1.077224159801632,44.01686803914261],[-1.076984500919689,44.01667781168728],[-1.076913286790488,44.01645066138586],[-1.076545766498765,44.016393171721255],[-1.076622622377372,44.016071281028466],[-1.076038460614759,44.015970499774916],[-1.075695927171024,44.015808437880175],[-1.075262971488783,44.01586603352016],[-1.075000565262335,44.01563699745755],[-1.074673995190998,44.0156455652358],[-1.074380547877333,44.01477332823493],[-1.074438334872885,44.01455128220616],[-1.074042050156688,44.014353368816536],[-1.074034128047133,44.01415540062879],[-1.073809447426967,44.014052025249654],[-1.073566838857644,44.01359334474304],[-1.073615972063855,44.01304088269073],[-1.073879311923047,44.01267239291923],[-1.073610632558699,44.01211104710738],[-1.073294722271477,44.0118668794384],[-1.073520156899837,44.01170167093134],[-1.073498016832961,44.01154929269305],[-1.073008203477362,44.01150986764548],[-1.072733662991338,44.011355177919924],[-1.072581257013437,44.011040030661654],[-1.072215759329745,44.01078328873483],[-1.072026584571882,44.010844407573444],[-1.071514106367999,44.01052284547399],[-1.07115937860643,44.01062617674502],[-1.070943786941088,44.010597256970996],[-1.070329199840957,44.00991270675823],[-1.069986185552635,44.0098479762268],[-1.069198887925441,44.009140111854634],[-1.068580253264021,44.00878283686462],[-1.06814073184362,44.00883524304737],[-1.067775719529576,44.00867219366207],[-1.067113900270946,44.008584171584744],[-1.06651952337405,44.00823409389235],[-1.065980470141656,44.00818655744607],[-1.06559027027968,44.00782797889017],[-1.065113743564167,44.00778171746875],[-1.06496975774644,44.00709405818862],[-1.064642101027589,44.006859317366306],[-1.064497453791556,44.00656460056818],[-1.064023859659798,44.006366826313304],[-1.063968012772439,44.00586423785038],[-1.063230569571096,44.00529326602085],[-1.063157805134413,44.0050959075882],[-1.062799934077772,44.00487490200086],[-1.062358279954888,44.00442450347028],[-1.062123583242162,44.00381230954118],[-1.061956755155426,44.00359141098777],[-1.061705978800459,44.00345383735021],[-1.061756571576529,44.003287941650555],[-1.061514696117722,44.00311759425541],[-1.06148695029871,44.00288611975224],[-1.061580868679794,44.00271500947606],[-1.061355807033834,44.00260531758643],[-1.060952380033265,44.00220035609627],[-1.06014312135232,44.001916809621285],[-1.059685229987473,44.001605787967605],[-1.059402583781963,44.00165143232127],[-1.059368766258194,44.001492277906806],[-1.059016786722781,44.00145848880718],[-1.058720756535345,44.001193720753164],[-1.05840348760794,44.001173960854516],[-1.058357129322202,44.00103149322019],[-1.057553201531297,44.00090994346482],[-1.056415701260094,44.00045201217084],[-1.056069172040931,44.00014405301332],[-1.056073299400212,43.9994833353403],[-1.055960448291706,43.99917841901252],[-1.055151047743552,43.99897955464737],[-1.054334232525031,43.99890442095488],[-1.053011488926794,43.99912290359681],[-1.052865984380693,43.99925356307806],[-1.052664333306659,43.99922679598404],[-1.05199431149177,43.999407542678966],[-1.050944070391788,44.00029808690649],[-1.050040002261488,44.00045325095337],[-1.049260659405696,44.000448784241115],[-1.04851435253313,44.000259248505735],[-1.047992248243371,44.000238034411296],[-1.04675973606816,44.00025123456479],[-1.046309916578391,44.00036882030544],[-1.045329849835329,44.00029786047479],[-1.044407056658203,44.00047079275768],[-1.04351277899756,44.000394839687765],[-1.042779889391132,44.000429160970405],[-1.040474156705857,43.99992055378246],[-1.039922845141421,43.99959308222441],[-1.038688103092153,43.99915208512663],[-1.038213769274406,43.99917051336275],[-1.03491221379325,43.99854268100209],[-1.033726033270065,43.99838100121124],[-1.031715787768028,43.99821726957653],[-1.030752416681901,43.998240187558395],[-1.003965423484748,43.99281225758935],[-0.993884600013776,43.99062100358787],[-0.995428493522785,43.986971728157194],[-1.00406316257917,43.963751485054],[-1.005938187706839,43.95663319868183],[-1.006333242781515,43.95570496419323],[-1.006313563963285,43.955513745962506],[-1.00724991918229,43.95197671302615],[-1.007484720030692,43.95171488051627],[-1.008608459016364,43.94848545449934],[-1.019483850770432,43.91118928118736],[-1.053738155744568,43.91867673657984],[-1.064201039649472,43.921051426461396],[-1.070419125840564,43.922284073982404],[-1.077061507191769,43.92200101516836],[-1.081365594603586,43.92103002005672],[-1.083481982380891,43.92090039514477],[-1.088569310747431,43.920388229548806],[-1.08827534880112,43.92496540754064],[-1.094616451507057,43.92572620708084],[-1.095361906655812,43.927460016469055],[-1.097169806220742,43.92704252020919],[-1.0981942374147,43.92689682461849],[-1.098770806884528,43.92683462360472],[-1.100079598773132,43.92696750656785],[-1.101018408222044,43.92639424221649],[-1.101813835866434,43.92623728986119],[-1.103075835957045,43.925598692549386],[-1.104078770944815,43.92536273038148],[-1.10466268862635,43.92477934567479],[-1.105140929878858,43.92376737126879],[-1.105519144789924,43.923496312834764],[-1.106535111399816,43.923026433736396],[-1.108640000551714,43.923065273327396],[-1.109310400141498,43.92330227616624],[-1.110010837631383,43.923990532028206],[-1.112096498962559,43.92556022232313],[-1.113539240850928,43.92620156712515],[-1.114539738411727,43.9265369445948],[-1.115690622965086,43.92710725725027],[-1.116379189402016,43.92730117987853],[-1.116930002576163,43.92759041170219],[-1.119844428184635,43.92870064909916],[-1.120784210823783,43.92926446072749],[-1.123086285884869,43.93018144930122],[-1.124292530188015,43.93042876630196],[-1.12631977677838,43.93128578186101],[-1.128620625728366,43.93209726885635],[-1.133575149862829,43.93402576846384],[-1.133810262777831,43.9340177669352],[-1.13391030219341,43.93414194784132],[-1.13952599655693,43.935621593413764],[-1.142630960197634,43.93597784404207],[-1.145027356855598,43.93823450687113],[-1.153992589916417,43.94632184480419],[-1.156832237560343,43.94915352944376],[-1.159310274799535,43.951350955787824],[-1.160846140783232,43.95251629657002],[-1.162013936930634,43.953543341914056],[-1.162875822545419,43.95400255492114],[-1.163563508677912,43.95457024138754],[-1.164007619578412,43.9547750081742],[-1.165434597493113,43.95571102945465],[-1.16617846041114,43.95607378407214],[-1.168035962070547,43.95743675188923],[-1.173049282994169,43.95970925503095],[-1.173077218971481,43.95981813742232],[-1.1728394253767,43.960114715138786],[-1.172100188312048,43.960702619999175],[-1.171538348090468,43.96132790405718],[-1.171106526145256,43.96207619393358],[-1.169826958266235,43.96385721430702],[-1.168603452695631,43.96614977921508],[-1.168480039769009,43.96787403455964],[-1.167970580301437,43.96908039538002],[-1.167729232590945,43.97026751217015],[-1.167645034399119,43.97133417689856],[-1.167545841627027,43.97146233124242],[-1.167756009637078,43.97285122143276]]]]}},{"type":"Feature","properties":{"fid":3870,"ID":"COMMUNE_0000000009758669","NOM":"Ousse-Suzan","NOM_M":"OUSSE-SUZAN","INSEE_COM":"40215","STATUT":"Commune simple","POPULATION":285,"INSEE_CAN":"13","INSEE_ARR":"2","INSEE_DEP":"40","INSEE_REG":"75","SIREN_EPCI":"244000691"},"geometry":{"type":"MultiPolygon","coordinates":[[[[-0.761283781339745,43.92874104668275],[-0.7718202110203,43.92885055021079],[-0.783006918659472,43.928857221197696],[-0.786885733950274,43.92893898379582],[-0.800056354614201,43.93027882910344],[-0.800672854674327,43.93264501470613],[-0.801631682410536,43.9378446461006],[-0.797679576989409,43.94457210240996],[-0.797272958118007,43.9443835166822],[-0.797029214937609,43.944374873017615],[-0.796850771087625,43.94446667279696],[-0.796571095996033,43.94433043397894],[-0.796325929435424,43.94431913523508],[-0.795783658368752,43.94467766356287],[-0.795056006704004,43.94478043986769],[-0.794548425470539,43.94502332889182],[-0.793964789432144,43.94511658843123],[-0.793626331991149,43.944958958324904],[-0.793446444312707,43.94446695350458],[-0.793204113498085,43.944254625991455],[-0.792943348643188,43.944215029480695],[-0.792593040666342,43.94432900937315],[-0.792345363374893,43.944279946897275],[-0.78715185934676,43.94863901540812],[-0.784743375781467,43.95019293999085],[-0.78380043170999,43.95067971689866],[-0.782932980869653,43.95160896401807],[-0.781846749610108,43.951196083262275],[-0.779545412874584,43.952827266548184],[-0.7782275234894,43.95409371668823],[-0.777056630428825,43.95358911121543],[-0.776142253697427,43.954282961208186],[-0.77898740074748,43.955754097965624],[-0.778346215125292,43.956185333817345],[-0.777763068183729,43.95638210054627],[-0.777271560518072,43.95700186751625],[-0.776522309957764,43.95723320333306],[-0.775824364702667,43.95726003562782],[-0.775307736752449,43.9576139659192],[-0.775353848079963,43.95838542893105],[-0.774969544845372,43.96086925116257],[-0.774507478027741,43.96206642959618],[-0.775007005781195,43.96222576397886],[-0.775146476642682,43.96267414743275],[-0.775072239067372,43.964641797122844],[-0.774847706897729,43.96550821111241],[-0.774395219577798,43.9665681075121],[-0.774480276677652,43.96934025908939],[-0.77416099920685,43.969605372558],[-0.773387720361505,43.96996635605489],[-0.770740645692764,43.969083767619374],[-0.770724299615095,43.970646669815224],[-0.770026347128808,43.97244843534332],[-0.768403824656058,43.97158989384565],[-0.767373910530318,43.97176867228947],[-0.767551491968272,43.97141656408059],[-0.767095573021796,43.971162885969555],[-0.764216786855971,43.97030344679516],[-0.762413347458047,43.96955557167344],[-0.762011224221421,43.9692847043149],[-0.761182580432528,43.96890238102699],[-0.759694820354283,43.9690806313626],[-0.75794525356655,43.96971566162577],[-0.756606052597692,43.97033114721846],[-0.754052046772557,43.97038379765426],[-0.753858529202662,43.970248991061446],[-0.753212825903366,43.970067550929684],[-0.747617957156893,43.96880181164398],[-0.741997556345305,43.9670861773593],[-0.733154731210172,43.96501733060981],[-0.736432786782888,43.96035350989854],[-0.733015788247567,43.959354027127915],[-0.732460300348408,43.95929011970142],[-0.723760894439281,43.956719240247715],[-0.720855035917737,43.95569025483247],[-0.711206538674419,43.9525462017052],[-0.710230871487537,43.948075453895896],[-0.708772031877508,43.943401291774705],[-0.708718323842036,43.942882363977255],[-0.705393328115761,43.940050924345684],[-0.702946935096734,43.93920503066314],[-0.706860532157407,43.93605676471702],[-0.70707394307925,43.93581076776925],[-0.708327106600813,43.9348357312407],[-0.708850758515613,43.93454856120679],[-0.710178432045667,43.93293760320114],[-0.71495796635592,43.92669456822065],[-0.715164039635232,43.9265857484391],[-0.716319370480827,43.92677346557585],[-0.719130570442458,43.92815259236245],[-0.719227183682529,43.928047493513],[-0.730858345699783,43.93281674041048],[-0.731499572186933,43.93303268129376],[-0.73304071807884,43.9333214644713],[-0.739751224787673,43.93302695385852],[-0.740586269703491,43.93294699360723],[-0.740963093236592,43.932818759366846],[-0.742910786342071,43.932709662183264],[-0.744746439083511,43.932432287884254],[-0.745512124730045,43.93254927762259],[-0.746189579042546,43.93071598913615],[-0.746801768590991,43.92861104265895],[-0.748623886386469,43.92754211226499],[-0.751936850498584,43.92596152805438],[-0.752247222342141,43.926358999796605],[-0.752695802284699,43.926431875962955],[-0.75300062659112,43.926669164006405],[-0.75313475517068,43.926964575947615],[-0.75332729856121,43.92704895445001],[-0.753949067645482,43.92712037621063],[-0.754295915635336,43.92693546268376],[-0.754687768148759,43.92688504677256],[-0.75497645683387,43.92655527297085],[-0.755134475358714,43.92655073871252],[-0.755335014446095,43.92668078820668],[-0.755461395236667,43.927009800160306],[-0.755866321794513,43.92755537350425],[-0.756104402453029,43.92838778959649],[-0.756467881229911,43.929136605623334],[-0.75627212292009,43.92932533755703],[-0.755742546098559,43.92932914116483],[-0.755585878801528,43.929448954066025],[-0.755816630679007,43.92981041500387],[-0.755579522049275,43.930090665408535],[-0.755592786065352,43.93021634536994],[-0.756237866304446,43.93050859313632],[-0.758081045017126,43.93170923132466],[-0.758552057233132,43.93145966500083],[-0.759450113338951,43.93080436923446],[-0.761283781339745,43.92874104668275]]]]}},{"type":"Feature","properties":{"fid":4176,"ID":"COMMUNE_0000000009758448","NOM":"Arengosse","NOM_M":"ARENGOSSE","INSEE_COM":"40006","STATUT":"Commune simple","POPULATION":713,"INSEE_CAN":"13","INSEE_ARR":"2","INSEE_DEP":"40","INSEE_REG":"75","SIREN_EPCI":"244000691"},"geometry":{"type":"MultiPolygon","coordinates":[[[[-0.827051738677504,44.05702928188376],[-0.824916730208596,44.0769052125374],[-0.824428966430355,44.08275680140198],[-0.788113114229884,44.08629482673511],[-0.785883660212425,44.086531444587095],[-0.785789436453051,44.086599580299435],[-0.769458541385317,44.07231191429206],[-0.768077316270083,44.07130885134302],[-0.767050827198438,44.07013227478653],[-0.762379748780789,44.0697235007014],[-0.757230346840045,44.06916696270865],[-0.746087990196077,44.06787751478194],[-0.744814990306221,44.067675100840844],[-0.74353251058916,44.068410976920724],[-0.740720656366065,44.06711773094363],[-0.739129791041127,44.06622331042244],[-0.737581780249754,44.06447773119919],[-0.737122771425705,44.063006705102104],[-0.73577626093007,44.06069288476084],[-0.735209909169368,44.05990760018355],[-0.736478332232139,44.057931585052465],[-0.740087027822808,44.05274630660205],[-0.742782455445581,44.04755070416467],[-0.743630669914045,44.04656298769879],[-0.744512870870595,44.045275860934964],[-0.748982881802601,44.03949854365907],[-0.749860194364175,44.03023477189685],[-0.749770458176496,44.02949810978753],[-0.749914549804755,44.02882280904825],[-0.749881020046554,44.02704354135837],[-0.750753418233464,44.02303652112072],[-0.751099426334444,44.01966475523395],[-0.751469670973061,44.01730580486737],[-0.750961837119322,44.017140321412974],[-0.751191778176168,44.01648009726777],[-0.751660578345988,44.0159963852184],[-0.751762292734134,44.01558833896763],[-0.75152226632227,44.01166094348131],[-0.752770577620132,44.010010692959696],[-0.754234691169284,44.008775591912],[-0.755388208423115,44.00688258810427],[-0.756022357662354,44.00425146853239],[-0.755992677152992,44.0027982553337],[-0.756086746620821,44.00235082444702],[-0.757518800748356,44.00029325305435],[-0.757851842818671,43.999438457770964],[-0.75853418819434,43.99697325886294],[-0.759772013508206,43.99534220606809],[-0.760840918008575,43.99415934670407],[-0.761768635006934,43.992747974352746],[-0.76187479927779,43.99231453878765],[-0.761789122636049,43.99088488382916],[-0.761954515257937,43.99042237958516],[-0.762536463594259,43.989577923477476],[-0.764154164255826,43.988732933592594],[-0.76435044676482,43.98894601892668],[-0.764624211400272,43.98904741286644],[-0.765763674894616,43.988954094738325],[-0.76687111911642,43.98922587638914],[-0.768517064036837,43.989167329630114],[-0.768848963109984,43.98907209018318],[-0.769631598416976,43.98924422090461],[-0.770237692446285,43.989275571796455],[-0.772874643356659,43.98919988560682],[-0.774513054394091,43.989347840781925],[-0.77546073401603,43.989185359652666],[-0.775923355608541,43.98925497308637],[-0.776634416407705,43.987236456554456],[-0.777818772794622,43.98650354091029],[-0.778712256204861,43.98458412254833],[-0.779679436181042,43.985093085018235],[-0.780538981431016,43.98476962085149],[-0.783911988957231,43.98377348414403],[-0.783563373140643,43.98310889187822],[-0.779493518371933,43.97781392297597],[-0.776970784443567,43.974917914564344],[-0.778103879482176,43.973472264442584],[-0.778440755480456,43.973340780602854],[-0.779106324315299,43.973236670246045],[-0.779690786661053,43.973245284747996],[-0.780513780374637,43.97355829295377],[-0.781626864956514,43.97369276612005],[-0.782344845896855,43.97388956144172],[-0.783365828726713,43.9742903010534],[-0.785330083690926,43.97416550160986],[-0.791104767887947,43.97477349030451],[-0.802456729790355,43.975661157054816],[-0.802704208970619,43.976172434256085],[-0.806635894414599,43.97680950565583],[-0.808957637757709,43.97805580517878],[-0.810256825566872,43.978619602649424],[-0.81290943883799,43.97941908884089],[-0.815427007439972,43.97991507625656],[-0.816590391704992,43.98021954205879],[-0.817687226842981,43.98014518394455],[-0.819516987555615,43.98030109096686],[-0.818722638532573,43.98501874402915],[-0.817959220014843,43.98794675831384],[-0.817728440238338,43.988655828138036],[-0.816889518490332,43.98978800227286],[-0.817447867802685,43.98988833804694],[-0.81769678883889,43.99006435559909],[-0.818661053725925,43.99042982683948],[-0.81893275469011,43.99061045211191],[-0.819721625937889,43.99133795445232],[-0.819864066215715,43.99167537133887],[-0.820256948765697,43.992099544463656],[-0.8203189199561,43.992428060335065],[-0.820769019883642,43.992681737221055],[-0.820874045103663,43.99285196656944],[-0.815972525220948,43.994599134952814],[-0.815576149432813,43.99503556129929],[-0.81598037739698,43.99905721249305],[-0.816451799904738,44.00022472343699],[-0.817179226812439,44.00107693898609],[-0.818913879066136,44.00188946051835],[-0.821029632945441,44.00276252128043],[-0.821050132719693,44.00295643085298],[-0.821041087030151,44.00319372246627],[-0.820773380537604,44.003464383784134],[-0.820589586323558,44.00394385768488],[-0.820376046110441,44.00412882734519],[-0.819611123451483,44.004319548817534],[-0.819017408750864,44.00482956139421],[-0.819106474746025,44.00558062621536],[-0.819626077602196,44.00584540064276],[-0.819694703868818,44.00601239972124],[-0.819591513376319,44.006074573475495],[-0.819566113348965,44.006440385420596],[-0.81918470108786,44.00656093624119],[-0.819090069577978,44.00675075927329],[-0.819129168202243,44.00703592660729],[-0.820020049247039,44.00803379675131],[-0.820224410307262,44.00892139756347],[-0.82019837060036,44.0092962431997],[-0.818254794862646,44.013899128459556],[-0.817522095339863,44.01518708758086],[-0.816248079171775,44.016894004070146],[-0.814872843806205,44.018544966929014],[-0.814979727890806,44.01911520771541],[-0.814951521382146,44.01984964839126],[-0.81463728830593,44.020564333613144],[-0.814657035263411,44.02138089962126],[-0.815175058238799,44.02329738876845],[-0.815310039973928,44.02447306075102],[-0.815664876951841,44.025910477941004],[-0.816523912014643,44.02818089835136],[-0.817093419032857,44.0290566728655],[-0.820413455627157,44.03217194220583],[-0.821604142781447,44.0334062460258],[-0.822559939997607,44.03711226063513],[-0.8244318628871,44.04640081606093],[-0.827051738677504,44.05702928188376]]]]}}]}