{"type":"FeatureCollection","features":[{"type":"Feature","properties":{"fid":341,"ID":"COMMUNE_0000000009756112","NOM":"Quinsac","NOM_M":"QUINSAC","INSEE_COM":"33349","STATUT":"Commune simple","POPULATION":2216,"INSEE_CAN":"11","INSEE_ARR":"2","INSEE_DEP":"33","INSEE_REG":"75","SIREN_EPCI":"243301439"},"geometry":{"type":"MultiPolygon","coordinates":[[[[-0.511383774457427,44.765055203283886],[-0.509813330319864,44.7649040098409],[-0.508922233647281,44.764935847282054],[-0.508186485241603,44.765288089690436],[-0.507954551387997,44.76544323167433],[-0.507791354492427,44.765726870004016],[-0.507570471273411,44.76581587375037],[-0.507148397996505,44.76574182231439],[-0.506657561874458,44.76555909901684],[-0.506505977979641,44.76542060749906],[-0.50570216748004,44.763768924822294],[-0.505501428236924,44.763024582216644],[-0.505536052697012,44.76185553725978],[-0.505980921943748,44.759618208163545],[-0.506136844868425,44.75931948279583],[-0.506124588284138,44.75918379041624],[-0.506024019872067,44.75917345613498],[-0.505235542749063,44.7592470778183],[-0.504037689403557,44.75985543752862],[-0.503288360756935,44.759948533869014],[-0.503080058033075,44.76007678355357],[-0.502998102799618,44.760243392855244],[-0.50268563572784,44.760384849338124],[-0.502050880900431,44.76032741912885],[-0.501452447200304,44.760081389029544],[-0.501359917153519,44.75991579126653],[-0.500873015053454,44.759795102813115],[-0.500752691773882,44.75983315135233],[-0.500576451445781,44.7604154847303],[-0.500235140527838,44.76054072307537],[-0.500092911557888,44.760755195562815],[-0.499715715434258,44.76089328173561],[-0.499794233122845,44.76113862849174],[-0.499381327677024,44.76143464917704],[-0.499227001241248,44.761454845223916],[-0.498554209482877,44.76113184374761],[-0.498415455497038,44.76113802891619],[-0.497735003623067,44.76087474332017],[-0.496915517365462,44.76112141140978],[-0.496502764711223,44.76142011964192],[-0.495848236355385,44.76159398260582],[-0.495344052138834,44.76186673397358],[-0.495143995765287,44.76188386143825],[-0.494015917589057,44.76176535008205],[-0.49194801414698,44.761952225194385],[-0.490023611329034,44.761435218426755],[-0.48950174275972,44.76156611205069],[-0.48844265854955,44.76164182948798],[-0.487972160964063,44.761826070130766],[-0.486912600395083,44.762036965597424],[-0.486551369879176,44.7622087481689],[-0.486117016040488,44.762262072178935],[-0.485817956379617,44.7624165753049],[-0.485377363756258,44.76249172113443],[-0.484794722830275,44.76223429130001],[-0.483772280195198,44.76259538730667],[-0.483318889517259,44.76260694328882],[-0.482420427866602,44.762784791692745],[-0.480640350830103,44.76271818317762],[-0.479916148629615,44.76244174596998],[-0.479436863284285,44.76234145188063],[-0.478083277497355,44.76250292091104],[-0.477597537666751,44.76262541339458],[-0.476905766698554,44.76258675170466],[-0.475360233240587,44.76207832724443],[-0.475050174069241,44.76189159839652],[-0.475459452312148,44.76114609754868],[-0.475282669221223,44.76102818300205],[-0.474965599681478,44.760993973458646],[-0.474631722469067,44.76101526223293],[-0.474264966621676,44.76117996762851],[-0.47335871971027,44.76123182148802],[-0.472624251141165,44.76154593225264],[-0.472440284071486,44.76180312873242],[-0.471041876129133,44.76185326949769],[-0.470174705958623,44.76175968393488],[-0.469163315241845,44.76178866311245],[-0.468179672784642,44.7614472819197],[-0.467891741005985,44.76122920109013],[-0.466157817275035,44.76051477457786],[-0.464911116845758,44.760419507858664],[-0.462972780779136,44.75977360926186],[-0.463789141316007,44.758180941411474],[-0.464062355588595,44.75731898562417],[-0.465111382795917,44.7555829525237],[-0.465470347217117,44.75516889636446],[-0.465522128174801,44.75494198284623],[-0.467073135901879,44.7528775131589],[-0.468329779192027,44.75149631689974],[-0.469977695306675,44.75010374644525],[-0.474672899671359,44.74653656214233],[-0.475565829344365,44.74535233143795],[-0.476096364651271,44.74515904733176],[-0.476128728646028,44.74500753510426],[-0.478951661746006,44.742358636627934],[-0.479173830211845,44.74190287035692],[-0.479134471599468,44.74085784260038],[-0.479223153179327,44.74061534335034],[-0.480124885519021,44.73980117882894],[-0.480485806617082,44.739605993823275],[-0.48206041777424,44.737958698523364],[-0.482341862359011,44.738052580507755],[-0.482566333142899,44.73800226345564],[-0.482773264232636,44.73785246715576],[-0.483633037820068,44.736158241662224],[-0.486997652992739,44.73697782833527],[-0.492621638948496,44.73871105473122],[-0.494143520318244,44.739110922367686],[-0.495794963486292,44.739458916385786],[-0.497802663274243,44.739598272748125],[-0.499388698737341,44.74009337157744],[-0.501592783681399,44.73999484821468],[-0.503797769814684,44.74017471912036],[-0.505244836496548,44.74062997590407],[-0.506769717995045,44.74131886159084],[-0.507983432877011,44.74206625108571],[-0.509197770019984,44.74284334808377],[-0.510035941273383,44.743508895213054],[-0.511198969644667,44.74482020383353],[-0.511723179698835,44.745661515250205],[-0.512028695254416,44.74644307322031],[-0.512174663403156,44.74724140702326],[-0.512239282934035,44.74847849926366],[-0.512192124649702,44.74960648807749],[-0.512014223282309,44.75129375993613],[-0.511657802613272,44.752613598343956],[-0.511294334802891,44.755967658192574],[-0.511896308997333,44.75795103001294],[-0.511879466780261,44.75948359957251],[-0.511383774457427,44.765055203283886]]]]}},{"type":"Feature","properties":{"fid":1472,"ID":"COMMUNE_0000000009755879","NOM":"Lignan-de-Bordeaux","NOM_M":"LIGNAN-DE-BORDEAUX","INSEE_COM":"33245","STATUT":"Commune simple","POPULATION":834,"INSEE_CAN":"11","INSEE_ARR":"2","INSEE_DEP":"33","INSEE_REG":"75","SIREN_EPCI":"243301439"},"geometry":{"type":"MultiPolygon","coordinates":[[[[-0.432497212446513,44.77136406182293],[-0.434557248119424,44.77186884664613],[-0.435855964742284,44.77246029039626],[-0.437354670382215,44.773632172971126],[-0.437959217614673,44.77424963629091],[-0.43838402762474,44.7748861928074],[-0.438970595987375,44.776698254788464],[-0.439012829017789,44.77716104456796],[-0.439228058208107,44.77753555705371],[-0.439540405905824,44.77782234458109],[-0.440928122966347,44.7779423657625],[-0.441694569404175,44.778288939438745],[-0.442397349159444,44.77844283388529],[-0.442175811197404,44.778771434083716],[-0.442066557122127,44.77938401833856],[-0.441875043081813,44.77968645239675],[-0.442136193116006,44.78000456262054],[-0.441543164552037,44.780775460637535],[-0.441227329747257,44.78078346809986],[-0.441171127602213,44.78091948777879],[-0.440552716940925,44.78400446924546],[-0.44169696933497,44.78541531168332],[-0.441774119244113,44.78568326650718],[-0.441465256093834,44.785826232818984],[-0.44040544157041,44.78662153317455],[-0.440793132296571,44.78689787003097],[-0.443066533159817,44.78781764237726],[-0.442681368547456,44.78894616113307],[-0.443456431581028,44.789286153033586],[-0.444603590704357,44.789482101715485],[-0.446567135468368,44.78957695201884],[-0.446645809608936,44.78988991603854],[-0.44647726954061,44.790298883979865],[-0.445997089858013,44.790805857961736],[-0.444639471517168,44.7927306184419],[-0.446376563762948,44.79336150408404],[-0.44627272096512,44.793814419779345],[-0.446533921389554,44.7939874331786],[-0.447889008989125,44.794538256570405],[-0.447908793048473,44.79494317042498],[-0.44886789440331,44.79541348071072],[-0.448698090709146,44.7958224921073],[-0.450123482407904,44.796507180736384],[-0.450165790745081,44.7973610817275],[-0.449894930250289,44.79826798810925],[-0.450278838818359,44.79835696940739],[-0.450332433397173,44.79943581438547],[-0.450613477755759,44.80001373262015],[-0.451143044029168,44.80049559679113],[-0.451765935117152,44.80080693293274],[-0.45211951112021,44.801102322329584],[-0.453609019962544,44.80029442228128],[-0.455230200343898,44.79961126530525],[-0.455419613560055,44.80055069987403],[-0.453535708622101,44.8007490994508],[-0.452820881858514,44.80106335286814],[-0.452539938052926,44.80139382602971],[-0.452934825739599,44.80168161802065],[-0.453624896547981,44.80166462405203],[-0.453991304573102,44.801736115177114],[-0.452685378580997,44.80235986738685],[-0.451930230794274,44.802883543215486],[-0.45059274198547,44.80324150305631],[-0.450366957780532,44.80366667932901],[-0.449990249435129,44.80386044349787],[-0.449498568920936,44.803727952520035],[-0.448224167375993,44.80303134214932],[-0.447543860511704,44.80287767548575],[-0.44696780933215,44.802896492410845],[-0.443875724863793,44.80366488591145],[-0.442754321216013,44.80401783757162],[-0.44150684695584,44.80473065642371],[-0.441211952908025,44.80493807065281],[-0.441108505659687,44.80519180911247],[-0.440809648475557,44.80537591463741],[-0.440287529464624,44.805490348865774],[-0.439806626070082,44.80536829473926],[-0.439151456850952,44.80548054409955],[-0.438488550410633,44.806086873453154],[-0.437674522638596,44.80637526465609],[-0.437397756116361,44.8067758585476],[-0.437034885083879,44.807010601826015],[-0.435861758442123,44.807657966147],[-0.435452775569155,44.807780585242725],[-0.435302099044274,44.8079249368433],[-0.434896221708806,44.80851246334624],[-0.434126064191736,44.80933296263197],[-0.434253032005421,44.80948403117223],[-0.434149734409537,44.81017572829351],[-0.434252333132771,44.81069432981981],[-0.431586978821971,44.81315236171171],[-0.430747154703355,44.81372536665112],[-0.429945132667568,44.81325904374482],[-0.42856493543471,44.81273670200314],[-0.42809521303663,44.81242500377814],[-0.426113997597956,44.81149225925159],[-0.424635042914765,44.81098914453374],[-0.423875192239327,44.810963952276154],[-0.422747220704918,44.81117180879251],[-0.421482974951292,44.81115856752392],[-0.420727830211905,44.81123143573253],[-0.417427344253852,44.810501452641326],[-0.4173867262835,44.8101251162496],[-0.417157408556012,44.80993482994846],[-0.415090539022871,44.80881709575265],[-0.41591554845945,44.80849879789604],[-0.416061209145523,44.80633511935351],[-0.416220134713819,44.8057012090594],[-0.416152700102897,44.80561226975598],[-0.414822126737425,44.805546930803075],[-0.414863071430624,44.80509598900022],[-0.414795639692789,44.80500704888986],[-0.414353264099781,44.805017972604766],[-0.414064449465113,44.80403558966048],[-0.413396220141042,44.803287478296596],[-0.412327390164196,44.80340419562908],[-0.411455054272598,44.80365093046836],[-0.409416174428584,44.80378124958324],[-0.408883169833069,44.80365435840899],[-0.408123114371013,44.803853456562805],[-0.407773482682167,44.80370289861684],[-0.406875106251355,44.80377106668024],[-0.406007888097116,44.80355981205589],[-0.405263824250765,44.80312488495461],[-0.404826582849465,44.802990526968344],[-0.40494698590552,44.80240828529034],[-0.404370784986603,44.80098323190425],[-0.404329169498473,44.800129312538544],[-0.404872369641265,44.79831572112048],[-0.40384235797526,44.79850776455629],[-0.403830790323727,44.79743934937537],[-0.403936417718189,44.7971982003213],[-0.403565452538109,44.79596329573541],[-0.405396213418424,44.79538979458723],[-0.407518396815434,44.79511459672255],[-0.409716580420448,44.79452792243341],[-0.410863459983163,44.7940943194135],[-0.412763980695742,44.791379196173686],[-0.413851938797764,44.790456243297385],[-0.413919561562275,44.790215353188536],[-0.414320326704881,44.78993806570619],[-0.41734500236457,44.790544132808115],[-0.419121147483342,44.79067949174099],[-0.420171667440703,44.790203703308485],[-0.420950824328624,44.790633838805384],[-0.42126945549352,44.79067086263794],[-0.421386133865838,44.790487929168314],[-0.421468934535832,44.78993566403255],[-0.422990757711275,44.78689320467311],[-0.423153766078395,44.78634927454524],[-0.42256832067556,44.786003289561954],[-0.42249547661479,44.78582530727163],[-0.422845254199292,44.78523145210172],[-0.422893074264861,44.7849154697564],[-0.42224033603993,44.78448234754068],[-0.422489028707672,44.7841610625482],[-0.422467955673457,44.783711133237134],[-0.422632435788697,44.78321221689366],[-0.423545264219576,44.78251445432154],[-0.42360271874331,44.78237750501598],[-0.42259274444697,44.77983859979177],[-0.422887714961977,44.779425768230944],[-0.423693721814844,44.77886557618131],[-0.423685289499318,44.77868560486827],[-0.424529237133128,44.77748170714845],[-0.426395894422204,44.7778214059202],[-0.427462239126651,44.775846421715194],[-0.428019528708804,44.775607494073846],[-0.42816155791054,44.77465868313819],[-0.42834263658371,44.77447464998479],[-0.42933579092703,44.77387347715088],[-0.429585707052768,44.773822485059846],[-0.430032005370142,44.773900586510074],[-0.43040402441347,44.77375659709801],[-0.430819580030796,44.773206636731686],[-0.431431729444702,44.77283081774311],[-0.431472517160167,44.77237987485782],[-0.43169705380073,44.771788967122895],[-0.432497212446513,44.77136406182293]]]]}},{"type":"Feature","properties":{"fid":1719,"ID":"COMMUNE_0000000009755884","NOM":"Camblanes-et-Meynac","NOM_M":"CAMBLANES-ET-MEYNAC","INSEE_COM":"33085","STATUT":"Commune simple","POPULATION":3145,"INSEE_CAN":"11","INSEE_ARR":"2","INSEE_DEP":"33","INSEE_REG":"75","SIREN_EPCI":"243301439"},"geometry":{"type":"MultiPolygon","coordinates":[[[[-0.465522128174801,44.75494198284623],[-0.465470347217117,44.75516889636446],[-0.465111382795917,44.7555829525237],[-0.464062355588595,44.75731898562417],[-0.463789141316007,44.758180941411474],[-0.462972780779136,44.75977360926186],[-0.464911116845758,44.760419507858664],[-0.466157817275035,44.76051477457786],[-0.467891741005985,44.76122920109013],[-0.468179672784642,44.7614472819197],[-0.469163315241845,44.76178866311245],[-0.470174705958623,44.76175968393488],[-0.471041876129133,44.76185326949769],[-0.472440284071486,44.76180312873242],[-0.472624251141165,44.76154593225264],[-0.47335871971027,44.76123182148802],[-0.474264966621676,44.76117996762851],[-0.474631722469067,44.76101526223293],[-0.474965599681478,44.760993973458646],[-0.475282669221223,44.76102818300205],[-0.475459452312148,44.76114609754868],[-0.475050174069241,44.76189159839652],[-0.475360233240587,44.76207832724443],[-0.476905766698554,44.76258675170466],[-0.477597537666751,44.76262541339458],[-0.478083277497355,44.76250292091104],[-0.479436863284285,44.76234145188063],[-0.479916148629615,44.76244174596998],[-0.480640350830103,44.76271818317762],[-0.482420427866602,44.762784791692745],[-0.483318889517259,44.76260694328882],[-0.483772280195198,44.76259538730667],[-0.484794722830275,44.76223429130001],[-0.485377363756258,44.76249172113443],[-0.485817956379617,44.7624165753049],[-0.486117016040488,44.762262072178935],[-0.486551369879176,44.7622087481689],[-0.486912600395083,44.762036965597424],[-0.487972160964063,44.761826070130766],[-0.48844265854955,44.76164182948798],[-0.48950174275972,44.76156611205069],[-0.490023611329034,44.761435218426755],[-0.49194801414698,44.761952225194385],[-0.494015917589057,44.76176535008205],[-0.495143995765287,44.76188386143825],[-0.495344052138834,44.76186673397358],[-0.495848236355385,44.76159398260582],[-0.496502764711223,44.76142011964192],[-0.496915517365462,44.76112141140978],[-0.497735003623067,44.76087474332017],[-0.498415455497038,44.76113802891619],[-0.498554209482877,44.76113184374761],[-0.499227001241248,44.761454845223916],[-0.499381327677024,44.76143464917704],[-0.499794233122845,44.76113862849174],[-0.499715715434258,44.76089328173561],[-0.500092911557888,44.760755195562815],[-0.500235140527838,44.76054072307537],[-0.500576451445781,44.7604154847303],[-0.500752691773882,44.75983315135233],[-0.500873015053454,44.759795102813115],[-0.501359917153519,44.75991579126653],[-0.501452447200304,44.760081389029544],[-0.502050880900431,44.76032741912885],[-0.50268563572784,44.760384849338124],[-0.502998102799618,44.760243392855244],[-0.503080058033075,44.76007678355357],[-0.503288360756935,44.759948533869014],[-0.504037689403557,44.75985543752862],[-0.505235542749063,44.7592470778183],[-0.506024019872067,44.75917345613498],[-0.506124588284138,44.75918379041624],[-0.506136844868425,44.75931948279583],[-0.505980921943748,44.759618208163545],[-0.505536052697012,44.76185553725978],[-0.505501428236924,44.763024582216644],[-0.50570216748004,44.763768924822294],[-0.506505977979641,44.76542060749906],[-0.506657561874458,44.76555909901684],[-0.507148397996505,44.76574182231439],[-0.507570471273411,44.76581587375037],[-0.507791354492427,44.765726870004016],[-0.507954551387997,44.76544323167433],[-0.508186485241603,44.765288089690436],[-0.508922233647281,44.764935847282054],[-0.509813330319864,44.7649040098409],[-0.511383774457427,44.765055203283886],[-0.511483592718735,44.769366983635216],[-0.511410613201967,44.77303898766228],[-0.511733669857627,44.77381549650997],[-0.509190685140578,44.77383659934694],[-0.508957424747727,44.77388994920811],[-0.503806442325521,44.776562820924994],[-0.501192072606463,44.77641476636842],[-0.500272015373747,44.77653305742328],[-0.498689368692742,44.776474905328854],[-0.498456274123394,44.77640926935826],[-0.498020568889169,44.776056240531446],[-0.497646398169216,44.77591935682049],[-0.494465758920509,44.775107718910775],[-0.493671196277729,44.77510754530885],[-0.493099454192657,44.77502824518353],[-0.493285713692043,44.77619302219188],[-0.492422662340635,44.776638385662864],[-0.490300303226493,44.77662956914177],[-0.490182678579615,44.77781203410547],[-0.488915817343708,44.77774559554528],[-0.488938240204195,44.7767004084311],[-0.48712760527329,44.777107075827146],[-0.485856697578959,44.77821948696523],[-0.484382397017232,44.77780715789206],[-0.484192920985432,44.777812215581434],[-0.484092640486407,44.77860300873175],[-0.483262478938341,44.77845788581754],[-0.482758020770872,44.778484558908005],[-0.482253898387272,44.778639187913825],[-0.48170031814775,44.77868992975046],[-0.481151825930614,44.7785981212111],[-0.480395320410799,44.778661540640684],[-0.478539739754585,44.779243405083676],[-0.478310613943641,44.778137633098325],[-0.477567272582947,44.7771867858253],[-0.477013761582846,44.776236285421795],[-0.475779765153769,44.77635250860552],[-0.475532716177945,44.776449476303156],[-0.474710059413791,44.77642481438409],[-0.47355972668584,44.776175211617876],[-0.471950707134014,44.77558670933894],[-0.471761237467039,44.775591745777334],[-0.471703599365627,44.775682769036386],[-0.469161289740098,44.7753875159888],[-0.469261974588456,44.77513293360535],[-0.468098840613433,44.77512609425903],[-0.466354102919421,44.77483825024394],[-0.466165947752817,44.77465939547203],[-0.46579504132996,44.77397889399998],[-0.465795881521586,44.773828370844875],[-0.465201228230355,44.77327382305405],[-0.461754701818407,44.770824936846445],[-0.462339927489702,44.77052908509385],[-0.46344454559839,44.77014219484789],[-0.460056584278006,44.769174768626236],[-0.458890546488442,44.7687074274229],[-0.456190805280035,44.76930175661407],[-0.453685859815155,44.76967005957148],[-0.453010283477687,44.76966949191197],[-0.449986616895736,44.76937800063396],[-0.442919321356589,44.76926264335248],[-0.438182050550577,44.76982611381775],[-0.437647882540795,44.76975888322982],[-0.436732263389646,44.76734243863922],[-0.436272869950281,44.76649067379257],[-0.437065365624168,44.766273237892406],[-0.438050067300802,44.76582724353755],[-0.438776314769525,44.76539557208352],[-0.439844820545865,44.765017250022304],[-0.440322279476782,44.76498529962879],[-0.440573401635759,44.76489279041185],[-0.440675220051431,44.76484096493711],[-0.440711584897546,44.76467041662893],[-0.441216440637273,44.764383483113534],[-0.442266481077833,44.76407600119721],[-0.442752880271522,44.763529197466966],[-0.444609169055303,44.762404506242426],[-0.445487361085462,44.761729254218714],[-0.447440455922974,44.76055554181265],[-0.448774380971891,44.759537150594056],[-0.449352362524933,44.75922717395918],[-0.449935719755222,44.75925226055558],[-0.450156992429375,44.75914804196717],[-0.449720606490324,44.75873538334764],[-0.449532441396089,44.75836906248022],[-0.449864641935027,44.75794958602002],[-0.450285908445868,44.75766250873631],[-0.449776364383323,44.75739721762874],[-0.450820029553685,44.75585525121121],[-0.451895256558372,44.75447810476618],[-0.451713735533485,44.75337532886336],[-0.451781093562644,44.75268023331366],[-0.452448977764062,44.75089042660179],[-0.452421358416603,44.74941067407265],[-0.453277211018234,44.749611982835376],[-0.454203591500643,44.74995256825226],[-0.456834575006157,44.751463733311624],[-0.457091399062819,44.751547635210414],[-0.457517776038612,44.75122161869251],[-0.458069397654054,44.75126657529005],[-0.458241215875612,44.75146937963854],[-0.459364729936177,44.75223813109841],[-0.460495274005036,44.752853453828926],[-0.463212061556689,44.75396618314535],[-0.464882194851034,44.75477816668801],[-0.465522128174801,44.75494198284623]]]]}},{"type":"Feature","properties":{"fid":1835,"ID":"COMMUNE_0000000009755881","NOM":"Latresne","NOM_M":"LATRESNE","INSEE_COM":"33234","STATUT":"Commune simple","POPULATION":3699,"INSEE_CAN":"11","INSEE_ARR":"2","INSEE_DEP":"33","INSEE_REG":"75","SIREN_EPCI":"243301439"},"geometry":{"type":"MultiPolygon","coordinates":[[[[-0.523064476790213,44.791715160105305],[-0.525314415579845,44.79665256128784],[-0.526586724621272,44.80177876171327],[-0.527127885171928,44.80338193285182],[-0.5273737383984,44.80471692571024],[-0.526615548223201,44.80612983050878],[-0.523858271873616,44.80637072892781],[-0.520411546239558,44.80239774234445],[-0.519692953556847,44.80274770504328],[-0.518023783979799,44.80328104479391],[-0.517314630541384,44.80349911451126],[-0.517048505813791,44.8034742143524],[-0.516729253271341,44.80355103394863],[-0.512645200249643,44.80364629207936],[-0.508614100419033,44.80335310426925],[-0.508127260139971,44.803482967706955],[-0.506960108160419,44.80402998671076],[-0.503164728251111,44.804512291379005],[-0.502028156487433,44.804535590140894],[-0.501689600496911,44.8047905131871],[-0.501165075597222,44.80498642258789],[-0.500480720666293,44.805116181765385],[-0.499830210206962,44.805118699217324],[-0.498358982980866,44.80556167311609],[-0.497948609024745,44.80498884116272],[-0.497118961262484,44.80461488522106],[-0.495531851617761,44.80427382565329],[-0.494679725896062,44.80372122195066],[-0.492402541305752,44.80246011899394],[-0.488826289523008,44.80174183974796],[-0.488181434491789,44.801488171654476],[-0.487891956726931,44.80127017954901],[-0.487610934618613,44.800719378587466],[-0.486761734674738,44.799661055042144],[-0.48655978621182,44.79918076160432],[-0.485356247698147,44.79812276128219],[-0.48246523542505,44.796936646648234],[-0.482822105921985,44.796486550680086],[-0.483554062337607,44.7958191917859],[-0.482355686333342,44.79582260816081],[-0.480691760065512,44.7959929356811],[-0.47921491617777,44.79599605149488],[-0.478793499614883,44.795301844600516],[-0.476029019114667,44.792105551430375],[-0.475744493577971,44.791986506810886],[-0.475124563822352,44.79045500260993],[-0.474528099638442,44.79067376965567],[-0.473415228310627,44.79089159817519],[-0.472644171744173,44.791193329137364],[-0.472257771568702,44.791432536218124],[-0.470938160189419,44.79111069753538],[-0.469919684792092,44.79150486974994],[-0.469892023193233,44.79097493716253],[-0.469304947905811,44.79034176073404],[-0.468758234129482,44.78927565064289],[-0.468856877372083,44.78896706105172],[-0.470521348161944,44.78739464422615],[-0.471826252949068,44.78694733254143],[-0.473402182730033,44.78582823641629],[-0.47484353924441,44.785235123851606],[-0.475234178243058,44.785147173070015],[-0.475870588594691,44.785104681551324],[-0.477115548322277,44.78573520393063],[-0.47721906539054,44.785874343257056],[-0.478555249931434,44.78583150324477],[-0.479077138905991,44.78588090514045],[-0.479946148673661,44.785813964435754],[-0.479023982643628,44.78498138502941],[-0.478481832360208,44.78433873596002],[-0.477758040266071,44.782764550834095],[-0.477251779921611,44.78198559277721],[-0.477171141027694,44.779741464926396],[-0.478539739754585,44.779243405083676],[-0.480395320410799,44.778661540640684],[-0.481151825930614,44.7785981212111],[-0.48170031814775,44.77868992975046],[-0.482253898387272,44.778639187913825],[-0.482758020770872,44.778484558908005],[-0.483262478938341,44.77845788581754],[-0.484092640486407,44.77860300873175],[-0.484192920985432,44.777812215581434],[-0.484382397017232,44.77780715789206],[-0.485856697578959,44.77821948696523],[-0.48712760527329,44.777107075827146],[-0.488938240204195,44.7767004084311],[-0.488915817343708,44.77774559554528],[-0.490182678579615,44.77781203410547],[-0.490300303226493,44.77662956914177],[-0.492422662340635,44.776638385662864],[-0.493285713692043,44.77619302219188],[-0.493099454192657,44.77502824518353],[-0.493671196277729,44.77510754530885],[-0.494465758920509,44.775107718910775],[-0.497646398169216,44.77591935682049],[-0.498020568889169,44.776056240531446],[-0.498456274123394,44.77640926935826],[-0.498689368692742,44.776474905328854],[-0.500272015373747,44.77653305742328],[-0.501192072606463,44.77641476636842],[-0.503806442325521,44.776562820924994],[-0.508957424747727,44.77388994920811],[-0.509190685140578,44.77383659934694],[-0.511733669857627,44.77381549650997],[-0.512052160514624,44.77457953282496],[-0.513021844154858,44.77622772917807],[-0.514042766470796,44.777621957370386],[-0.515108869699492,44.77846320736388],[-0.516573690671963,44.78064089965432],[-0.516705449691581,44.78131082027596],[-0.518869186649097,44.7857562755538],[-0.519402550143632,44.78909994861875],[-0.523064476790213,44.791715160105305]]]]}},{"type":"Feature","properties":{"fid":1869,"ID":"COMMUNE_0000000009756104","NOM":"Le Tourne","NOM_M":"LE TOURNE","INSEE_COM":"33534","STATUT":"Commune simple","POPULATION":836,"INSEE_CAN":"12","INSEE_ARR":"2","INSEE_DEP":"33","INSEE_REG":"75","SIREN_EPCI":"243301439"},"geometry":{"type":"MultiPolygon","coordinates":[[[[-0.40433306272352,44.70596439397196],[-0.407766699617725,44.70709865689869],[-0.408993925814292,44.70731137083483],[-0.410373067217778,44.70750767501762],[-0.41122379984749,44.707554444606856],[-0.412717900396036,44.707395735003196],[-0.410350238321009,44.71248982979994],[-0.410148550599911,44.7128736189867],[-0.409728621223664,44.71330558407986],[-0.409630773800885,44.71404752669702],[-0.409042078034925,44.71461445125118],[-0.408438731676668,44.71516920778563],[-0.407691982294474,44.7156517801261],[-0.406065472364063,44.716549812946006],[-0.405936312029979,44.71642042044289],[-0.404017874488639,44.71773741938517],[-0.404066979329985,44.717817911962086],[-0.403221387898831,44.71827645843936],[-0.403308558890314,44.718463916479884],[-0.401561507110538,44.71946110558861],[-0.400710099411746,44.71963595480311],[-0.40077427437284,44.71973581061487],[-0.399665766530904,44.72013211837557],[-0.399499842567696,44.720628329903576],[-0.398991571885859,44.72154596953631],[-0.398971310969008,44.72177547849315],[-0.397229891082907,44.722868842764704],[-0.397691922760373,44.72313130775177],[-0.395964309595995,44.72449636759771],[-0.394981920144159,44.72468059535848],[-0.393899823373702,44.72516073784071],[-0.393439548133887,44.72555602609197],[-0.392651883629293,44.72563694103315],[-0.392482493483697,44.72555292094712],[-0.392041073261618,44.726030528871725],[-0.392553615091404,44.72727730139336],[-0.390908538218921,44.728400948486936],[-0.390850147375166,44.728354977339315],[-0.389934952115697,44.72911021649306],[-0.389525457566403,44.72930027748153],[-0.389198880075888,44.72908319245696],[-0.388141497475314,44.73014374521756],[-0.388307032631188,44.730184636220045],[-0.388145030451892,44.73047525165314],[-0.387129908206507,44.730327892457524],[-0.386363326554905,44.73036125689873],[-0.385220883336052,44.73000961516241],[-0.384643801573652,44.72909549765944],[-0.384425633927177,44.72895708683707],[-0.383395704680984,44.72917239908792],[-0.382935941166807,44.72877914219566],[-0.382111678487128,44.7284204496784],[-0.382501739155588,44.72782280181198],[-0.383677381397416,44.72645771575705],[-0.384063765845801,44.726219722400096],[-0.384146889865072,44.72560531856672],[-0.384506900000311,44.724613889837975],[-0.384409176592684,44.72425012078829],[-0.384000929593464,44.72355702337619],[-0.383328483734635,44.72271610672204],[-0.383254364909597,44.72240838638602],[-0.384011167606547,44.72049109393965],[-0.384305947741621,44.72007567532453],[-0.384971133783651,44.71957773987671],[-0.385249097809312,44.71871497546295],[-0.386483365459837,44.71855917067587],[-0.38788371304357,44.71853794240121],[-0.388194981341916,44.718459928835834],[-0.389676614470905,44.71731248872689],[-0.390089011099848,44.71647983565668],[-0.390321019265152,44.71624023910098],[-0.390727722122219,44.71529241412724],[-0.391300839871936,44.71515590573613],[-0.391599094421846,44.71498816842638],[-0.392698883878314,44.71484632492901],[-0.39302108618531,44.71469857535229],[-0.395949926784568,44.71385089748104],[-0.396924254975566,44.713347905011595],[-0.397570758226105,44.712773867037036],[-0.397747140488227,44.712388176956104],[-0.398138420615213,44.71204545006007],[-0.398420250100493,44.71129246622408],[-0.399983245281911,44.710556898307416],[-0.400670747946302,44.70970042990183],[-0.402328056294911,44.70862400629985],[-0.402413604084274,44.70840871021309],[-0.402340273813697,44.70767654694953],[-0.402405934338691,44.70752944681254],[-0.403287067365354,44.706741800533486],[-0.40433306272352,44.70596439397196]]]]}},{"type":"Feature","properties":{"fid":2752,"ID":"COMMUNE_0000000009756110","NOM":"Baurech","NOM_M":"BAURECH","INSEE_COM":"33033","STATUT":"Commune simple","POPULATION":936,"INSEE_CAN":"11","INSEE_ARR":"2","INSEE_DEP":"33","INSEE_REG":"75","SIREN_EPCI":"243301439"},"geometry":{"type":"MultiPolygon","coordinates":[[[[-0.448685184178579,44.721832698899156],[-0.449786633085721,44.72291310265157],[-0.451031209323704,44.72391514011459],[-0.452130097601389,44.72437560830503],[-0.453259207664194,44.72506041263946],[-0.455822973660607,44.7259905984584],[-0.458048077350071,44.726674477546496],[-0.456447178309133,44.729031446348145],[-0.456193942345203,44.72986842027932],[-0.456078313189972,44.730023425210895],[-0.45579881299746,44.72991860478368],[-0.455754237151795,44.72997496708752],[-0.455053574471732,44.73139003071595],[-0.454148576142358,44.73188687525433],[-0.453756008146319,44.7322055176406],[-0.453229371035307,44.7321525571884],[-0.452528156818536,44.73193291758951],[-0.45205641786599,44.732115244286625],[-0.451724762456218,44.732067010416245],[-0.451374379826041,44.73362972987651],[-0.452194847382079,44.73360865390782],[-0.452533926898661,44.73425142047424],[-0.45032793825005,44.734150776423995],[-0.448877579532553,44.734187858399466],[-0.44818893849555,44.734565266638064],[-0.447875030389667,44.7346417289695],[-0.448303348056561,44.73533850112499],[-0.447980554957081,44.735620704364855],[-0.447979200001369,44.736402951665866],[-0.447427241378169,44.73655621507896],[-0.446878088401457,44.73694098582719],[-0.446335730719278,44.73692092243416],[-0.445698123983702,44.73689390811568],[-0.444473417640055,44.73741683969407],[-0.443527030299203,44.73794281609655],[-0.441877667635706,44.73822119423186],[-0.439869826500077,44.73842687812616],[-0.438403860996217,44.73833453811331],[-0.43528745565552,44.73854482217556],[-0.435475336572858,44.73940590139429],[-0.432520336272214,44.73948583716879],[-0.432078429072939,44.73974464946067],[-0.431287384957836,44.739938583746465],[-0.429859417947733,44.73986838213508],[-0.42915249485226,44.73957577753748],[-0.428083381089484,44.73950164776033],[-0.426653988413597,44.73961528374333],[-0.425699827317413,44.7395393756088],[-0.423132190306571,44.7395439942499],[-0.423060945387694,44.73972372282485],[-0.422737410623776,44.7399130530696],[-0.421317188760905,44.74017772858863],[-0.42068494256465,44.74040542811955],[-0.419032079949402,44.741564888803325],[-0.416323714701733,44.7424180643156],[-0.412755215383537,44.74372572802782],[-0.411021344124422,44.74434597264506],[-0.409053058475166,44.74470847064219],[-0.404354223750405,44.744581791154594],[-0.402911369067585,44.74426658760579],[-0.402509416773591,44.7440599630389],[-0.403192141685205,44.742073599949435],[-0.404588540985649,44.74222802140883],[-0.404827249822308,44.741952142043694],[-0.40520052856893,44.74185235137579],[-0.405557122892483,44.74139351823097],[-0.406484828855218,44.74074049132476],[-0.407008621661603,44.73982774176358],[-0.407560191962869,44.739498973777536],[-0.408119931246739,44.739305122315685],[-0.411723216023997,44.740699955857636],[-0.412103451971054,44.74073599935873],[-0.414272428299987,44.73862084049411],[-0.414993842584685,44.737612741865306],[-0.417748495460317,44.73477835404558],[-0.419048253246088,44.733095437987686],[-0.420502960982326,44.732049331556745],[-0.420809012976495,44.73155235649914],[-0.422333006909513,44.73004630250607],[-0.42264456836191,44.729577988156294],[-0.4220351525477,44.72880742731484],[-0.421643294870636,44.72718667030667],[-0.421155274845843,44.72664484853202],[-0.420470300759697,44.72627311880568],[-0.421323210687622,44.72460488096534],[-0.420850865398043,44.72427884840238],[-0.420637102910646,44.723964648443214],[-0.421371637874056,44.723052520819365],[-0.421466709393268,44.72168525559203],[-0.425311306522284,44.7166551259474],[-0.426042722113,44.715590768272655],[-0.426788008902087,44.714215082385074],[-0.426904826045153,44.71422408117752],[-0.427799447342225,44.713163668465874],[-0.428227773371681,44.71312066319605],[-0.429513512357957,44.71101360933092],[-0.430028195331836,44.710957106632435],[-0.431392842870662,44.70921344631667],[-0.431953680451837,44.70906448768906],[-0.433005258024495,44.70863266394089],[-0.435646786114562,44.70673578268335],[-0.436866176669627,44.70607342429396],[-0.438094013787474,44.70521884583868],[-0.4409686478243,44.70833846763009],[-0.442459382546356,44.71081080736828],[-0.443094770391698,44.711591259145386],[-0.443693878378494,44.71289370067374],[-0.443979295663321,44.714150031527375],[-0.444640517528308,44.716280496626766],[-0.447555907392661,44.7205449864357],[-0.448685184178579,44.721832698899156]]]]}},{"type":"Feature","properties":{"fid":3204,"ID":"COMMUNE_0000000009755882","NOM":"Cénac","NOM_M":"CENAC","INSEE_COM":"33118","STATUT":"Commune simple","POPULATION":2151,"INSEE_CAN":"11","INSEE_ARR":"2","INSEE_DEP":"33","INSEE_REG":"75","SIREN_EPCI":"243301439"},"geometry":{"type":"MultiPolygon","coordinates":[[[[-0.434557248119424,44.77186884664613],[-0.435363577101208,44.77057230430677],[-0.43592925107568,44.77051330724346],[-0.436760222191329,44.770717327241016],[-0.437214980225909,44.770975369513714],[-0.437533510729286,44.771012346361196],[-0.43813432920068,44.77014210110656],[-0.438182050550577,44.76982611381775],[-0.442919321356589,44.76926264335248],[-0.449986616895736,44.76937800063396],[-0.453010283477687,44.76966949191197],[-0.453685859815155,44.76967005957148],[-0.456190805280035,44.76930175661407],[-0.458890546488442,44.7687074274229],[-0.460056584278006,44.769174768626236],[-0.46344454559839,44.77014219484789],[-0.462339927489702,44.77052908509385],[-0.461754701818407,44.770824936846445],[-0.465201228230355,44.77327382305405],[-0.465795881521586,44.773828370844875],[-0.46579504132996,44.77397889399998],[-0.466165947752817,44.77465939547203],[-0.466354102919421,44.77483825024394],[-0.468098840613433,44.77512609425903],[-0.469261974588456,44.77513293360535],[-0.469161289740098,44.7753875159888],[-0.471703599365627,44.775682769036386],[-0.471761237467039,44.775591745777334],[-0.471950707134014,44.77558670933894],[-0.47355972668584,44.776175211617876],[-0.474710059413791,44.77642481438409],[-0.475532716177945,44.776449476303156],[-0.475779765153769,44.77635250860552],[-0.477013761582846,44.776236285421795],[-0.477567272582947,44.7771867858253],[-0.478310613943641,44.778137633098325],[-0.478539739754585,44.779243405083676],[-0.477171141027694,44.779741464926396],[-0.477251779921611,44.78198559277721],[-0.477758040266071,44.782764550834095],[-0.478481832360208,44.78433873596002],[-0.479023982643628,44.78498138502941],[-0.479946148673661,44.785813964435754],[-0.479077138905991,44.78588090514045],[-0.478555249931434,44.78583150324477],[-0.47721906539054,44.785874343257056],[-0.477115548322277,44.78573520393063],[-0.475870588594691,44.785104681551324],[-0.475234178243058,44.785147173070015],[-0.47484353924441,44.785235123851606],[-0.473402182730033,44.78582823641629],[-0.471826252949068,44.78694733254143],[-0.470521348161944,44.78739464422615],[-0.468856877372083,44.78896706105172],[-0.468758234129482,44.78927565064289],[-0.469304947905811,44.79034176073404],[-0.469892023193233,44.79097493716253],[-0.469919684792092,44.79150486974994],[-0.469699198847549,44.791766809093005],[-0.469391539518951,44.791928741881975],[-0.469013046985943,44.79227583189894],[-0.468695528175121,44.79305718615188],[-0.468674457266249,44.79341291306614],[-0.468370477421001,44.793757668384444],[-0.468021576358147,44.79394882451104],[-0.467836370802934,44.794270035220144],[-0.467914874461646,44.794885792501354],[-0.467834734387505,44.79512531223714],[-0.467400523899473,44.79522631337359],[-0.467087519717256,44.795486635677726],[-0.466671466104593,44.795471714013885],[-0.46653660004317,44.7956859089184],[-0.4663013123549,44.79560585322105],[-0.465374085525397,44.79657839141841],[-0.465063343916902,44.796793577575414],[-0.465718065660147,44.79700471044273],[-0.465405633368615,44.79715146030141],[-0.465109729786864,44.797566245825834],[-0.464842961601442,44.79775572438079],[-0.464093568739877,44.79777464390841],[-0.46378316331527,44.79830342819532],[-0.463153639243275,44.7985628160079],[-0.463136119201137,44.79885354508344],[-0.462804399616528,44.79901620998029],[-0.462702344380118,44.7992086473682],[-0.462212145085495,44.79944925756275],[-0.461913351763654,44.79946850388088],[-0.461718083695065,44.79956562260926],[-0.461568772170082,44.799833431950766],[-0.461198311061001,44.799778313885874],[-0.461145141332547,44.79988090695693],[-0.461290568085325,44.80024855473437],[-0.460872674406334,44.80024538310115],[-0.460689580911866,44.80031418302967],[-0.46008279026529,44.800100622122024],[-0.459556360290102,44.800205371160686],[-0.459305017686099,44.80011138240812],[-0.458917787376429,44.800133380717625],[-0.458600335437506,44.79997296359308],[-0.458308549280781,44.800064977255225],[-0.457462821318199,44.799938161646985],[-0.45712254130141,44.8001677634494],[-0.456615867593006,44.80036740744759],[-0.455419613560055,44.80055069987403],[-0.455230200343898,44.79961126530525],[-0.453609019962544,44.80029442228128],[-0.45211951112021,44.801102322329584],[-0.451765935117152,44.80080693293274],[-0.451143044029168,44.80049559679113],[-0.450613477755759,44.80001373262015],[-0.450332433397173,44.79943581438547],[-0.450278838818359,44.79835696940739],[-0.449894930250289,44.79826798810925],[-0.450165790745081,44.7973610817275],[-0.450123482407904,44.796507180736384],[-0.448698090709146,44.7958224921073],[-0.44886789440331,44.79541348071072],[-0.447908793048473,44.79494317042498],[-0.447889008989125,44.794538256570405],[-0.446533921389554,44.7939874331786],[-0.44627272096512,44.793814419779345],[-0.446376563762948,44.79336150408404],[-0.444639471517168,44.7927306184419],[-0.445997089858013,44.790805857961736],[-0.44647726954061,44.790298883979865],[-0.446645809608936,44.78988991603854],[-0.446567135468368,44.78957695201884],[-0.444603590704357,44.789482101715485],[-0.443456431581028,44.789286153033586],[-0.442681368547456,44.78894616113307],[-0.443066533159817,44.78781764237726],[-0.440793132296571,44.78689787003097],[-0.44040544157041,44.78662153317455],[-0.441465256093834,44.785826232818984],[-0.441774119244113,44.78568326650718],[-0.44169696933497,44.78541531168332],[-0.440552716940925,44.78400446924546],[-0.441171127602213,44.78091948777879],[-0.441227329747257,44.78078346809986],[-0.441543164552037,44.780775460637535],[-0.442136193116006,44.78000456262054],[-0.441875043081813,44.77968645239675],[-0.442066557122127,44.77938401833856],[-0.442175811197404,44.778771434083716],[-0.442397349159444,44.77844283388529],[-0.441694569404175,44.778288939438745],[-0.440928122966347,44.7779423657625],[-0.439540405905824,44.77782234458109],[-0.439228058208107,44.77753555705371],[-0.439012829017789,44.77716104456796],[-0.438970595987375,44.776698254788464],[-0.43838402762474,44.7748861928074],[-0.437959217614673,44.77424963629091],[-0.437354670382215,44.773632172971126],[-0.435855964742284,44.77246029039626],[-0.434557248119424,44.77186884664613]]]]}},{"type":"Feature","properties":{"fid":3621,"ID":"COMMUNE_0000000009756105","NOM":"Tabanac","NOM_M":"TABANAC","INSEE_COM":"33518","STATUT":"Commune simple","POPULATION":1074,"INSEE_CAN":"12","INSEE_ARR":"2","INSEE_DEP":"33","INSEE_REG":"75","SIREN_EPCI":"243301439"},"geometry":{"type":"MultiPolygon","coordinates":[[[[-0.433896514270889,44.70263314911012],[-0.434376088464691,44.702748028956634],[-0.435796744952243,44.70329327074731],[-0.436343082330704,44.70363225582982],[-0.437346635844361,44.704485105400806],[-0.438094013787474,44.70521884583868],[-0.436866176669627,44.70607342429396],[-0.435646786114562,44.70673578268335],[-0.433005258024495,44.70863266394089],[-0.431953680451837,44.70906448768906],[-0.431392842870662,44.70921344631667],[-0.430028195331836,44.710957106632435],[-0.429513512357957,44.71101360933092],[-0.428227773371681,44.71312066319605],[-0.427799447342225,44.713163668465874],[-0.426904826045153,44.71422408117752],[-0.426788008902087,44.714215082385074],[-0.426042722113,44.715590768272655],[-0.425311306522284,44.7166551259474],[-0.421466709393268,44.72168525559203],[-0.421371637874056,44.723052520819365],[-0.420637102910646,44.723964648443214],[-0.420850865398043,44.72427884840238],[-0.421323210687622,44.72460488096534],[-0.420470300759697,44.72627311880568],[-0.421155274845843,44.72664484853202],[-0.421643294870636,44.72718667030667],[-0.4220351525477,44.72880742731484],[-0.42264456836191,44.729577988156294],[-0.422333006909513,44.73004630250607],[-0.420809012976495,44.73155235649914],[-0.420502960982326,44.732049331556745],[-0.419048253246088,44.733095437987686],[-0.417748495460317,44.73477835404558],[-0.414993842584685,44.737612741865306],[-0.414272428299987,44.73862084049411],[-0.412103451971054,44.74073599935873],[-0.411723216023997,44.740699955857636],[-0.408119931246739,44.739305122315685],[-0.407560191962869,44.739498973777536],[-0.407008621661603,44.73982774176358],[-0.406484828855218,44.74074049132476],[-0.405557122892483,44.74139351823097],[-0.40520052856893,44.74185235137579],[-0.404827249822308,44.741952142043694],[-0.404588540985649,44.74222802140883],[-0.403192141685205,44.742073599949435],[-0.402509416773591,44.7440599630389],[-0.401440459747355,44.74369630457967],[-0.400371426320973,44.74349844778719],[-0.3972226683727,44.7435978022017],[-0.396126067336404,44.74355033911722],[-0.394001472176071,44.743272149811794],[-0.393234355003775,44.743110928326175],[-0.392751781751644,44.74290854265415],[-0.392568921122262,44.741742673126396],[-0.392957100732479,44.74065302442423],[-0.392861241809806,44.7400071467606],[-0.392133080192114,44.740155615975254],[-0.392116838975633,44.73896391662343],[-0.392868739943874,44.7372809940935],[-0.39357518769167,44.73622844877611],[-0.393502499740794,44.73605045054921],[-0.393057001956319,44.73587486718072],[-0.39190417573092,44.73547945180773],[-0.391699242650495,44.73549834595911],[-0.390851988126474,44.73515934097205],[-0.391141137759299,44.73420970552655],[-0.391197129669227,44.732768887334196],[-0.391411220504639,44.73172783327938],[-0.39105075269672,44.73107474386752],[-0.38990611269805,44.73066644528015],[-0.388963238348917,44.73073225962841],[-0.38837877406227,44.73049423021438],[-0.388145030451892,44.73047525165314],[-0.388307032631188,44.730184636220045],[-0.388141497475314,44.73014374521756],[-0.389198880075888,44.72908319245696],[-0.389525457566403,44.72930027748153],[-0.389934952115697,44.72911021649306],[-0.390850147375166,44.728354977339315],[-0.390908538218921,44.728400948486936],[-0.392553615091404,44.72727730139336],[-0.392041073261618,44.726030528871725],[-0.392482493483697,44.72555292094712],[-0.392651883629293,44.72563694103315],[-0.393439548133887,44.72555602609197],[-0.393899823373702,44.72516073784071],[-0.394981920144159,44.72468059535848],[-0.395964309595995,44.72449636759771],[-0.397691922760373,44.72313130775177],[-0.397229891082907,44.722868842764704],[-0.398971310969008,44.72177547849315],[-0.398991571885859,44.72154596953631],[-0.399499842567696,44.720628329903576],[-0.399665766530904,44.72013211837557],[-0.40077427437284,44.71973581061487],[-0.400710099411746,44.71963595480311],[-0.401561507110538,44.71946110558861],[-0.403308558890314,44.718463916479884],[-0.403221387898831,44.71827645843936],[-0.404066979329985,44.717817911962086],[-0.404017874488639,44.71773741938517],[-0.405936312029979,44.71642042044289],[-0.406065472364063,44.716549812946006],[-0.407691982294474,44.7156517801261],[-0.408438731676668,44.71516920778563],[-0.409042078034925,44.71461445125118],[-0.409630773800885,44.71404752669702],[-0.409728621223664,44.71330558407986],[-0.410148550599911,44.7128736189867],[-0.410350238321009,44.71248982979994],[-0.412717900396036,44.707395735003196],[-0.418416975675441,44.70646107231947],[-0.419729840215542,44.70606546020903],[-0.421654645242027,44.705385076462996],[-0.427672836339391,44.702558484191314],[-0.429123120559767,44.70211884926167],[-0.430430486294891,44.70209184133505],[-0.432383723993812,44.70225474960678],[-0.433896514270889,44.70263314911012]]]]}},{"type":"Feature","properties":{"fid":3770,"ID":"COMMUNE_0000000009756107","NOM":"Saint-Caprais-de-Bordeaux","NOM_M":"SAINT-CAPRAIS-DE-BORDEAUX","INSEE_COM":"33381","STATUT":"Commune simple","POPULATION":3460,"INSEE_CAN":"11","INSEE_ARR":"2","INSEE_DEP":"33","INSEE_REG":"75","SIREN_EPCI":"243301439"},"geometry":{"type":"MultiPolygon","coordinates":[[[[-0.446335730719278,44.73692092243416],[-0.446120301738022,44.73866686235544],[-0.446953595736623,44.73891577578346],[-0.446983192939503,44.73977005377284],[-0.447945725246643,44.740023047294656],[-0.448176529168112,44.74028170153559],[-0.447948301479546,44.741653164578864],[-0.447466685080535,44.743099202945416],[-0.446719508006098,44.7439470251606],[-0.446447020761666,44.74439076701696],[-0.445878339482254,44.74573767669376],[-0.445172750823529,44.74679055887102],[-0.445179754079694,44.746925514986344],[-0.446925202484741,44.74773631044023],[-0.448531012720883,44.74829009185497],[-0.449731144135266,44.74835273977144],[-0.451207089612685,44.748561779161456],[-0.451271299170248,44.74872198743216],[-0.452421358416603,44.74941067407265],[-0.452448977764062,44.75089042660179],[-0.451781093562644,44.75268023331366],[-0.451713735533485,44.75337532886336],[-0.451895256558372,44.75447810476618],[-0.450820029553685,44.75585525121121],[-0.449776364383323,44.75739721762874],[-0.450285908445868,44.75766250873631],[-0.449864641935027,44.75794958602002],[-0.449532441396089,44.75836906248022],[-0.449720606490324,44.75873538334764],[-0.450156992429375,44.75914804196717],[-0.449935719755222,44.75925226055558],[-0.449352362524933,44.75922717395918],[-0.448774380971891,44.759537150594056],[-0.447440455922974,44.76055554181265],[-0.445487361085462,44.761729254218714],[-0.444609169055303,44.762404506242426],[-0.442752880271522,44.763529197466966],[-0.442266481077833,44.76407600119721],[-0.441216440637273,44.764383483113534],[-0.440711584897546,44.76467041662893],[-0.440675220051431,44.76484096493711],[-0.440573401635759,44.76489279041185],[-0.440322279476782,44.76498529962879],[-0.439844820545865,44.765017250022304],[-0.438776314769525,44.76539557208352],[-0.438050067300802,44.76582724353755],[-0.437065365624168,44.766273237892406],[-0.436272869950281,44.76649067379257],[-0.436732263389646,44.76734243863922],[-0.437647882540795,44.76975888322982],[-0.438182050550577,44.76982611381775],[-0.43813432920068,44.77014210110656],[-0.437533510729286,44.771012346361196],[-0.437214980225909,44.770975369513714],[-0.436760222191329,44.770717327241016],[-0.43592925107568,44.77051330724346],[-0.435363577101208,44.77057230430677],[-0.434557248119424,44.77186884664613],[-0.432497212446513,44.77136406182293],[-0.432755341387087,44.77105417436427],[-0.433431044073935,44.76979323578014],[-0.431903610596445,44.76978469447159],[-0.428298929255999,44.769982820510904],[-0.423904405082111,44.76967536338274],[-0.418097244228679,44.767688324912285],[-0.411460404648875,44.76611314450603],[-0.40698829395776,44.764205179637536],[-0.406212225426107,44.76394338385514],[-0.405211967324129,44.76371821299221],[-0.406226053515059,44.762083894733976],[-0.406018440342898,44.76199746112115],[-0.406116718267477,44.761323085692815],[-0.406461784175377,44.76063030680544],[-0.406351903651174,44.759985762839676],[-0.40615214644823,44.75952781651875],[-0.40533100320085,44.758478902180585],[-0.405265430698947,44.757960057101144],[-0.405229643194899,44.757243847059655],[-0.405338018536121,44.75621411255314],[-0.405468103146792,44.755835237121815],[-0.405379006706227,44.75503235480631],[-0.405764945828883,44.75259280867283],[-0.40564443051053,44.752461343491795],[-0.403440745445662,44.75130083430785],[-0.401478630468584,44.74990938226929],[-0.400002458714419,44.749086917813344],[-0.401442374018347,44.74893366102175],[-0.401787881440912,44.74872930295207],[-0.403608429425771,44.748430054305764],[-0.404697950817472,44.748108196622205],[-0.405151421425234,44.74770315834633],[-0.406011630214233,44.74754153227672],[-0.408529674050151,44.74662959599156],[-0.408563710934107,44.7460437073109],[-0.409313089079687,44.74588997187077],[-0.409620350167895,44.74570208511516],[-0.410552774797359,44.745418346948476],[-0.411625963589315,44.74539159524025],[-0.411872986256247,44.74529477104104],[-0.412755215383537,44.74372572802782],[-0.416323714701733,44.7424180643156],[-0.419032079949402,44.741564888803325],[-0.42068494256465,44.74040542811955],[-0.421317188760905,44.74017772858863],[-0.422737410623776,44.7399130530696],[-0.423060945387694,44.73972372282485],[-0.423132190306571,44.7395439942499],[-0.425699827317413,44.7395393756088],[-0.426653988413597,44.73961528374333],[-0.428083381089484,44.73950164776033],[-0.42915249485226,44.73957577753748],[-0.429859417947733,44.73986838213508],[-0.431287384957836,44.739938583746465],[-0.432078429072939,44.73974464946067],[-0.432520336272214,44.73948583716879],[-0.435475336572858,44.73940590139429],[-0.43528745565552,44.73854482217556],[-0.438403860996217,44.73833453811331],[-0.439869826500077,44.73842687812616],[-0.441877667635706,44.73822119423186],[-0.443527030299203,44.73794281609655],[-0.444473417640055,44.73741683969407],[-0.445698123983702,44.73689390811568],[-0.446335730719278,44.73692092243416]]]]}},{"type":"Feature","properties":{"fid":3969,"ID":"COMMUNE_0000000009756114","NOM":"Cambes","NOM_M":"CAMBES","INSEE_COM":"33084","STATUT":"Commune simple","POPULATION":1853,"INSEE_CAN":"11","INSEE_ARR":"2","INSEE_DEP":"33","INSEE_REG":"75","SIREN_EPCI":"243301439"},"geometry":{"type":"MultiPolygon","coordinates":[[[[-0.452421358416603,44.74941067407265],[-0.451271299170248,44.74872198743216],[-0.451207089612685,44.748561779161456],[-0.449731144135266,44.74835273977144],[-0.448531012720883,44.74829009185497],[-0.446925202484741,44.74773631044023],[-0.445179754079694,44.746925514986344],[-0.445172750823529,44.74679055887102],[-0.445878339482254,44.74573767669376],[-0.446447020761666,44.74439076701696],[-0.446719508006098,44.7439470251606],[-0.447466685080535,44.743099202945416],[-0.447948301479546,44.741653164578864],[-0.448176529168112,44.74028170153559],[-0.447945725246643,44.740023047294656],[-0.446983192939503,44.73977005377284],[-0.446953595736623,44.73891577578346],[-0.446120301738022,44.73866686235544],[-0.446335730719278,44.73692092243416],[-0.446878088401457,44.73694098582719],[-0.447427241378169,44.73655621507896],[-0.447979200001369,44.736402951665866],[-0.447980554957081,44.735620704364855],[-0.448303348056561,44.73533850112499],[-0.447875030389667,44.7346417289695],[-0.44818893849555,44.734565266638064],[-0.448877579532553,44.734187858399466],[-0.45032793825005,44.734150776423995],[-0.452533926898661,44.73425142047424],[-0.452194847382079,44.73360865390782],[-0.451374379826041,44.73362972987651],[-0.451724762456218,44.732067010416245],[-0.45205641786599,44.732115244286625],[-0.452528156818536,44.73193291758951],[-0.453229371035307,44.7321525571884],[-0.453756008146319,44.7322055176406],[-0.454148576142358,44.73188687525433],[-0.455053574471732,44.73139003071595],[-0.455754237151795,44.72997496708752],[-0.45579881299746,44.72991860478368],[-0.456078313189972,44.730023425210895],[-0.456193942345203,44.72986842027932],[-0.456447178309133,44.729031446348145],[-0.458048077350071,44.726674477546496],[-0.460562592220756,44.7274384814972],[-0.465262780193986,44.72922714340531],[-0.466038500260493,44.72960928304695],[-0.468842212464283,44.73136885303168],[-0.470906598147415,44.73249458925399],[-0.472949772458285,44.733316360135305],[-0.479033361737338,44.73515568618248],[-0.480211143275724,44.73535117084082],[-0.483633037820068,44.736158241662224],[-0.482773264232636,44.73785246715576],[-0.482566333142899,44.73800226345564],[-0.482341862359011,44.738052580507755],[-0.48206041777424,44.737958698523364],[-0.480485806617082,44.739605993823275],[-0.480124885519021,44.73980117882894],[-0.479223153179327,44.74061534335034],[-0.479134471599468,44.74085784260038],[-0.479173830211845,44.74190287035692],[-0.478951661746006,44.742358636627934],[-0.476128728646028,44.74500753510426],[-0.476096364651271,44.74515904733176],[-0.475565829344365,44.74535233143795],[-0.474672899671359,44.74653656214233],[-0.469977695306675,44.75010374644525],[-0.468329779192027,44.75149631689974],[-0.467073135901879,44.7528775131589],[-0.465522128174801,44.75494198284623],[-0.464882194851034,44.75477816668801],[-0.463212061556689,44.75396618314535],[-0.460495274005036,44.752853453828926],[-0.459364729936177,44.75223813109841],[-0.458241215875612,44.75146937963854],[-0.458069397654054,44.75126657529005],[-0.457517776038612,44.75122161869251],[-0.457091399062819,44.751547635210414],[-0.456834575006157,44.751463733311624],[-0.454203591500643,44.74995256825226],[-0.453277211018234,44.749611982835376],[-0.452421358416603,44.74941067407265]]]]}},{"type":"Feature","properties":{"fid":3985,"ID":"COMMUNE_0000000009756109","NOM":"Langoiran","NOM_M":"LANGOIRAN","INSEE_COM":"33226","STATUT":"Commune simple","POPULATION":2210,"INSEE_CAN":"12","INSEE_ARR":"3","INSEE_DEP":"33","INSEE_REG":"75","SIREN_EPCI":"243301439"},"geometry":{"type":"MultiPolygon","coordinates":[[[[-0.40433306272352,44.70596439397196],[-0.403287067365354,44.706741800533486],[-0.402405934338691,44.70752944681254],[-0.402340273813697,44.70767654694953],[-0.402413604084274,44.70840871021309],[-0.402328056294911,44.70862400629985],[-0.400670747946302,44.70970042990183],[-0.399983245281911,44.710556898307416],[-0.398420250100493,44.71129246622408],[-0.398138420615213,44.71204545006007],[-0.397747140488227,44.712388176956104],[-0.397570758226105,44.712773867037036],[-0.396924254975566,44.713347905011595],[-0.395949926784568,44.71385089748104],[-0.39302108618531,44.71469857535229],[-0.392698883878314,44.71484632492901],[-0.391599094421846,44.71498816842638],[-0.391300839871936,44.71515590573613],[-0.390727722122219,44.71529241412724],[-0.390321019265152,44.71624023910098],[-0.390089011099848,44.71647983565668],[-0.389676614470905,44.71731248872689],[-0.388194981341916,44.718459928835834],[-0.38788371304357,44.71853794240121],[-0.386483365459837,44.71855917067587],[-0.385249097809312,44.71871497546295],[-0.383124088128428,44.71938009606846],[-0.382523876124865,44.71976069093682],[-0.381064561121056,44.71987376373319],[-0.380365766280255,44.71958151823726],[-0.378013657615922,44.71918114316599],[-0.375163368957992,44.71886079242846],[-0.37100545421319,44.71907491516819],[-0.369341105538627,44.71873991644045],[-0.368030970915396,44.71866354789808],[-0.367582440078505,44.71879253818694],[-0.367041722398029,44.71919736815444],[-0.366612937645052,44.7191284100333],[-0.365542974589368,44.719623220211695],[-0.364348415123843,44.71961988773552],[-0.363919164026572,44.719712232264044],[-0.363281256875502,44.71999294001374],[-0.362297495236164,44.71979484751993],[-0.361835571115794,44.719869253037125],[-0.361303148292562,44.719779092190834],[-0.359746921470473,44.72006873989991],[-0.358693139664645,44.719904279924464],[-0.358262293956667,44.72016065234984],[-0.357636353414851,44.72028236846289],[-0.357248253209351,44.72102223635936],[-0.357018153652198,44.7211481616111],[-0.356681972639605,44.72114844494872],[-0.355721302194885,44.7208711974156],[-0.35475158291055,44.720802371872274],[-0.353104903731149,44.72120820533537],[-0.352589056399234,44.7215446248433],[-0.351937924356588,44.72177430261389],[-0.351484596877633,44.72199348183308],[-0.351056353932536,44.72208214045031],[-0.350192490629946,44.72258137055155],[-0.349781392498666,44.72268212062179],[-0.349349283400359,44.72289704415056],[-0.348961255278505,44.72323678696317],[-0.348445882641259,44.723369522020846],[-0.34819721896248,44.72356627591471],[-0.347165648429445,44.723456901711494],[-0.346549559915393,44.723150231149596],[-0.344163797630032,44.72254290331601],[-0.344905997611832,44.72150583571955],[-0.344895704634286,44.72109884840958],[-0.344117639051341,44.719895057518215],[-0.343426372858942,44.719258136630344],[-0.343275158493666,44.718797736136814],[-0.342415009332496,44.71716839318911],[-0.342426258155664,44.7166769540212],[-0.343703169954954,44.71672759363685],[-0.343572121483667,44.71656394797774],[-0.343686365141155,44.71631719953621],[-0.345147692591252,44.71519712731656],[-0.346648500619814,44.714189379401994],[-0.348020927826762,44.71127966488613],[-0.347915459156826,44.710951250508586],[-0.348086646340735,44.70981428935023],[-0.348514381258607,44.70982477635993],[-0.349120276037373,44.70807272402969],[-0.350606428546453,44.706738261223094],[-0.350912346851399,44.705785545752995],[-0.351459553585268,44.705086840844956],[-0.351678826988405,44.70412232976244],[-0.351960567523706,44.703612783825676],[-0.352014510886871,44.703309281182364],[-0.351872584414981,44.7028143711196],[-0.351997154960641,44.70250872908279],[-0.351864357057286,44.702230707694284],[-0.351475874611326,44.701838782523254],[-0.351930111266506,44.70163759448367],[-0.352479831400464,44.70157588530304],[-0.352719921775046,44.70147039083242],[-0.353324806197831,44.70112586264372],[-0.353396732174147,44.700975902416076],[-0.353955745077529,44.700688628989184],[-0.354189187840508,44.700386892823616],[-0.35476793784544,44.700134159650204],[-0.354985934829751,44.69953102136398],[-0.354908182842466,44.69937118089432],[-0.355081472990629,44.69926860752671],[-0.355357310894578,44.69927556164494],[-0.356005842908189,44.698816155557694],[-0.356513176151744,44.69827722663262],[-0.356944995796462,44.69770093792871],[-0.35697049090319,44.69745055951811],[-0.35686016252884,44.69729531326092],[-0.357722823934905,44.69737636759545],[-0.357984727076831,44.69750989192931],[-0.358652487324924,44.69754278820853],[-0.360509106732264,44.69755489633235],[-0.360912852410347,44.69773636964905],[-0.362001651719418,44.697626696476235],[-0.362336548279759,44.697755289525126],[-0.363559148623952,44.69785509634007],[-0.364316017938093,44.69806817386484],[-0.366562937114359,44.69921902427255],[-0.366899876806338,44.69993055768878],[-0.367677715089087,44.70045115404528],[-0.368028281361277,44.700862201591555],[-0.36831037294125,44.70097346180775],[-0.371123094166981,44.70015520034805],[-0.372000825632274,44.7000437501499],[-0.372827657245186,44.70015822067344],[-0.373231238644411,44.69911324636017],[-0.373354708536352,44.69906532767552],[-0.374503917239313,44.69935198019428],[-0.37520188081987,44.69942440641976],[-0.3756736515413,44.69873778581933],[-0.378997135854367,44.69574016597522],[-0.384220337891692,44.69259693456141],[-0.384146293028786,44.692373921549],[-0.386060347102364,44.691516067431685],[-0.388366889095673,44.69069481809459],[-0.389120281833174,44.69064020101392],[-0.394308833824205,44.69096141942113],[-0.402387806271913,44.69172159498962],[-0.40343218564081,44.69213372286433],[-0.397962568718946,44.696200099679395],[-0.397000267824735,44.697085714206175],[-0.396465654015465,44.697877991642606],[-0.395750672060116,44.699492216916624],[-0.395526933980132,44.70032811400979],[-0.395465678889597,44.70138610702966],[-0.395755441724016,44.70220985034524],[-0.396022239193222,44.702590045401486],[-0.396861889055129,44.70322929981469],[-0.398671491187424,44.704007270746715],[-0.40184000427657,44.705212029906015],[-0.40433306272352,44.70596439397196]]]]}}]}