{"type":"FeatureCollection","name":"COM_40189","crs":{"type":"name","properties":{"name":"urn:ogc:def:crs:OGC:1.3:CRS84"}},"features":[{"type":"Feature","properties":{"fid":4276,"ID":"COMMUNE_0000000009760295","NOM":"Monget","NOM_M":"MONGET","INSEE_COM":"40189","STATUT":"Commune simple","POPULATION":77,"INSEE_CAN":"02","INSEE_ARR":"2","INSEE_DEP":"40","INSEE_REG":"75","SIREN_EPCI":"200069649"},"geometry":{"type":"MultiPolygon","coordinates":[[[[-0.507582824137072,43.56898466627765],[-0.507245064415111,43.56882896512024],[-0.50726981506892,43.5684435951627],[-0.510739848189833,43.566307673444875],[-0.510735584700304,43.5662177480926],[-0.50912481091657,43.56491169330566],[-0.509115053102142,43.56473188262689],[-0.509529576056668,43.564360927067014],[-0.510159123196388,43.56456932571371],[-0.51087306554355,43.56401125484323],[-0.510940217915726,43.563873987519464],[-0.510614086629636,43.5635233855389],[-0.510598547847148,43.56320866741937],[-0.511188807151385,43.562653694927704],[-0.512164014168415,43.562358251068275],[-0.513393775674697,43.56223558360647],[-0.514467290764437,43.56144248867528],[-0.515714950128043,43.56141017839205],[-0.51863544754087,43.56044280341221],[-0.519748531569545,43.56045804019382],[-0.519946295772466,43.559967084241585],[-0.520738596944421,43.558993012689626],[-0.522024319271094,43.55873423462852],[-0.523072525994125,43.558661478667126],[-0.523741803312894,43.558488439504785],[-0.524040646224875,43.558615630684834],[-0.524337653900621,43.558571760072326],[-0.526248167864638,43.55927072656336],[-0.526467228373341,43.55898621143165],[-0.525544784770085,43.55775980034783],[-0.525777101708878,43.5569452828839],[-0.527119712839814,43.55588032713093],[-0.527372882828603,43.55540556822696],[-0.528318942406092,43.55445796165468],[-0.528645822055021,43.55423568218863],[-0.530889379198308,43.553183702646706],[-0.530843673128273,43.5527024499255],[-0.531024966396054,43.552388532864136],[-0.531307329824115,43.55228837878794],[-0.532440588300789,43.55213080241893],[-0.532946911325624,43.5516054572911],[-0.533582580082397,43.55133077670099],[-0.534308010298134,43.5508649354323],[-0.534922861175772,43.550674683911154],[-0.535329714208617,43.55066593011909],[-0.535556597099188,43.55052974578143],[-0.536204830071001,43.550439270124016],[-0.53628160403734,43.54987657234293],[-0.538458595800597,43.54959754378079],[-0.539420577502552,43.54957517034505],[-0.539745981718344,43.54949070150269],[-0.540311964515672,43.549191234647125],[-0.541255664724904,43.54827060529437],[-0.541534856440795,43.54779856413929],[-0.541998257566792,43.54756277940819],[-0.543045209049795,43.546771156239544],[-0.543717461732433,43.546709570749215],[-0.544893441387209,43.54638384680335],[-0.545642846301842,43.546027921405866],[-0.546012334582771,43.54551508987062],[-0.54859833747839,43.544725328960276],[-0.552145285420424,43.543298812915396],[-0.552926380316534,43.543156149751454],[-0.555012401417227,43.54275276875293],[-0.555401718907549,43.54276162469795],[-0.556507714371558,43.543127055406174],[-0.556753845511298,43.543082959891244],[-0.557192834005942,43.54283439860641],[-0.557483334699982,43.543226558402544],[-0.558302210640337,43.545131580098385],[-0.55889692741203,43.54551736096286],[-0.559360239982672,43.54633976000545],[-0.55984763833797,43.546611973782916],[-0.560027269402797,43.5468330418177],[-0.560349832122864,43.54782127269991],[-0.560309650709689,43.54811169893664],[-0.560957254704394,43.54914960516781],[-0.561203657696357,43.549428823767634],[-0.561897672324086,43.54985726500552],[-0.562211814869776,43.55029006996137],[-0.562351550374547,43.550725899216566],[-0.562373800577744,43.551902317845354],[-0.561935950007383,43.55252913584405],[-0.561820808690763,43.55288867282972],[-0.559903607212801,43.55220585868398],[-0.557276602598525,43.551538182128844],[-0.556774960734608,43.55245527617598],[-0.556689523489938,43.55277510500521],[-0.55676976070403,43.55327053295176],[-0.554897079400463,43.553325603399394],[-0.554251871274056,43.55352506993478],[-0.554059771106831,43.553402570300975],[-0.553857661345083,43.553398382947286],[-0.553165308180897,43.55361649941973],[-0.551811898754057,43.554198499476016],[-0.551736267320298,43.55441713042122],[-0.552005529624226,43.554665900557175],[-0.551939231016684,43.55533545022484],[-0.551424637572607,43.55574497714688],[-0.551099931118937,43.555580879432185],[-0.550653581911887,43.55599267217023],[-0.550319889241222,43.556624137193516],[-0.550473114445622,43.557019010699506],[-0.54906802187191,43.55760806946914],[-0.548723595437511,43.557525667528246],[-0.547388646120392,43.55826822151058],[-0.544899581528572,43.55931415970733],[-0.543752929868066,43.55995864938341],[-0.543914241239744,43.56008397467667],[-0.543481098326407,43.56045027279139],[-0.542868688486107,43.56124302394548],[-0.54223225542529,43.5617672625563],[-0.541175944592882,43.56217100399432],[-0.537552290804651,43.56265756006948],[-0.535722545091237,43.56353497869191],[-0.534976113652322,43.56382318539365],[-0.533775588977093,43.56411896985133],[-0.532676758361354,43.564759078345304],[-0.532085745770847,43.565238544998095],[-0.531640580357706,43.56589429121913],[-0.534758637515481,43.56952144711873],[-0.53851072708162,43.57293782849392],[-0.538552605076273,43.57305444843199],[-0.538316551850592,43.57370611004612],[-0.537701496008368,43.573334376546484],[-0.537595382770162,43.572899218389566],[-0.536557932838057,43.57298976989569],[-0.535702481507407,43.57289785517678],[-0.53489547752126,43.573109676007384],[-0.533943174250075,43.57311456934555],[-0.533378969834115,43.57302486112152],[-0.532714609680661,43.57301856781383],[-0.532157846959713,43.572788110057104],[-0.531886919841433,43.57275369588339],[-0.530981607769816,43.57303893681903],[-0.529784807196147,43.57321746686566],[-0.529101978495231,43.57341439751819],[-0.528554905738295,43.573280876285],[-0.528486397483009,43.57279135079459],[-0.528259817860633,43.5726924406552],[-0.527931894165829,43.5726778824971],[-0.527262478268408,43.57289147778068],[-0.526698265754821,43.57298276519773],[-0.52547144950635,43.57289473121417],[-0.523941770031241,43.572231999976474],[-0.522793520751899,43.571446089479565],[-0.521805151377486,43.57136738759326],[-0.521286476225919,43.57105007944748],[-0.521060146360389,43.570995278338756],[-0.520787387891013,43.57105186115346],[-0.520344101773997,43.571438205443975],[-0.51869142202375,43.57161608827022],[-0.518197714435469,43.57176628906211],[-0.517971227000099,43.571749313476325],[-0.517732984696446,43.57160122502311],[-0.517192092642861,43.57090094577696],[-0.515975857352803,43.57134834356105],[-0.515460762893602,43.57125064837858],[-0.515204900738393,43.57077439257299],[-0.515367578591802,43.570498031405144],[-0.515798895848581,43.570360672314614],[-0.515719881673417,43.56996064687677],[-0.515601248047545,43.56970240438873],[-0.51515254121467,43.56941432464622],[-0.514837883389948,43.569009322321556],[-0.514882965792046,43.56800635465766],[-0.515356309988828,43.567584836095726],[-0.51448562501429,43.5666961896071],[-0.514053987199072,43.56670656479464],[-0.513845146426395,43.56683581338476],[-0.513640676030285,43.567238713031024],[-0.513212916170934,43.56733271821257],[-0.512426508365354,43.56782019914817],[-0.512082739190494,43.56813303739915],[-0.512161003143127,43.56844032295477],[-0.512098829213095,43.5696302729069],[-0.512201713318271,43.56997548942375],[-0.510263511642208,43.56870525736118],[-0.509361748391162,43.56882628572452],[-0.508713423774473,43.568676128039094],[-0.508026209372362,43.56890278764708],[-0.507851326628766,43.56883819107924],[-0.507582824137072,43.56898466627765]]]]}}]}