{"type":"FeatureCollection","name":"COM_33461","crs":{"type":"name","properties":{"name":"urn:ogc:def:crs:OGC:1.3:CRS84"}},"features":[{"type":"Feature","properties":{"fid":4267,"ID":"COMMUNE_0000000009755393","NOM":"Saint-Philippe-d'Aiguille","NOM_M":"SAINT-PHILIPPE-D'AIGUILLE","INSEE_COM":"33461","STATUT":"Commune simple","POPULATION":383,"INSEE_CAN":"10","INSEE_ARR":"5","INSEE_DEP":"33","INSEE_REG":"75","SIREN_EPCI":"200035533"},"geometry":{"type":"MultiPolygon","coordinates":[[[[-0.029310723826851,44.9253596686214],[-0.028508405224698,44.925298649600954],[-0.027702703489303,44.92540981135322],[-0.027584392549617,44.92505082671644],[-0.025430716722672,44.92528339489237],[-0.024950869438654,44.925134278604546],[-0.02443859461672,44.92518336561015],[-0.024495717941379,44.92548995792157],[-0.023995982677498,44.92565403143317],[-0.022987673883267,44.926477069523024],[-0.02225017636624,44.926630484904365],[-0.021945233392175,44.92631441459207],[-0.020753298959536,44.924530385131234],[-0.022159953736088,44.92361544045366],[-0.020382685140868,44.921629287184786],[-0.020442904024128,44.92065185274806],[-0.021266554150416,44.92080425104824],[-0.021606063114683,44.919667849082025],[-0.021536504166155,44.91931834604892],[-0.021026302939294,44.91869881076647],[-0.020269023915509,44.91744717431562],[-0.020037881453926,44.9167578777999],[-0.020039638744397,44.91639021728435],[-0.020455580624654,44.91624916193802],[-0.022409388729307,44.91650236022919],[-0.02301771698597,44.9149432723034],[-0.022462376182962,44.914615099497226],[-0.022077356993024,44.914223724380015],[-0.02105902185255,44.91344502143716],[-0.02066724233639,44.91290425812569],[-0.020369524802341,44.91210865293534],[-0.019486227760423,44.91204707348924],[-0.018865139102274,44.91190988378451],[-0.018519854896445,44.91166698542482],[-0.018351338644114,44.9114336985817],[-0.017801251371314,44.911319801931185],[-0.017281929933488,44.91109424273807],[-0.016559913504329,44.910659746578716],[-0.016319063182559,44.910236506842],[-0.016091029704321,44.91021657030431],[-0.015998927962999,44.91013077258381],[-0.015629044709014,44.91011378596978],[-0.01548503427602,44.91002939725617],[-0.014838092930807,44.90917478500979],[-0.016601075479867,44.908596220837225],[-0.019236440036653,44.90792543854727],[-0.020470631814548,44.90788827564655],[-0.021491094413013,44.90809658248985],[-0.022970553811919,44.90785810066813],[-0.023036403186149,44.90778602946906],[-0.022819193468183,44.907308099086514],[-0.02374623120571,44.907194564069904],[-0.023822745040156,44.90734385064656],[-0.025050250776181,44.907041921197596],[-0.025161112265236,44.90684067900931],[-0.025573637031949,44.906825837306265],[-0.026007946273755,44.9066977740675],[-0.026073658122508,44.905965263326756],[-0.026193633990241,44.90567457154739],[-0.027281046366683,44.905761165644364],[-0.027443564370294,44.90585945081291],[-0.027649618021889,44.90627100210388],[-0.029796676768306,44.90590610374677],[-0.029890104907776,44.90601618146899],[-0.034074917362645,44.9058451670816],[-0.034825595258788,44.90582375490813],[-0.035976655830232,44.904930923188374],[-0.037736432567925,44.904814323727905],[-0.039974574285023,44.9045413408263],[-0.040910939460577,44.90504550317203],[-0.041553878950173,44.90528198330303],[-0.042517464304176,44.90558626237269],[-0.043431367700045,44.90569907687362],[-0.043673670181508,44.90579515258801],[-0.045905719698204,44.90727740463853],[-0.04655584822646,44.907435271295014],[-0.047133676710107,44.90714911259751],[-0.051251536656901,44.90842633180944],[-0.051344407787648,44.90864182785667],[-0.051174749533005,44.9087861475749],[-0.051519385283327,44.90922448752003],[-0.05474538151682,44.91046481580084],[-0.055355793291855,44.91077689952645],[-0.055927696446373,44.910963896050916],[-0.056144894263831,44.91113361978186],[-0.057063529384325,44.911214659461336],[-0.057444174540049,44.911056413292926],[-0.057609105502447,44.91080228855012],[-0.057961222425911,44.91079529734126],[-0.058234138281963,44.910614785660876],[-0.058657271515024,44.91065449216864],[-0.060246402737575,44.911195484082086],[-0.061032792574223,44.911827059020666],[-0.061515437929785,44.91195792072599],[-0.061597985460287,44.91207638314982],[-0.062458080416136,44.912501383610135],[-0.063222917008075,44.91308578419441],[-0.063685762578062,44.913225292294314],[-0.064319183210325,44.91323755254907],[-0.064675456647618,44.913329539120454],[-0.06464685107936,44.9134789984209],[-0.064929518609348,44.913523458469044],[-0.065176513316114,44.913518444554335],[-0.065377089748721,44.913313781332796],[-0.065730549388973,44.91333105668251],[-0.066124313974629,44.91322738116712],[-0.066021212566339,44.913660920088425],[-0.065398975000859,44.91389974834688],[-0.064921577056532,44.91425981962794],[-0.064087891733072,44.914527901548524],[-0.063249839043891,44.91464652646593],[-0.062721543301094,44.91463226203529],[-0.062070826162361,44.91504665608744],[-0.061463923849737,44.91565986704465],[-0.061368527578485,44.91588685270102],[-0.061372070286796,44.916811211553075],[-0.061263460157767,44.917539533958944],[-0.061129161122661,44.91779732555048],[-0.060428592588041,44.91792655537466],[-0.05949581980075,44.91830905868134],[-0.058756665275643,44.91831229537455],[-0.057936701922395,44.91804293802594],[-0.056154139479101,44.91707383506022],[-0.055125453063708,44.91730216131513],[-0.054795477746574,44.91822848226981],[-0.054360613799361,44.91837018848691],[-0.053873047260073,44.91849892545332],[-0.053474734917502,44.918426980865114],[-0.052931036562227,44.91785085184268],[-0.052350469965587,44.918857034676904],[-0.051888602475902,44.91829306845032],[-0.05059470778886,44.92003425197387],[-0.051027370295623,44.92048099160983],[-0.050895539365125,44.92087836086687],[-0.050312479222402,44.9206276690822],[-0.050064692470811,44.921084985852346],[-0.049866285435268,44.920957982510664],[-0.04962401103798,44.92147010944376],[-0.048793229988209,44.921188366934345],[-0.048503187957224,44.92243163287869],[-0.048213571594627,44.92302975201271],[-0.047912960289755,44.9230524165789],[-0.047158421493638,44.925037351668436],[-0.048182519256568,44.92679779473762],[-0.047911402098605,44.92680343105112],[-0.047522688412848,44.92721234835548],[-0.047347860770032,44.92810285308264],[-0.047028482841849,44.92843418039452],[-0.046588107366393,44.92854627121011],[-0.04505965330304,44.92859177804689],[-0.04452044504592,44.92875252162241],[-0.043597251213397,44.92831198628531],[-0.043169679846872,44.9277019916937],[-0.040208587335613,44.927360481231645],[-0.040210171800508,44.927085625751026],[-0.040394850829648,44.92674899521944],[-0.039507576197006,44.92636150632255],[-0.039232488303219,44.92596627506437],[-0.038865011119431,44.92569160444415],[-0.037559011219329,44.92513625055989],[-0.036961216516207,44.92522197266772],[-0.036168390088758,44.92519588910234],[-0.033916274146143,44.92478077636398],[-0.033398173958234,44.924604809129065],[-0.032254207205942,44.924018841232254],[-0.031713413610352,44.923962420406276],[-0.030120665027905,44.924177068787515],[-0.029412603115473,44.92508568410555],[-0.029310723826851,44.9253596686214]]]]}}]}