{"type":"FeatureCollection","name":"COM_64166","crs":{"type":"name","properties":{"name":"urn:ogc:def:crs:OGC:1.3:CRS84"}},"features":[{"type":"Feature","properties":{"fid":4184,"ID":"COMMUNE_0000000009761853","NOM":"Caro","NOM_M":"CARO","INSEE_COM":"64166","STATUT":"Commune simple","POPULATION":174,"INSEE_CAN":"12","INSEE_ARR":"1","INSEE_DEP":"64","INSEE_REG":"75","SIREN_EPCI":"200067106"},"geometry":{"type":"MultiPolygon","coordinates":[[[[-1.205151178563921,43.14861135297032],[-1.206013579863309,43.14834169717925],[-1.206020390533955,43.14733711217968],[-1.205789845518473,43.14665434859272],[-1.205868182074131,43.14494259993241],[-1.206720433924449,43.14472017136368],[-1.2070509040253,43.14354892485034],[-1.206279039345431,43.14362500160082],[-1.206003324438106,43.144129367216536],[-1.205696544829899,43.14413954231146],[-1.204882342371496,43.143887593901894],[-1.205333602283725,43.14324307111064],[-1.207721336411541,43.140915123834574],[-1.20852521154371,43.13981005128137],[-1.208630750077194,43.13953660979887],[-1.208117358184323,43.13855055122499],[-1.207631656504335,43.13834974592023],[-1.206985587191022,43.137855259304274],[-1.206768088202392,43.136878357610144],[-1.207678434812263,43.13704996948695],[-1.208140942142145,43.13757414074758],[-1.208449731439392,43.13760891528833],[-1.208681248185282,43.137376489449224],[-1.208336065302704,43.13675766417297],[-1.208388865069051,43.136621392958396],[-1.208625694624419,43.13647883249938],[-1.209074299571885,43.13677836073209],[-1.209447744609581,43.13685654300696],[-1.209626859308743,43.13658022560196],[-1.210323423761415,43.13592789617117],[-1.210621566418777,43.135782934573854],[-1.211273440100767,43.13639066384382],[-1.210329480713031,43.13700673259176],[-1.209430611017406,43.13787053263911],[-1.209847009731976,43.138031703980815],[-1.210189798408293,43.13836418734243],[-1.210515026369825,43.13837129180781],[-1.210903075291529,43.138261546839615],[-1.211162283365264,43.13847659667221],[-1.211180034672295,43.13860200505152],[-1.211382324465976,43.138643637006396],[-1.211721463312958,43.13855471654426],[-1.211832916420447,43.138649439361586],[-1.212140612576587,43.13861849300986],[-1.214478559495322,43.13957640417492],[-1.214609876566573,43.13970727740814],[-1.214550149716152,43.13993389688396],[-1.21499625637739,43.14019837267283],[-1.216705982233873,43.140923208951904],[-1.217194973694364,43.14044379124381],[-1.217591300899135,43.140346308297914],[-1.218344426762338,43.14041860307002],[-1.219076450553194,43.1407745506261],[-1.219082932594151,43.1402401596114],[-1.219269352721186,43.139559107112525],[-1.219051600990508,43.13944063181887],[-1.219124304990777,43.138785651323744],[-1.219618241501933,43.13859336307139],[-1.219983871467823,43.138261080397434],[-1.22042718793134,43.138066267581635],[-1.220672413164779,43.13805575886086],[-1.220987385147488,43.13937020297187],[-1.221180040694686,43.139498665273],[-1.222303061592507,43.13978522464314],[-1.222982005709902,43.13985228784174],[-1.224177870742061,43.139318101102305],[-1.224388331291872,43.13896666635606],[-1.224724731590986,43.139075974343655],[-1.224796652966197,43.140160346866146],[-1.225441276244425,43.14095203600897],[-1.225712968792091,43.14118547981501],[-1.226015939984028,43.14129159215918],[-1.226357023028122,43.141615989639206],[-1.226677549419487,43.14251676764748],[-1.226687367477484,43.14307124044554],[-1.227076654952162,43.14361713000514],[-1.227133730224928,43.144615617937454],[-1.227238083148731,43.14488174695315],[-1.22909753903842,43.14665620184127],[-1.229750246086526,43.1471196847509],[-1.230368811847353,43.14725122767782],[-1.230580668828769,43.14750682830971],[-1.23172564549048,43.14736818390553],[-1.232388691982875,43.147166492297146],[-1.233165306730683,43.14660093480292],[-1.23349354558978,43.145960214200095],[-1.233897197404578,43.14455269338956],[-1.234064019179321,43.14427771386535],[-1.234598941626546,43.1439900672515],[-1.235084407999669,43.14388361118869],[-1.234554838044609,43.14525104887228],[-1.234572071777357,43.14551969580931],[-1.235387834161261,43.14580739506944],[-1.23663311623716,43.14608090095401],[-1.236926574850183,43.146844908287214],[-1.237650906975721,43.1476298005275],[-1.2402856915616,43.14754234750703],[-1.240337039746903,43.148359113459854],[-1.239790713978999,43.148458079132936],[-1.238748818563152,43.14849276993716],[-1.238673457539539,43.14925957534969],[-1.238837632631353,43.14993769085852],[-1.239363620924172,43.1506844406048],[-1.24021077240877,43.151465389481814],[-1.240096697836855,43.15160409172761],[-1.237609213437188,43.1520919812657],[-1.237500518145583,43.15133151372788],[-1.236064872097898,43.15210406798395],[-1.2357779141517,43.15218380693596],[-1.235041622394131,43.15217581907157],[-1.233754305337426,43.15285783976452],[-1.234712575104307,43.15339306256625],[-1.234195299202728,43.153754777867455],[-1.233932124958419,43.153538129001994],[-1.232791885374509,43.15340728105117],[-1.232237405937552,43.15321107925356],[-1.231583032550748,43.15366644031846],[-1.231034699721098,43.15385641451171],[-1.230568089144754,43.153364909456165],[-1.230034202695448,43.15306340072493],[-1.229419544674437,43.1530028589131],[-1.229156058813391,43.153117688521874],[-1.229133853442838,43.15326808503769],[-1.227871859739364,43.1527005962149],[-1.22834008490045,43.15375231619063],[-1.22736805947802,43.15386882197678],[-1.227531262887757,43.15463616520034],[-1.228331606172975,43.15486327737982],[-1.22897015608708,43.1552498622102],[-1.229343378591591,43.15500371969479],[-1.229559062362509,43.15510964945549],[-1.229631886381161,43.155532847771326],[-1.230092254749155,43.15622457087961],[-1.229377855195791,43.15644897848439],[-1.22805330585545,43.157078343218174],[-1.227546324350693,43.15682530621848],[-1.226565613199569,43.15685747288199],[-1.22587496258547,43.157036788105636],[-1.22550821546556,43.15762404962247],[-1.225052540643738,43.157853594440745],[-1.224536887283624,43.1585079421245],[-1.224466747817582,43.158861085112605],[-1.224805598960375,43.15938915390664],[-1.22438732648352,43.16041619869824],[-1.222294506942077,43.15932453819734],[-1.22122612889904,43.16022841519746],[-1.221118305708584,43.16057132197762],[-1.221143781604135,43.161138699474925],[-1.219593457445873,43.161711944234575],[-1.219345880503952,43.161674798939295],[-1.218754984009297,43.16106470424894],[-1.214467496620592,43.158763515881056],[-1.214495191384176,43.15809768099944],[-1.213578034654411,43.15780387471848],[-1.213820740474967,43.15747101596684],[-1.21333368022256,43.15646140969849],[-1.213265178052803,43.15555613716995],[-1.212795928408325,43.15389639859447],[-1.212912607083086,43.15340453461187],[-1.212203215415484,43.153259326449806],[-1.210613793107661,43.15361509143459],[-1.210098109746206,43.152498506866344],[-1.210071612728338,43.151831192903515],[-1.210144177874545,43.15162839319075],[-1.209532126722209,43.15077588787339],[-1.208738856186694,43.15084651018451],[-1.20792507586158,43.1496055529327],[-1.207741003964059,43.149611841038414],[-1.207389968778395,43.14989306853499],[-1.206823300598218,43.15067631827572],[-1.20546119264531,43.1509600809443],[-1.205404126772441,43.15041285912024],[-1.205265926649126,43.15010299559236],[-1.206016758192166,43.14953414683309],[-1.206378360885424,43.1494317579535],[-1.206241791767503,43.14921190571133],[-1.205151178563921,43.14861135297032]]]]}}]}