{"type":"FeatureCollection","name":"COM_23068","crs":{"type":"name","properties":{"name":"urn:ogc:def:crs:OGC:1.3:CRS84"}},"features":[{"type":"Feature","properties":{"fid":4035,"ID":"COMMUNE_0000000009750564","NOM":"Cressat","NOM_M":"CRESSAT","INSEE_COM":"23068","STATUT":"Commune simple","POPULATION":514,"INSEE_CAN":"10","INSEE_ARR":"1","INSEE_DEP":"23","INSEE_REG":"75","SIREN_EPCI":"200067544"},"geometry":{"type":"MultiPolygon","coordinates":[[[[2.126906544000154,46.163291072417906],[2.125557817203191,46.16253145159115],[2.125869717264288,46.16182692653049],[2.125678877785909,46.16119688057576],[2.126652510691151,46.16052355881299],[2.126524443904059,46.15993902376773],[2.126396421663786,46.15975883187969],[2.125877646452975,46.160027706224795],[2.124775119930677,46.16025065852375],[2.123549306540812,46.15934787292852],[2.122257851894756,46.15858144904688],[2.122654802135131,46.15628723257329],[2.123306143437375,46.15534398960638],[2.123759241898643,46.155209701945324],[2.124084193189108,46.15498527101104],[2.124149260129558,46.15480566425678],[2.123891676442814,46.15462537104491],[2.122856624078338,46.154443580429266],[2.122145956761715,46.153992323426316],[2.121305576268459,46.153631013519195],[2.121305722476577,46.153540960429176],[2.122991925501981,46.15286957695573],[2.122992068940784,46.15277952385912],[2.122216351943756,46.152507873368144],[2.122305179537911,46.15165304456025],[2.124289363245699,46.15179173008419],[2.124167772512795,46.14999241043061],[2.123455862270135,46.14994639551886],[2.123458304938383,46.149631224610914],[2.124235130070097,46.14958768576035],[2.125530495058225,46.149365324141364],[2.125855242288988,46.14882569714425],[2.125922007518676,46.14837593989676],[2.125664990002999,46.14783633855001],[2.126055935548489,46.147207166281255],[2.126187623836971,46.14666695355791],[2.125931190147667,46.14617238430701],[2.125542381457275,46.14626124734383],[2.125541246385668,46.14657642833589],[2.12489330934289,46.14666509529453],[2.124765744956532,46.146214742005526],[2.12560785067047,46.14581148023604],[2.124449527317026,46.14418968727979],[2.124774677163583,46.14378604834541],[2.124971139855429,46.143246335941],[2.125230388315356,46.143156477350594],[2.125985543161211,46.14308484353975],[2.127377308469605,46.14265607902015],[2.128124157442744,46.14180179626483],[2.129408057721339,46.14114614321408],[2.1303282732621,46.141447669494134],[2.131642603556999,46.14173238985057],[2.131967614227989,46.141415181709974],[2.132940819095692,46.14074180521347],[2.13249100563628,46.140021539690856],[2.133269861630385,46.13975822352215],[2.132554967490243,46.13835152349688],[2.134181108642703,46.13800011199443],[2.134305990994597,46.13903488542592],[2.134953946538505,46.13885611155303],[2.137025674177958,46.13859000124081],[2.137094352302255,46.137599927805205],[2.13754914926453,46.1370162292768],[2.138197425774317,46.136567277268284],[2.138847324941966,46.13584907217438],[2.138913733394323,46.135579413362564],[2.138007477142055,46.13571212290399],[2.136064447609333,46.13620346410944],[2.134961945937774,46.13678672838983],[2.134767644339618,46.13678614895345],[2.134313541811402,46.136091973442866],[2.134269662639421,46.13575303536448],[2.133847948302295,46.13481325683091],[2.133423619015635,46.132645117582015],[2.13368854819366,46.13120627176672],[2.133691956241329,46.13033367265061],[2.135121500475709,46.12920898521889],[2.134780403374779,46.12899115750657],[2.134043729444424,46.12823268949497],[2.133834787016927,46.12776641635572],[2.133042025884567,46.12670673266446],[2.132801889035075,46.12616637485373],[2.131188544348482,46.124994144261535],[2.1305478122759,46.1234177933445],[2.129964903368911,46.123506985082656],[2.129316979729917,46.12377578391895],[2.128992501580823,46.123820123721366],[2.127569044510218,46.1228510184467],[2.128878990654429,46.120362969105976],[2.128554066331717,46.120355072589994],[2.126996352573703,46.12075015235237],[2.126822784944687,46.120019377678254],[2.126845423060005,46.11859579272141],[2.128884740953735,46.11828636084065],[2.128563229412803,46.117656215085205],[2.128437251643466,46.11702666893747],[2.128567861245089,46.11671158077449],[2.129767039727248,46.11572657871489],[2.130845042940761,46.115686206892015],[2.132636066555602,46.11542974066188],[2.132261814776491,46.114693839038566],[2.130386282245124,46.11464616891479],[2.130841556785113,46.11410662766637],[2.130907265723635,46.11388199490723],[2.129936148924747,46.11387996015335],[2.129613156934947,46.11383425836338],[2.129290998069931,46.113654381085475],[2.128837809270967,46.11365360620271],[2.128770856699152,46.114282572257494],[2.128961167963183,46.11518277471743],[2.12883167980474,46.11518268176419],[2.127541204380082,46.114415415461714],[2.127477305388283,46.11428074342586],[2.127934117542736,46.11315677271404],[2.127031157860586,46.11261491034004],[2.12651071103179,46.113424098247435],[2.126897731428694,46.11351442795844],[2.126831869489265,46.11382911170964],[2.126637634884667,46.11382941879859],[2.125992072779331,46.11346783560748],[2.124700678655091,46.11292566524691],[2.123643537814185,46.11279773765468],[2.123019236430713,46.11183653898094],[2.121472166280313,46.111659778112326],[2.121408577232249,46.11134499601602],[2.120374201167758,46.1112532356342],[2.119598361901817,46.111026588248876],[2.119274673267503,46.11102587867782],[2.119209193656002,46.111475643034005],[2.118303726174021,46.11133893603973],[2.118305038612097,46.1109346016038],[2.116823527676166,46.10958217435376],[2.116628752098367,46.109536532194056],[2.116175563994167,46.1099400512889],[2.116173960368494,46.11012014783497],[2.117012917416524,46.11052651824044],[2.117013181899996,46.1107516565521],[2.116882980221813,46.11079657159224],[2.115138734508178,46.110163414676734],[2.11513992852613,46.10984823313291],[2.11566241045991,46.108679794453906],[2.115470836331336,46.10827485763086],[2.114632239145312,46.107688369141165],[2.112936161318608,46.1068862503837],[2.113340386918266,46.10630765588163],[2.113821394290943,46.10530280077813],[2.113220597175478,46.10498652012142],[2.113026408309711,46.10498590349288],[2.111665210423776,46.10565787311822],[2.111664158446798,46.10588300136773],[2.110951953153975,46.10597108247815],[2.110563791958799,46.106195879937786],[2.110241025509727,46.10606006969832],[2.109596708534708,46.10547416533988],[2.109078696084722,46.10556285719518],[2.108113608641979,46.10448092679079],[2.107921709605301,46.10394089206565],[2.106810913948356,46.1036223689984],[2.10307495684506,46.1045528936345],[2.1028085288142,46.10469487568758],[2.102612545133441,46.105279582684716],[2.102418355352419,46.10527894790983],[2.101838336053369,46.104962770786976],[2.101514125410215,46.104916978800254],[2.10034880033327,46.10532019978798],[2.099249483537349,46.10540784054908],[2.098213424808439,46.105585127462255],[2.097500831597179,46.1058532307946],[2.097306625048045,46.1058534877056],[2.0974383117302,46.10540336038063],[2.096471414741952,46.10468153394906],[2.096341951406448,46.10468140394262],[2.09608154885976,46.10508547777945],[2.095882344765375,46.106254603708344],[2.095687587358877,46.10652411731595],[2.09697743227564,46.10729174591864],[2.096961583071264,46.10762572305646],[2.096706061886399,46.107968599922806],[2.096135153412574,46.107649764520545],[2.095210462373686,46.107508216563986],[2.095089876572105,46.10783325376253],[2.094240973889431,46.108748644914364],[2.094067405480127,46.10906695449552],[2.093743177089988,46.10902114032483],[2.093479530075402,46.10836433680952],[2.092901236569479,46.10755282615842],[2.09219216634099,46.10705635912987],[2.090836123385392,46.10669429282412],[2.090448873057858,46.10646785461673],[2.090001235767391,46.10543223822294],[2.088901736061891,46.10529554078378],[2.088709638976642,46.10493467977779],[2.087545025269949,46.10497755615598],[2.087414769640003,46.10533672869989],[2.086764746847525,46.10596548770961],[2.08573148394305,46.10573833696493],[2.084775382757461,46.105698212624525],[2.084536503078962,46.10573771167432],[2.084304717972941,46.105895239436975],[2.082345815687968,46.1052004062398],[2.08090141734091,46.105095963875605],[2.07903774275959,46.10474855583628],[2.078023947618818,46.1043674983092],[2.077518416427047,46.10409592766698],[2.077781153019097,46.104640193898334],[2.077452633318424,46.10585416805357],[2.076741334445144,46.105807860312495],[2.076481441092132,46.10594172935565],[2.076477428443743,46.10679631913917],[2.075829881611782,46.106884706452426],[2.075372370599136,46.10814355279904],[2.075758828060387,46.10841416334178],[2.075367139705741,46.109223270297996],[2.075300008079207,46.10967299875808],[2.075486820062892,46.111112699335024],[2.076715328742794,46.11120554773948],[2.076713914174078,46.11152072881958],[2.074836370054687,46.11183144308611],[2.074812122018149,46.11250215557245],[2.073763678468398,46.11263319199569],[2.072490725443028,46.113023544535714],[2.071529710280545,46.11311384933853],[2.070988488816448,46.11303557669974],[2.070609484940193,46.11285956892879],[2.069986577881195,46.11217635297099],[2.069863609159784,46.11179171078208],[2.069683807601139,46.11170468516644],[2.067911296190976,46.1117747981565],[2.067343664650766,46.11195655052797],[2.066687307184449,46.11194935544189],[2.065238464312533,46.11171680015105],[2.063735780782329,46.111225323835406],[2.062398221800499,46.11115034582313],[2.062126875010101,46.11119313209625],[2.060587919900356,46.111916159303284],[2.060082482976763,46.11201824103617],[2.059795332496706,46.112000553927025],[2.060473811627706,46.11260683926658],[2.059368463768607,46.11363872516608],[2.058779503903788,46.11498647388702],[2.05748644038082,46.1148037412724],[2.057029700470342,46.11561224724157],[2.057288176287766,46.11579270313516],[2.057870098534919,46.11583895885771],[2.058255751768482,46.11615465008486],[2.059291890979132,46.11606778115216],[2.05896490746433,46.11678641393171],[2.057597425248415,46.11844739769251],[2.057658381075198,46.119347555505435],[2.059146784050784,46.11917078257919],[2.061531350031248,46.12088625587795],[2.061531105877618,46.12097630904194],[2.060559899624542,46.121198819157904],[2.060494910383008,46.121288336643424],[2.060751113843598,46.121603848265146],[2.062176103842989,46.12142741122341],[2.062367315403246,46.121833338028566],[2.062213583397339,46.12310004520422],[2.062381305594469,46.123820070402715],[2.062510359593281,46.1239985445928],[2.06170383526761,46.125115771536784],[2.062220625885733,46.12534157620128],[2.062088618049324,46.12579076172277],[2.06150735636598,46.12569950642729],[2.061204684287409,46.12628236313515],[2.060726314968859,46.12668725785777],[2.059559720047156,46.12704412726321],[2.058976657553981,46.1271329545543],[2.05895468269885,46.1258458838067],[2.058276260991514,46.12560521564687],[2.058134575860415,46.12722053141509],[2.056906010140119,46.127262567095215],[2.056454747287142,46.126992255104746],[2.055613692062716,46.12694473897066],[2.055100511750684,46.12613357512989],[2.054322412959448,46.126266683653206],[2.054194962461323,46.1259963569986],[2.05400146024173,46.12595151865672],[2.052121235907619,46.12653110517067],[2.051801852245211,46.12590075345654],[2.052385172435037,46.1257219098768],[2.052386711487615,46.12540762978157],[2.053099275719615,46.125093877577484],[2.053358282885852,46.12509513649833],[2.054134062752634,46.125321335868605],[2.054006593666846,46.12482677119935],[2.053492423398855,46.124150674298306],[2.053299720085377,46.12405991316431],[2.053166865932498,46.12455410951047],[2.052973111429286,46.124599322540064],[2.052586393155952,46.124193549585605],[2.052004919934038,46.124191398349765],[2.051680116725275,46.124325570346265],[2.050840647557974,46.124188876967956],[2.050449791217195,46.12454763162321],[2.049932808876079,46.12441092608302],[2.050129659383233,46.12396229628363],[2.049612947064531,46.12373553615848],[2.049939568011833,46.12319703684414],[2.050133836092187,46.12319686096651],[2.050455775889979,46.12337786308931],[2.051103035513871,46.12346972685095],[2.051362572215772,46.123289983643474],[2.051428617271201,46.12306539710794],[2.050460973361621,46.12247825387546],[2.050396737835813,46.12229850660199],[2.050906133836834,46.120475542939566],[2.048777823322722,46.11983545061411],[2.048518450755845,46.119931437769125],[2.048016361338735,46.12035769393037],[2.046940337792475,46.120572905207034],[2.046486999481809,46.12057720415483],[2.046228455085092,46.12047597178239],[2.045589315039453,46.11991946222244],[2.045275535989726,46.11979254782827],[2.044648482731298,46.11973324035277],[2.043983422604237,46.11992306293503],[2.043736140605088,46.119919179510546],[2.043165846753754,46.11950102065107],[2.042546200607115,46.11924003973005],[2.042234385071793,46.119223901602304],[2.041601200038356,46.119368050838254],[2.041290395885153,46.11936812864308],[2.040877442902121,46.11913680076314],[2.039955094765558,46.11826537361525],[2.039683196703431,46.11811448269878],[2.039055438501753,46.11794887266062],[2.038851589565289,46.1179795671979],[2.038362237041584,46.117897075365185],[2.038163958480318,46.117757610919384],[2.037517135640424,46.11771970964459],[2.037116606107433,46.11759383811521],[2.036258669569647,46.117853123496175],[2.036047299421818,46.11809087692562],[2.036631717967162,46.11873343027988],[2.037050223992942,46.11901615252881],[2.036875912014326,46.11950367558822],[2.036531295728866,46.11988078623721],[2.036113080850639,46.11987633620345],[2.033986377643147,46.11856686571881],[2.033791639157098,46.118521081486804],[2.033531000838211,46.118834958310316],[2.033012950762225,46.11905838813515],[2.032751496498048,46.11941818461955],[2.032684796528743,46.11982286653526],[2.034108476029631,46.119871008527724],[2.033958776331673,46.12050372615364],[2.033278628300957,46.12059159525842],[2.031459012526536,46.12111011831938],[2.030281183218031,46.121072148256026],[2.029301246719757,46.121487937130354],[2.028943772488558,46.121563228988045],[2.028681108043645,46.12235527305003],[2.028742232065695,46.122487277111325],[2.028510850771327,46.12282840968549],[2.028450872437149,46.12314399177609],[2.028653164928247,46.12364192890027],[2.028648317750773,46.12435512794802],[2.028967032526571,46.125300736071864],[2.030260543730198,46.12539374029773],[2.030244414895884,46.12594023998748],[2.030910729971542,46.12605309436736],[2.031120214062368,46.126218783039036],[2.031257632817129,46.12613800484761],[2.031716381479246,46.126196851329894],[2.03188968839082,46.12635772729701],[2.032061062178942,46.127289462084704],[2.033026378127569,46.12837024741093],[2.032762936757575,46.129134376553054],[2.033342522967207,46.129540959130644],[2.035149323775685,46.13035601698795],[2.035603439712717,46.13031214480092],[2.035792282101631,46.13040110210206],[2.035784666265264,46.131867140714974],[2.03587719961526,46.13205614224246],[2.03549333387615,46.13222939160962],[2.036294658769758,46.13284677019127],[2.035768532209284,46.13352312393118],[2.037232656921641,46.13379670567459],[2.037354717088221,46.133632038292916],[2.038543615650946,46.13394109318966],[2.039260139658601,46.13430017388625],[2.040080909326515,46.13447641806165],[2.040480723917207,46.13524346631158],[2.041074206799544,46.1354547054678],[2.0415283601789,46.13541080960341],[2.042500170424328,46.135098409401564],[2.043406388520653,46.13505561461358],[2.043599898487736,46.135101371405916],[2.043922124497865,46.13541747695334],[2.04391866009325,46.13613699000628],[2.04456449194512,46.13631893311037],[2.044758294738823,46.136273734458385],[2.045343839986105,46.135825679326125],[2.045537354282669,46.135871432815485],[2.045988350995275,46.136232741516075],[2.046505450490116,46.136368564497474],[2.046827432324794,46.136774714826814],[2.048831876073612,46.13704907668896],[2.048640977181338,46.13632883676064],[2.049029575096517,46.1363302899605],[2.05019201175953,46.136828116308656],[2.050707824692076,46.137189047375195],[2.050963522982856,46.13768468689463],[2.050510391285851,46.13781868435828],[2.050282699434491,46.13810045476689],[2.050716318149408,46.13857056576327],[2.051413286165496,46.13827020080851],[2.05192962277331,46.13867705865096],[2.055222391014347,46.14012466528711],[2.056124335254922,46.14071121840966],[2.056941600989466,46.14087380203896],[2.05747756239843,46.1408206152615],[2.058860801032318,46.14031336707291],[2.059165247159773,46.14031318752989],[2.059166306283767,46.14062928974486],[2.059684251099367,46.140720031528154],[2.060524996203406,46.140722485590665],[2.061951457475637,46.140185839326875],[2.063374907066648,46.14027953593114],[2.065249775465722,46.14064349331821],[2.065054507183276,46.14100300690031],[2.066476687923182,46.14109665396912],[2.067255202309007,46.1408734092149],[2.066999797290187,46.140198600752036],[2.067001268376653,46.13988342030708],[2.069342519138695,46.139407324798995],[2.069765641892183,46.13997183332527],[2.069759712272407,46.141315404881475],[2.069592202391485,46.1424082007408],[2.069716752792186,46.143773553403605],[2.069853226117117,46.143824201191556],[2.070471896897383,46.143707691191615],[2.072088701096886,46.14325262417745],[2.072802454179182,46.1444859007736],[2.072090754177533,46.144663801513595],[2.071959981013696,46.144888771059456],[2.072282669643752,46.14511384245898],[2.072667933504365,46.14569964335969],[2.073571125081808,46.14615188386984],[2.07389502023391,46.146152723743235],[2.074155125497283,46.14601796050143],[2.075124754474142,46.14606548306493],[2.075775164638013,46.145526845201445],[2.07596895906768,46.145482493750684],[2.07661338668104,46.146068587590335],[2.078037013848721,46.14616210042644],[2.078164411627363,46.14652245304719],[2.078284158628589,46.14872706600981],[2.078735692583015,46.14899819131929],[2.078086041790562,46.149490924322976],[2.077892219787519,46.14953617979925],[2.076986665236433,46.149219037518336],[2.076791443330357,46.149578571079715],[2.076661131785657,46.14962253946022],[2.075821655150925,46.14930592488056],[2.075496855904493,46.14966530265911],[2.075494896256685,46.14993545122997],[2.075687837435404,46.150250411991564],[2.076132113122974,46.15049086993056],[2.077591237029122,46.15063780839113],[2.078003983343375,46.150596131390664],[2.079171801232843,46.15026609629645],[2.079371494204769,46.15133846604766],[2.079887849566874,46.15160921121855],[2.079887421230071,46.1517893172892],[2.079236331488025,46.15259813756992],[2.079559095292235,46.15282318818952],[2.079817478973648,46.152869408026824],[2.079947484099282,46.15268945081991],[2.080141841380027,46.152690124031956],[2.08046482266471,46.15282511904826],[2.080788757307694,46.152825939266826],[2.080984081451447,46.152691536733016],[2.081435661364884,46.15296265124267],[2.08072312520494,46.153185627244],[2.080647440501417,46.153681216508815],[2.081078552920104,46.15393685744213],[2.081825762516497,46.154584988608626],[2.081844248153888,46.154796766601955],[2.082396394873024,46.15455717892318],[2.082731678557669,46.15418976138646],[2.084476286895787,46.15292145396775],[2.085735848854343,46.15260739992508],[2.08661382061765,46.15310886187664],[2.086609604221096,46.15382926534353],[2.086803028540523,46.153964101078856],[2.086802622881407,46.154144207147425],[2.086411723999712,46.154818275702986],[2.0869276003171,46.15504395709496],[2.087187902937332,46.15482001148888],[2.087576085720104,46.154776301090976],[2.088416661964848,46.15495775435183],[2.088867514415744,46.15558815097267],[2.089061134664487,46.155633830246344],[2.089190917108875,46.15554391552632],[2.089773470769586,46.15550085502329],[2.089967655418974,46.155590664031244],[2.090353730965481,46.15622143624864],[2.089704282126585,46.156625082853026],[2.089638551528404,46.15675963814123],[2.090348043898786,46.157346172693735],[2.090606472886468,46.15739146755491],[2.09132090549469,46.15689828092416],[2.091771047140278,46.1575745876993],[2.09196543676798,46.157574340258876],[2.093133598898078,46.15699201126745],[2.093779265085669,46.157443833345475],[2.09423132862533,46.157534790860225],[2.095194107714663,46.15942550191561],[2.095128925671907,46.15960599244855],[2.095256103802887,46.16014553117894],[2.094866941977358,46.16032524258206],[2.094349321491302,46.16027879258354],[2.093961663618999,46.16005326750169],[2.093703219325172,46.16000798027941],[2.091949931259963,46.16117369731591],[2.090845139296172,46.16207081225096],[2.090581020104094,46.1631493535409],[2.090127774911781,46.16328350881372],[2.089738970122748,46.163283096648186],[2.089027130536817,46.16314591263676],[2.088441783080631,46.163820230185515],[2.087858793800955,46.16372819916932],[2.087011923776525,46.16485158355206],[2.087269981156534,46.16507699191643],[2.088239518411137,46.16561879858244],[2.087847058329954,46.16638291412298],[2.090432997285896,46.167152894658216],[2.090627012730085,46.1673336558554],[2.09090010052256,46.16743580129177],[2.090288625865914,46.17132576636114],[2.090091444303671,46.171725831015166],[2.090413194296533,46.17178694192886],[2.090736706164158,46.171741801706126],[2.091062855037505,46.17106810122708],[2.091454167691934,46.17052910200719],[2.092490357762903,46.170576104232524],[2.093136011747055,46.170802792019785],[2.093976087477546,46.17134441571942],[2.093585177309875,46.171703317715604],[2.093584410260087,46.17206352946412],[2.094358962051337,46.17264965473952],[2.094748008256671,46.17256089858968],[2.095327595961166,46.17310133738972],[2.095911261224749,46.17292317122918],[2.096819549392271,46.17247471734357],[2.097013976973801,46.17247536169309],[2.097310668044708,46.17272086543243],[2.098495980695902,46.172057567062524],[2.099504159537949,46.17191787028865],[2.100643847552798,46.17158378734543],[2.1007740268372,46.17162894404775],[2.101155589707464,46.1730242028291],[2.100702288790373,46.17315840018443],[2.102445643937274,46.17419609885797],[2.102314747428657,46.174511155821186],[2.10295997390295,46.17500704610571],[2.102829078413267,46.175322103643],[2.103087426216725,46.175457422991286],[2.104190520851814,46.17514462842402],[2.105022891570501,46.17744036571427],[2.105472464217748,46.178251691509054],[2.10832479941979,46.177357350718154],[2.109228322478578,46.17807856507054],[2.109487415381575,46.178169748891285],[2.112208771075917,46.177994718445525],[2.111629776140508,46.17700410127422],[2.110469090963461,46.17583242376847],[2.110468688967403,46.17569733928845],[2.11364560226532,46.17475857808918],[2.113647201531735,46.1745793827248],[2.112745047491432,46.17345297007565],[2.111903231389,46.17340587097312],[2.111904607065963,46.173000637729494],[2.112233886797583,46.171877532444576],[2.112107174488354,46.17097690085228],[2.111786681030137,46.170436772774416],[2.111204785646291,46.170030581647524],[2.110623301210579,46.16975947206748],[2.110303158094392,46.16903923379799],[2.109806225239706,46.168670622629634],[2.108246213276286,46.168077542149135],[2.104110479974708,46.167346192821924],[2.104161149095058,46.16654510844762],[2.108093471134223,46.16543415004688],[2.111463771217305,46.16716527925148],[2.114476572426729,46.16600368157357],[2.116905691774644,46.168324369164054],[2.120000360049351,46.16835828027475],[2.120539827951626,46.16826069508689],[2.123518100920174,46.16738586423398],[2.124563856865165,46.16723723068733],[2.124557846566383,46.166233081170134],[2.125206155086901,46.16605436321887],[2.125210690249493,46.164794541269075],[2.125858840880943,46.16470587260524],[2.125861811090797,46.16403139025587],[2.126906544000154,46.163291072417906]]]]}}]}