{"type":"FeatureCollection","name":"COM_40205","crs":{"type":"name","properties":{"name":"urn:ogc:def:crs:OGC:1.3:CRS84"}},"features":[{"type":"Feature","properties":{"fid":4197,"ID":"COMMUNE_0000000009759596","NOM":"Nousse","NOM_M":"NOUSSE","INSEE_COM":"40205","STATUT":"Commune simple","POPULATION":249,"INSEE_CAN":"04","INSEE_ARR":"1","INSEE_DEP":"40","INSEE_REG":"75","SIREN_EPCI":"200069631"},"geometry":{"type":"MultiPolygon","coordinates":[[[[-0.806744563867195,43.72598366540324],[-0.807720259766011,43.72569277005644],[-0.80813042136616,43.72526670922091],[-0.808081056858576,43.72497294619827],[-0.808442935911876,43.72454947495791],[-0.809759894202083,43.724123192415234],[-0.810229696632867,43.72369773734641],[-0.811158809613317,43.72351024134525],[-0.813174243384175,43.7227171082357],[-0.813449536721535,43.72233719390949],[-0.813547664134979,43.72202024522843],[-0.813494623236999,43.72137346532667],[-0.813168527404917,43.72097228924742],[-0.812369576201988,43.72040930848757],[-0.811946221474949,43.71992775536546],[-0.811945858374083,43.71917642949684],[-0.812075943888638,43.71870521257554],[-0.811824321071067,43.718153679232664],[-0.811201807237389,43.71602417988813],[-0.810957541945654,43.71562013320294],[-0.810282922305948,43.71488972697054],[-0.808902781605787,43.71391556142903],[-0.808707139239282,43.71368187669529],[-0.808225743009413,43.7128681199325],[-0.808148809527824,43.71221587403323],[-0.80756194047343,43.71114185104049],[-0.806790183963612,43.71014456573869],[-0.806846923406117,43.70991465801757],[-0.807723525042144,43.70950110143606],[-0.807679583457905,43.70891526780379],[-0.807304880179531,43.708397768137154],[-0.809206740399559,43.70833117865986],[-0.809957299314838,43.7083940772051],[-0.810663231937058,43.708812579353044],[-0.811400144787063,43.70909936433858],[-0.8121197068138,43.71011376284414],[-0.812930445921238,43.710874517113545],[-0.813268617801245,43.71071221502707],[-0.813205175430792,43.71160541079197],[-0.813548540395579,43.71234110514807],[-0.814268129925951,43.71288883596852],[-0.814656572145637,43.71383465521071],[-0.815070879784672,43.71455344496477],[-0.815439528477829,43.714810780515386],[-0.8155147063753,43.71504417544062],[-0.816015250277714,43.71524913600258],[-0.81633074005673,43.715677700272266],[-0.816327105894087,43.71633097006523],[-0.816150428995065,43.7169038255925],[-0.81613980457792,43.71730329100829],[-0.816561654185452,43.71694255114624],[-0.81841684990572,43.71607926093755],[-0.82045146085384,43.71556008190098],[-0.821096284002873,43.715005008351206],[-0.821329300573201,43.71499772378485],[-0.821832051023474,43.71389629304261],[-0.822636488184598,43.71336983544481],[-0.822807543208388,43.71336472493434],[-0.823738086881443,43.71260680302205],[-0.824333320656692,43.71238858267853],[-0.825186917954505,43.711409031771126],[-0.825623135944821,43.71031712926576],[-0.825436284229781,43.709286779698644],[-0.825808481551126,43.709392605817406],[-0.826661595896133,43.70987429946062],[-0.828552964498643,43.71041133770848],[-0.82980455945211,43.71046277055584],[-0.829890003894397,43.71051471632334],[-0.830852737653968,43.7103510852086],[-0.831131402347214,43.71130432289062],[-0.830923853766708,43.71197018453681],[-0.831014800721285,43.712902107232026],[-0.831274653467475,43.71325871732384],[-0.830915627217987,43.714704682756],[-0.830397825582496,43.715764349915936],[-0.830395318360165,43.7172671294019],[-0.831313656112031,43.71796001013792],[-0.831522775742138,43.7183562460832],[-0.83193552135146,43.71863990450618],[-0.832943526667001,43.71994763054499],[-0.833009345714521,43.72009576138941],[-0.832894596709944,43.720478181370936],[-0.833026717738138,43.72078163341067],[-0.834037850555683,43.721690144822766],[-0.834457392121658,43.72226004214375],[-0.83467788057605,43.72352974700669],[-0.834780363419598,43.72359460317633],[-0.835319031080281,43.723606245490096],[-0.836161871260678,43.724300854441836],[-0.836378964071018,43.725130137555226],[-0.836856689508276,43.72595563523166],[-0.837472498631834,43.72654292737912],[-0.837796487840935,43.72668735584827],[-0.838104206610596,43.726718843449305],[-0.837874343645419,43.72707019655661],[-0.836773619401602,43.72784775969622],[-0.835735776178157,43.729007780363204],[-0.83479121535579,43.72978071764825],[-0.833520958238111,43.73066241938902],[-0.833379700119412,43.73074217117174],[-0.832813627044738,43.73076751838535],[-0.832276064805372,43.73056933533598],[-0.831996724812891,43.7308134084095],[-0.831641000852486,43.7309187287844],[-0.831564459512492,43.7311115147167],[-0.830930632268622,43.73114554418226],[-0.830685831924292,43.73131182086129],[-0.830717446806015,43.731524221828764],[-0.831522803972877,43.73230757969339],[-0.831598209044353,43.73278420541559],[-0.831864522916792,43.73318023432123],[-0.831830941126976,43.7333652014651],[-0.831476723748301,43.73323352997094],[-0.830927820936587,43.73318168507647],[-0.828892229230019,43.73334162132626],[-0.828558946365937,43.732761455310474],[-0.827625875207231,43.73244563266974],[-0.827360874623601,43.73169729611466],[-0.826992258046207,43.731405757027574],[-0.826375439752246,43.73145267504911],[-0.825704940547683,43.73177444975823],[-0.825380427020705,43.7317336068444],[-0.825306899891786,43.73145150737236],[-0.825852774980594,43.731309792683795],[-0.825954005125793,43.7311143415139],[-0.825758007453653,43.730542855363495],[-0.825510437676568,43.73042633481617],[-0.82512990775361,43.730476649941394],[-0.825048737244881,43.731065088100955],[-0.824715060445373,43.73125879936715],[-0.824258865362294,43.731218077396406],[-0.823829239020324,43.73098002387513],[-0.823853944764994,43.73075483183415],[-0.824324013033612,43.73029687065144],[-0.823859448330941,43.730056442038084],[-0.823737343006375,43.730069742182835],[-0.823342344141698,43.73057281046772],[-0.823337347706399,43.73100001192124],[-0.822762831520121,43.73102920691428],[-0.822245403516513,43.730964501866026],[-0.822093917528098,43.73083558942032],[-0.822092746910815,43.730687883302856],[-0.822913492158537,43.7301788711824],[-0.822975379683783,43.72989651752021],[-0.82275826413162,43.729770812948935],[-0.82203245250663,43.729878292623255],[-0.82191587994842,43.72982563088009],[-0.821797357296832,43.72961357874908],[-0.821920587891496,43.729133576656395],[-0.821711944533063,43.72887423996209],[-0.821233165032449,43.72856943593241],[-0.821017985371753,43.72858420007856],[-0.820688855476439,43.7289389994095],[-0.820369128517549,43.729099774906],[-0.819746370553348,43.7290946126022],[-0.819411964146654,43.729165810980994],[-0.819047474480153,43.729419144178436],[-0.81851566008079,43.73001348147067],[-0.818013920634231,43.7303139697034],[-0.817489546275526,43.73048011537173],[-0.816864513873765,43.73051555612569],[-0.816058049334706,43.73084834542706],[-0.81446883250766,43.73099415920959],[-0.814260154386442,43.73108796036126],[-0.814015960926239,43.73102174605668],[-0.814726661534785,43.73029593662688],[-0.814667387175585,43.729928648481106],[-0.814519721378123,43.72976355662599],[-0.814181095094429,43.72969704994194],[-0.813914189275757,43.7297559550415],[-0.813318777725632,43.73019844164486],[-0.812982509738962,43.72988770670417],[-0.812870604651296,43.72958802757218],[-0.811975337394401,43.72983741231872],[-0.811633438356054,43.72974038214766],[-0.811515941679929,43.72963639118955],[-0.811517445097166,43.72941652106433],[-0.81163867174072,43.72903570188481],[-0.811319249734654,43.72892166751758],[-0.811163261544394,43.72874334981453],[-0.811315319354221,43.72832181206322],[-0.811182415779845,43.728023768367585],[-0.810909038376321,43.72791082290008],[-0.810431246257503,43.72789962928791],[-0.809501316237385,43.72811327143583],[-0.808538900104697,43.72804426259417],[-0.808232115777946,43.727858607097104],[-0.80810827565865,43.72737916458871],[-0.807070414640831,43.72707224691923],[-0.806726376638116,43.726793298046665],[-0.806744563867195,43.72598366540324]]]]}}]}