{"type":"FeatureCollection","name":"COM_40321","crs":{"type":"name","properties":{"name":"urn:ogc:def:crs:OGC:1.3:CRS84"}},"features":[{"type":"Feature","properties":{"fid":4156,"ID":"COMMUNE_0000000009759819","NOM":"Urgons","NOM_M":"URGONS","INSEE_COM":"40321","STATUT":"Commune simple","POPULATION":242,"INSEE_CAN":"02","INSEE_ARR":"2","INSEE_DEP":"40","INSEE_REG":"75","SIREN_EPCI":"200069649"},"geometry":{"type":"MultiPolygon","coordinates":[[[[-0.445103562975755,43.6651740472424],[-0.443584893848247,43.66352172192606],[-0.443174652967092,43.662063041602984],[-0.439369652927438,43.6611945834998],[-0.438723533609552,43.66142577929322],[-0.438430265668573,43.6612936537936],[-0.438233291349538,43.66098825793473],[-0.437474914050956,43.660216966214485],[-0.43658846103589,43.659771252886095],[-0.436120040548036,43.65920063755829],[-0.435978748817912,43.65887186269057],[-0.435969756105398,43.65822547868979],[-0.435527506196301,43.65751173175932],[-0.435621918884734,43.65670716796142],[-0.435562997047394,43.65634516753482],[-0.435026188462714,43.655688448015376],[-0.434058814685949,43.65536055881521],[-0.433179335931156,43.654449867397396],[-0.432198920923789,43.65450424952296],[-0.431137380414756,43.65423965279469],[-0.428334517048704,43.65242413791518],[-0.427010888978194,43.65215245932842],[-0.42668502222537,43.65201322746711],[-0.426403549963351,43.6513925522043],[-0.425972102607407,43.649757077580475],[-0.425618332819704,43.64944129648834],[-0.425388316431761,43.64907928373382],[-0.424839386766229,43.6487354273224],[-0.424311101881765,43.64865390489293],[-0.424017717618181,43.64851814587967],[-0.423720394279064,43.64804657156293],[-0.423416098585802,43.64783189860893],[-0.422732192581099,43.64755352800107],[-0.42123440801531,43.64673067523196],[-0.420891362268012,43.64659377004191],[-0.420469768701639,43.6465746177584],[-0.419679573675438,43.64611494405589],[-0.418283532798998,43.64581122081899],[-0.418153377893981,43.64562528074595],[-0.41800736617,43.64558934479315],[-0.416388710220075,43.64539977529737],[-0.415937746243658,43.64474207893225],[-0.416175300066165,43.64354667546611],[-0.41622925719042,43.64322435375224],[-0.416129107757564,43.642771781954316],[-0.41492179439245,43.640388832661706],[-0.413991017156828,43.63877443135606],[-0.414136205842081,43.6378809485305],[-0.414045333991401,43.637625323399135],[-0.409901765175244,43.63482390221127],[-0.408678717539417,43.631793855978245],[-0.407159380669603,43.63005558213539],[-0.406981770985156,43.62990444413209],[-0.406560375814826,43.62984470800015],[-0.406381254780589,43.62970982765754],[-0.406330442619633,43.629000831839456],[-0.406247089302588,43.62889176848604],[-0.405563567624824,43.62832239123591],[-0.404983388835467,43.62817756501263],[-0.404586406741214,43.62771448033607],[-0.407708566953504,43.62548662664797],[-0.410185776319399,43.623278927884144],[-0.410656324990004,43.622665243998334],[-0.410755589809407,43.62189570169342],[-0.411070319573914,43.62112209560315],[-0.41131790555655,43.620803607678035],[-0.412217557077563,43.62023498032962],[-0.414239642100463,43.61925911536231],[-0.414602442621027,43.61910631409142],[-0.415895973293758,43.61880356326551],[-0.417364184928048,43.61797924673921],[-0.418402408363424,43.61769890715244],[-0.418793494165678,43.6175010708921],[-0.418669664232436,43.61721226740178],[-0.418041986006154,43.61645658936537],[-0.417193402595523,43.61565472246752],[-0.416453139688817,43.61417398121965],[-0.416962236836325,43.61460467155324],[-0.417395445338309,43.614781071978015],[-0.418589736216509,43.61491550619768],[-0.419389246842247,43.615289312324634],[-0.420973920861236,43.615816708497405],[-0.420826640950513,43.61606991792786],[-0.421686504311494,43.61633283266673],[-0.421387561824106,43.61668268382191],[-0.422626904780862,43.61771627664502],[-0.423950671504791,43.61854365573584],[-0.424330777851618,43.619199934916516],[-0.424313821203012,43.61928963110281],[-0.424024430028556,43.619405027290114],[-0.424363111000303,43.619658233106534],[-0.425388956218613,43.61993840421617],[-0.425912193561511,43.61998134390792],[-0.427029658214706,43.62044594023221],[-0.42955100322244,43.62191363901762],[-0.430728628655982,43.622698725329684],[-0.432510797120945,43.623371934489114],[-0.432811756756774,43.62320121153241],[-0.433025731354358,43.623399792863175],[-0.433266493742292,43.623424606344585],[-0.433501618469841,43.62370717757469],[-0.433880716625646,43.62393025894487],[-0.433935459921775,43.62445089398242],[-0.433207735659782,43.62463781047653],[-0.434072558720775,43.62564259778578],[-0.435504931636239,43.62515239625169],[-0.435889078244977,43.62506639500345],[-0.436571731864,43.62507902528046],[-0.437492049298597,43.62475449950395],[-0.438262653738631,43.624662564417015],[-0.438686858949046,43.624851779479286],[-0.438960984475383,43.62485390933792],[-0.439173803727711,43.62468145532915],[-0.440144544786009,43.62455705201487],[-0.440425466706677,43.62467244275578],[-0.440963291645698,43.62599014823056],[-0.441133294995752,43.626199114335755],[-0.441674724089356,43.62648187391397],[-0.441831596966198,43.62665793159541],[-0.442313610852104,43.627644166431025],[-0.442371063026518,43.6281259878521],[-0.442482411376047,43.6282458467572],[-0.443050439919235,43.6284962355075],[-0.443388898195486,43.62907362464366],[-0.444626611498107,43.62951172562025],[-0.445395570578954,43.629515261254795],[-0.44586507878927,43.62987953942394],[-0.446528294814176,43.63002151715185],[-0.446801100048636,43.6304136471914],[-0.44706020706193,43.631258333163544],[-0.447385235806026,43.63152902007353],[-0.44737743688283,43.63172920995498],[-0.447222212342531,43.631972805324416],[-0.447254687422372,43.63245091632447],[-0.447413383913697,43.63267734582326],[-0.447780021102067,43.632959320833564],[-0.447947167150755,43.632996346641306],[-0.448848770544055,43.63285424873261],[-0.449292766338605,43.632876179250026],[-0.449075828621995,43.63363960683767],[-0.449089404601203,43.634030055217515],[-0.448374253307358,43.63545776039675],[-0.447747675653139,43.63625580184091],[-0.450114566085336,43.63725874240987],[-0.451937869599051,43.638335646588594],[-0.453536936013605,43.63982674406948],[-0.457447098003737,43.643074436894835],[-0.45775428515375,43.64349967815143],[-0.459351614260994,43.6476278820035],[-0.455731878719644,43.648236608337214],[-0.455551968604251,43.64829726923024],[-0.45553078229716,43.64897433550732],[-0.454333845825169,43.649056520258085],[-0.45369445177603,43.649190324807996],[-0.453454894133164,43.64951676971368],[-0.452350389724147,43.6496716499033],[-0.451359013695925,43.64995442156545],[-0.450035521223173,43.650571963312416],[-0.450592203438315,43.651371183572415],[-0.450891757208784,43.65199933626317],[-0.4518742959959,43.65336054841752],[-0.452017096233663,43.653774818400805],[-0.4521668613221,43.65453111708466],[-0.451987829242563,43.656171498275405],[-0.451834411715831,43.65677530894722],[-0.451664583097782,43.65696263551747],[-0.45123858269563,43.657057222615165],[-0.450372608967606,43.65748821178195],[-0.450019610085531,43.65825957322255],[-0.450137418768687,43.659124069331185],[-0.44991825444589,43.65976959356332],[-0.450097673180258,43.65988548780843],[-0.450027035239383,43.660030934875564],[-0.446267667224753,43.66482912145301],[-0.445788983965029,43.66508026946814],[-0.445103562975755,43.6651740472424]]]]}}]}