{"type":"FeatureCollection","name":"COM_17354","crs":{"type":"name","properties":{"name":"urn:ogc:def:crs:OGC:1.3:CRS84"}},"features":[{"type":"Feature","properties":{"fid":4033,"ID":"COMMUNE_0000000009752685","NOM":"Saint-Léger","NOM_M":"SAINT-LEGER","INSEE_COM":"17354","STATUT":"Commune simple","POPULATION":672,"INSEE_CAN":"12","INSEE_ARR":"1","INSEE_DEP":"17","INSEE_REG":"75","SIREN_EPCI":"200041523"},"geometry":{"type":"MultiPolygon","coordinates":[[[[-0.533049881373111,45.626328254661715],[-0.533568020062432,45.625348398861604],[-0.534121142907431,45.62463515132539],[-0.534682235569867,45.624107334963284],[-0.534720402206105,45.623799665315175],[-0.533943127166611,45.62309397372147],[-0.533290878045194,45.62207247125993],[-0.532833108817156,45.62158207955427],[-0.532489689287754,45.6213738321018],[-0.531542708104511,45.621047529836424],[-0.53133623727541,45.62089176522605],[-0.530836867540129,45.619788832773246],[-0.530469924695255,45.61935236787689],[-0.529518943410856,45.61859982323776],[-0.529365260296546,45.61812331035382],[-0.529397200275597,45.61693158592146],[-0.530367764025304,45.61656129801955],[-0.530858863956986,45.616004148903635],[-0.531376324521946,45.61582024221131],[-0.531340775583013,45.61530306512586],[-0.531944793850363,45.61460355174295],[-0.532141065342906,45.61379425651727],[-0.53278235806405,45.61367946433551],[-0.53312961655407,45.61318361026355],[-0.533406673973889,45.61170835739152],[-0.533675977618848,45.611440296195916],[-0.532830302220681,45.611229808434935],[-0.53262765715737,45.61065027843297],[-0.532213258443272,45.610294633562184],[-0.531774086044634,45.61013446358463],[-0.531718707700267,45.609991081003955],[-0.53218008300452,45.60949254625548],[-0.532203176101437,45.60834436414403],[-0.533162400502804,45.607235271566395],[-0.534344384572019,45.605290798038546],[-0.534500682202233,45.605164197824955],[-0.534977823504502,45.605054550679675],[-0.535122558314199,45.604143210272156],[-0.536236742512621,45.60306977695889],[-0.536021010297424,45.60214453462971],[-0.536452105350254,45.60209852404353],[-0.536486772449864,45.601575533596865],[-0.536615360040733,45.601477744572],[-0.537399913034088,45.60155761968912],[-0.539052541033559,45.60139653620125],[-0.540061156069731,45.601646911135354],[-0.540615845870663,45.60160600599534],[-0.540977278239689,45.60147473767857],[-0.541914096072068,45.60170662601659],[-0.543380679226461,45.60152790434814],[-0.543512752065689,45.60172565148288],[-0.544160436435237,45.60119144378338],[-0.544946570084691,45.601115276914044],[-0.545712074316197,45.60159951595962],[-0.54632708910891,45.602540993823176],[-0.546633599380141,45.60415922863702],[-0.547545325582446,45.606444323106714],[-0.547425150052618,45.60791647548173],[-0.546867475014851,45.60951600536052],[-0.555222412927507,45.61092510150609],[-0.557185728218315,45.61153814581416],[-0.557578095672697,45.61156809687184],[-0.558703126055669,45.611407199842226],[-0.560959162723879,45.61021984314406],[-0.562302360182788,45.60973741185533],[-0.562574179645763,45.60977026322399],[-0.562888862137603,45.61011003297428],[-0.563157856280669,45.610078973428244],[-0.567106200188789,45.60834928460886],[-0.567276835773467,45.60834657471278],[-0.56779593190908,45.60860953615673],[-0.568102077841678,45.60859711624929],[-0.569521229452885,45.607640753370504],[-0.569457803262564,45.60759319020085],[-0.569865198133458,45.60717913224477],[-0.570337058710832,45.60623119979233],[-0.570405733258312,45.6058621492917],[-0.57053846370013,45.605769596693776],[-0.572175508116694,45.60516683633558],[-0.572662413700548,45.60485119746029],[-0.573555829722518,45.60540240214197],[-0.575205791595726,45.6049407057625],[-0.575565337419593,45.60462189278682],[-0.576501392200544,45.604062993899475],[-0.576842187538738,45.603632999093385],[-0.577186764091045,45.60286395544341],[-0.577746319232441,45.60254057284157],[-0.578010653903063,45.60221937294421],[-0.578181689103505,45.60214361953533],[-0.578914353141744,45.602214042102325],[-0.579527388257164,45.60216207277106],[-0.579800443843282,45.60187664674746],[-0.580124983133979,45.60115600507561],[-0.580343964310265,45.60096784849591],[-0.580691318366293,45.60083870067856],[-0.583810038103426,45.600713174389895],[-0.585468130090638,45.59913061307549],[-0.585803048944997,45.59930561942428],[-0.586840377135978,45.59894531315693],[-0.587420977372819,45.59841298285276],[-0.587972390671687,45.59812405952999],[-0.588450987336758,45.59772207776912],[-0.589118058883942,45.597315878629914],[-0.590523407650694,45.59823640518788],[-0.590562641024525,45.598722814246855],[-0.591198795310802,45.59922621085295],[-0.591689955710719,45.59943406777665],[-0.592159078549514,45.59940104905406],[-0.593443160197133,45.59951955665221],[-0.594071171112441,45.59940212635638],[-0.594571430201416,45.599195932443834],[-0.594843275451652,45.59922960535646],[-0.595332584235545,45.5994284919122],[-0.59587187985888,45.600021497242864],[-0.595808267919801,45.60070319670709],[-0.595648491978586,45.601070675121],[-0.595790901369574,45.60172144636572],[-0.596299591933999,45.60202066778321],[-0.597032565749433,45.602075639099425],[-0.59918179232154,45.60191039549524],[-0.59989361108673,45.60191644776444],[-0.600818111606637,45.60219151597147],[-0.602523603197349,45.60292380849982],[-0.603065450031492,45.603297657264655],[-0.603279457442862,45.604633006452076],[-0.602586945862788,45.605042809877276],[-0.601773179378766,45.60538528181263],[-0.600851786094684,45.605415699662856],[-0.600632840670708,45.6062357886326],[-0.600027596334932,45.60632908778473],[-0.600391156098433,45.60723959249633],[-0.600907794792604,45.60779814870336],[-0.601497131074575,45.60807223101497],[-0.601868646098796,45.608117118229096],[-0.602961618232181,45.607979334838916],[-0.603869611180386,45.607998908514205],[-0.604056566257359,45.60802987344729],[-0.604719421807253,45.60860445881534],[-0.604988157479492,45.60858953207995],[-0.605467451000394,45.608968081819],[-0.606441602086233,45.610023046046585],[-0.607838507667442,45.610883252735185],[-0.608282612900052,45.61131249905742],[-0.608565248383123,45.61194433732813],[-0.608579788910131,45.61232517114578],[-0.608396066220494,45.61285659524313],[-0.608465705522067,45.61319599830765],[-0.608827128409939,45.613400739058655],[-0.610363867160334,45.61370476088323],[-0.61108606488372,45.61404484119088],[-0.61125807334789,45.61447650601237],[-0.611196673245963,45.614894033221034],[-0.610757870425306,45.61525607396821],[-0.609998063900973,45.61654606573711],[-0.610190036408109,45.61692931601277],[-0.610357722598166,45.61705824371257],[-0.611703070271553,45.617537863237736],[-0.612252893901964,45.61783389635107],[-0.61251199766923,45.61806444926128],[-0.612448545595171,45.61856857992772],[-0.61256579711697,45.619479756667275],[-0.613143817542582,45.62032564964966],[-0.613863916308937,45.620809109384446],[-0.613171301519002,45.621750817415155],[-0.611391777790145,45.62217936659817],[-0.610513420756365,45.622243628168654],[-0.609366760665749,45.6231187593942],[-0.608887153468341,45.62334869002767],[-0.608261927785432,45.62345348635921],[-0.607665424848235,45.623703387763214],[-0.606550266226758,45.62374186144901],[-0.605114216051561,45.62366621578962],[-0.604630955508252,45.62384035674364],[-0.602730427078568,45.62422757242001],[-0.601647767325078,45.62403509458245],[-0.601220450033855,45.62404246947248],[-0.600562703630591,45.62422037704327],[-0.598819683508816,45.625035161838326],[-0.597606952371238,45.62483779325249],[-0.596735163209522,45.624806185382795],[-0.59582226588608,45.624972393482324],[-0.595098666960235,45.625323642403664],[-0.594671391582342,45.62529222996003],[-0.593821541410672,45.625064291449036],[-0.59340224461308,45.62545267769391],[-0.591063834431117,45.626795657869664],[-0.589954670553805,45.6269671821967],[-0.588030333236868,45.62748560750531],[-0.587669479257581,45.627349288218646],[-0.587081233492301,45.62760962980612],[-0.585717471931958,45.62851216166793],[-0.584121786913794,45.62912730623285],[-0.583477260191927,45.62949128053275],[-0.581481059944449,45.63094663805837],[-0.579577450697845,45.63264329141618],[-0.57704684031235,45.63388481021134],[-0.576042540389072,45.63454862923421],[-0.572006607032969,45.62805607067045],[-0.569796038300678,45.6285616345021],[-0.567558820688656,45.62933210911414],[-0.56703439828674,45.62859066572953],[-0.56671192908259,45.62831154353578],[-0.564855040401337,45.62766642418766],[-0.564556775347969,45.627962522549666],[-0.56397392767497,45.62756995659243],[-0.562486474018906,45.628073190098426],[-0.562189864367243,45.627756279379774],[-0.561727285566072,45.627954814778214],[-0.561610608271159,45.627838624037146],[-0.559488428440587,45.62868100967737],[-0.557508352361967,45.629696433320184],[-0.555078819568621,45.63139666420078],[-0.553301560520999,45.63087052607613],[-0.551842389242316,45.630775998275965],[-0.551798600257768,45.63025367247473],[-0.551578155478283,45.6298414866698],[-0.550179565623016,45.62824691367038],[-0.548582132752375,45.62906080442639],[-0.54723812546798,45.630181263474455],[-0.544781126229243,45.63099606308634],[-0.543988844698702,45.631163449536224],[-0.542661795823606,45.63122598808959],[-0.540283617924714,45.63166773370827],[-0.53852820197822,45.631641848990235],[-0.538306675953296,45.63157310175585],[-0.538235740250709,45.63144823799655],[-0.538233694385427,45.63125540598685],[-0.537919365399765,45.630880402466175],[-0.536775056136977,45.63026378938327],[-0.536448808329312,45.629681838787484],[-0.535280306611859,45.62836379506996],[-0.534173336027662,45.62766666287172],[-0.534129893021935,45.62744899207158],[-0.534350852382896,45.627046341540684],[-0.534382477498939,45.62669651263879],[-0.533391400873158,45.6264860838338],[-0.533049881373111,45.626328254661715]]]]}}]}