{"type":"FeatureCollection","name":"COM_40250","crs":{"type":"name","properties":{"name":"urn:ogc:def:crs:OGC:1.3:CRS84"}},"features":[{"type":"Feature","properties":{"fid":4138,"ID":"COMMUNE_0000000009758663","NOM":"Saint-Avit","NOM_M":"SAINT-AVIT","INSEE_COM":"40250","STATUT":"Commune simple","POPULATION":691,"INSEE_CAN":"10","INSEE_ARR":"2","INSEE_DEP":"40","INSEE_REG":"75","SIREN_EPCI":"244000808"},"geometry":{"type":"MultiPolygon","coordinates":[[[[-0.41003534647605,43.93200960531574],[-0.410485951690227,43.93166584150293],[-0.419009883734051,43.92681151528162],[-0.422128533729738,43.92494644865646],[-0.425287799282973,43.923221439709074],[-0.438374260045241,43.91572437712002],[-0.442052045888118,43.913542936662225],[-0.447997343880346,43.91346430323117],[-0.448538111204819,43.913525590760564],[-0.451998645399975,43.91326037217235],[-0.458591789373953,43.913673231933174],[-0.45945219549151,43.91360092707738],[-0.464421953689403,43.91313433463568],[-0.468620550167157,43.912610047012556],[-0.470508294708781,43.91240411293859],[-0.471326480475114,43.912396112906606],[-0.472049470673253,43.91227763202357],[-0.472335708303591,43.912312666949624],[-0.47315332275799,43.912704633661235],[-0.473578033783867,43.912721747162685],[-0.474468152631572,43.912585320317646],[-0.475140829415724,43.91292963865479],[-0.475555019414498,43.91283537813165],[-0.475773388841053,43.91251313896295],[-0.476199545903808,43.91230859510313],[-0.476270916929751,43.91243694072858],[-0.476528307467731,43.91257107258813],[-0.477260137055049,43.9127612560172],[-0.477530474176003,43.91298505508441],[-0.477849509891373,43.913046956290444],[-0.478029137168522,43.91323400829069],[-0.477017851017314,43.91406074753653],[-0.476982596194945,43.91419789412868],[-0.476490906760825,43.91469729408769],[-0.476469446750384,43.914979033036076],[-0.475827189130636,43.91540034955943],[-0.475725310631216,43.91560988095497],[-0.475236456612514,43.915890285672965],[-0.47482291734415,43.91665022888346],[-0.475239623604227,43.91739455303775],[-0.476150674145382,43.91813214444819],[-0.476338520102129,43.918576573173844],[-0.47629328858145,43.91895906077613],[-0.475532068562074,43.919596756910984],[-0.475489124658546,43.91973054475642],[-0.475678007661718,43.92004882704003],[-0.476160148829271,43.9203325487652],[-0.476113845978161,43.920799747984326],[-0.473410709024304,43.922518972849346],[-0.472938146897371,43.92298621873314],[-0.47233330669212,43.92400356749142],[-0.470295123935004,43.92479533395391],[-0.470470690416398,43.92542753496238],[-0.47044933212551,43.925670534888134],[-0.469756665055528,43.92641320715743],[-0.46922452452646,43.92725436883928],[-0.469457328606966,43.928151397047486],[-0.470870592739238,43.929049642574384],[-0.47117761361813,43.929138072308106],[-0.472281709676357,43.92923628845995],[-0.472574382929318,43.9293756168335],[-0.473151638292847,43.92997161926904],[-0.473694489246386,43.9301867636075],[-0.474179170919863,43.93051095455194],[-0.47448140221884,43.930827436972336],[-0.482182829844029,43.92993981057156],[-0.492673738997499,43.93039746965655],[-0.503211674543164,43.930866130770085],[-0.508331795736098,43.93118188709652],[-0.50890193878843,43.931392380983674],[-0.509159382293897,43.93156517726849],[-0.509431490922897,43.93201676352949],[-0.509458412482992,43.93255550437441],[-0.508791021005626,43.9341480263635],[-0.508352928340142,43.93559805091693],[-0.507074627333792,43.9401298339476],[-0.50683066475604,43.94137273108559],[-0.506376320843791,43.94264130086967],[-0.504749802851569,43.94638158642047],[-0.504574610790236,43.94722319705905],[-0.503738868428372,43.94908414220863],[-0.503665821356836,43.95337364036439],[-0.503377731886877,43.95661964872272],[-0.503126158840772,43.9616779152238],[-0.502933171519146,43.96168320257836],[-0.502496534965681,43.971748092997835],[-0.485053364804338,43.97499668963452],[-0.484764453695176,43.97545362860652],[-0.481807079305252,43.9748470365651],[-0.480921044602592,43.974555462566556],[-0.480035600769676,43.97443682654519],[-0.479662850052096,43.974318073619855],[-0.478551448116269,43.97372646731279],[-0.477273421016381,43.973429326263286],[-0.476940617881571,43.973494868405524],[-0.476586463815743,43.97380341753093],[-0.474640486891094,43.97396711025035],[-0.47402140316532,43.973858873896994],[-0.473198550550946,43.97357964404632],[-0.472043834112559,43.97346319709194],[-0.471788580328856,43.97320465659984],[-0.470831329356541,43.9729098612078],[-0.470195198169229,43.97309492049492],[-0.469760528967849,43.97302404441298],[-0.469341921341323,43.97284815852473],[-0.468555647926141,43.9729848252184],[-0.467949093048233,43.97271310452642],[-0.467458390176545,43.97270525533402],[-0.466858670267915,43.97287382509267],[-0.465993617504152,43.97263822134502],[-0.465492725463559,43.97233971394871],[-0.465034025370876,43.972345252497306],[-0.464448762149056,43.97252596226283],[-0.464082420125946,43.97255289120128],[-0.463474384764371,43.97229740868316],[-0.463425400821366,43.97220977788126],[-0.462708820630597,43.97201538575196],[-0.462532117592303,43.97187865230221],[-0.462256682508658,43.971841437195536],[-0.461619016344979,43.97191929443123],[-0.460973103642881,43.97165599021309],[-0.460467452904029,43.9712990571451],[-0.459790946728676,43.97131237250808],[-0.459452792912973,43.971084356573876],[-0.459184393475326,43.971142400226604],[-0.458925489996187,43.97102808216214],[-0.458588414896889,43.97122882933947],[-0.457730436675398,43.971293818746716],[-0.457479884404601,43.97074142519735],[-0.456954871034203,43.970352659527066],[-0.455570628642993,43.97033699069076],[-0.455206631649799,43.970381832760005],[-0.454288990504741,43.97092342341422],[-0.453582606057038,43.97120519369302],[-0.453042010573373,43.97119705555467],[-0.452832552238995,43.97111629349538],[-0.452789620216433,43.9716635574163],[-0.453141541572522,43.97269560629634],[-0.452601479699357,43.9735612614153],[-0.442757089205981,43.97184859747666],[-0.436308724435717,43.97015983835827],[-0.431464476277074,43.96915001404503],[-0.431207098645928,43.96897703096269],[-0.430978843206126,43.96812751435554],[-0.430921037323079,43.96696005975371],[-0.431033942872291,43.96645295377139],[-0.431547526485323,43.9654954637796],[-0.432843864027065,43.96411611644726],[-0.433098005726044,43.96359376069716],[-0.42867608297282,43.959995120341944],[-0.42523437836706,43.95740513705888],[-0.42607140643345,43.95919403519971],[-0.425884644076433,43.95919899134392],[-0.424169980587345,43.95859785563403],[-0.423997238956513,43.95725835212246],[-0.424030798000913,43.9567582486291],[-0.418593766077569,43.95580071410705],[-0.415331034382083,43.955519926849064],[-0.414652244391179,43.95505470978341],[-0.414392678149534,43.95461422018831],[-0.413933558230672,43.954131323332504],[-0.413729008723076,43.95377649166651],[-0.413681284667999,43.95322939085492],[-0.412550843615689,43.95315481383678],[-0.412031104601133,43.95328365048825],[-0.411540454941714,43.953315189748956],[-0.411691525914057,43.95110980098871],[-0.411654874777574,43.950684864555164],[-0.411435775656785,43.95023229679007],[-0.411620937985395,43.9500760791353],[-0.412999959383007,43.94995102504859],[-0.4130013999071,43.94932942397776],[-0.409917637873729,43.949011368087604],[-0.407856339362562,43.94869375917792],[-0.403853078829586,43.94780068243274],[-0.40424700430279,43.94717315883681],[-0.39588971948957,43.94532995731205],[-0.396588340786802,43.94395613998201],[-0.39796741069922,43.94167927207252],[-0.398677219607185,43.94101762141795],[-0.403928552866204,43.93743285134265],[-0.407445768411523,43.93439737839086],[-0.408138726806374,43.93397850256274],[-0.41003534647605,43.93200960531574]]]]}}]}