{"type":"FeatureCollection","name":"COM_16343","crs":{"type":"name","properties":{"name":"urn:ogc:def:crs:OGC:1.3:CRS84"}},"features":[{"type":"Feature","properties":{"fid":4108,"ID":"COMMUNE_0000000009752672","NOM":"Saint-Preuil","NOM_M":"SAINT-PREUIL","INSEE_COM":"16343","STATUT":"Commune simple","POPULATION":302,"INSEE_CAN":"07","INSEE_ARR":"2","INSEE_DEP":"16","INSEE_REG":"75","SIREN_EPCI":"200070514"},"geometry":{"type":"MultiPolygon","coordinates":[[[[-0.148797999867012,45.5939618819092],[-0.149873604339743,45.59258266152938],[-0.150284157192401,45.592285478323824],[-0.150718802261842,45.5919605824173],[-0.151494634911935,45.590683470592616],[-0.152180500544825,45.590262306698875],[-0.154508675525709,45.589311119521575],[-0.1560778189378,45.58855602881186],[-0.15734177798951,45.58816726307938],[-0.158696628167835,45.58856267370586],[-0.16009572976857,45.588000653503535],[-0.161060564504799,45.587768951852674],[-0.162214416706938,45.58736340001478],[-0.163381058548289,45.586889885984384],[-0.163835017401396,45.58661305742641],[-0.165467114583637,45.586896043152564],[-0.167625352440936,45.58695239712441],[-0.168272348503625,45.58702157834977],[-0.168756307628508,45.587157535229814],[-0.170904850794505,45.586932023496274],[-0.171222511456065,45.5867860787068],[-0.171790067195616,45.584794627301264],[-0.172190548065187,45.58448142201693],[-0.172453491753884,45.58411982762986],[-0.173152474604568,45.58258697530831],[-0.172496161839177,45.58257846707055],[-0.171332954444811,45.582997009932726],[-0.170734704306009,45.58297153249378],[-0.170394286532397,45.58303340536832],[-0.170001674222359,45.5838880046919],[-0.169556434868786,45.58440613576718],[-0.169107934533803,45.58343106568649],[-0.169409849261365,45.582628593603815],[-0.171355804506483,45.58061538829468],[-0.171702340505563,45.579920695284336],[-0.171228802255434,45.579831321229776],[-0.169798045381656,45.57976714496805],[-0.168810803026428,45.57818994648134],[-0.168458257445288,45.57747802475379],[-0.168515935710038,45.57734211965434],[-0.168836345249495,45.57733488781114],[-0.169427216556333,45.57763634925003],[-0.169684857733029,45.57767594530339],[-0.17023714432566,45.57712325073797],[-0.170806177921296,45.57697562143361],[-0.174133279291923,45.57685556270106],[-0.17446564377364,45.57851340108658],[-0.174023499786262,45.57865836630964],[-0.173965833651159,45.578794274253184],[-0.174104331152705,45.579016564740016],[-0.174155989859255,45.57982889247721],[-0.176843534631494,45.57985479077242],[-0.178560084937393,45.57966566713089],[-0.178901742693434,45.58304904369175],[-0.179445466475514,45.58371227198046],[-0.179572634716794,45.58621943588099],[-0.18132598817295,45.586533910262645],[-0.18178731332178,45.58654338218318],[-0.182696579514829,45.58632928644783],[-0.183740423578121,45.58629071174389],[-0.184130519006632,45.586132764362645],[-0.18686130267077,45.58592289250833],[-0.187425320856614,45.58579875393944],[-0.188128063593587,45.585810365273915],[-0.188758257787398,45.585609542310124],[-0.189880727289274,45.58551010069198],[-0.191807546084343,45.58489124091149],[-0.193873639999507,45.584663120586455],[-0.195446768476203,45.584700416952124],[-0.197200734594081,45.58460187124274],[-0.19815979426965,45.5844736493322],[-0.19853387012098,45.58435035250312],[-0.20094632072493,45.582986624468006],[-0.201690737470209,45.58285366977704],[-0.202691201522496,45.582887348857035],[-0.20308454173162,45.58296445878809],[-0.206375906154117,45.58193243937719],[-0.207103527369135,45.581620584693496],[-0.208271155208937,45.58137186767324],[-0.207637387681694,45.58212985872729],[-0.207340418731919,45.58263130084135],[-0.20706435413453,45.58358275507795],[-0.206707229507036,45.58417603361751],[-0.206550205244659,45.58494474726823],[-0.206535968678642,45.586273550294244],[-0.206368385568559,45.58728138791252],[-0.205933196087815,45.58843384355042],[-0.205712438489218,45.589965002357694],[-0.205497247526991,45.59072726201295],[-0.205713716750279,45.59222792725381],[-0.203898264856774,45.59226616778384],[-0.203551292989149,45.59272576459409],[-0.203070627247564,45.592826880085816],[-0.198205027987438,45.592885208629085],[-0.19586062168583,45.59272207514781],[-0.193735024009819,45.59294740838644],[-0.192577740005091,45.59318035159094],[-0.192469189449621,45.59330149339399],[-0.192664387290466,45.59486225857205],[-0.19306487432405,45.5966659282535],[-0.193772916911487,45.59719014861508],[-0.19242650396759,45.59723920584616],[-0.191521262263776,45.59714684974183],[-0.190278584756518,45.59714697436772],[-0.189503434229718,45.597262695201955],[-0.187315405848717,45.59741036617463],[-0.1873807403804,45.59763111299666],[-0.187161511234397,45.59846193670538],[-0.187221092132334,45.599408321921786],[-0.18693375081848,45.6003050619982],[-0.185259219252525,45.60183861360966],[-0.184332620449409,45.60284988433037],[-0.184086746434246,45.603329983211644],[-0.184442805782191,45.603672272344525],[-0.184456552712467,45.60388907472413],[-0.183584651859466,45.604869950183556],[-0.182061780959639,45.60710299891546],[-0.18072020609283,45.60741943115063],[-0.181602355382575,45.6077107980334],[-0.182272613625765,45.60818028638962],[-0.182532009678322,45.60847124534409],[-0.182737195713141,45.61005337006277],[-0.182967926341576,45.61053799876882],[-0.18329952286768,45.6109008119604],[-0.183515995843773,45.611896829953864],[-0.182693777835321,45.614370495849876],[-0.182334520742377,45.61611909812756],[-0.180275173447591,45.61735793919584],[-0.17985596780802,45.617997035005416],[-0.17999458692375,45.618219319120996],[-0.18031911604755,45.618302065671394],[-0.179503982763078,45.6201203232636],[-0.178706907725017,45.62234360764616],[-0.178278860899406,45.62321005093572],[-0.176922448299305,45.62320781812676],[-0.175750126913246,45.6233697983228],[-0.173450955008244,45.62316523235557],[-0.173323874420332,45.623233704806026],[-0.172782324267602,45.62301737268538],[-0.171434963940043,45.62270209996178],[-0.165001500734465,45.62137290680658],[-0.163270391942381,45.620790766888284],[-0.162220433022523,45.62226311714747],[-0.161833029312145,45.62222624493312],[-0.15942801711619,45.62151519229544],[-0.146281274913625,45.61870161291719],[-0.146830424636387,45.618059918507335],[-0.147144685123202,45.61791774796673],[-0.147674311374258,45.61831116709279],[-0.147929576195557,45.61826076501802],[-0.148601804239234,45.617525496662054],[-0.149481726407608,45.61714578699539],[-0.149348348861429,45.617013441609416],[-0.147259247740009,45.61620497574731],[-0.147377294044925,45.61597727462181],[-0.147386167968566,45.61536511513751],[-0.148259752422459,45.61500992401775],[-0.149010607931245,45.61425803185486],[-0.148783198570588,45.61403008886126],[-0.148764249202893,45.61385488640811],[-0.149163127915237,45.61312366203327],[-0.149580873414742,45.611956630252514],[-0.150782749278447,45.610127779240955],[-0.151247596893241,45.60913515335959],[-0.151510226757031,45.60880876958691],[-0.151747372398503,45.60787659457941],[-0.152380793687014,45.60673324416155],[-0.1523643258116,45.606195691809525],[-0.152154859547703,45.60562840363561],[-0.151354827537161,45.604903738247124],[-0.151273604864293,45.604423875172046],[-0.150417906432875,45.60380350042392],[-0.150060203804065,45.60225445585285],[-0.14978139381303,45.6017765232645],[-0.149423809404384,45.600725834916226],[-0.148767952756899,45.60000612752568],[-0.148478167598713,45.59901842423339],[-0.147834335441067,45.59896165393672],[-0.148209399710843,45.59844558219848],[-0.148310933316898,45.59797321711258],[-0.147887180732492,45.597135257950136],[-0.148127849224595,45.596038976167975],[-0.147955604002423,45.59565087932067],[-0.148531195254134,45.59480115625635],[-0.148608828615468,45.59433757094706],[-0.148797999867012,45.5939618819092]]]]}}]}