{"type":"FeatureCollection","name":"COM_40076","crs":{"type":"name","properties":{"name":"urn:ogc:def:crs:OGC:1.3:CRS84"}},"features":[{"type":"Feature","properties":{"fid":4102,"ID":"COMMUNE_0000000009759352","NOM":"Cauna","NOM_M":"CAUNA","INSEE_COM":"40076","STATUT":"Commune simple","POPULATION":423,"INSEE_CAN":"02","INSEE_ARR":"2","INSEE_DEP":"40","INSEE_REG":"75","SIREN_EPCI":"200069649"},"geometry":{"type":"MultiPolygon","coordinates":[[[[-0.682337508545858,43.765551587732794],[-0.6795248233929,43.76588450073729],[-0.678522403957464,43.76595350546497],[-0.677418258989621,43.765909728418116],[-0.677217226150074,43.7667461917797],[-0.677312409795171,43.76714385104031],[-0.677078654380273,43.7674715439367],[-0.677088562588345,43.76781893380196],[-0.677329736476591,43.7686503726691],[-0.677323501077709,43.7695198953789],[-0.677184974311304,43.769956076947004],[-0.677972006471231,43.77051864628938],[-0.678018550430712,43.7708170547937],[-0.677937985136051,43.77107201214419],[-0.677790329300225,43.77119230735989],[-0.677348910704798,43.77128739076113],[-0.677090618754805,43.77115648280408],[-0.676773627494428,43.77131132175977],[-0.676709230736799,43.771489160493054],[-0.677529773266474,43.77293973532013],[-0.678950381237078,43.77409347580178],[-0.678937711005053,43.774244345038476],[-0.678351109784382,43.77500105304575],[-0.677903163175742,43.779227640659734],[-0.677999592172698,43.77968291556614],[-0.677913719052368,43.78171092329448],[-0.675500380231928,43.78173113966638],[-0.674768623094477,43.77986405451107],[-0.672211632569643,43.779485469239496],[-0.668046628709923,43.77954565753619],[-0.666864271819722,43.779488183704345],[-0.663659462278625,43.77875826310371],[-0.660982183286791,43.77828527405096],[-0.660938002058169,43.7785272831046],[-0.659794337613342,43.77845221775787],[-0.659547504393841,43.77881093845307],[-0.659661238419778,43.77928636228486],[-0.660106840192634,43.78005151329228],[-0.660023905546912,43.780290320303266],[-0.660086658480312,43.78062962929845],[-0.659816507188136,43.78097382024001],[-0.660113085719893,43.78113951697957],[-0.660104431611366,43.781295653042264],[-0.659976051794102,43.781368431282914],[-0.659806277810881,43.78122189477479],[-0.65967952300908,43.78124236937261],[-0.658971351662648,43.7820084555476],[-0.658743235344782,43.78260166481011],[-0.658752049179317,43.7829725146306],[-0.658492936708064,43.78313976674119],[-0.658541845920218,43.78341828495912],[-0.658270531446528,43.78397781174893],[-0.65826515075046,43.78418518570047],[-0.658502752168585,43.78511948386127],[-0.658180983191452,43.78543477595613],[-0.658173243544805,43.785605294832756],[-0.658435776576121,43.786132477255556],[-0.65839313177856,43.78639875703158],[-0.658033818183557,43.7865549599802],[-0.656422059482554,43.786784743582785],[-0.652868366182845,43.78674813958158],[-0.650346898492013,43.78731732554409],[-0.646288787987209,43.78752171813006],[-0.645914012299386,43.7879819791446],[-0.645893770218345,43.78842496714072],[-0.644783001247317,43.78853691133062],[-0.640371192250643,43.7881484561522],[-0.639122755417362,43.786742537536966],[-0.638527933560607,43.786618276797434],[-0.638236799636651,43.78632262037858],[-0.637449693761037,43.78624441334552],[-0.637166248823777,43.78608902709108],[-0.636833043520088,43.786109161888795],[-0.636491683681837,43.78738892844567],[-0.634836164242219,43.787088360846695],[-0.634217258873856,43.78709369901668],[-0.633556843762197,43.78689593032491],[-0.632104653314748,43.7868398699613],[-0.631834957904696,43.786939846735095],[-0.631654238378634,43.78650266539707],[-0.631426494665398,43.786225597394036],[-0.63042799669268,43.785324726758475],[-0.629696540005531,43.7853391963674],[-0.629582563602136,43.78505202796742],[-0.629033302848332,43.784861339089986],[-0.627205815901885,43.7854347842037],[-0.626229266763145,43.7858195237046],[-0.623402559296482,43.785872159893465],[-0.624213374971124,43.78636405733906],[-0.624207510596962,43.7866245904747],[-0.625162822476583,43.78682611228824],[-0.625731175944017,43.787298143680836],[-0.625516001169147,43.78788543741634],[-0.62553073101171,43.78831373989009],[-0.625642516587125,43.78846856424414],[-0.62636035210061,43.788924807800534],[-0.626612426061001,43.78933079532741],[-0.626477362336896,43.789612746729354],[-0.62586468436351,43.790187151464494],[-0.625787264112,43.79055456333819],[-0.625838254956144,43.790966345519806],[-0.626094630978548,43.791714506157646],[-0.625653289857682,43.79269668581814],[-0.625484197555343,43.79289328929862],[-0.624848281126829,43.793200014762846],[-0.624851492950592,43.793956603331694],[-0.624421448495761,43.79501947677104],[-0.624452992893045,43.79563459406297],[-0.624602213398741,43.79590888615272],[-0.625231919548194,43.79638609097098],[-0.625682702708341,43.79745388667131],[-0.625619761032657,43.79755957698525],[-0.625365785575118,43.79755541768551],[-0.625437237220671,43.79793679366029],[-0.625596728924754,43.79811795774231],[-0.626769701023483,43.79886534010859],[-0.628998251100161,43.801467503619456],[-0.628383202983514,43.80202578735366],[-0.629688372649543,43.80240480371221],[-0.631309608728355,43.80407768270979],[-0.632513944888793,43.80421950488488],[-0.632511566757844,43.80533662366386],[-0.632854328261025,43.80562157135996],[-0.631681475436305,43.80587777379147],[-0.631725163324141,43.80654564071673],[-0.631591677523596,43.80742030056595],[-0.630586549148606,43.8099842556745],[-0.628906810915887,43.80989968052047],[-0.628791260388948,43.81129262354302],[-0.627869527110739,43.81380152741762],[-0.628079697163507,43.813761198939986],[-0.628535611351382,43.813868532839976],[-0.6285475560933,43.81399785625361],[-0.628009011261519,43.81558685565195],[-0.627848377661346,43.816485839005246],[-0.621777566120971,43.81560856822521],[-0.621469279669132,43.81439547554086],[-0.616522233722045,43.81416790800757],[-0.616807908494532,43.81304049025095],[-0.61718400147555,43.81239832297862],[-0.617297229858054,43.810983857842196],[-0.617244563393572,43.81083967114021],[-0.616914567354817,43.81059839208754],[-0.615990849880824,43.81011557528384],[-0.615930897267478,43.80928609653438],[-0.615471228114278,43.808548254658874],[-0.615345018756227,43.807556123179594],[-0.615038353582016,43.80697535342679],[-0.614658130973919,43.8066474542854],[-0.614610325399283,43.80638329542275],[-0.614311757419336,43.806068000561325],[-0.614026637900997,43.80590630076295],[-0.613810453266594,43.80547747015124],[-0.613715546063095,43.804625731669056],[-0.613950385353319,43.804071139496884],[-0.615184234580144,43.802950111913844],[-0.615622050617257,43.802183391740314],[-0.615536604275356,43.80201236761333],[-0.615174594023006,43.80171629768488],[-0.615121899937879,43.801374830993936],[-0.614770601630319,43.80105137978852],[-0.614484928854648,43.799700610113355],[-0.613991703240688,43.799138643079765],[-0.613922163877774,43.7989436691792],[-0.61380003815975,43.798015366588025],[-0.61403472617513,43.797675176872886],[-0.614373130910994,43.79740180988625],[-0.614686249170059,43.797338272147165],[-0.614854452821207,43.797067848396786],[-0.615146604107398,43.79704644294818],[-0.615359107143309,43.79692588683293],[-0.615278621178017,43.795260231243674],[-0.614895928120708,43.79502970881872],[-0.612374276812956,43.7949575160173],[-0.611043711581438,43.795077299690774],[-0.60972442556688,43.794922843657815],[-0.609368293205843,43.79018912835487],[-0.607039149360713,43.78947896824109],[-0.6071301698063,43.78784727901706],[-0.607278875395298,43.78791802277389],[-0.607624226632023,43.78789307263107],[-0.61034784692031,43.78815594910875],[-0.612206676307576,43.78848797778362],[-0.61281730131839,43.78846952752604],[-0.615297594477,43.78806924178496],[-0.615372335271188,43.787855068345785],[-0.615652127638055,43.78791424328792],[-0.617716556167565,43.78748626738821],[-0.617262617627381,43.786738348911186],[-0.61685414422827,43.785549319730826],[-0.61733971954378,43.783574813816976],[-0.617336362800951,43.78267680974966],[-0.616183236660692,43.78278626747414],[-0.615630942261057,43.78248751625074],[-0.613643102876119,43.78172473980994],[-0.614042201047049,43.781547548583006],[-0.614214452720175,43.78122384465482],[-0.614119077336083,43.77979381330574],[-0.614852578432015,43.77833807520083],[-0.615368905628073,43.77818671419295],[-0.615518727272155,43.77803941168973],[-0.615605530022026,43.77750504958232],[-0.615920133578763,43.77670008637344],[-0.616035978166661,43.776507068981665],[-0.616312222327544,43.77635376577867],[-0.616128237676094,43.77596081497657],[-0.61708975920119,43.77571358787234],[-0.617687395137587,43.775393764695835],[-0.618914314149286,43.77440984622643],[-0.620217929714724,43.773027906126146],[-0.622555370123059,43.77185568222626],[-0.624043140990209,43.771557552693245],[-0.624495752994212,43.771539785768645],[-0.625004310482486,43.771620145040956],[-0.625852471067363,43.77199817433497],[-0.626094977699304,43.77262697632709],[-0.626030227851493,43.77350742882188],[-0.62638974250634,43.774040451433834],[-0.62695719600399,43.774441334041775],[-0.628087805809307,43.77511621917193],[-0.629060568032488,43.77551709999494],[-0.629856129627649,43.77565273242142],[-0.630871484054385,43.77560807351739],[-0.631777695535237,43.77474549634132],[-0.632098767308414,43.77387000004803],[-0.632808688509607,43.77103395893253],[-0.63323351558958,43.77007032156505],[-0.633881346776197,43.769466774567775],[-0.634467978367793,43.76919136271642],[-0.635144628153147,43.76902194147824],[-0.635824199744063,43.76897673145653],[-0.636615478559912,43.76900705853078],[-0.637800796208225,43.769310677035485],[-0.639109836408968,43.76942908311986],[-0.640052706632607,43.769419186991364],[-0.641662075905291,43.76931492811877],[-0.646586898480625,43.76872581877211],[-0.648599867664141,43.76859622823045],[-0.650956841910934,43.763302342711555],[-0.651248781481073,43.763007892067755],[-0.651781975841932,43.76277381148412],[-0.653184996581925,43.762750164580126],[-0.655860851872607,43.76438002379063],[-0.657449793563814,43.76549413255478],[-0.658759974029448,43.76588341217828],[-0.659951534501067,43.76608929138457],[-0.66143551815289,43.76604750509449],[-0.662389653273202,43.765476717541304],[-0.661689966996074,43.76423638526077],[-0.660247367338819,43.76257421800851],[-0.661776308910592,43.7623624575137],[-0.663759945613275,43.76249660780946],[-0.664335525911652,43.762129516329566],[-0.66608363713411,43.76167249815119],[-0.667230305030742,43.76146992828181],[-0.668638204039826,43.76208460719782],[-0.670493128498412,43.7633697343007],[-0.670819392138709,43.764056881567036],[-0.671483091159123,43.76484975879842],[-0.671823468417168,43.765156275466076],[-0.672154900745672,43.765284727277354],[-0.673473380511107,43.76539519443413],[-0.674940566560319,43.765227672689676],[-0.676786676418536,43.764554576444986],[-0.679478128596112,43.76452130543648],[-0.680286298113253,43.76469848101229],[-0.680595377573543,43.764904234716674],[-0.681596417016,43.765103707681426],[-0.682337508545858,43.765551587732794]]]]}}]}