{"type":"FeatureCollection","name":"COM_23182","crs":{"type":"name","properties":{"name":"urn:ogc:def:crs:OGC:1.3:CRS84"}},"features":[{"type":"Feature","properties":{"fid":4236,"ID":"COMMUNE_0000000009751303","NOM":"Saint-Avit-de-Tardes","NOM_M":"SAINT-AVIT-DE-TARDES","INSEE_COM":"23182","STATUT":"Commune simple","POPULATION":163,"INSEE_CAN":"02","INSEE_ARR":"1","INSEE_DEP":"23","INSEE_REG":"75","SIREN_EPCI":"200044014"},"geometry":{"type":"MultiPolygon","coordinates":[[[[2.313694895710994,45.90582850313498],[2.312175159154674,45.90532578277313],[2.311579429961902,45.9054113105569],[2.310895968970407,45.90570432245488],[2.310454683283133,45.90571424040964],[2.309610612623361,45.90513185356989],[2.30907397063735,45.90503131971009],[2.308687430059599,45.90509919888706],[2.309592687935782,45.90450317627492],[2.309390528377989,45.903959824773985],[2.309624629102085,45.90370370323385],[2.310303886899181,45.90364210893349],[2.311071827756187,45.90298670304103],[2.312645028131482,45.90219570669036],[2.312761669540122,45.90204782860962],[2.311510562799223,45.90049401481214],[2.310828551677317,45.899850486784665],[2.30941312548875,45.89886117866969],[2.307910937682211,45.89810906077651],[2.307968484547326,45.897942815415085],[2.307457380428869,45.89766322480625],[2.307336310782254,45.897752536048365],[2.306062747188565,45.89728545945951],[2.305105941097983,45.896144919675336],[2.304556343900667,45.89574981171393],[2.304169620360468,45.895121566196124],[2.304000234410618,45.89505388476462],[2.303675572057015,45.894720491955795],[2.303653947164936,45.894492525327664],[2.303861849687234,45.894369532571325],[2.303546300262149,45.89351929265442],[2.302696710119885,45.8931898669694],[2.302051454393058,45.893223708347485],[2.302026927132744,45.89302183875655],[2.301564613816423,45.89235799687465],[2.301283346885245,45.89226620648605],[2.301212924870843,45.89192086919106],[2.300735548794868,45.892039489384295],[2.300575671528078,45.891934939901645],[2.300358014515184,45.89201374038342],[2.300036867554438,45.89191449589247],[2.299882653146968,45.891770357246415],[2.296930521380364,45.89158274126491],[2.297021362239295,45.890931323647884],[2.295514907661474,45.89135059960713],[2.294853503451638,45.89164004926076],[2.294242513252879,45.891718185565665],[2.293658192608814,45.89202972206321],[2.293255515571457,45.89165168560337],[2.292343719633953,45.89125245206369],[2.291603834591668,45.89192771845451],[2.291842540942752,45.892219183871944],[2.290953465421163,45.892560316075404],[2.290044217564517,45.893165169680444],[2.289023173510817,45.89343701805455],[2.288501042315276,45.89332296894828],[2.287759957313334,45.89388563698382],[2.287849222509875,45.89426352089417],[2.287707824165012,45.894826361585],[2.287950057792786,45.89484409663883],[2.287937248501161,45.895336605424504],[2.288467632348473,45.89621165603941],[2.289374717289431,45.89738084322741],[2.288914696939031,45.8976481103377],[2.288527508260175,45.89826794071502],[2.288899458872422,45.8988295086767],[2.289375295569646,45.898936961027545],[2.289488676522437,45.89924655487035],[2.289070773925874,45.8998472830738],[2.288889961522553,45.90036575159678],[2.289130226260062,45.900938197503265],[2.289750698876706,45.901834520080946],[2.289932677303642,45.90262722775754],[2.290233808801616,45.90298212530486],[2.289424148070744,45.90355247940824],[2.289498977043845,45.904151801343204],[2.289107692309979,45.904586099266325],[2.28905532444391,45.90504594048932],[2.288957158593687,45.90515608848515],[2.289933833206801,45.9068435119705],[2.290111274270768,45.90758936328386],[2.290179200070463,45.90812470382359],[2.289693808064274,45.90905280380667],[2.289709569487453,45.90923120754308],[2.288834152363658,45.909791239314494],[2.287799917266838,45.909362383939005],[2.287591637138341,45.909207982357344],[2.283472898636945,45.909976233886766],[2.282273497818675,45.91034595188736],[2.279902601167037,45.910328181859605],[2.279057788343955,45.91011747968162],[2.277929732627694,45.90947000726571],[2.277288975924843,45.90894811013967],[2.276844179900622,45.90951800466779],[2.276201050980005,45.91084757686348],[2.275326616472996,45.9119091069764],[2.274950723318398,45.912729783266585],[2.273340750400617,45.91409276208665],[2.273234851953459,45.91429650228453],[2.272999857493259,45.91440845919489],[2.273001216830127,45.91469663780899],[2.273141982610131,45.91478399332527],[2.273412099226611,45.915433210254754],[2.27347968256577,45.915982968116495],[2.27380134725806,45.916833333462485],[2.274979564469549,45.918089026119894],[2.27520049339119,45.91855691665117],[2.275740792974491,45.919170036109506],[2.275182756390024,45.91941500873851],[2.272302303536414,45.91945775385712],[2.271992317302062,45.91987270539435],[2.272097011122967,45.92005438576877],[2.272422707263404,45.920208670542415],[2.273485924058164,45.92020739836356],[2.273705465245536,45.92029075627176],[2.275271313906922,45.92180558445051],[2.276331619689231,45.923993456483096],[2.276097338991635,45.924441322534115],[2.275641965885582,45.926198044984915],[2.275863297384245,45.926147230932884],[2.276774731609998,45.92641241318041],[2.277898678011109,45.92641418851871],[2.278531803317675,45.92664786254163],[2.28029566427636,45.92705622949844],[2.280991306812894,45.928928351521286],[2.280823372429987,45.92973235821376],[2.280926739673742,45.9305137747379],[2.280388864723192,45.93059140314757],[2.280199813049068,45.93103506263859],[2.281317787717973,45.931106106242815],[2.281157903327603,45.9316886341724],[2.280980284535583,45.931948659438056],[2.279349281601728,45.9334079496189],[2.278481618488516,45.93402828936308],[2.278256421734965,45.934568972603735],[2.277218545437052,45.93606083120803],[2.276104922368108,45.93673181277616],[2.275661890590535,45.9371495258402],[2.275660860709491,45.93732602325814],[2.277181960844656,45.938554166504254],[2.277209831316221,45.93888934185108],[2.277363610393772,45.93907223102419],[2.278744423703828,45.93968439467412],[2.278917381160029,45.939881812394525],[2.279240502733192,45.940045966109004],[2.280829287577598,45.94015513142414],[2.281624329183147,45.940061122367204],[2.282402437594617,45.940077765562954],[2.282547940806345,45.94010480340718],[2.282788592125963,45.940457535369376],[2.283557233628561,45.940309313634714],[2.283541521357464,45.940723457896524],[2.283788111311576,45.940818673742534],[2.284135356743454,45.94141251871743],[2.284443377224832,45.9415486454838],[2.285370269580589,45.941043000975085],[2.286227991848667,45.940096553813575],[2.287587517814722,45.940368074411644],[2.288384223563128,45.94064414595695],[2.289584100563604,45.940785862822004],[2.289608175598846,45.941121010806384],[2.290375027975842,45.94131133055265],[2.290738983600648,45.94181610718947],[2.290867426720093,45.94186554059929],[2.291681981225826,45.94165991750601],[2.293426412917659,45.94091077502726],[2.295394714224343,45.94021433006244],[2.295521691521448,45.9399746793777],[2.295398902774167,45.93938226769066],[2.295723945590411,45.939298740653264],[2.296103857814794,45.93956766062998],[2.296129073260076,45.94022070065387],[2.297139265128392,45.94056107481908],[2.297698666354108,45.940623081814536],[2.29804255660181,45.940580188823404],[2.29855099592986,45.94038702599744],[2.299573837112442,45.93963241442674],[2.300009828897966,45.93985754233453],[2.300697967430007,45.939132368618026],[2.301202237960863,45.93916430027175],[2.302256087764071,45.939727328647734],[2.302619252652701,45.94030230277093],[2.303123591033251,45.94063590303605],[2.303590968382701,45.940830592312594],[2.303786007405238,45.940820085403764],[2.304322391386285,45.9410701282992],[2.305131300963369,45.94089769362179],[2.304884454238694,45.942661212028945],[2.304939950356216,45.942764213003024],[2.306070881024354,45.94356992043652],[2.307461772559424,45.944133164344485],[2.307850880398248,45.94460201766856],[2.308192638887448,45.944730180890325],[2.308291697877069,45.94465424148723],[2.308725961602167,45.94337724529928],[2.308876104266385,45.94334484269875],[2.309794622823624,45.94349183044365],[2.310148300941338,45.94338952551534],[2.310608386118004,45.943139280690666],[2.311094836617002,45.94222550607239],[2.312949139408,45.94227189814748],[2.314622647590394,45.94191012708571],[2.315992167350341,45.94170318626499],[2.316611261798108,45.94132600339678],[2.316943838186226,45.94125776998301],[2.318596053991183,45.94136048357975],[2.318928184967978,45.94101487957642],[2.319635333833155,45.9396719455757],[2.319691127404185,45.93902120053126],[2.319296673377801,45.93845780087135],[2.320019650746703,45.93750218617418],[2.318857414286092,45.93765639119342],[2.317702921002299,45.93760170887651],[2.316788493169279,45.936298533537546],[2.316849054856315,45.93568203850402],[2.316390970667933,45.935362286949726],[2.315985950498808,45.93482312577829],[2.316005683626144,45.93468906659381],[2.317856821375025,45.93476237643284],[2.317926414856541,45.93456197852991],[2.317792663515307,45.933898384882326],[2.318792448069946,45.93195026564028],[2.31925871814285,45.93066621958338],[2.319334653217644,45.93016058063816],[2.319059247745256,45.92780134594518],[2.318495235934682,45.92624274141357],[2.318288487971127,45.92355342491448],[2.318978239211233,45.92297493826081],[2.320004042871443,45.92182663364298],[2.322975181001218,45.921024973474914],[2.323399876192862,45.920799681070754],[2.324315022642451,45.91961555583277],[2.3233373674457,45.919270214425154],[2.322562154094794,45.919251166733886],[2.321502539289428,45.91843794558642],[2.321133102339474,45.918472650888205],[2.32063209401676,45.917667274684966],[2.320495617522337,45.916597530603504],[2.319918326322414,45.91633020747885],[2.319461441174269,45.91582046370426],[2.319545984227681,45.915347295508624],[2.319424293755046,45.914962939329406],[2.318523850129776,45.9149557174888],[2.318340616113359,45.914332349874364],[2.318121363157137,45.914326525856225],[2.31787125994183,45.913477622775645],[2.317405276065699,45.91328930348715],[2.317106494702004,45.91262201120523],[2.316084034290363,45.91288599203666],[2.315008663013644,45.91242381888408],[2.314789057800888,45.91192809976035],[2.314712286345466,45.91146206244395],[2.314487520679101,45.91117433308362],[2.314383786754655,45.910698226329615],[2.314477737341912,45.91050878462675],[2.314760401553251,45.91028986831011],[2.315432843262936,45.908601850581476],[2.314914741682517,45.90845913215906],[2.314274530387924,45.90848857224489],[2.313791888967455,45.90839919469629],[2.313391276138897,45.908456198365734],[2.312885440493325,45.90836487508933],[2.312476194868635,45.907459159941794],[2.312483836517809,45.907260189971154],[2.312657120336544,45.90712256199689],[2.312950798862407,45.907054105166885],[2.313487041263092,45.907085277492335],[2.314317439935551,45.9061798821624],[2.314369491679617,45.906039715554094],[2.313694895710994,45.90582850313498]]]]}}]}