{"type":"FeatureCollection","features":[{"type":"Feature","properties":{"fid":25,"ID":"COMMUNE_0000000009756353","NOM":"Saucats","NOM_M":"SAUCATS","INSEE_COM":"33501","STATUT":"Commune simple","POPULATION":3446,"INSEE_CAN":"08","INSEE_ARR":"2","INSEE_DEP":"33","INSEE_REG":"75","SIREN_EPCI":"243301264"},"geometry":{"type":"MultiPolygon","coordinates":[[[[-0.609007989110407,44.60364456624914],[-0.615300921553062,44.60790600744714],[-0.616690595796999,44.6090771359973],[-0.618020458697823,44.610435856213044],[-0.619042423934627,44.611262126557634],[-0.661934069943908,44.60900410869173],[-0.67530840578205,44.62361232851744],[-0.680491458809716,44.62918069732753],[-0.68144414559987,44.63010517885356],[-0.68134672106778,44.63017872161267],[-0.682839959167199,44.63166828735521],[-0.691116203049832,44.64051819833684],[-0.691259919099889,44.64076574882081],[-0.694129743874684,44.64348808083611],[-0.701998003043698,44.649361486156565],[-0.707450496491487,44.654399760385246],[-0.730085265871694,44.672439007239284],[-0.726018450315314,44.679180714552466],[-0.724622569048456,44.68129978564227],[-0.723575511412037,44.681188134535844],[-0.719805177846787,44.68129157912974],[-0.675293923353747,44.683023946010785],[-0.672823407546506,44.68305013686643],[-0.663367972223248,44.683401580852866],[-0.662922320421222,44.68342535346893],[-0.662705128330345,44.68362090775589],[-0.659924411426511,44.683558845634145],[-0.656722208719819,44.68373686308644],[-0.64832957203231,44.68399869905643],[-0.648198480045375,44.68390568884236],[-0.647755842022005,44.68391758448097],[-0.645578028241954,44.68405517931569],[-0.643748639969426,44.68446244021284],[-0.637997476691724,44.68468600375182],[-0.637181481643049,44.684667778405164],[-0.636879685469685,44.68410271269985],[-0.634999556666021,44.684351075155185],[-0.633752242743222,44.68479401226636],[-0.630998741529346,44.685271069354194],[-0.629377294545191,44.68547659508347],[-0.62374122279594,44.686508546868865],[-0.61596371342776,44.68779768656618],[-0.606199644494432,44.68951694799418],[-0.604269228826763,44.68995116863695],[-0.603529061303435,44.68999330783262],[-0.601021416210841,44.69046970504701],[-0.593986793008201,44.691496963020306],[-0.594068655692085,44.68773352423175],[-0.59391617118039,44.685068175778234],[-0.59373423154708,44.68502812531813],[-0.593532162549355,44.684850842616854],[-0.592585634662545,44.6847265815165],[-0.592230829241094,44.684808399996676],[-0.591946494787582,44.68478699278554],[-0.591193877682509,44.68534585131096],[-0.590954933304605,44.685441928011805],[-0.590100324770575,44.68549129911898],[-0.589516750362045,44.685412908032134],[-0.588315182526371,44.685786245306275],[-0.587886041001572,44.68581188218936],[-0.587180982699697,44.6855517696239],[-0.586770351185034,44.68549118677855],[-0.58438947098593,44.685754917895096],[-0.583286730452237,44.68579605492075],[-0.582188848098458,44.68597310624002],[-0.581317390667234,44.6858769587924],[-0.580438389506519,44.6861388286819],[-0.579978139373749,44.68605279060197],[-0.579738608340413,44.68608036953711],[-0.57921161858942,44.68629568938081],[-0.577988837486583,44.686177538866644],[-0.577367005108011,44.68603363223097],[-0.576454670129293,44.68608927032745],[-0.576280268632257,44.68592908723019],[-0.576110426089624,44.684389009661516],[-0.574840118655253,44.676738296280455],[-0.574451886202411,44.67599473610754],[-0.574233533209076,44.67577829521057],[-0.573378418667751,44.675618478842296],[-0.569116347355251,44.67401499505148],[-0.567273616706068,44.67341657781677],[-0.563372246571825,44.67343601745207],[-0.562539925529973,44.673315938936874],[-0.562055399874909,44.67310354453707],[-0.561723893623585,44.672774471676384],[-0.561628757128355,44.67246842603036],[-0.560637653441844,44.67159464241937],[-0.559212291272934,44.670703287513234],[-0.558241050364281,44.670222666805735],[-0.55772882555478,44.67015083110751],[-0.557513369085915,44.669818914783285],[-0.557226877102799,44.6696019322462],[-0.556582544939549,44.669337881542],[-0.556214784786679,44.66909377115975],[-0.555698922892954,44.6682641425],[-0.554764120715004,44.66779944489627],[-0.553853309573478,44.6676746183091],[-0.54782468130834,44.66178431157636],[-0.547572593258127,44.66179149916068],[-0.547138605054659,44.66193789719913],[-0.546947895608481,44.661897153820334],[-0.545381168638599,44.66085877521066],[-0.545785493313746,44.65707256082797],[-0.549505923785276,44.652677966064736],[-0.550600973088503,44.65142350106596],[-0.555560367275569,44.64710964207513],[-0.557843370512182,44.64518064522009],[-0.560564093139002,44.6432293871775],[-0.561052341239992,44.64160774784091],[-0.561351055979799,44.64008323344963],[-0.561677824714875,44.6359479900052],[-0.561974251575109,44.633529577420454],[-0.562120808978087,44.633272522670204],[-0.56260847344846,44.63016665255748],[-0.562736231546834,44.62899370264467],[-0.564569153680601,44.62786488929402],[-0.575912852004425,44.62173889425045],[-0.579448086650578,44.620023913098635],[-0.582080786141725,44.6185444512969],[-0.582164127771714,44.61844622332675],[-0.582129857494138,44.618284219739444],[-0.5822886212936,44.618340352648964],[-0.585291986640145,44.616600964111704],[-0.585795236711725,44.61641971364516],[-0.586240451360705,44.61607993331557],[-0.586965581291614,44.61569771899257],[-0.587238118472512,44.615638403200336],[-0.587639422503495,44.6153423985346],[-0.593020279277685,44.6124089797905],[-0.594034964977667,44.611721707827265],[-0.598770608352058,44.60926408440923],[-0.60048019669356,44.608259418157886],[-0.600969925028063,44.60804609300899],[-0.60140073711356,44.60772023503199],[-0.603536643442976,44.606676384890186],[-0.605801247582472,44.605377758063426],[-0.606329529283809,44.60525507116806],[-0.609007989110407,44.60364456624914]]]]}},{"type":"Feature","properties":{"fid":36,"ID":"COMMUNE_0000000009756117","NOM":"Martillac","NOM_M":"MARTILLAC","INSEE_COM":"33274","STATUT":"Commune simple","POPULATION":3581,"INSEE_CAN":"08","INSEE_ARR":"2","INSEE_DEP":"33","INSEE_REG":"75","SIREN_EPCI":"243301264"},"geometry":{"type":"MultiPolygon","coordinates":[[[[-0.561660823475082,44.740221852304266],[-0.558603032314787,44.7423154694917],[-0.557751845720956,44.74167322091118],[-0.556636836992319,44.7422975376983],[-0.556608867728779,44.74225517783253],[-0.555638510795889,44.74254769635345],[-0.553146991667268,44.74302151074904],[-0.551879663671264,44.74281704348824],[-0.54980930088063,44.74321238298051],[-0.546892507492142,44.74315986297833],[-0.546392876678993,44.74325787733972],[-0.545486915407793,44.74324904061029],[-0.54538155148837,44.74229983617018],[-0.545739822766029,44.742145972220214],[-0.545713886388878,44.74129335769258],[-0.545200021135131,44.74134586127716],[-0.545314897828309,44.73941720132654],[-0.545212292768683,44.73917355588045],[-0.544395964908125,44.739121287781366],[-0.543833395617829,44.73898248640063],[-0.543577692550113,44.73749286488404],[-0.5440560939276,44.7374198741241],[-0.543878927497884,44.736434218017244],[-0.543553004608922,44.73647889646642],[-0.543012044707374,44.73676296718181],[-0.542342748817242,44.73577233050429],[-0.542069227087733,44.73512320225107],[-0.540572863604505,44.73549460107905],[-0.540575087170104,44.73376241529789],[-0.540379443634673,44.733225246382105],[-0.539319473373385,44.73207225585611],[-0.537940852615256,44.731058313519384],[-0.536938743805706,44.7301404705463],[-0.536491655632375,44.72956446839728],[-0.536156374921573,44.72933906490834],[-0.534658539328706,44.727210506961654],[-0.5339806788343,44.72670314725985],[-0.532500197576747,44.7251706053463],[-0.530027994907509,44.722920786961005],[-0.528810996397949,44.72330835643373],[-0.527686430817785,44.72390024078312],[-0.527135776033029,44.723847496419395],[-0.526933410657825,44.72358358675996],[-0.52692099151511,44.723345166159305],[-0.522172369166368,44.71616519628122],[-0.523936656353833,44.715335811591345],[-0.523992593056669,44.71519975318656],[-0.522814854331585,44.71288154254348],[-0.522512068716889,44.71079051238835],[-0.522919954792271,44.71074508511539],[-0.523417580396308,44.7105787434485],[-0.525772246016898,44.71023969705217],[-0.528496341607221,44.7095851194755],[-0.52894348925129,44.70919866899422],[-0.53051895587583,44.70872845973829],[-0.530748017793243,44.708512074911006],[-0.531266700326516,44.70839999750887],[-0.531122777068772,44.70727449716211],[-0.531932801623614,44.707072912681575],[-0.532296911224927,44.70679363626936],[-0.532854634142511,44.70659919740426],[-0.532668991105274,44.70543357620547],[-0.532968467494813,44.70511130127664],[-0.533530010474015,44.70473649835431],[-0.534966747835341,44.70447432092509],[-0.535333650628533,44.70424000412262],[-0.535476815837057,44.703763205234985],[-0.536258922357293,44.702595500525],[-0.537653031335229,44.70348547148948],[-0.540301658782867,44.701196435774094],[-0.546762449900918,44.69893208227404],[-0.549964904744511,44.698641922746745],[-0.556645790951968,44.69787130968285],[-0.556842365642593,44.6979028404622],[-0.562577339099761,44.69736143704352],[-0.573738385834437,44.69748721680038],[-0.578067728256573,44.697455427004115],[-0.592789083886262,44.69191257829342],[-0.59295928508519,44.694440373358425],[-0.59274152848585,44.69577944617227],[-0.592999910479682,44.69590803993278],[-0.593174575598013,44.698188759961674],[-0.593315247353459,44.698353620367506],[-0.593831232885625,44.70677048915656],[-0.593501065478555,44.70694343239237],[-0.592727017824141,44.70699290096086],[-0.590015215224916,44.70687724224941],[-0.589757468823741,44.708720490303804],[-0.58989230777396,44.708853101480535],[-0.589758070493103,44.71138448202355],[-0.589486688661253,44.71166725681391],[-0.588984720094365,44.711842153273075],[-0.579375174779816,44.71471555982414],[-0.57907708533077,44.71569220760319],[-0.575259653462611,44.716820456972485],[-0.568303388015324,44.719200667112375],[-0.568117526133246,44.719299484408474],[-0.566959881735726,44.72275149831436],[-0.568013244383425,44.72287706118181],[-0.568709159986861,44.72314661855068],[-0.569571206908954,44.72320533693344],[-0.571127003738465,44.72375806416884],[-0.572486074329489,44.72391968361285],[-0.57324267318586,44.72426836463891],[-0.572982512714952,44.72496889840157],[-0.572553978733521,44.72546668480911],[-0.57176442867376,44.726072549902376],[-0.570417762253679,44.72686400731807],[-0.57014187816993,44.72763623688207],[-0.570244590335165,44.72839805761009],[-0.56951081455339,44.728867824833934],[-0.568711420435121,44.729519044603556],[-0.568295944218494,44.73002450299844],[-0.56794589431288,44.730704489438104],[-0.567566624058424,44.73211990843984],[-0.567385226982885,44.7324492913004],[-0.567147442192918,44.73280662615738],[-0.566764489313466,44.73302804793141],[-0.566416583801121,44.73354303722239],[-0.565620032429298,44.73414096909448],[-0.565358127601379,44.734836131783354],[-0.565118925118547,44.73509166997985],[-0.564604703413538,44.736095061234685],[-0.56395278324163,44.73674149472265],[-0.563327162967846,44.7367255844379],[-0.562713439257174,44.737057157318084],[-0.561806549041427,44.73807046618962],[-0.560984418462138,44.73816630645465],[-0.561660823475082,44.740221852304266]]]]}},{"type":"Feature","properties":{"fid":42,"ID":"COMMUNE_0000000009756115","NOM":"Beautiran","NOM_M":"BEAUTIRAN","INSEE_COM":"33037","STATUT":"Commune simple","POPULATION":2466,"INSEE_CAN":"08","INSEE_ARR":"2","INSEE_DEP":"33","INSEE_REG":"75","SIREN_EPCI":"243301264"},"geometry":{"type":"MultiPolygon","coordinates":[[[[-0.438094013787474,44.70521884583868],[-0.437346635844361,44.704485105400806],[-0.438261451618768,44.70371954843739],[-0.438881534144206,44.70270091137893],[-0.439070093035974,44.702622959489005],[-0.439999929873409,44.702517457909806],[-0.440789589899346,44.70228924635746],[-0.442348696655918,44.70148198854768],[-0.442584906403309,44.70119168024629],[-0.442274322728371,44.70082376405661],[-0.442277899466618,44.70061368632401],[-0.44267415136658,44.70056441077779],[-0.443108424376522,44.70037247102867],[-0.443606758745572,44.70052547618282],[-0.444014478390464,44.70051909379902],[-0.444146003228189,44.70045912877317],[-0.444275892428859,44.700207270733706],[-0.444801085790189,44.70009720134072],[-0.44532858659672,44.699797817129756],[-0.445463001753112,44.699475527317965],[-0.444906220732683,44.69909005296968],[-0.444756853818245,44.698817151129255],[-0.444836065004117,44.698748901349944],[-0.445238672366191,44.698741772086436],[-0.445709859599368,44.699111887482324],[-0.446324404437112,44.69897559799404],[-0.447766248926184,44.69897933859813],[-0.449133044889385,44.69817076379103],[-0.449204221840222,44.697353007663125],[-0.449316365158544,44.697080068812205],[-0.449692023916949,44.6970251012541],[-0.451044809477122,44.69757586714913],[-0.451197453124284,44.69773691677932],[-0.453435121421364,44.697532821963556],[-0.454145676434928,44.697767467718535],[-0.455142342611068,44.69751736777941],[-0.456226498788165,44.69749882436593],[-0.456474550935817,44.69740276245361],[-0.456902022626754,44.697121765258046],[-0.456951980866631,44.69690663179701],[-0.457244740333575,44.696633446918185],[-0.457499579232984,44.69582526224266],[-0.457986765977794,44.69571451386345],[-0.458406440507,44.69545087595594],[-0.458738975190336,44.695372894122166],[-0.458835046244279,44.69496257078992],[-0.458674320790857,44.69489640480051],[-0.459150632237791,44.694547186257594],[-0.459531324904409,44.69387564051905],[-0.459818678433867,44.69369994150553],[-0.462503795001872,44.69261926164733],[-0.463003738136176,44.69273698330063],[-0.463875391187358,44.692489813298955],[-0.465358135041108,44.69186754047453],[-0.466066444253083,44.691347914264895],[-0.467244127463402,44.690839706218554],[-0.468562395068254,44.690399169422335],[-0.470049872200959,44.68940450596884],[-0.470992108816449,44.688930676131605],[-0.471695381858343,44.6883922454676],[-0.474449937258062,44.68699097576063],[-0.475205714200448,44.68714025610626],[-0.475971993664153,44.68705039507753],[-0.476141615102775,44.68693332147485],[-0.476340699753768,44.686577416480816],[-0.477851582306453,44.68520882783003],[-0.478505434731634,44.68561000893903],[-0.4785798442122,44.68583295811687],[-0.478275918376336,44.68606600240718],[-0.47898828873999,44.68667801420463],[-0.478747398435219,44.68690907721917],[-0.480313676682304,44.687949308618926],[-0.48105815225296,44.68830346857405],[-0.480977293038257,44.688487146038504],[-0.481067606701546,44.68857892568067],[-0.481174347839193,44.688772920425386],[-0.482350752378199,44.689655977048204],[-0.482499496903748,44.6898549566457],[-0.482608516887755,44.691331229906986],[-0.483463573153376,44.692450585336104],[-0.483534492277445,44.69277997962482],[-0.483433927127048,44.69305349475924],[-0.482947547179443,44.693543720905744],[-0.4808378943813,44.694874448058876],[-0.480368699452374,44.69556147554113],[-0.480155143634954,44.696807289989565],[-0.47534377304359,44.697479402510176],[-0.47466887848874,44.7004230597538],[-0.474140743052218,44.70120112419935],[-0.473411889389575,44.70370219662774],[-0.472527043478621,44.70386063782607],[-0.471669555797037,44.70386862097934],[-0.470940982228429,44.704880950715996],[-0.471010934543321,44.70501122682328],[-0.470886327473433,44.70536748886445],[-0.470649244765339,44.70555966300787],[-0.470329955950112,44.70558679920057],[-0.469189503337734,44.7054531429526],[-0.468832836696728,44.7056733934496],[-0.468599293968002,44.70551309906269],[-0.468229956031524,44.705896854383234],[-0.467879639823199,44.706445825346215],[-0.466521216759079,44.70755355829563],[-0.465083535913659,44.709447762435964],[-0.464431015914588,44.70937897823372],[-0.464218847609882,44.710038058438506],[-0.46304725836474,44.71227445381217],[-0.462775018884999,44.7130462532832],[-0.462191484120283,44.71422249835729],[-0.46312936875186,44.71469690103379],[-0.46384523849462,44.71495205439697],[-0.463319581274868,44.71786933721796],[-0.46127629180905,44.717671020546646],[-0.458171234841903,44.71691558996008],[-0.456005821479701,44.716518233605896],[-0.456426550964762,44.71591934346421],[-0.45531881633749,44.71537449099853],[-0.455029078323577,44.7157809459209],[-0.454753641753503,44.71590579326962],[-0.454350515466533,44.7162770360698],[-0.454260058085464,44.7166358155228],[-0.454514756291192,44.717140623015936],[-0.454311068110939,44.71756962229949],[-0.454009746070118,44.71772591473532],[-0.453681681748931,44.71835254256234],[-0.454305759289351,44.718656581292926],[-0.453337844076988,44.720575607638736],[-0.453263939076708,44.720936573444405],[-0.452980338790233,44.721299575502144],[-0.452608227896037,44.72157972797018],[-0.451252148101804,44.72053162323925],[-0.448685184178579,44.721832698899156],[-0.447555907392661,44.7205449864357],[-0.444640517528308,44.716280496626766],[-0.443979295663321,44.714150031527375],[-0.443693878378494,44.71289370067374],[-0.443094770391698,44.711591259145386],[-0.442459382546356,44.71081080736828],[-0.4409686478243,44.70833846763009],[-0.438094013787474,44.70521884583868]]]]}},{"type":"Feature","properties":{"fid":56,"ID":"COMMUNE_0000000009756350","NOM":"Saint-Morillon","NOM_M":"SAINT-MORILLON","INSEE_COM":"33454","STATUT":"Commune simple","POPULATION":1817,"INSEE_CAN":"08","INSEE_ARR":"2","INSEE_DEP":"33","INSEE_REG":"75","SIREN_EPCI":"243301264"},"geometry":{"type":"MultiPolygon","coordinates":[[[[-0.488555309666785,44.62696376033348],[-0.48872331246481,44.61728471822123],[-0.488805371730163,44.612414182264],[-0.498300186493432,44.61731801589432],[-0.500958204049687,44.618572019908704],[-0.501576387289552,44.618957043726084],[-0.502947675046492,44.61950202353245],[-0.50334009001216,44.61980678487825],[-0.503875486612647,44.620422412158476],[-0.504529804812868,44.62090089556427],[-0.505501808190381,44.62141525530726],[-0.505775397899106,44.62185805012991],[-0.506232124850342,44.62216166305756],[-0.506807652172007,44.622326331432106],[-0.50700253617035,44.62245712064085],[-0.508466361403861,44.62274317326312],[-0.509049550027405,44.62317252541282],[-0.5097878616276,44.62343834489671],[-0.510374704289913,44.62384504586227],[-0.511082836190196,44.624132542543435],[-0.511457866099759,44.62482532600841],[-0.513066019125942,44.625684373353614],[-0.513914126617329,44.626030483707595],[-0.514607867479713,44.62677440141501],[-0.514968276966414,44.626948575308994],[-0.515652661839206,44.62691508796239],[-0.515759411569793,44.6269675631854],[-0.515705998424301,44.6274261484414],[-0.515793222025364,44.6275297096361],[-0.516331473743762,44.627722552078886],[-0.516347337965783,44.628037451860166],[-0.517180854115366,44.628330835319524],[-0.518018316508696,44.62886920192455],[-0.518851980002803,44.62896251184546],[-0.518923323769064,44.62937747601215],[-0.519207906283449,44.62950899394414],[-0.519130392423881,44.62970250799869],[-0.519194138994443,44.6299149535428],[-0.519656293062001,44.63034360454884],[-0.519660855834025,44.630598487112735],[-0.51979136876782,44.630606946370236],[-0.519924316925917,44.63049277031137],[-0.520207849275238,44.63064774956416],[-0.520072920403139,44.631033237924925],[-0.520227828477169,44.631230163040605],[-0.520232103549717,44.63143999695481],[-0.520492267363334,44.6314632496823],[-0.520753594477357,44.63166669665555],[-0.521320595480632,44.6316522353548],[-0.521755968660928,44.631550948867826],[-0.521852993395321,44.63096300390966],[-0.522102192280711,44.63091180596569],[-0.52255190639447,44.63108040714475],[-0.522928066022081,44.63104138110407],[-0.523369443555907,44.630531670874284],[-0.524083818217312,44.63023043271561],[-0.524523541406359,44.63021911225446],[-0.525228021040341,44.630425535860255],[-0.525873111484814,44.630287803960144],[-0.526273354758525,44.63031107920798],[-0.526865240820455,44.63002905090039],[-0.527102892813228,44.630116087785815],[-0.527860408258288,44.63014147068297],[-0.528181203348313,44.63004471722029],[-0.528503656173122,44.630115526176226],[-0.528989330582026,44.630455075486196],[-0.529747729023438,44.63057503962918],[-0.529971764738289,44.630887796506485],[-0.53053710746554,44.63074627643402],[-0.531007582745229,44.63084298868149],[-0.531341714240438,44.63045562482878],[-0.531586525023101,44.63031442893572],[-0.531724088555335,44.630314538334545],[-0.531948457426769,44.63047137931443],[-0.53247437030844,44.63042573165198],[-0.532986426070351,44.63080317109394],[-0.533253491108954,44.63085591169442],[-0.534192099776129,44.630750199217324],[-0.534836468553917,44.63100354376305],[-0.535947882717504,44.63117795854633],[-0.536159674253816,44.631013477241325],[-0.536151219798025,44.630737990623864],[-0.536398027355765,44.630528231113885],[-0.537021077302525,44.63036140015508],[-0.538402909751194,44.630280214140946],[-0.539296416955286,44.63048139806088],[-0.540048292570833,44.630416761532736],[-0.540731235474664,44.63021915316669],[-0.540997619436579,44.63048186950801],[-0.54125401754264,44.6305655725478],[-0.541946254356464,44.63055600328393],[-0.542205481043283,44.63068467202354],[-0.542070762160955,44.630850299765164],[-0.542221289683832,44.63103652286217],[-0.54244358471902,44.63095910577109],[-0.543622120059996,44.63127728217214],[-0.544575392216439,44.63114397577988],[-0.544820389670363,44.63132716541667],[-0.54521003747006,44.63122184490863],[-0.546081762817408,44.631356987362416],[-0.546476828434962,44.63135782683444],[-0.547577095508172,44.630993582324464],[-0.547851032897214,44.63081446600559],[-0.548107102901866,44.63089275703495],[-0.548499854610119,44.63117753314263],[-0.548843560517173,44.631104314742664],[-0.549083925075725,44.63087310416944],[-0.550334366355422,44.63133038517202],[-0.550808438667452,44.63132326376564],[-0.551246590381662,44.63126682887688],[-0.551478838020654,44.630726770599246],[-0.551964929429614,44.63053001099923],[-0.55251199505099,44.630599839249086],[-0.552728827527097,44.630536094230266],[-0.553037060454443,44.63070101218454],[-0.553798157276561,44.63080270285142],[-0.554238934728817,44.63064794322181],[-0.554724822186206,44.63028806477277],[-0.555611861436234,44.6303856914393],[-0.555683815876756,44.63070599758481],[-0.556258553017233,44.63085422074251],[-0.556752440217149,44.63050128496994],[-0.557172567433372,44.62985964085648],[-0.557395719916575,44.62973620527024],[-0.557794299247668,44.62967290720284],[-0.557988655517701,44.62977298845096],[-0.558312887955193,44.629791385988874],[-0.558399264821906,44.62992017654887],[-0.558766168373357,44.62989484330888],[-0.558976227949338,44.629963777111044],[-0.559040087605208,44.63013564784111],[-0.559532972858935,44.63038652111833],[-0.559772996897647,44.63029047369614],[-0.560179447860647,44.630411655240025],[-0.561203646810218,44.62978387455336],[-0.561994478119565,44.62983678803629],[-0.562182231488387,44.630131729951806],[-0.562411201826544,44.630300078819516],[-0.56260847344846,44.63016665255748],[-0.562120808978087,44.633272522670204],[-0.561974251575109,44.633529577420454],[-0.561677824714875,44.6359479900052],[-0.561351055979799,44.64008323344963],[-0.561052341239992,44.64160774784091],[-0.560564093139002,44.6432293871775],[-0.557843370512182,44.64518064522009],[-0.555560367275569,44.64710964207513],[-0.550600973088503,44.65142350106596],[-0.549505923785276,44.652677966064736],[-0.545785493313746,44.65707256082797],[-0.545381168638599,44.66085877521066],[-0.545190520729424,44.66081892818606],[-0.543175362325465,44.65965611717075],[-0.541753053376018,44.65896452399572],[-0.538909403399606,44.657373984812324],[-0.537534837513696,44.6563753143229],[-0.537285540063844,44.65642654754561],[-0.521512466332301,44.66493157922011],[-0.521131742282336,44.664759864997016],[-0.519237694769802,44.66306378406858],[-0.519003795495239,44.663180270027915],[-0.518113758557547,44.663243738729165],[-0.517245548359426,44.66353540276196],[-0.516865822558675,44.66350062053532],[-0.515576222448734,44.662948662703194],[-0.513342031075696,44.66215185398033],[-0.509894704822192,44.66281735999626],[-0.509368732317639,44.66238076954224],[-0.508728181185868,44.66217220285479],[-0.507761584106915,44.6621821457772],[-0.506237845094216,44.661903354052946],[-0.505907214318354,44.66251491382178],[-0.505594850754672,44.66256807366618],[-0.503553100215116,44.66208127832228],[-0.502384844916046,44.66142710053212],[-0.501678525590262,44.661175519582265],[-0.500823037880195,44.66116476139347],[-0.499343617894678,44.660195988249676],[-0.498497419793751,44.65996864060075],[-0.498162625669386,44.659538567624764],[-0.498545485148607,44.6593399137125],[-0.498651696311413,44.65917975131455],[-0.499141975632402,44.65756017467235],[-0.499431046281515,44.657518583630484],[-0.500113835169737,44.65761592254985],[-0.500593412946072,44.65749079751667],[-0.499434914739893,44.6564632057036],[-0.498013223320681,44.655771051154595],[-0.496451835704491,44.65482106163116],[-0.495678302223463,44.654481456739894],[-0.494963458622273,44.6540498759623],[-0.494659716117139,44.65428206305497],[-0.493307543669569,44.653731839129115],[-0.4929551561753,44.652976092406796],[-0.491830099639789,44.6531765449788],[-0.491387403395993,44.65314276595369],[-0.491053773695684,44.65279103901435],[-0.490844675777281,44.65239122250925],[-0.490394942244492,44.652223390402284],[-0.489823414144021,44.652147714271564],[-0.488925335790392,44.6503259998651],[-0.488527216332064,44.6499312445747],[-0.487949935992775,44.64972146993065],[-0.48806179692474,44.64944849674769],[-0.488418656955819,44.64903442215964],[-0.48841003741999,44.64885446432694],[-0.486219538729042,44.647911579494846],[-0.485454715946879,44.64775096253833],[-0.485609631518164,44.647072019626165],[-0.484962311840957,44.646729267400865],[-0.483862793664683,44.64491207189643],[-0.484612248775479,44.642437332219444],[-0.485573942190838,44.640027986291464],[-0.485990191215783,44.63759618676057],[-0.487585505349968,44.631254972197134],[-0.488555309666785,44.62696376033348]]]]}},{"type":"Feature","properties":{"fid":73,"ID":"COMMUNE_0000000009756116","NOM":"Ayguemorte-les-Graves","NOM_M":"AYGUEMORTE-LES-GRAVES","INSEE_COM":"33023","STATUT":"Commune simple","POPULATION":1402,"INSEE_CAN":"08","INSEE_ARR":"2","INSEE_DEP":"33","INSEE_REG":"75","SIREN_EPCI":"243301264"},"geometry":{"type":"MultiPolygon","coordinates":[[[[-0.481325116029362,44.717254867273304],[-0.48004398695091,44.717303269071465],[-0.478667573727568,44.71746639569296],[-0.47783644872411,44.71769978444021],[-0.477183623345434,44.717996053787246],[-0.47607067039133,44.718291451700594],[-0.475411933217618,44.718553651524616],[-0.475250058713204,44.71853169951769],[-0.473807320840454,44.718951876773886],[-0.472145943654626,44.719536597686535],[-0.469001610622885,44.72028042772202],[-0.466257686738111,44.71966709336461],[-0.46394824220454,44.71945823426604],[-0.463230040791934,44.71906347248787],[-0.46313315470703,44.71892682430024],[-0.463319581274868,44.71786933721796],[-0.46384523849462,44.71495205439697],[-0.46312936875186,44.71469690103379],[-0.462191484120283,44.71422249835729],[-0.462775018884999,44.7130462532832],[-0.46304725836474,44.71227445381217],[-0.464218847609882,44.710038058438506],[-0.464431015914588,44.70937897823372],[-0.465083535913659,44.709447762435964],[-0.466521216759079,44.70755355829563],[-0.467879639823199,44.706445825346215],[-0.468229956031524,44.705896854383234],[-0.468599293968002,44.70551309906269],[-0.468832836696728,44.7056733934496],[-0.469189503337734,44.7054531429526],[-0.470329955950112,44.70558679920057],[-0.470649244765339,44.70555966300787],[-0.470886327473433,44.70536748886445],[-0.471010934543321,44.70501122682328],[-0.470940982228429,44.704880950715996],[-0.471669555797037,44.70386862097934],[-0.472527043478621,44.70386063782607],[-0.473411889389575,44.70370219662774],[-0.474140743052218,44.70120112419935],[-0.47466887848874,44.7004230597538],[-0.47534377304359,44.697479402510176],[-0.480155143634954,44.696807289989565],[-0.480368699452374,44.69556147554113],[-0.4808378943813,44.694874448058876],[-0.482947547179443,44.693543720905744],[-0.483433927127048,44.69305349475924],[-0.483534492277445,44.69277997962482],[-0.483463573153376,44.692450585336104],[-0.482608516887755,44.691331229906986],[-0.482499496903748,44.6898549566457],[-0.482350752378199,44.689655977048204],[-0.481174347839193,44.688772920425386],[-0.481067606701546,44.68857892568067],[-0.4837855068548,44.68807882889723],[-0.484816039652233,44.68750296878507],[-0.488272395437043,44.68677132426099],[-0.48978483048886,44.68653257245362],[-0.491166113903853,44.68617538083213],[-0.492753313439525,44.68575759975796],[-0.496533056031025,44.685090275878316],[-0.497689343560891,44.68578907022488],[-0.500094655147238,44.68697011478509],[-0.502291507526858,44.688474021609125],[-0.502483880736397,44.68874368863718],[-0.502832440680734,44.68845779487793],[-0.505057416424057,44.68990398744464],[-0.507961047949429,44.692000896475335],[-0.509205979163892,44.69233359702316],[-0.507762128339305,44.693471611645094],[-0.505301919755797,44.69281603770901],[-0.501752424510229,44.69258149921324],[-0.501689390906026,44.69276643212415],[-0.500284853470779,44.693015447115066],[-0.498476922267983,44.693502493915695],[-0.498318700393598,44.69363996928345],[-0.498321159351163,44.69386248036727],[-0.497752660822571,44.69402554435041],[-0.497810009860583,44.69509071571098],[-0.496647417016983,44.69592049608335],[-0.497519263187862,44.69675535662812],[-0.499491481495281,44.69773023842101],[-0.501838020140346,44.69917626912444],[-0.501696847586777,44.699405129375535],[-0.500974032982548,44.70011469755154],[-0.500698630601434,44.70052173009162],[-0.499604497487782,44.7014782425958],[-0.494987587738418,44.70449170288075],[-0.494410852734911,44.70499204479347],[-0.493347208152704,44.7059745632],[-0.493053329370161,44.70641099572495],[-0.491928962872998,44.707576551538594],[-0.49115144796906,44.708833886079425],[-0.490649407343304,44.70925615183022],[-0.490188695196056,44.709509493921395],[-0.488071616317572,44.71031971133312],[-0.487592221829614,44.710720521591405],[-0.486739227477507,44.712046887445766],[-0.484898148193302,44.71378555995379],[-0.48398459665802,44.71446226421706],[-0.483016546140016,44.71464683520589],[-0.482721161982457,44.71477508548323],[-0.48192577357606,44.71589142794404],[-0.481675796582362,44.71699871794825],[-0.481325116029362,44.717254867273304]]]]}},{"type":"Feature","properties":{"fid":104,"ID":"COMMUNE_0000000009756351","NOM":"La Brède","NOM_M":"LA BREDE","INSEE_COM":"33213","STATUT":"Commune simple","POPULATION":4423,"INSEE_CAN":"08","INSEE_ARR":"2","INSEE_DEP":"33","INSEE_REG":"75","SIREN_EPCI":"243301264"},"geometry":{"type":"MultiPolygon","coordinates":[[[[-0.593986793008201,44.691496963020306],[-0.593983498109114,44.69172237450775],[-0.592789083886262,44.69191257829342],[-0.578067728256573,44.697455427004115],[-0.573738385834437,44.69748721680038],[-0.562577339099761,44.69736143704352],[-0.556842365642593,44.6979028404622],[-0.556645790951968,44.69787130968285],[-0.549964904744511,44.698641922746745],[-0.546762449900918,44.69893208227404],[-0.544170239203732,44.697897671680195],[-0.540571823709776,44.696834128946946],[-0.53843328004846,44.69634020505836],[-0.534166380147311,44.69456697699481],[-0.533142472522531,44.69447802202491],[-0.532431217832769,44.69413665562255],[-0.53055670328331,44.6930150400336],[-0.529462732946394,44.69259394856235],[-0.528440519151123,44.69234989381454],[-0.5274355757755,44.692421594713046],[-0.525246626495483,44.69305461032088],[-0.523683990939344,44.69331977737191],[-0.52022750052338,44.69334240527832],[-0.518123521359714,44.6924865280897],[-0.51798333895437,44.69277035160891],[-0.517721231046279,44.6927002839827],[-0.515311026242905,44.69118812273456],[-0.514962321714483,44.691309146743244],[-0.514842395541376,44.69147246557556],[-0.514535883187872,44.69158133346084],[-0.514069833144311,44.69194759794271],[-0.513841010279961,44.69202605941964],[-0.512630344281652,44.693032371363856],[-0.512233124687409,44.693509990227646],[-0.511948856574815,44.69442109247092],[-0.511584594628414,44.69445518488378],[-0.5110188904137,44.69362963933171],[-0.509205979163892,44.69233359702316],[-0.507961047949429,44.692000896475335],[-0.505057416424057,44.68990398744464],[-0.502832440680734,44.68845779487793],[-0.502483880736397,44.68874368863718],[-0.502291507526858,44.688474021609125],[-0.500094655147238,44.68697011478509],[-0.497689343560891,44.68578907022488],[-0.496533056031025,44.685090275878316],[-0.492753313439525,44.68575759975796],[-0.491166113903853,44.68617538083213],[-0.490774336999764,44.686070594093955],[-0.489759265897732,44.685305094559304],[-0.488572178764777,44.68488204655842],[-0.488602107014648,44.68477386442948],[-0.487373639817103,44.684171877243756],[-0.487506536424179,44.68403341418873],[-0.486363242178438,44.68356210296016],[-0.485065428512892,44.68290009781502],[-0.48604298668765,44.68173563380989],[-0.489923318031614,44.67753911990161],[-0.492261087675268,44.67529803528168],[-0.493464347397354,44.673806460781435],[-0.493584562062827,44.67289429378078],[-0.493606851877358,44.67011891939234],[-0.494032951077954,44.6680309891175],[-0.494007053306663,44.66751183898147],[-0.493728624180982,44.66697273218481],[-0.493708572972395,44.66673095420447],[-0.494848791832298,44.6651224014486],[-0.495734380422393,44.6646203981362],[-0.497453223565557,44.66574295774393],[-0.497981940166067,44.665635216106736],[-0.503553100215116,44.66208127832228],[-0.505594850754672,44.66256807366618],[-0.505907214318354,44.66251491382178],[-0.506237845094216,44.661903354052946],[-0.507761584106915,44.6621821457772],[-0.508728181185868,44.66217220285479],[-0.509368732317639,44.66238076954224],[-0.509894704822192,44.66281735999626],[-0.513342031075696,44.66215185398033],[-0.515576222448734,44.662948662703194],[-0.516865822558675,44.66350062053532],[-0.517245548359426,44.66353540276196],[-0.518113758557547,44.663243738729165],[-0.519003795495239,44.663180270027915],[-0.519237694769802,44.66306378406858],[-0.521131742282336,44.664759864997016],[-0.521512466332301,44.66493157922011],[-0.537285540063844,44.65642654754561],[-0.537534837513696,44.6563753143229],[-0.538909403399606,44.657373984812324],[-0.541753053376018,44.65896452399572],[-0.543175362325465,44.65965611717075],[-0.545190520729424,44.66081892818606],[-0.545381168638599,44.66085877521066],[-0.546947895608481,44.661897153820334],[-0.547138605054659,44.66193789719913],[-0.547572593258127,44.66179149916068],[-0.54782468130834,44.66178431157636],[-0.553853309573478,44.6676746183091],[-0.554764120715004,44.66779944489627],[-0.555698922892954,44.6682641425],[-0.556214784786679,44.66909377115975],[-0.556582544939549,44.669337881542],[-0.557226877102799,44.6696019322462],[-0.557513369085915,44.669818914783285],[-0.55772882555478,44.67015083110751],[-0.558241050364281,44.670222666805735],[-0.559212291272934,44.670703287513234],[-0.560637653441844,44.67159464241937],[-0.561628757128355,44.67246842603036],[-0.561723893623585,44.672774471676384],[-0.562055399874909,44.67310354453707],[-0.562539925529973,44.673315938936874],[-0.563372246571825,44.67343601745207],[-0.567273616706068,44.67341657781677],[-0.569116347355251,44.67401499505148],[-0.573378418667751,44.675618478842296],[-0.574233533209076,44.67577829521057],[-0.574451886202411,44.67599473610754],[-0.574840118655253,44.676738296280455],[-0.576110426089624,44.684389009661516],[-0.576280268632257,44.68592908723019],[-0.576454670129293,44.68608927032745],[-0.577367005108011,44.68603363223097],[-0.577988837486583,44.686177538866644],[-0.57921161858942,44.68629568938081],[-0.579738608340413,44.68608036953711],[-0.579978139373749,44.68605279060197],[-0.580438389506519,44.6861388286819],[-0.581317390667234,44.6858769587924],[-0.582188848098458,44.68597310624002],[-0.583286730452237,44.68579605492075],[-0.58438947098593,44.685754917895096],[-0.586770351185034,44.68549118677855],[-0.587180982699697,44.6855517696239],[-0.587886041001572,44.68581188218936],[-0.588315182526371,44.685786245306275],[-0.589516750362045,44.685412908032134],[-0.590100324770575,44.68549129911898],[-0.590954933304605,44.685441928011805],[-0.591193877682509,44.68534585131096],[-0.591946494787582,44.68478699278554],[-0.592230829241094,44.684808399996676],[-0.592585634662545,44.6847265815165],[-0.593532162549355,44.684850842616854],[-0.59373423154708,44.68502812531813],[-0.59391617118039,44.685068175778234],[-0.594068655692085,44.68773352423175],[-0.593986793008201,44.691496963020306]]]]}},{"type":"Feature","properties":{"fid":539,"ID":"COMMUNE_0000000009756113","NOM":"Isle-Saint-Georges","NOM_M":"ISLE-SAINT-GEORGES","INSEE_COM":"33206","STATUT":"Commune simple","POPULATION":516,"INSEE_CAN":"08","INSEE_ARR":"2","INSEE_DEP":"33","INSEE_REG":"75","SIREN_EPCI":"243301264"},"geometry":{"type":"MultiPolygon","coordinates":[[[[-0.500681210417335,44.73686772367754],[-0.502177315909931,44.738051426339815],[-0.502291019757043,44.73845606674994],[-0.501592783681399,44.73999484821468],[-0.499388698737341,44.74009337157744],[-0.497802663274243,44.739598272748125],[-0.495794963486292,44.739458916385786],[-0.494143520318244,44.739110922367686],[-0.492621638948496,44.73871105473122],[-0.486997652992739,44.73697782833527],[-0.483633037820068,44.736158241662224],[-0.480211143275724,44.73535117084082],[-0.479033361737338,44.73515568618248],[-0.472949772458285,44.733316360135305],[-0.470906598147415,44.73249458925399],[-0.468842212464283,44.73136885303168],[-0.466038500260493,44.72960928304695],[-0.465262780193986,44.72922714340531],[-0.460562592220756,44.7274384814972],[-0.458048077350071,44.726674477546496],[-0.455822973660607,44.7259905984584],[-0.453259207664194,44.72506041263946],[-0.452130097601389,44.72437560830503],[-0.451031209323704,44.72391514011459],[-0.449786633085721,44.72291310265157],[-0.448685184178579,44.721832698899156],[-0.451252148101804,44.72053162323925],[-0.452608227896037,44.72157972797018],[-0.452980338790233,44.721299575502144],[-0.453263939076708,44.720936573444405],[-0.453337844076988,44.720575607638736],[-0.454305759289351,44.718656581292926],[-0.453681681748931,44.71835254256234],[-0.454009746070118,44.71772591473532],[-0.454311068110939,44.71756962229949],[-0.454514756291192,44.717140623015936],[-0.454260058085464,44.7166358155228],[-0.454350515466533,44.7162770360698],[-0.454753641753503,44.71590579326962],[-0.455029078323577,44.7157809459209],[-0.45531881633749,44.71537449099853],[-0.456426550964762,44.71591934346421],[-0.456005821479701,44.716518233605896],[-0.458171234841903,44.71691558996008],[-0.46127629180905,44.717671020546646],[-0.463319581274868,44.71786933721796],[-0.46313315470703,44.71892682430024],[-0.463230040791934,44.71906347248787],[-0.46394824220454,44.71945823426604],[-0.466257686738111,44.71966709336461],[-0.469001610622885,44.72028042772202],[-0.472145943654626,44.719536597686535],[-0.473807320840454,44.718951876773886],[-0.475250058713204,44.71853169951769],[-0.475411933217618,44.718553651524616],[-0.47607067039133,44.718291451700594],[-0.477183623345434,44.717996053787246],[-0.47783644872411,44.71769978444021],[-0.478667573727568,44.71746639569296],[-0.48004398695091,44.717303269071465],[-0.481325116029362,44.717254867273304],[-0.481693665808168,44.717900225794764],[-0.481643505486325,44.71817215445544],[-0.48078690882483,44.71868843255812],[-0.48037229943871,44.71923946892404],[-0.479050041135659,44.71954328056498],[-0.478682804445307,44.719777412102076],[-0.478516225952347,44.72023142929102],[-0.478550364170028,44.72090623256614],[-0.478219308345809,44.721194196490224],[-0.478621407138642,44.72150327682277],[-0.478785554111077,44.72154137384757],[-0.479318724091852,44.7214966786228],[-0.480048206563669,44.721642263479374],[-0.480475907610646,44.72160898928052],[-0.481120814967633,44.721817605079295],[-0.481518295391609,44.72184745809024],[-0.482453239623852,44.722208252494845],[-0.482802717355853,44.722524381347235],[-0.483249980734366,44.72258240050139],[-0.483326631847728,44.72290170643484],[-0.483504624699771,44.72289790708387],[-0.483743311433463,44.7230985654696],[-0.484259632793626,44.7231490001285],[-0.485608433290623,44.72447631581226],[-0.486546832830668,44.72493249380606],[-0.486858293453216,44.72520565137983],[-0.48746642057028,44.72543161229693],[-0.488159077607636,44.726082964343426],[-0.489066417581757,44.726322918218834],[-0.489648790949162,44.72703000641729],[-0.489554285967672,44.727727792412985],[-0.489630815910759,44.728574287913666],[-0.490091340002858,44.72955827306455],[-0.490104960031123,44.730042676919254],[-0.487538580696656,44.73261080658006],[-0.487230386322671,44.73312517423858],[-0.487605007118242,44.733253956512364],[-0.489066293806937,44.73343410653759],[-0.489833388288612,44.73385691189223],[-0.491907370690454,44.7341510837759],[-0.492957701383015,44.73447211287518],[-0.493811209915385,44.734514571064025],[-0.494725210169199,44.73477770487461],[-0.49527984143427,44.73521889662151],[-0.496125400483246,44.73511289337807],[-0.497793415472767,44.73550538959985],[-0.499360116727149,44.73607769593898],[-0.500681210417335,44.73686772367754]]]]}},{"type":"Feature","properties":{"fid":1419,"ID":"COMMUNE_0000000009756118","NOM":"Léognan","NOM_M":"LEOGNAN","INSEE_COM":"33238","STATUT":"Commune simple","POPULATION":10723,"INSEE_CAN":"08","INSEE_ARR":"2","INSEE_DEP":"33","INSEE_REG":"75","SIREN_EPCI":"243301264"},"geometry":{"type":"MultiPolygon","coordinates":[[[[-0.638254608378906,44.73670925028882],[-0.636667908978245,44.736281917269466],[-0.633728061756405,44.735968382789956],[-0.63431321404844,44.737627308537874],[-0.634112083365797,44.73778261800078],[-0.633824036624535,44.73825621883577],[-0.633499356732639,44.739102337761686],[-0.633521683859314,44.739741495370346],[-0.633070800559758,44.74149210799798],[-0.632711161979608,44.741640899532925],[-0.632682132920333,44.741915833346724],[-0.632862187795742,44.74219742562045],[-0.629238792824959,44.74266143857582],[-0.629996913503375,44.745472830580425],[-0.62640022803217,44.74729585811973],[-0.621193513147954,44.74798267751828],[-0.621025949690023,44.74789442730466],[-0.619100432152904,44.74815925898759],[-0.618899379297342,44.74869035722207],[-0.618454003919901,44.74862830613249],[-0.61631026686541,44.74864696831814],[-0.615156217882222,44.74956156636228],[-0.615116884494321,44.74971696387212],[-0.612659670115697,44.7530263268238],[-0.609636103499163,44.756187360389234],[-0.609192470568085,44.75702015157677],[-0.608668450898014,44.75758608740045],[-0.608234574818646,44.758492458658466],[-0.604611254131582,44.75771371008855],[-0.603282560849447,44.75760644087422],[-0.601996042006961,44.757703267684285],[-0.601338961808536,44.75767416734447],[-0.601120189775013,44.75791199948935],[-0.600296828084712,44.75834793341719],[-0.598132760574617,44.76012972177455],[-0.597077114193399,44.762353129514864],[-0.596371020344223,44.76223095941756],[-0.595548577006076,44.76220809372067],[-0.595471989372307,44.761940207597824],[-0.592338773680835,44.762437521437896],[-0.591629510506923,44.76337438078142],[-0.590462148990689,44.76278406568416],[-0.590028631578924,44.76277017992667],[-0.588814836973433,44.75951008557491],[-0.588319331086991,44.75787056937106],[-0.58827456045629,44.75724836450551],[-0.587645295831951,44.755732144723424],[-0.587407521393862,44.7544240443117],[-0.587144005061202,44.754060370589656],[-0.586744520148858,44.753726334910226],[-0.58634635911617,44.75345263778059],[-0.585774766914894,44.75321609845438],[-0.582497373396394,44.75295266803174],[-0.581687431512944,44.752647214295436],[-0.581322464528722,44.752358006936824],[-0.58042521251765,44.750581856844256],[-0.579566027823629,44.75079348477192],[-0.579422870967202,44.75051152135171],[-0.578945892563767,44.750608049022595],[-0.578693528448949,44.75099472139403],[-0.577816054665267,44.74996503343986],[-0.577719412618004,44.74981765079861],[-0.577837204798693,44.749721018415514],[-0.577091870529374,44.749098016496234],[-0.576129079878452,44.74875420396186],[-0.576199854614045,44.74853472248337],[-0.576807561237442,44.7484258725367],[-0.577109046558335,44.74795650754567],[-0.57730241058016,44.74737798136365],[-0.576398312080418,44.747459457585606],[-0.575903346267123,44.747233013352954],[-0.575116872490944,44.74663836581631],[-0.571474200437162,44.74324475241288],[-0.570426215642062,44.743409229201205],[-0.569578801129019,44.74306795282366],[-0.567327107542998,44.74249705206454],[-0.566186766494584,44.74268068636028],[-0.565719841415842,44.741778283022086],[-0.56557893363131,44.74170982215745],[-0.562437407846406,44.742061486405596],[-0.561660823475082,44.740221852304266],[-0.560984418462138,44.73816630645465],[-0.561806549041427,44.73807046618962],[-0.562713439257174,44.737057157318084],[-0.563327162967846,44.7367255844379],[-0.56395278324163,44.73674149472265],[-0.564604703413538,44.736095061234685],[-0.565118925118547,44.73509166997985],[-0.565358127601379,44.734836131783354],[-0.565620032429298,44.73414096909448],[-0.566416583801121,44.73354303722239],[-0.566764489313466,44.73302804793141],[-0.567147442192918,44.73280662615738],[-0.567385226982885,44.7324492913004],[-0.567566624058424,44.73211990843984],[-0.56794589431288,44.730704489438104],[-0.568295944218494,44.73002450299844],[-0.568711420435121,44.729519044603556],[-0.56951081455339,44.728867824833934],[-0.570244590335165,44.72839805761009],[-0.57014187816993,44.72763623688207],[-0.570417762253679,44.72686400731807],[-0.57176442867376,44.726072549902376],[-0.572553978733521,44.72546668480911],[-0.572982512714952,44.72496889840157],[-0.57324267318586,44.72426836463891],[-0.572486074329489,44.72391968361285],[-0.571127003738465,44.72375806416884],[-0.569571206908954,44.72320533693344],[-0.568709159986861,44.72314661855068],[-0.568013244383425,44.72287706118181],[-0.566959881735726,44.72275149831436],[-0.568117526133246,44.719299484408474],[-0.568303388015324,44.719200667112375],[-0.575259653462611,44.716820456972485],[-0.57907708533077,44.71569220760319],[-0.579375174779816,44.71471555982414],[-0.588984720094365,44.711842153273075],[-0.589486688661253,44.71166725681391],[-0.589758070493103,44.71138448202355],[-0.58989230777396,44.708853101480535],[-0.589757468823741,44.708720490303804],[-0.590015215224916,44.70687724224941],[-0.592727017824141,44.70699290096086],[-0.593501065478555,44.70694343239237],[-0.593831232885625,44.70677048915656],[-0.593315247353459,44.698353620367506],[-0.593174575598013,44.698188759961674],[-0.592999910479682,44.69590803993278],[-0.59274152848585,44.69577944617227],[-0.59295928508519,44.694440373358425],[-0.592789083886262,44.69191257829342],[-0.593983498109114,44.69172237450775],[-0.593986793008201,44.691496963020306],[-0.601021416210841,44.69046970504701],[-0.603529061303435,44.68999330783262],[-0.604269228826763,44.68995116863695],[-0.606199644494432,44.68951694799418],[-0.61596371342776,44.68779768656618],[-0.62374122279594,44.686508546868865],[-0.629377294545191,44.68547659508347],[-0.630998741529346,44.685271069354194],[-0.633752242743222,44.68479401226636],[-0.634999556666021,44.684351075155185],[-0.636879685469685,44.68410271269985],[-0.637181481643049,44.684667778405164],[-0.637997476691724,44.68468600375182],[-0.643748639969426,44.68446244021284],[-0.645578028241954,44.68405517931569],[-0.647755842022005,44.68391758448097],[-0.648198480045375,44.68390568884236],[-0.64832957203231,44.68399869905643],[-0.656722208719819,44.68373686308644],[-0.659762578921486,44.6884534840613],[-0.662071802250259,44.692333556162744],[-0.66585125427162,44.69294109204206],[-0.666005899055217,44.692793568672194],[-0.670123748322656,44.69132316144995],[-0.673240707074693,44.691807321275945],[-0.673388694379333,44.69200338787541],[-0.672383058323708,44.695451651365474],[-0.670819481208722,44.70080926566253],[-0.670641278437022,44.70084762363424],[-0.667696358209751,44.70027655656939],[-0.66643381113921,44.70403700087557],[-0.656064337466859,44.711673099909454],[-0.654801448122407,44.71244753988589],[-0.652241397432186,44.716215496097306],[-0.65123787864294,44.718865858716285],[-0.650388188304781,44.71940760465467],[-0.650150875649548,44.72256892972075],[-0.649571645839253,44.723617267056625],[-0.640484496034275,44.72468620500224],[-0.640043854276094,44.72563259296895],[-0.639240843312534,44.72787608097764],[-0.635353100596586,44.728362533230445],[-0.634792610852854,44.72851252260948],[-0.633498781384452,44.72791781743997],[-0.633375470332902,44.72796602649472],[-0.632386204314706,44.73016870531544],[-0.645763979545354,44.73114657981301],[-0.638254608378906,44.73670925028882]]]]}},{"type":"Feature","properties":{"fid":1672,"ID":"COMMUNE_0000000009756111","NOM":"Saint-Médard-d'Eyrans","NOM_M":"SAINT-MEDARD-D'EYRANS","INSEE_COM":"33448","STATUT":"Commune simple","POPULATION":3361,"INSEE_CAN":"08","INSEE_ARR":"2","INSEE_DEP":"33","INSEE_REG":"75","SIREN_EPCI":"243301264"},"geometry":{"type":"MultiPolygon","coordinates":[[[[-0.509205979163892,44.69233359702316],[-0.5110188904137,44.69362963933171],[-0.511584594628414,44.69445518488378],[-0.511948856574815,44.69442109247092],[-0.512233124687409,44.693509990227646],[-0.512630344281652,44.693032371363856],[-0.513841010279961,44.69202605941964],[-0.514069833144311,44.69194759794271],[-0.514535883187872,44.69158133346084],[-0.514842395541376,44.69147246557556],[-0.514962321714483,44.691309146743244],[-0.515311026242905,44.69118812273456],[-0.517721231046279,44.6927002839827],[-0.51798333895437,44.69277035160891],[-0.518123521359714,44.6924865280897],[-0.52022750052338,44.69334240527832],[-0.523683990939344,44.69331977737191],[-0.525246626495483,44.69305461032088],[-0.5274355757755,44.692421594713046],[-0.528440519151123,44.69234989381454],[-0.529462732946394,44.69259394856235],[-0.53055670328331,44.6930150400336],[-0.532431217832769,44.69413665562255],[-0.533142472522531,44.69447802202491],[-0.534166380147311,44.69456697699481],[-0.53843328004846,44.69634020505836],[-0.540571823709776,44.696834128946946],[-0.544170239203732,44.697897671680195],[-0.546762449900918,44.69893208227404],[-0.540301658782867,44.701196435774094],[-0.537653031335229,44.70348547148948],[-0.536258922357293,44.702595500525],[-0.535476815837057,44.703763205234985],[-0.535333650628533,44.70424000412262],[-0.534966747835341,44.70447432092509],[-0.533530010474015,44.70473649835431],[-0.532968467494813,44.70511130127664],[-0.532668991105274,44.70543357620547],[-0.532854634142511,44.70659919740426],[-0.532296911224927,44.70679363626936],[-0.531932801623614,44.707072912681575],[-0.531122777068772,44.70727449716211],[-0.531266700326516,44.70839999750887],[-0.530748017793243,44.708512074911006],[-0.53051895587583,44.70872845973829],[-0.52894348925129,44.70919866899422],[-0.528496341607221,44.7095851194755],[-0.525772246016898,44.71023969705217],[-0.523417580396308,44.7105787434485],[-0.522919954792271,44.71074508511539],[-0.522512068716889,44.71079051238835],[-0.522814854331585,44.71288154254348],[-0.523992593056669,44.71519975318656],[-0.523936656353833,44.715335811591345],[-0.522172369166368,44.71616519628122],[-0.52692099151511,44.723345166159305],[-0.525282319708583,44.72374162560203],[-0.521579862354118,44.72529688597591],[-0.516467474332959,44.72654535310512],[-0.515526535516153,44.72665995301437],[-0.513509714632996,44.7267122731043],[-0.511550849061012,44.7268627495573],[-0.510136228336556,44.727186084198955],[-0.509388641672105,44.727462120342956],[-0.505816854264708,44.72791955455584],[-0.50521961799658,44.72766721180373],[-0.504725037618638,44.72788563847599],[-0.504015608240932,44.728044176493626],[-0.503598297877422,44.728589985061056],[-0.503246709474109,44.72858759484091],[-0.502603718173125,44.72871698532512],[-0.502455128489362,44.728949686178275],[-0.502048594837228,44.72914098251188],[-0.501422952416488,44.72924458390774],[-0.500776099171561,44.72945429082903],[-0.50035150424113,44.729375797205],[-0.499760928165636,44.72971799458617],[-0.499469487547608,44.730235474839574],[-0.499082221148095,44.730452284944654],[-0.498405971592333,44.7304132793029],[-0.497301143314651,44.73078072536582],[-0.497231072572834,44.73095506464648],[-0.496942998977889,44.73114079655778],[-0.499938168006453,44.734009230108846],[-0.50106339955559,44.73597968662675],[-0.501035047634356,44.73651949166577],[-0.500681210417335,44.73686772367754],[-0.499360116727149,44.73607769593898],[-0.497793415472767,44.73550538959985],[-0.496125400483246,44.73511289337807],[-0.49527984143427,44.73521889662151],[-0.494725210169199,44.73477770487461],[-0.493811209915385,44.734514571064025],[-0.492957701383015,44.73447211287518],[-0.491907370690454,44.7341510837759],[-0.489833388288612,44.73385691189223],[-0.489066293806937,44.73343410653759],[-0.487605007118242,44.733253956512364],[-0.487230386322671,44.73312517423858],[-0.487538580696656,44.73261080658006],[-0.490104960031123,44.730042676919254],[-0.490091340002858,44.72955827306455],[-0.489630815910759,44.728574287913666],[-0.489554285967672,44.727727792412985],[-0.489648790949162,44.72703000641729],[-0.489066417581757,44.726322918218834],[-0.488159077607636,44.726082964343426],[-0.48746642057028,44.72543161229693],[-0.486858293453216,44.72520565137983],[-0.486546832830668,44.72493249380606],[-0.485608433290623,44.72447631581226],[-0.484259632793626,44.7231490001285],[-0.483743311433463,44.7230985654696],[-0.483504624699771,44.72289790708387],[-0.483326631847728,44.72290170643484],[-0.483249980734366,44.72258240050139],[-0.482802717355853,44.722524381347235],[-0.482453239623852,44.722208252494845],[-0.481518295391609,44.72184745809024],[-0.481120814967633,44.721817605079295],[-0.480475907610646,44.72160898928052],[-0.480048206563669,44.721642263479374],[-0.479318724091852,44.7214966786228],[-0.478785554111077,44.72154137384757],[-0.478621407138642,44.72150327682277],[-0.478219308345809,44.721194196490224],[-0.478550364170028,44.72090623256614],[-0.478516225952347,44.72023142929102],[-0.478682804445307,44.719777412102076],[-0.479050041135659,44.71954328056498],[-0.48037229943871,44.71923946892404],[-0.48078690882483,44.71868843255812],[-0.481643505486325,44.71817215445544],[-0.481693665808168,44.717900225794764],[-0.481325116029362,44.717254867273304],[-0.481675796582362,44.71699871794825],[-0.48192577357606,44.71589142794404],[-0.482721161982457,44.71477508548323],[-0.483016546140016,44.71464683520589],[-0.48398459665802,44.71446226421706],[-0.484898148193302,44.71378555995379],[-0.486739227477507,44.712046887445766],[-0.487592221829614,44.710720521591405],[-0.488071616317572,44.71031971133312],[-0.490188695196056,44.709509493921395],[-0.490649407343304,44.70925615183022],[-0.49115144796906,44.708833886079425],[-0.491928962872998,44.707576551538594],[-0.493053329370161,44.70641099572495],[-0.493347208152704,44.7059745632],[-0.494410852734911,44.70499204479347],[-0.494987587738418,44.70449170288075],[-0.499604497487782,44.7014782425958],[-0.500698630601434,44.70052173009162],[-0.500974032982548,44.70011469755154],[-0.501696847586777,44.699405129375535],[-0.501838020140346,44.69917626912444],[-0.499491481495281,44.69773023842101],[-0.497519263187862,44.69675535662812],[-0.496647417016983,44.69592049608335],[-0.497810009860583,44.69509071571098],[-0.497752660822571,44.69402554435041],[-0.498321159351163,44.69386248036727],[-0.498318700393598,44.69363996928345],[-0.498476922267983,44.693502493915695],[-0.500284853470779,44.693015447115066],[-0.501689390906026,44.69276643212415],[-0.501752424510229,44.69258149921324],[-0.505301919755797,44.69281603770901],[-0.507762128339305,44.693471611645094],[-0.509205979163892,44.69233359702316]]]]}},{"type":"Feature","properties":{"fid":1865,"ID":"COMMUNE_0000000009756349","NOM":"Saint-Selve","NOM_M":"SAINT-SELVE","INSEE_COM":"33474","STATUT":"Commune simple","POPULATION":3668,"INSEE_CAN":"08","INSEE_ARR":"2","INSEE_DEP":"33","INSEE_REG":"75","SIREN_EPCI":"243301264"},"geometry":{"type":"MultiPolygon","coordinates":[[[[-0.457206395091601,44.66867301695477],[-0.45501777583121,44.667064400279415],[-0.45234337158851,44.664367922040256],[-0.449539295375988,44.66196199615636],[-0.44935812673149,44.66172524305601],[-0.448684031728743,44.66127407641305],[-0.448283227877687,44.660749501621524],[-0.441704953800087,44.654694321902234],[-0.446774730515033,44.644641986555925],[-0.448776950556814,44.64180135882209],[-0.449339432658352,44.641670264777],[-0.449974368753415,44.63907412641009],[-0.450479473153627,44.63846001064268],[-0.455200059555385,44.633833929703094],[-0.456395598409462,44.632133063709276],[-0.458240922240982,44.630184767075896],[-0.461638705954366,44.629784616031685],[-0.465566837350262,44.628898239060184],[-0.475911122161833,44.626735929229234],[-0.477618711787491,44.62645421452048],[-0.481331613940555,44.626319277833616],[-0.483389218916131,44.62696453035895],[-0.485122992909078,44.627637081706546],[-0.485437963674572,44.62762894965613],[-0.487363979675595,44.62708426978326],[-0.488555309666785,44.62696376033348],[-0.487585505349968,44.631254972197134],[-0.485990191215783,44.63759618676057],[-0.485573942190838,44.640027986291464],[-0.484612248775479,44.642437332219444],[-0.483862793664683,44.64491207189643],[-0.484962311840957,44.646729267400865],[-0.485609631518164,44.647072019626165],[-0.485454715946879,44.64775096253833],[-0.486219538729042,44.647911579494846],[-0.48841003741999,44.64885446432694],[-0.488418656955819,44.64903442215964],[-0.48806179692474,44.64944849674769],[-0.487949935992775,44.64972146993065],[-0.488527216332064,44.6499312445747],[-0.488925335790392,44.6503259998651],[-0.489823414144021,44.652147714271564],[-0.490394942244492,44.652223390402284],[-0.490844675777281,44.65239122250925],[-0.491053773695684,44.65279103901435],[-0.491387403395993,44.65314276595369],[-0.491830099639789,44.6531765449788],[-0.4929551561753,44.652976092406796],[-0.493307543669569,44.653731839129115],[-0.494659716117139,44.65428206305497],[-0.494963458622273,44.6540498759623],[-0.495678302223463,44.654481456739894],[-0.496451835704491,44.65482106163116],[-0.498013223320681,44.655771051154595],[-0.499434914739893,44.6564632057036],[-0.500593412946072,44.65749079751667],[-0.500113835169737,44.65761592254985],[-0.499431046281515,44.657518583630484],[-0.499141975632402,44.65756017467235],[-0.498651696311413,44.65917975131455],[-0.498545485148607,44.6593399137125],[-0.498162625669386,44.659538567624764],[-0.498497419793751,44.65996864060075],[-0.499343617894678,44.660195988249676],[-0.500823037880195,44.66116476139347],[-0.501678525590262,44.661175519582265],[-0.502384844916046,44.66142710053212],[-0.503553100215116,44.66208127832228],[-0.497981940166067,44.665635216106736],[-0.497453223565557,44.66574295774393],[-0.495734380422393,44.6646203981362],[-0.494848791832298,44.6651224014486],[-0.493708572972395,44.66673095420447],[-0.493728624180982,44.66697273218481],[-0.494007053306663,44.66751183898147],[-0.494032951077954,44.6680309891175],[-0.493606851877358,44.67011891939234],[-0.493584562062827,44.67289429378078],[-0.493464347397354,44.673806460781435],[-0.492261087675268,44.67529803528168],[-0.489923318031614,44.67753911990161],[-0.48604298668765,44.68173563380989],[-0.485065428512892,44.68290009781502],[-0.486363242178438,44.68356210296016],[-0.487506536424179,44.68403341418873],[-0.487373639817103,44.684171877243756],[-0.488602107014648,44.68477386442948],[-0.488572178764777,44.68488204655842],[-0.489759265897732,44.685305094559304],[-0.490774336999764,44.686070594093955],[-0.491166113903853,44.68617538083213],[-0.48978483048886,44.68653257245362],[-0.488272395437043,44.68677132426099],[-0.484816039652233,44.68750296878507],[-0.4837855068548,44.68807882889723],[-0.481067606701546,44.68857892568067],[-0.480977293038257,44.688487146038504],[-0.48105815225296,44.68830346857405],[-0.480313676682304,44.687949308618926],[-0.478747398435219,44.68690907721917],[-0.47898828873999,44.68667801420463],[-0.478275918376336,44.68606600240718],[-0.4785798442122,44.68583295811687],[-0.478505434731634,44.68561000893903],[-0.477851582306453,44.68520882783003],[-0.476340699753768,44.686577416480816],[-0.476141615102775,44.68693332147485],[-0.475971993664153,44.68705039507753],[-0.475205714200448,44.68714025610626],[-0.474449937258062,44.68699097576063],[-0.47535612564365,44.686364141478016],[-0.475158233974249,44.68594140889337],[-0.475744915904851,44.68584817968321],[-0.4764933864734,44.68544977771044],[-0.476990604477792,44.68536025459753],[-0.47724096109631,44.68524154246095],[-0.477341978027821,44.68509778650036],[-0.477347782159423,44.684823652646344],[-0.477878350496286,44.684374416802854],[-0.4777462942616,44.68317732836152],[-0.478101662109075,44.68279577940505],[-0.478189124562536,44.6825758506012],[-0.478553189883152,44.68237605999141],[-0.478857048462971,44.682346677908214],[-0.479035939251417,44.68219596513207],[-0.47915104056756,44.681932811789466],[-0.479287989657055,44.681900568101966],[-0.479651997747538,44.68208827255389],[-0.479808801873912,44.68207072324125],[-0.480070621639816,44.68160650073921],[-0.480080822260797,44.68142414625628],[-0.479805938492154,44.68104349551333],[-0.479600638997636,44.68050115062491],[-0.479609032155994,44.68006472733759],[-0.479502775435949,44.679898652974664],[-0.479545656154329,44.67928451843225],[-0.472831513241489,44.6765235460114],[-0.472564112366372,44.676529238895135],[-0.470963793278345,44.67591262424138],[-0.469735277047787,44.675241969503986],[-0.466600305476335,44.67306218127403],[-0.464348784603191,44.67212165064117],[-0.458294881465585,44.66935088267996],[-0.457206395091601,44.66867301695477]]]]}},{"type":"Feature","properties":{"fid":2133,"ID":"COMMUNE_0000000009756352","NOM":"Castres-Gironde","NOM_M":"CASTRES-GIRONDE","INSEE_COM":"33109","STATUT":"Commune simple","POPULATION":2689,"INSEE_CAN":"08","INSEE_ARR":"2","INSEE_DEP":"33","INSEE_REG":"75","SIREN_EPCI":"243301264"},"geometry":{"type":"MultiPolygon","coordinates":[[[[-0.437346635844361,44.704485105400806],[-0.436343082330704,44.70363225582982],[-0.435796744952243,44.70329327074731],[-0.434376088464691,44.702748028956634],[-0.433896514270889,44.70263314911012],[-0.435065506342019,44.701291111455944],[-0.435236607850316,44.70092714554512],[-0.433738137225761,44.69997519681056],[-0.433333084724174,44.69944528108141],[-0.433089215553514,44.698326425314484],[-0.433479198918353,44.69805029011052],[-0.434409131605816,44.697885355512085],[-0.435370480243591,44.69496465646369],[-0.434919361754659,44.69473535637922],[-0.435225475822028,44.69434827490456],[-0.435321531915837,44.69439034913204],[-0.435508848542048,44.69414753314326],[-0.436807297778287,44.69188770033],[-0.437778663844485,44.690727491707726],[-0.438004334053495,44.69005814210058],[-0.438386088872692,44.68952451819942],[-0.437651908227647,44.68879668817562],[-0.43644343320804,44.68783127100292],[-0.441039323164996,44.684922808670926],[-0.449853320586854,44.67621989691691],[-0.452662042259442,44.67314947473613],[-0.457206395091601,44.66867301695477],[-0.458294881465585,44.66935088267996],[-0.464348784603191,44.67212165064117],[-0.466600305476335,44.67306218127403],[-0.469735277047787,44.675241969503986],[-0.470963793278345,44.67591262424138],[-0.472564112366372,44.676529238895135],[-0.472831513241489,44.6765235460114],[-0.479545656154329,44.67928451843225],[-0.479502775435949,44.679898652974664],[-0.479609032155994,44.68006472733759],[-0.479600638997636,44.68050115062491],[-0.479805938492154,44.68104349551333],[-0.480080822260797,44.68142414625628],[-0.480070621639816,44.68160650073921],[-0.479808801873912,44.68207072324125],[-0.479651997747538,44.68208827255389],[-0.479287989657055,44.681900568101966],[-0.47915104056756,44.681932811789466],[-0.479035939251417,44.68219596513207],[-0.478857048462971,44.682346677908214],[-0.478553189883152,44.68237605999141],[-0.478189124562536,44.6825758506012],[-0.478101662109075,44.68279577940505],[-0.4777462942616,44.68317732836152],[-0.477878350496286,44.684374416802854],[-0.477347782159423,44.684823652646344],[-0.477341978027821,44.68509778650036],[-0.47724096109631,44.68524154246095],[-0.476990604477792,44.68536025459753],[-0.4764933864734,44.68544977771044],[-0.475744915904851,44.68584817968321],[-0.475158233974249,44.68594140889337],[-0.47535612564365,44.686364141478016],[-0.474449937258062,44.68699097576063],[-0.471695381858343,44.6883922454676],[-0.470992108816449,44.688930676131605],[-0.470049872200959,44.68940450596884],[-0.468562395068254,44.690399169422335],[-0.467244127463402,44.690839706218554],[-0.466066444253083,44.691347914264895],[-0.465358135041108,44.69186754047453],[-0.463875391187358,44.692489813298955],[-0.463003738136176,44.69273698330063],[-0.462503795001872,44.69261926164733],[-0.459818678433867,44.69369994150553],[-0.459531324904409,44.69387564051905],[-0.459150632237791,44.694547186257594],[-0.458674320790857,44.69489640480051],[-0.458835046244279,44.69496257078992],[-0.458738975190336,44.695372894122166],[-0.458406440507,44.69545087595594],[-0.457986765977794,44.69571451386345],[-0.457499579232984,44.69582526224266],[-0.457244740333575,44.696633446918185],[-0.456951980866631,44.69690663179701],[-0.456902022626754,44.697121765258046],[-0.456474550935817,44.69740276245361],[-0.456226498788165,44.69749882436593],[-0.455142342611068,44.69751736777941],[-0.454145676434928,44.697767467718535],[-0.453435121421364,44.697532821963556],[-0.451197453124284,44.69773691677932],[-0.451044809477122,44.69757586714913],[-0.449692023916949,44.6970251012541],[-0.449316365158544,44.697080068812205],[-0.449204221840222,44.697353007663125],[-0.449133044889385,44.69817076379103],[-0.447766248926184,44.69897933859813],[-0.446324404437112,44.69897559799404],[-0.445709859599368,44.699111887482324],[-0.445238672366191,44.698741772086436],[-0.444836065004117,44.698748901349944],[-0.444756853818245,44.698817151129255],[-0.444906220732683,44.69909005296968],[-0.445463001753112,44.699475527317965],[-0.44532858659672,44.699797817129756],[-0.444801085790189,44.70009720134072],[-0.444275892428859,44.700207270733706],[-0.444146003228189,44.70045912877317],[-0.444014478390464,44.70051909379902],[-0.443606758745572,44.70052547618282],[-0.443108424376522,44.70037247102867],[-0.44267415136658,44.70056441077779],[-0.442277899466618,44.70061368632401],[-0.442274322728371,44.70082376405661],[-0.442584906403309,44.70119168024629],[-0.442348696655918,44.70148198854768],[-0.440789589899346,44.70228924635746],[-0.439999929873409,44.702517457909806],[-0.439070093035974,44.702622959489005],[-0.438881534144206,44.70270091137893],[-0.438261451618768,44.70371954843739],[-0.437346635844361,44.704485105400806]]]]}},{"type":"Feature","properties":{"fid":2982,"ID":"COMMUNE_0000000009756566","NOM":"Cabanac-et-Villagrains","NOM_M":"CABANAC-ET-VILLAGRAINS","INSEE_COM":"33077","STATUT":"Commune simple","POPULATION":2400,"INSEE_CAN":"08","INSEE_ARR":"2","INSEE_DEP":"33","INSEE_REG":"75","SIREN_EPCI":"243301264"},"geometry":{"type":"MultiPolygon","coordinates":[[[[-0.488805371730163,44.612414182264],[-0.485348711660075,44.61133289300729],[-0.466532263709383,44.605945084587326],[-0.468123471533086,44.604457844948044],[-0.469936000400102,44.602571639282445],[-0.472940662753842,44.59979005291655],[-0.47787773494712,44.59499300302022],[-0.480521794615507,44.5922252530779],[-0.482271858273549,44.59005514086582],[-0.482481087292506,44.5893591820224],[-0.483086722367873,44.58860926836171],[-0.48336973082608,44.58694407348905],[-0.483936980994986,44.58620617907824],[-0.483973277683735,44.58587522221997],[-0.487732758977003,44.57585317993085],[-0.487867039236019,44.57500728904734],[-0.488439592313348,44.57519375397415],[-0.491362605197855,44.5751635319328],[-0.497558624200966,44.574200553037464],[-0.501725235755923,44.57249419896842],[-0.501750772268725,44.57239786930124],[-0.502393703364905,44.57211344279102],[-0.50530920580574,44.57090981317426],[-0.508107721538337,44.56993510381832],[-0.510447383693319,44.57003554627081],[-0.51186589978393,44.56979758549135],[-0.514600640803306,44.56986554559641],[-0.515038351615214,44.56980925555334],[-0.515531818331356,44.56961601791574],[-0.518067098053597,44.5698209087763],[-0.51906638533957,44.56979446427941],[-0.519745225138984,44.56970343419836],[-0.52125559691783,44.569705729671035],[-0.523242423225948,44.56946481068305],[-0.52480276700157,44.56952043200917],[-0.526616465823916,44.56939401762014],[-0.528000654991341,44.56947504643804],[-0.529794360606438,44.569432123633725],[-0.533127439357863,44.569190322804246],[-0.534931318393181,44.56945067626227],[-0.535622071089841,44.569811540967976],[-0.537842979587036,44.57026845737065],[-0.538959209566403,44.570377762725975],[-0.54132758591181,44.570773110714974],[-0.542124163411649,44.57058985263596],[-0.543490718691004,44.57069017900132],[-0.546250486972034,44.571775756622216],[-0.550119686660455,44.55965977832846],[-0.561320502119602,44.55036579671442],[-0.566331346324308,44.546101921303354],[-0.581769595674213,44.54839005502439],[-0.58413615413355,44.548666468110234],[-0.584707220732694,44.54866954588415],[-0.585120233580058,44.5485254594266],[-0.586281399431227,44.5485535122733],[-0.586393726006279,44.548575995313854],[-0.586591854929285,44.548818276832705],[-0.587593029681714,44.54912456890793],[-0.587891546473772,44.54935997989722],[-0.588493941427908,44.54920161237386],[-0.588817778329832,44.549220819178736],[-0.589091944195543,44.54935068159099],[-0.58941057442369,44.54924839873715],[-0.590203056812686,44.54944340340598],[-0.590332029462903,44.54958880068176],[-0.590366460899997,44.54987244881574],[-0.590700942562855,44.549999443839475],[-0.591069081971116,44.5499424058252],[-0.591404170669062,44.549781906925325],[-0.591566140231157,44.550029863142186],[-0.591831448503075,44.55007980357683],[-0.592246395086798,44.550500658909165],[-0.592623036840852,44.5502802277013],[-0.592972278765765,44.54992641334692],[-0.593365913882863,44.54989377012762],[-0.593732236719583,44.54996655042784],[-0.593728980990839,44.550449682394714],[-0.59357877562465,44.55066364493319],[-0.5941563673066,44.55100620245484],[-0.594683749127854,44.55117376376353],[-0.5969620820727,44.55099228424653],[-0.597665249219471,44.55140642926269],[-0.598961246143917,44.55180844693879],[-0.59911774771333,44.5519700594444],[-0.599100699132314,44.55243381754127],[-0.599253888723681,44.55260274735526],[-0.599391320371962,44.55260367187341],[-0.59949383632858,44.552412884368806],[-0.59967338838821,44.552362870187785],[-0.599961433600773,44.552512080134065],[-0.600052573153173,44.552814604234285],[-0.600224153974914,44.552896420352276],[-0.600678987870875,44.552914022975486],[-0.600951694188244,44.552743814777216],[-0.601288399047837,44.55268776861277],[-0.601486074142773,44.55286245321771],[-0.601674784596681,44.55285719551545],[-0.601619331650776,44.55307438567521],[-0.601739016741538,44.553409320543295],[-0.60210168835893,44.55401658931129],[-0.602129341252736,44.55500247196317],[-0.602235012702014,44.55507832606571],[-0.603547979053472,44.55505348475856],[-0.603577162061994,44.555332797186644],[-0.604151266292147,44.55625037037413],[-0.604537347523683,44.55625668572403],[-0.604660696977428,44.556352687377455],[-0.60429202701873,44.55681621748855],[-0.603977172538062,44.55697789737544],[-0.604014080542546,44.55708212965281],[-0.604407176819188,44.55719816002139],[-0.604145396935693,44.5577960784472],[-0.603797231862146,44.558048061929696],[-0.603828652039544,44.55834262166615],[-0.604387840064145,44.558986725254066],[-0.605493770401754,44.55952735494458],[-0.605682502760768,44.55952209037932],[-0.605789566926557,44.55961952441439],[-0.606117435840381,44.55970073224516],[-0.606343422933188,44.56012050647119],[-0.606805265699012,44.56038477971743],[-0.60655738887362,44.56049020725417],[-0.6063727258422,44.56069720416573],[-0.606679288282917,44.56097736606307],[-0.60669854327779,44.5611010994805],[-0.606574387273635,44.56118986741432],[-0.606637617115047,44.56133108861643],[-0.607233604205972,44.56189918022319],[-0.607534676647205,44.561837071513914],[-0.60757635407691,44.56213399962158],[-0.607416824891702,44.56212299261762],[-0.607486254194373,44.56232168634868],[-0.607417387243591,44.56256545332586],[-0.607799415446254,44.562625961963214],[-0.607767387008391,44.56275587758911],[-0.608016681828528,44.562751333280175],[-0.608215360653859,44.562861991798194],[-0.608042114414123,44.56332635591191],[-0.608523573445685,44.563660274269395],[-0.608485866324721,44.56374081092269],[-0.608659939575772,44.563939687779666],[-0.608780603308171,44.56456476687043],[-0.609493680719191,44.56623296811844],[-0.612619346122914,44.574470278061696],[-0.613551416671369,44.57601054201426],[-0.614318704100669,44.578362759465634],[-0.615930358005916,44.58198503998184],[-0.612706058698274,44.59562558968169],[-0.610802731150223,44.59974050698156],[-0.610763788177349,44.60005809953599],[-0.610166170000931,44.60075172959222],[-0.609007989110407,44.60364456624914],[-0.606329529283809,44.60525507116806],[-0.605801247582472,44.605377758063426],[-0.603536643442976,44.606676384890186],[-0.60140073711356,44.60772023503199],[-0.600969925028063,44.60804609300899],[-0.60048019669356,44.608259418157886],[-0.598770608352058,44.60926408440923],[-0.594034964977667,44.611721707827265],[-0.593020279277685,44.6124089797905],[-0.587639422503495,44.6153423985346],[-0.587238118472512,44.615638403200336],[-0.586965581291614,44.61569771899257],[-0.586240451360705,44.61607993331557],[-0.585795236711725,44.61641971364516],[-0.585291986640145,44.616600964111704],[-0.5822886212936,44.618340352648964],[-0.582129857494138,44.618284219739444],[-0.582164127771714,44.61844622332675],[-0.582080786141725,44.6185444512969],[-0.579448086650578,44.620023913098635],[-0.575912852004425,44.62173889425045],[-0.564569153680601,44.62786488929402],[-0.562736231546834,44.62899370264467],[-0.56260847344846,44.63016665255748],[-0.562411201826544,44.630300078819516],[-0.562182231488387,44.630131729951806],[-0.561994478119565,44.62983678803629],[-0.561203646810218,44.62978387455336],[-0.560179447860647,44.630411655240025],[-0.559772996897647,44.63029047369614],[-0.559532972858935,44.63038652111833],[-0.559040087605208,44.63013564784111],[-0.558976227949338,44.629963777111044],[-0.558766168373357,44.62989484330888],[-0.558399264821906,44.62992017654887],[-0.558312887955193,44.629791385988874],[-0.557988655517701,44.62977298845096],[-0.557794299247668,44.62967290720284],[-0.557395719916575,44.62973620527024],[-0.557172567433372,44.62985964085648],[-0.556752440217149,44.63050128496994],[-0.556258553017233,44.63085422074251],[-0.555683815876756,44.63070599758481],[-0.555611861436234,44.6303856914393],[-0.554724822186206,44.63028806477277],[-0.554238934728817,44.63064794322181],[-0.553798157276561,44.63080270285142],[-0.553037060454443,44.63070101218454],[-0.552728827527097,44.630536094230266],[-0.55251199505099,44.630599839249086],[-0.551964929429614,44.63053001099923],[-0.551478838020654,44.630726770599246],[-0.551246590381662,44.63126682887688],[-0.550808438667452,44.63132326376564],[-0.550334366355422,44.63133038517202],[-0.549083925075725,44.63087310416944],[-0.548843560517173,44.631104314742664],[-0.548499854610119,44.63117753314263],[-0.548107102901866,44.63089275703495],[-0.547851032897214,44.63081446600559],[-0.547577095508172,44.630993582324464],[-0.546476828434962,44.63135782683444],[-0.546081762817408,44.631356987362416],[-0.54521003747006,44.63122184490863],[-0.544820389670363,44.63132716541667],[-0.544575392216439,44.63114397577988],[-0.543622120059996,44.63127728217214],[-0.54244358471902,44.63095910577109],[-0.542221289683832,44.63103652286217],[-0.542070762160955,44.630850299765164],[-0.542205481043283,44.63068467202354],[-0.541946254356464,44.63055600328393],[-0.54125401754264,44.6305655725478],[-0.540997619436579,44.63048186950801],[-0.540731235474664,44.63021915316669],[-0.540048292570833,44.630416761532736],[-0.539296416955286,44.63048139806088],[-0.538402909751194,44.630280214140946],[-0.537021077302525,44.63036140015508],[-0.536398027355765,44.630528231113885],[-0.536151219798025,44.630737990623864],[-0.536159674253816,44.631013477241325],[-0.535947882717504,44.63117795854633],[-0.534836468553917,44.63100354376305],[-0.534192099776129,44.630750199217324],[-0.533253491108954,44.63085591169442],[-0.532986426070351,44.63080317109394],[-0.53247437030844,44.63042573165198],[-0.531948457426769,44.63047137931443],[-0.531724088555335,44.630314538334545],[-0.531586525023101,44.63031442893572],[-0.531341714240438,44.63045562482878],[-0.531007582745229,44.63084298868149],[-0.53053710746554,44.63074627643402],[-0.529971764738289,44.630887796506485],[-0.529747729023438,44.63057503962918],[-0.528989330582026,44.630455075486196],[-0.528503656173122,44.630115526176226],[-0.528181203348313,44.63004471722029],[-0.527860408258288,44.63014147068297],[-0.527102892813228,44.630116087785815],[-0.526865240820455,44.63002905090039],[-0.526273354758525,44.63031107920798],[-0.525873111484814,44.630287803960144],[-0.525228021040341,44.630425535860255],[-0.524523541406359,44.63021911225446],[-0.524083818217312,44.63023043271561],[-0.523369443555907,44.630531670874284],[-0.522928066022081,44.63104138110407],[-0.52255190639447,44.63108040714475],[-0.522102192280711,44.63091180596569],[-0.521852993395321,44.63096300390966],[-0.521755968660928,44.631550948867826],[-0.521320595480632,44.6316522353548],[-0.520753594477357,44.63166669665555],[-0.520492267363334,44.6314632496823],[-0.520232103549717,44.63143999695481],[-0.520227828477169,44.631230163040605],[-0.520072920403139,44.631033237924925],[-0.520207849275238,44.63064774956416],[-0.519924316925917,44.63049277031137],[-0.51979136876782,44.630606946370236],[-0.519660855834025,44.630598487112735],[-0.519656293062001,44.63034360454884],[-0.519194138994443,44.6299149535428],[-0.519130392423881,44.62970250799869],[-0.519207906283449,44.62950899394414],[-0.518923323769064,44.62937747601215],[-0.518851980002803,44.62896251184546],[-0.518018316508696,44.62886920192455],[-0.517180854115366,44.628330835319524],[-0.516347337965783,44.628037451860166],[-0.516331473743762,44.627722552078886],[-0.515793222025364,44.6275297096361],[-0.515705998424301,44.6274261484414],[-0.515759411569793,44.6269675631854],[-0.515652661839206,44.62691508796239],[-0.514968276966414,44.626948575308994],[-0.514607867479713,44.62677440141501],[-0.513914126617329,44.626030483707595],[-0.513066019125942,44.625684373353614],[-0.511457866099759,44.62482532600841],[-0.511082836190196,44.624132542543435],[-0.510374704289913,44.62384504586227],[-0.5097878616276,44.62343834489671],[-0.509049550027405,44.62317252541282],[-0.508466361403861,44.62274317326312],[-0.50700253617035,44.62245712064085],[-0.506807652172007,44.622326331432106],[-0.506232124850342,44.62216166305756],[-0.505775397899106,44.62185805012991],[-0.505501808190381,44.62141525530726],[-0.504529804812868,44.62090089556427],[-0.503875486612647,44.620422412158476],[-0.50334009001216,44.61980678487825],[-0.502947675046492,44.61950202353245],[-0.501576387289552,44.618957043726084],[-0.500958204049687,44.618572019908704],[-0.498300186493432,44.61731801589432],[-0.488805371730163,44.612414182264]]]]}},{"type":"Feature","properties":{"fid":4247,"ID":"COMMUNE_0000000009756119","NOM":"Cadaujac","NOM_M":"CADAUJAC","INSEE_COM":"33080","STATUT":"Commune simple","POPULATION":6784,"INSEE_CAN":"08","INSEE_ARR":"2","INSEE_DEP":"33","INSEE_REG":"75","SIREN_EPCI":"243301264"},"geometry":{"type":"MultiPolygon","coordinates":[[[[-0.501592783681399,44.73999484821468],[-0.502291019757043,44.73845606674994],[-0.502177315909931,44.738051426339815],[-0.500681210417335,44.73686772367754],[-0.501035047634356,44.73651949166577],[-0.50106339955559,44.73597968662675],[-0.499938168006453,44.734009230108846],[-0.496942998977889,44.73114079655778],[-0.497231072572834,44.73095506464648],[-0.497301143314651,44.73078072536582],[-0.498405971592333,44.7304132793029],[-0.499082221148095,44.730452284944654],[-0.499469487547608,44.730235474839574],[-0.499760928165636,44.72971799458617],[-0.50035150424113,44.729375797205],[-0.500776099171561,44.72945429082903],[-0.501422952416488,44.72924458390774],[-0.502048594837228,44.72914098251188],[-0.502455128489362,44.728949686178275],[-0.502603718173125,44.72871698532512],[-0.503246709474109,44.72858759484091],[-0.503598297877422,44.728589985061056],[-0.504015608240932,44.728044176493626],[-0.504725037618638,44.72788563847599],[-0.50521961799658,44.72766721180373],[-0.505816854264708,44.72791955455584],[-0.509388641672105,44.727462120342956],[-0.510136228336556,44.727186084198955],[-0.511550849061012,44.7268627495573],[-0.513509714632996,44.7267122731043],[-0.515526535516153,44.72665995301437],[-0.516467474332959,44.72654535310512],[-0.521579862354118,44.72529688597591],[-0.525282319708583,44.72374162560203],[-0.52692099151511,44.723345166159305],[-0.526933410657825,44.72358358675996],[-0.527135776033029,44.723847496419395],[-0.527686430817785,44.72390024078312],[-0.528810996397949,44.72330835643373],[-0.530027994907509,44.722920786961005],[-0.532500197576747,44.7251706053463],[-0.5339806788343,44.72670314725985],[-0.534658539328706,44.727210506961654],[-0.536156374921573,44.72933906490834],[-0.536491655632375,44.72956446839728],[-0.536938743805706,44.7301404705463],[-0.537940852615256,44.731058313519384],[-0.539319473373385,44.73207225585611],[-0.540379443634673,44.733225246382105],[-0.540575087170104,44.73376241529789],[-0.540572863604505,44.73549460107905],[-0.542069227087733,44.73512320225107],[-0.542342748817242,44.73577233050429],[-0.543012044707374,44.73676296718181],[-0.543553004608922,44.73647889646642],[-0.543878927497884,44.736434218017244],[-0.5440560939276,44.7374198741241],[-0.543577692550113,44.73749286488404],[-0.543833395617829,44.73898248640063],[-0.544395964908125,44.739121287781366],[-0.545212292768683,44.73917355588045],[-0.545314897828309,44.73941720132654],[-0.545200021135131,44.74134586127716],[-0.545713886388878,44.74129335769258],[-0.545739822766029,44.742145972220214],[-0.54538155148837,44.74229983617018],[-0.545486915407793,44.74324904061029],[-0.546392876678993,44.74325787733972],[-0.546892507492142,44.74315986297833],[-0.54980930088063,44.74321238298051],[-0.551879663671264,44.74281704348824],[-0.553146991667268,44.74302151074904],[-0.555638510795889,44.74254769635345],[-0.556608867728779,44.74225517783253],[-0.556636836992319,44.7422975376983],[-0.557751845720956,44.74167322091118],[-0.558603032314787,44.7423154694917],[-0.561660823475082,44.740221852304266],[-0.562437407846406,44.742061486405596],[-0.563224096455199,44.74413961575116],[-0.563881466883935,44.746830228829424],[-0.56468326524738,44.749304406266084],[-0.565114695124123,44.75028456449926],[-0.566058835332689,44.751312198960306],[-0.56626960305607,44.75228233710067],[-0.566220448337947,44.752564200502086],[-0.565792742816128,44.75303939968963],[-0.56222507134342,44.75336240248072],[-0.560737736599459,44.75342285318116],[-0.558392367192867,44.75423453739461],[-0.556649951531783,44.75446174290072],[-0.557804363431728,44.75689490503565],[-0.556881189708454,44.75711741955056],[-0.556053059919083,44.75748287196411],[-0.555288296733368,44.75789044345042],[-0.554850849198408,44.758413674381295],[-0.554299068266168,44.75868913261462],[-0.554178544610681,44.75874346874194],[-0.554017561109404,44.75841788752651],[-0.551724857592299,44.75902676062748],[-0.550365704031746,44.75901626626699],[-0.548651698941703,44.75879452539066],[-0.548402090400798,44.75940904141407],[-0.54786355313153,44.75947405873781],[-0.547345413840741,44.759742094833086],[-0.546802319784027,44.759915398681386],[-0.54578346830353,44.76012646251487],[-0.544609151884774,44.760821037365304],[-0.544424987973761,44.76078908016338],[-0.544103770391864,44.76095076341828],[-0.542923577617604,44.761111087511935],[-0.541643286571677,44.7613692271067],[-0.540974809453915,44.76144016755426],[-0.540122216208273,44.7614196580042],[-0.539559994478438,44.7615710063001],[-0.539186096332687,44.761920909233496],[-0.538865264408708,44.76200866496114],[-0.538865690730379,44.76231686591148],[-0.538558946472531,44.76256819116922],[-0.538495157120884,44.762881147312534],[-0.537906220613819,44.76284949291601],[-0.53747481042176,44.763130030933844],[-0.537393435715514,44.76320382558863],[-0.537518247984487,44.763458487153535],[-0.537284465341993,44.76366331892545],[-0.537380803262087,44.76386752097196],[-0.537102090588335,44.764524393212206],[-0.536758123787912,44.76466695384094],[-0.536454129057155,44.76528407700224],[-0.535829588509632,44.76557167524632],[-0.535490692020691,44.765996149073914],[-0.535710773479689,44.766236957416105],[-0.535623932993831,44.766445205672014],[-0.534965705133452,44.76684111807788],[-0.535217999463484,44.76731251094311],[-0.535154559855562,44.7675308264938],[-0.535247792048048,44.7678667067214],[-0.535137393244729,44.76810274281066],[-0.534848515972787,44.768156121116874],[-0.534832864742293,44.7684504157044],[-0.534492600618481,44.76865233038208],[-0.533870005776672,44.768528901786475],[-0.533482343108204,44.76835922382064],[-0.53308746595391,44.768054593027244],[-0.532353494187386,44.76793020259318],[-0.529614120452468,44.76806348660659],[-0.529441123294334,44.767645430598066],[-0.527216180709314,44.76738826181109],[-0.526939438184259,44.76741329552126],[-0.526594278273794,44.76755766377224],[-0.525687434462261,44.76758112426625],[-0.525663856589648,44.767890988797376],[-0.525441514561858,44.768178340867756],[-0.525171952192492,44.76829776825057],[-0.524659183804611,44.76831138179839],[-0.524369812861936,44.768437745903796],[-0.524029569902907,44.76874146294816],[-0.523997352197881,44.76927690350552],[-0.524092504052603,44.769583891595865],[-0.523858751677595,44.769951810613456],[-0.523699597744289,44.770016353039765],[-0.522036219315413,44.76953573824587],[-0.52166627406864,44.769305075703855],[-0.519415726089224,44.76975060161509],[-0.518316446612658,44.76975217701523],[-0.517827185786414,44.76981818288687],[-0.517432460535846,44.77024256749785],[-0.516334761745382,44.7705324577983],[-0.516208375865083,44.770635601943106],[-0.515386509796043,44.7699956974652],[-0.513973529160202,44.769471870464685],[-0.511483592718735,44.769366983635216],[-0.511383774457427,44.765055203283886],[-0.511879466780261,44.75948359957251],[-0.511896308997333,44.75795103001294],[-0.511294334802891,44.755967658192574],[-0.511657802613272,44.752613598343956],[-0.512014223282309,44.75129375993613],[-0.512192124649702,44.74960648807749],[-0.512239282934035,44.74847849926366],[-0.512174663403156,44.74724140702326],[-0.512028695254416,44.74644307322031],[-0.511723179698835,44.745661515250205],[-0.511198969644667,44.74482020383353],[-0.510035941273383,44.743508895213054],[-0.509197770019984,44.74284334808377],[-0.507983432877011,44.74206625108571],[-0.506769717995045,44.74131886159084],[-0.505244836496548,44.74062997590407],[-0.503797769814684,44.74017471912036],[-0.501592783681399,44.73999484821468]]]]}}]}