{"type":"FeatureCollection","name":"COM_47295","crs":{"type":"name","properties":{"name":"urn:ogc:def:crs:OGC:1.3:CRS84"}},"features":[{"type":"Feature","properties":{"fid":4053,"ID":"COMMUNE_0000000009757165","NOM":"Savignac-sur-Leyze","NOM_M":"SAVIGNAC-SUR-LEYZE","INSEE_COM":"47295","STATUT":"Commune simple","POPULATION":317,"INSEE_CAN":"10","INSEE_ARR":"3","INSEE_DEP":"47","INSEE_REG":"75","SIREN_EPCI":"200036523"},"geometry":{"type":"MultiPolygon","coordinates":[[[[0.817560083080209,44.46739144463347],[0.81620584734429,44.467419559538556],[0.812611624850477,44.46699888816386],[0.812294563307455,44.46684040378417],[0.809598592545712,44.466541919205206],[0.808670463967279,44.466640544987584],[0.807858428565306,44.46682612334524],[0.806268921780132,44.46792649576276],[0.805623433017127,44.468097361336945],[0.804517738307704,44.46820142373752],[0.804006101393947,44.46722494146553],[0.803737656092659,44.467563604238975],[0.80264497883171,44.467785879329924],[0.795824577666661,44.46763711272368],[0.794732184879105,44.46752881230454],[0.794266695509177,44.46730786920668],[0.793033897345477,44.46715621740635],[0.792059812750938,44.46653063856375],[0.790983166262034,44.46602006779843],[0.790471060523491,44.46548027824613],[0.789862296178614,44.465000686616285],[0.788891784415573,44.46380329827086],[0.788235989182746,44.46346594218809],[0.787792562288345,44.46310042433044],[0.785263281343452,44.46343327204877],[0.783818622788954,44.463877028868026],[0.783500017554713,44.46347167647685],[0.783162374957686,44.463359521633755],[0.782837560589601,44.46336919887752],[0.780052849164856,44.46239188259737],[0.778127552725936,44.46156240203233],[0.778018560409668,44.461616039553085],[0.77796510574297,44.46185631136632],[0.778162368029115,44.46227634524315],[0.778091045700383,44.46271528028041],[0.777408406269278,44.46306264188472],[0.777144860836635,44.4631131622611],[0.776668030346391,44.46347097350043],[0.776453044614338,44.4638214571686],[0.775969054035487,44.46416921512638],[0.77538348069067,44.4651489149574],[0.775574357901243,44.46605062482627],[0.775249937575685,44.466816758490104],[0.774761816742505,44.46749223297153],[0.774508741433837,44.46817064988865],[0.774146142321036,44.46875589853384],[0.774040287126194,44.46914460485472],[0.774020175308415,44.470166336341144],[0.773929726198095,44.470291489245994],[0.774135985591835,44.470546910691134],[0.774383272363002,44.47138942599377],[0.774858761395005,44.47199429567805],[0.775132781617053,44.473372283306375],[0.775061050550563,44.47378869693915],[0.774546198903545,44.47482205861419],[0.774678926003865,44.476466465584465],[0.774615160618857,44.477830434326336],[0.775180265948502,44.4799626691572],[0.775430320501178,44.480640436745624],[0.776841494014699,44.48301126926266],[0.777892543125838,44.48417797473306],[0.778058279416104,44.4845379386422],[0.778011158914787,44.48477653980217],[0.777312573955538,44.485522539305755],[0.777081664600421,44.48598798079332],[0.777024405329183,44.487091822687624],[0.776324894431951,44.48952276235726],[0.776382278672952,44.49007866982624],[0.775588190275598,44.49078761399343],[0.775385878755072,44.49106901373259],[0.775374029666376,44.492392612467086],[0.774908179199558,44.494414001523204],[0.775066907848629,44.495080024128264],[0.775814668549236,44.496732345132614],[0.776188067784516,44.49846627077662],[0.778822889903515,44.50109139572921],[0.779894071075226,44.501563247099405],[0.781474689103294,44.503098103952276],[0.782717369792983,44.50410741551924],[0.784754852931791,44.50551632037323],[0.785324764159446,44.50577722219112],[0.788268826989058,44.506630593311066],[0.788713782128776,44.506901579828764],[0.789799986228089,44.50799142544668],[0.792711105837842,44.50943478975873],[0.79272133790698,44.509172928296024],[0.793144394060942,44.50833035274294],[0.793320372194802,44.508206892552934],[0.793335003032651,44.50780012739364],[0.793639231623277,44.50729288753463],[0.795220091087646,44.50673912417617],[0.795882302006786,44.506184098382164],[0.796848997524532,44.50533976419632],[0.796191307328624,44.50519874602968],[0.797382608780786,44.50414455989241],[0.797824697540882,44.50394085258917],[0.798991207480588,44.503650737045454],[0.800820223149665,44.50302169830643],[0.80202778207964,44.50186962814073],[0.802941056512242,44.50139161133341],[0.803058000682588,44.50126425927008],[0.803276678619666,44.50123889587876],[0.803364691355154,44.50023741986599],[0.804164907970518,44.49910603487567],[0.804189279680573,44.49789616297786],[0.804799616525168,44.49637195217235],[0.805055722388631,44.49515588713408],[0.80576307192115,44.49433964439555],[0.806853320824567,44.49338242012389],[0.807527516203599,44.49247905459347],[0.807064774744691,44.49214835453328],[0.80673759980136,44.492052693051626],[0.806657392060374,44.491396390872616],[0.806220680093859,44.4910761109793],[0.805944215970106,44.49103548936046],[0.805070783057385,44.49114058551119],[0.803686638272972,44.49117876986239],[0.80241117388342,44.49068687103482],[0.801697594440155,44.490175539748996],[0.800665437380103,44.48983346019628],[0.800314315952852,44.489868783644084],[0.800000546542749,44.48972023605683],[0.799613293848551,44.48994035213297],[0.799297195923376,44.48972241281748],[0.798960484196987,44.48983997061345],[0.798686314746877,44.48970841966981],[0.79823207545989,44.489742578689565],[0.797986991511215,44.48963952407646],[0.797643166716689,44.48968128865547],[0.797442507365678,44.48934227217904],[0.797185008192981,44.48936414589283],[0.797228029077578,44.48916417989333],[0.796825006316708,44.48927230157043],[0.796119666019441,44.48858368701984],[0.795453707672177,44.48817592990041],[0.796925177092762,44.4878000831069],[0.797603247674982,44.4874452976449],[0.798550101638655,44.48713369784023],[0.799496840174286,44.48656632874656],[0.800077526949563,44.48651487538661],[0.800478157534549,44.486338252212015],[0.80094986855352,44.48624229436655],[0.801776798742395,44.485713943170886],[0.802695481449943,44.48554313519752],[0.80335401069339,44.485624697487786],[0.80356190945254,44.48558381069298],[0.804259426155279,44.485309523020106],[0.805614604230791,44.48458813535563],[0.806856547515505,44.484352581753654],[0.808030738108174,44.48378786507523],[0.809218601722181,44.48348637046209],[0.810418511774014,44.48280867041716],[0.810595656663093,44.48255462902752],[0.81136292819557,44.48223125213229],[0.812252615782073,44.48205979100295],[0.812745648611478,44.482061466884154],[0.813676603019237,44.48192863624087],[0.814922086713834,44.48195692628166],[0.816922864372199,44.48187318021904],[0.81655379023181,44.48130032544272],[0.816272119561677,44.480549089917275],[0.816378665567016,44.48026572482399],[0.816894253788241,44.4795527907781],[0.816530128085294,44.47777779776305],[0.816612935305129,44.47775061992515],[0.815882058017824,44.47690673659048],[0.815728030766395,44.47646601743409],[0.815373517924134,44.47607085613766],[0.81532375073284,44.4756988430117],[0.816230910438763,44.47438850253406],[0.817064406055128,44.473486447663255],[0.817081072932298,44.4719801587906],[0.817310871747381,44.47137053432984],[0.817632578833082,44.47095364529939],[0.818155095183513,44.46940694015642],[0.817895228134719,44.46893891531861],[0.817560083080209,44.46739144463347]]]]}}]}