{"type":"FeatureCollection","name":"COM_86285","crs":{"type":"name","properties":{"name":"urn:ogc:def:crs:OGC:1.3:CRS84"}},"features":[{"type":"Feature","properties":{"fid":4106,"ID":"COMMUNE_0000000009749447","NOM":"Verrières","NOM_M":"VERRIERES","INSEE_COM":"86285","STATUT":"Commune simple","POPULATION":930,"INSEE_CAN":"10","INSEE_ARR":"2","INSEE_DEP":"86","INSEE_REG":"75","SIREN_EPCI":"200070043"},"geometry":{"type":"MultiPolygon","coordinates":[[[[0.631891054216386,46.42044173238521],[0.633222674471824,46.4197432533209],[0.638127309936707,46.41684676961458],[0.638107025531743,46.4138230476313],[0.637029815082496,46.412620616356364],[0.636930151998889,46.41236540961351],[0.637001431472626,46.412042573862905],[0.635781565928751,46.41073717929736],[0.635050553855707,46.40915182280399],[0.634649243583134,46.40876514160757],[0.63463065222213,46.40856296209395],[0.634940820058969,46.40771626970032],[0.634456885250805,46.40734318984141],[0.633943452393778,46.40711003146816],[0.635061485412449,46.404328807775116],[0.63461969207524,46.40388543267354],[0.63451554485181,46.40343374086928],[0.63423795874248,46.40304781999405],[0.63301192128482,46.4018008171107],[0.632694537595976,46.40107173642407],[0.631770380396808,46.400131871271135],[0.630751483602371,46.39834501513781],[0.631589315414665,46.39586970421762],[0.631548170716088,46.395437333596014],[0.628990337407518,46.3954815003932],[0.628889849079559,46.39443710483968],[0.628198729652491,46.39449120548346],[0.628137822930541,46.39373500947541],[0.626202716869458,46.39410195665997],[0.625890867673309,46.39336846425359],[0.62426450674513,46.39274363649418],[0.623410668479894,46.39231865843034],[0.623217496674188,46.39209031683138],[0.623287832278913,46.391580987248524],[0.622923301067871,46.391580599335796],[0.622879116334841,46.388706794088485],[0.623061312966488,46.38778088921237],[0.622097384959827,46.388062592906685],[0.621335187712987,46.38840525027301],[0.617964385016106,46.38823131366077],[0.617448498514651,46.38808991330905],[0.616169512464552,46.38798301572432],[0.613806916081575,46.38797596144472],[0.611362517698654,46.38769598129786],[0.610352193024,46.387400053700944],[0.607732484507216,46.38722983300293],[0.605133856394541,46.386727569769924],[0.603286405401883,46.38589959778595],[0.601104470025648,46.38575283414152],[0.599782865169711,46.38578809494485],[0.598366642832286,46.38596188606673],[0.597315594821629,46.386446048567414],[0.594904121158936,46.38707719907349],[0.594940823750889,46.38621402584147],[0.59471183955449,46.38585605144952],[0.594273176302862,46.38567743485116],[0.593953016097695,46.38632562470686],[0.593630185497395,46.387359335643104],[0.592771898668764,46.387367352601615],[0.592272160998126,46.387245096216844],[0.590922054476913,46.38665624152038],[0.591020143549699,46.38643939804152],[0.59095560457995,46.38586597328672],[0.590693959976548,46.38530460136975],[0.589413738824249,46.38570006931116],[0.588614989458713,46.38615885452043],[0.587660296874398,46.38504859698704],[0.586578463005029,46.38413563729098],[0.584606438048164,46.38554432438277],[0.583938802354977,46.38612837452717],[0.583992579779036,46.386178161445066],[0.581696551907921,46.38790335690974],[0.580743570909603,46.38713901678426],[0.580110264304634,46.3862120829895],[0.579372766500317,46.38552166968693],[0.577982325197069,46.38478946143306],[0.577779411264354,46.38460947930374],[0.574618297877153,46.383208991025555],[0.574193842878249,46.382946814583114],[0.572958029003596,46.38190161748051],[0.572556602993364,46.381707491411404],[0.569926945641852,46.38223707704094],[0.5687337337235,46.382372008603994],[0.566878718237167,46.38231353469054],[0.562817198370256,46.38257637120853],[0.562126393620509,46.382449897655114],[0.560894240747054,46.38205689145311],[0.559988218562523,46.38194021659956],[0.559202468904368,46.38227835821092],[0.558511071890956,46.38260229810418],[0.559187969076944,46.38298164792357],[0.558372901411032,46.383771406854116],[0.557997703438875,46.384330939729836],[0.557885283631703,46.38486546723541],[0.557940778873159,46.385982865955484],[0.558231164951164,46.38586475862784],[0.55879477140651,46.385866911916935],[0.559773578925751,46.38642478899364],[0.564079591761246,46.38681682046079],[0.565282069770711,46.38711906650894],[0.565357594186753,46.38837472217562],[0.565942603693981,46.390205208466014],[0.565647236013926,46.39283041415025],[0.565131993241117,46.39349418742669],[0.565209468049707,46.39453096668533],[0.565590809882963,46.39570305749117],[0.566824927297563,46.3970825234573],[0.56664251504594,46.397669618204425],[0.566443371906539,46.399362650888605],[0.564585495632467,46.40134100832105],[0.563767317622336,46.402517224357226],[0.563262506231291,46.40306139477773],[0.560399842929788,46.40746955688996],[0.560330414272532,46.407915816295514],[0.560640996434291,46.40828101101686],[0.56040275462068,46.40874528317423],[0.560857335658709,46.40961895604712],[0.561215586252177,46.41157073767412],[0.561158359269059,46.411860502839644],[0.561282075559923,46.41197755986337],[0.561314989582175,46.41240708770895],[0.561038548529176,46.41238496420262],[0.560508580509647,46.411973640983945],[0.560509985546406,46.41226285739089],[0.559940301336573,46.41352724293537],[0.560766188955828,46.4141665128213],[0.560681106983346,46.414467394008916],[0.56077170375368,46.414538698978376],[0.561282972586735,46.414436112523944],[0.561921314443395,46.41463803706547],[0.562306364616006,46.41485346692016],[0.562843072659247,46.4153189781168],[0.563111022693353,46.415327402253446],[0.563328606486931,46.41544285735489],[0.563608879205035,46.4158173049682],[0.563514556314982,46.41615042271098],[0.565270865921736,46.41722122299452],[0.56629740432597,46.41853409078149],[0.56646280399663,46.41827185505277],[0.566546292649963,46.417801569125125],[0.567311014042877,46.41762417963415],[0.568153809250823,46.41750700639767],[0.568675516333653,46.417550552934095],[0.569405659282074,46.41773997545892],[0.571420107845221,46.41772610025754],[0.571692656284823,46.417777844412775],[0.572232933487938,46.41807762163951],[0.574033197414321,46.41713843790213],[0.575105574885572,46.416808078872066],[0.575397194285505,46.41701697360115],[0.576844535269195,46.41865669228525],[0.57752060595615,46.419214276968084],[0.578737303642034,46.42050583632297],[0.579180285668631,46.420856667437576],[0.579699074459308,46.42105505291185],[0.580775072293456,46.42114362767866],[0.583137688491609,46.421565742116506],[0.58351923234053,46.4218927326212],[0.586809874229291,46.420477695128326],[0.588250537097643,46.420184727782264],[0.589264999473076,46.419837697759895],[0.590568248421156,46.41961747340315],[0.592236285395985,46.41966168084705],[0.594330433815066,46.41928872952237],[0.595383183457922,46.41889921101973],[0.59611441081568,46.41841552673985],[0.597797265525077,46.41664199313674],[0.598108001134692,46.4165070948378],[0.599587542469177,46.4164517368166],[0.60279449803828,46.41642094261985],[0.604418199051299,46.41649377166843],[0.605229138000173,46.416654929688576],[0.605933649968812,46.41668862781383],[0.607311795955442,46.41698508683035],[0.608910636971987,46.41712039157457],[0.609124340419377,46.41717801991262],[0.609555563794194,46.4182771099981],[0.609943078947423,46.41858972058605],[0.611068500292198,46.41814392583434],[0.613792066053642,46.4200251646431],[0.615278528562423,46.420111183246384],[0.616461016894767,46.42050614027646],[0.617598530786787,46.42049925834787],[0.618066775651727,46.42111261405798],[0.618702969373772,46.42116102202151],[0.621669237522141,46.421666994193934],[0.624541559701958,46.42133943140259],[0.626344700337934,46.42157333093122],[0.627465049168459,46.42148221263838],[0.628075891898906,46.42130482433332],[0.628806130404378,46.42086776078911],[0.629416457524485,46.4209119681122],[0.630468169941058,46.420450940777805],[0.631891054216386,46.42044173238521]]]]}}]}