{"type":"FeatureCollection","name":"COM_64296","crs":{"type":"name","properties":{"name":"urn:ogc:def:crs:OGC:1.3:CRS84"}},"features":[{"type":"Feature","properties":{"fid":4183,"ID":"COMMUNE_0000000009760303","NOM":"Lacadée","NOM_M":"LACADEE","INSEE_COM":"64296","STATUT":"Commune simple","POPULATION":145,"INSEE_CAN":"02","INSEE_ARR":"3","INSEE_DEP":"64","INSEE_REG":"75","SIREN_EPCI":"200039204"},"geometry":{"type":"MultiPolygon","coordinates":[[[[-0.656048732408316,43.51459407805515],[-0.656395710822282,43.51413474157714],[-0.656438841559759,43.51354874899539],[-0.656615216718324,43.51336446702735],[-0.658299415589006,43.5125078520143],[-0.658608251432759,43.51249923200402],[-0.662161428927572,43.51308450031509],[-0.663272543535589,43.5128289993816],[-0.665104785222906,43.512277106248426],[-0.665486607179661,43.5142456924111],[-0.666006901319149,43.515164808822966],[-0.665942342870478,43.51552996608531],[-0.666088083908298,43.516106878390104],[-0.666400269157997,43.51655747125725],[-0.666382708326432,43.51721286099845],[-0.666209079579554,43.51742048488701],[-0.66638325023118,43.51772533102915],[-0.666020832205562,43.51801949898769],[-0.666038160738557,43.518290919294124],[-0.666472950215069,43.518568039189155],[-0.666776269276101,43.51864694979444],[-0.667167021605209,43.518622025965165],[-0.668728691067302,43.519198775979156],[-0.669013694593912,43.519145899589084],[-0.669419705453889,43.51864308833373],[-0.669566872727205,43.51862189549375],[-0.669880994452886,43.51910213762136],[-0.670646766578208,43.519386953350256],[-0.671018945459197,43.519710309425385],[-0.67127059121272,43.52041333196492],[-0.671258589679666,43.520612790151596],[-0.671468380660155,43.5207966326126],[-0.671499950590317,43.5209612901504],[-0.66941154555192,43.52428706727848],[-0.670427055906364,43.524798516735466],[-0.670199187812768,43.52516470366326],[-0.669438988151559,43.525994745799565],[-0.668660328109588,43.526691204114194],[-0.668562161539312,43.52718900374175],[-0.667676754699778,43.5279782340339],[-0.665661573188202,43.52960816506403],[-0.662061320217182,43.53191126524016],[-0.66195695870213,43.53227416422661],[-0.660989901254879,43.532930990537864],[-0.660604735569177,43.53384107836527],[-0.660768975943536,43.534921767401876],[-0.660397716329647,43.53504057928756],[-0.660167884598596,43.53535817325244],[-0.659761480036469,43.5356637111501],[-0.658687216223715,43.53539732289804],[-0.657659765872219,43.53551574139404],[-0.657417124387344,43.53547708805133],[-0.657106849190383,43.53597032000949],[-0.657075821775335,43.53622175788096],[-0.657225070920458,43.53662113512093],[-0.657916856489247,43.53692745920818],[-0.657632649769595,43.538024177442715],[-0.65754859896162,43.53808465600035],[-0.658057526161229,43.53855206513347],[-0.657795880134326,43.53945887867268],[-0.657067609422994,43.539513158339766],[-0.656985568704995,43.539566363126],[-0.656977512912809,43.53986746577545],[-0.656563511142345,43.54001562610117],[-0.656437381224525,43.54085391872826],[-0.654844749166172,43.541411980977784],[-0.653859608887205,43.54198288296279],[-0.652530595153452,43.54228704160849],[-0.651937706415082,43.54260152996306],[-0.651363981892391,43.54263345363713],[-0.650856284399637,43.54249652430061],[-0.650521528037736,43.5416134056613],[-0.649923416947227,43.540911180472136],[-0.649767762889454,43.54078041401436],[-0.649266826886751,43.540593712737135],[-0.648278329600382,43.53990461321495],[-0.647653828084054,43.53979952012116],[-0.645346489454686,43.540022099226945],[-0.64321023335387,43.539994797027695],[-0.643186313966528,43.53965694303367],[-0.643806099308269,43.53886874085085],[-0.643888239067733,43.53754918157564],[-0.643603486438772,43.537120114873815],[-0.64319852980851,43.537001317466256],[-0.642732470724925,43.53699265266177],[-0.642538024488656,43.53621108608767],[-0.641920244796694,43.53609402737813],[-0.641296580619092,43.53545476785835],[-0.640703960221803,43.535148615789545],[-0.641649030539477,43.53470707845365],[-0.643313324930787,43.53461605814768],[-0.643354423615229,43.534210271707586],[-0.643145484942731,43.5337660491631],[-0.643119113365311,43.533272461405616],[-0.643669236411828,43.531953398760145],[-0.643642853806185,43.53122563537052],[-0.64501241378843,43.529028791779844],[-0.645064056184555,43.52884782099517],[-0.644682809831734,43.52863366353081],[-0.644678339502679,43.52854374595121],[-0.645441047600939,43.52753276837235],[-0.645979443824048,43.52768759885543],[-0.646303108260394,43.52717053548979],[-0.647057349699126,43.52530598828064],[-0.647019266371043,43.52486233455549],[-0.646719551020191,43.52409963345932],[-0.646390258266102,43.52382609312813],[-0.648344400276786,43.522964166773846],[-0.648949956712383,43.52254028812151],[-0.648917972166529,43.52234861964939],[-0.648689421235295,43.52219959257104],[-0.648435026266002,43.5221892380517],[-0.64813566666603,43.522289377493394],[-0.647765424063565,43.5221505194866],[-0.647592323582686,43.52219236944982],[-0.64735917726494,43.52183453762694],[-0.646885814409989,43.5218648695635],[-0.646764183584594,43.52184013857281],[-0.646713420612221,43.52172295667456],[-0.646435654927722,43.52169537002439],[-0.646391451795538,43.52162300115072],[-0.646550312169648,43.52149336585736],[-0.646245362289919,43.52129106143399],[-0.646147939978799,43.521004320255116],[-0.645690933905407,43.520609879833],[-0.645693099081643,43.520312584779276],[-0.646035014428744,43.51994712376768],[-0.64612520861282,43.519652272787155],[-0.646517260850211,43.51929683302317],[-0.646849207151025,43.518696628922385],[-0.647220491296759,43.51824821500836],[-0.647660521740626,43.51751827852503],[-0.647768501486467,43.517172390282],[-0.647597813076087,43.51629727523001],[-0.646938398449531,43.515307102579655],[-0.64707291346682,43.51467751245737],[-0.64782644228996,43.51416850268477],[-0.648321546675317,43.513585321959894],[-0.655505851831415,43.514833949011795],[-0.655813465657846,43.514825378579204],[-0.656048732408316,43.51459407805515]]]]}}]}