{"type":"FeatureCollection","name":"COM_16406","crs":{"type":"name","properties":{"name":"urn:ogc:def:crs:OGC:1.3:CRS84"}},"features":[{"type":"Feature","properties":{"fid":4137,"ID":"COMMUNE_0000002200276456","NOM":"Moulins-sur-Tardoire","NOM_M":"MOULINS-SUR-TARDOIRE","INSEE_COM":"16406","STATUT":"Commune simple","POPULATION":804,"INSEE_CAN":"19","INSEE_ARR":"1","INSEE_DEP":"16","INSEE_REG":"75","SIREN_EPCI":"200068914"},"geometry":{"type":"MultiPolygon","coordinates":[[[[0.385911159577685,45.717874955893656],[0.386223045835529,45.71780740939161],[0.387463138117534,45.71793977991232],[0.389715570266546,45.717934316403415],[0.39024687977045,45.71782318867577],[0.390923223085221,45.7178820976293],[0.391355069017464,45.71783443311786],[0.391529019215548,45.71790963718688],[0.391819671351024,45.7177740104864],[0.391989236057977,45.71739682155685],[0.393146786361658,45.71728846006211],[0.394366404110132,45.71730946071831],[0.39891924690234,45.71797234989174],[0.400567247110825,45.717937399376495],[0.403800393165349,45.71756235012803],[0.404631509829788,45.71766708810818],[0.410976423801887,45.71989068471353],[0.412622059619212,45.720594297930326],[0.413868418833581,45.72169506134082],[0.415100256905826,45.72140167745374],[0.415376919071054,45.72082149224892],[0.415323503203821,45.72050582891754],[0.41483924005538,45.71994152567836],[0.414184471991269,45.71972288389474],[0.413991312536094,45.719507624529484],[0.413057557066406,45.716427400250886],[0.412083682162165,45.7152508953716],[0.412894612326211,45.71465956067232],[0.414117222381449,45.71274513588436],[0.414535298903114,45.71180781170707],[0.414731009053737,45.7117204036236],[0.416844981430973,45.711892321422354],[0.41833232159706,45.711602963251806],[0.418437044891163,45.7104341052234],[0.420938851153859,45.71014813209862],[0.418877912859066,45.70705026306064],[0.418229823571028,45.70490102240667],[0.418041057899407,45.70467505845759],[0.418045781800984,45.70454632843213],[0.417252508632415,45.70355239739135],[0.417987719611698,45.69846347122493],[0.419379451157738,45.69668802519134],[0.419651002299553,45.69599329457374],[0.419993222082438,45.69571282449625],[0.421131993016688,45.69384507307787],[0.421277428983274,45.693455582005875],[0.421410169194426,45.692455846821325],[0.42131608293937,45.69133018942646],[0.41965548343387,45.69079842876696],[0.419951092113863,45.690000638604175],[0.420753274955775,45.68928382429712],[0.42232758421053,45.68990098822183],[0.423402574052195,45.69044724406864],[0.423593717011602,45.69029034406171],[0.422346763885518,45.689682492802724],[0.422561551677267,45.689321616774905],[0.423021353129247,45.68756444655835],[0.422902803032459,45.685694035381836],[0.42330389987296,45.68538967759197],[0.424354840185646,45.68614710213231],[0.427694913555798,45.68743703632857],[0.429217365056714,45.685850968388635],[0.431717782312979,45.68435115738731],[0.432773240731091,45.68360039672875],[0.433443610474343,45.683003924867265],[0.434590200972478,45.6817281640642],[0.435441208623945,45.680977227564355],[0.436677124112853,45.680268382971676],[0.43972349286323,45.67915382805658],[0.441552789714726,45.67764575933735],[0.43991826517887,45.67638871401573],[0.439302360127455,45.67675581421094],[0.438907309835705,45.676849538805904],[0.43835310521157,45.676910810845435],[0.436793381213295,45.676759994539516],[0.436428231323863,45.67684628254036],[0.435069847348135,45.67481972483889],[0.434097368471442,45.6717343075247],[0.433971036664713,45.67168728144399],[0.432889927489777,45.672137442782756],[0.433036538682479,45.67144254197397],[0.432995260214976,45.671085721956665],[0.43263651281738,45.67053606557517],[0.434041483832607,45.66980768491493],[0.433560174011205,45.668991257251946],[0.430750282182148,45.6657134462698],[0.430222790406173,45.66414995401641],[0.430114310804836,45.66316543156047],[0.429883210911691,45.6625249790523],[0.429774006816004,45.66141790912484],[0.428920195948441,45.659218989491755],[0.428151276761132,45.658291454609376],[0.42784754244667,45.65777727396797],[0.428195692708348,45.654985045403464],[0.426275554315316,45.65486277275513],[0.422748100204175,45.656647050394156],[0.420568378606906,45.65845490678383],[0.419698553351675,45.65947468293927],[0.41901916445317,45.66054296690585],[0.417145105474229,45.6609162284],[0.415734153350353,45.660891954628376],[0.414440773124765,45.66071629858619],[0.412600527368533,45.66061274990408],[0.411634726408704,45.66068604923127],[0.410102277307415,45.66232479910004],[0.409386512054351,45.66262817297615],[0.40814513504475,45.66293295672036],[0.407221616230112,45.663583812463614],[0.40676388769953,45.66380932304602],[0.40511219387772,45.6642316583848],[0.402856118323619,45.66449857634896],[0.401372392673254,45.6650643833479],[0.402712719934844,45.665719686428915],[0.403222008063425,45.66606659579722],[0.403413165713974,45.66631967260379],[0.402891114990213,45.66665540511224],[0.40348020115261,45.668150187765356],[0.402117264595462,45.668577340138356],[0.399707361892061,45.66957043684302],[0.398262533066273,45.67053533502414],[0.396902489646664,45.67087149526976],[0.395481152729648,45.67111702525548],[0.392280701087343,45.67088166969027],[0.390558654126883,45.67058138968721],[0.389542737387567,45.67209400262942],[0.388581662608471,45.673832222884855],[0.385996935824162,45.67797170012777],[0.385648764038777,45.678730348870275],[0.384805104602472,45.67898555665087],[0.383256355626563,45.67922888044815],[0.383190790805582,45.68270783715111],[0.382841619263751,45.68367638393395],[0.383053076521845,45.68493996548557],[0.382985901040199,45.685028502368034],[0.382329523238569,45.685126770861785],[0.381816729791921,45.68498871326348],[0.38087322307036,45.6850154270932],[0.380232083640157,45.68492753498628],[0.379754776065206,45.68499031092793],[0.379035504368038,45.68524927347868],[0.378537472282105,45.685532302298505],[0.377976611864987,45.68613731842098],[0.377528415222824,45.68631789054247],[0.375350014765804,45.68690323635029],[0.375197309541237,45.68741233621291],[0.37434231290197,45.68825464632348],[0.374891036093137,45.68923419164956],[0.375144054818684,45.68999781485229],[0.374054593224821,45.69063283922903],[0.373453527628034,45.691297263886405],[0.373102110416859,45.69214590320413],[0.373977869709758,45.69279070619989],[0.374414439722756,45.69342526497415],[0.374280403119738,45.69381136498392],[0.374260420255732,45.69434067707187],[0.375246336058382,45.69613318591271],[0.374929092982392,45.6967222435908],[0.373695844162677,45.69710614656498],[0.373738748982433,45.697691885057296],[0.373421827942925,45.69781333624125],[0.373628834392094,45.69897772858881],[0.373029851021971,45.699569222489785],[0.372040280112437,45.70031648228052],[0.370876475550047,45.70232104624843],[0.370803271628052,45.702589633175734],[0.371061686001261,45.704348980206156],[0.370092071459922,45.70451195209329],[0.370225008606378,45.70596203746046],[0.368629067308794,45.70650410642563],[0.369006551548529,45.70697602919271],[0.369834541363696,45.707655784560366],[0.370250716105236,45.70839619863947],[0.370520762570927,45.7093161006115],[0.370428864117822,45.710626691416735],[0.370087165646048,45.711294455165536],[0.370167596277329,45.711793676534064],[0.369865161682795,45.712798424004674],[0.369780353048039,45.71425694225808],[0.368762512012804,45.714591770551884],[0.366794984336936,45.71488277666545],[0.367068186061323,45.71543876292098],[0.366277012051273,45.716009518643276],[0.365759206998512,45.71607940437786],[0.366952398365127,45.71757319856285],[0.368363624598166,45.71694664349824],[0.371405653824679,45.71807990956811],[0.371598460819999,45.718082605063024],[0.371614670116831,45.71763339145666],[0.372641524454879,45.71765103171022],[0.373088341829122,45.717748844483815],[0.374373054339836,45.71772652967352],[0.37754426464308,45.71706157092674],[0.379982589035601,45.717149826057245],[0.381274524998036,45.71694740460647],[0.382174978625585,45.716917872541714],[0.382823493620974,45.71674913681279],[0.383912445314734,45.716813165995845],[0.384423515312357,45.71691242523186],[0.385911159577685,45.717874955893656]]]]}}]}