{"type":"FeatureCollection","name":"COM_86080","crs":{"type":"name","properties":{"name":"urn:ogc:def:crs:OGC:1.3:CRS84"}},"features":[{"type":"Feature","properties":{"fid":4219,"ID":"COMMUNE_0000000009749228","NOM":"Cloué","NOM_M":"CLOUE","INSEE_COM":"86080","STATUT":"Commune simple","POPULATION":492,"INSEE_CAN":"09","INSEE_ARR":"3","INSEE_DEP":"86","INSEE_REG":"75","SIREN_EPCI":"200069854"},"geometry":{"type":"MultiPolygon","coordinates":[[[[0.180787720568218,46.45892227201212],[0.182035939993576,46.457474486677356],[0.18258143374028,46.45759066219689],[0.183367999784389,46.457532574808035],[0.184589260899237,46.45713559958924],[0.185904051596736,46.45654269012878],[0.187599898306983,46.45513290812688],[0.188668975143593,46.45444922074344],[0.189517817178001,46.45419349828875],[0.191504092001721,46.45311517868423],[0.192029432622013,46.452558648434554],[0.192519566738098,46.45179942055612],[0.192949568822297,46.45170186803052],[0.193625208888724,46.45134004295474],[0.194934163099233,46.450855915544345],[0.194168035919609,46.44998652549986],[0.192795643744018,46.44881570068807],[0.191812738256225,46.44754991775748],[0.191321294913872,46.44737294274644],[0.190044334488825,46.447287464376735],[0.189519989502632,46.44716733755359],[0.18925660366861,46.44691577482788],[0.188603006133983,46.44576258615757],[0.188601805320004,46.44548233663467],[0.18921222904958,46.4442854811959],[0.189229431914437,46.44397685181604],[0.188665938619176,46.44259341468684],[0.187506338113583,46.44205397261474],[0.187408454945871,46.44187946473016],[0.187985072155009,46.4414647775184],[0.188242590100805,46.44081787321471],[0.189262865913678,46.43965904259682],[0.189433321754462,46.439234348912294],[0.188746099624922,46.439342672362216],[0.187887915593296,46.43965762194309],[0.187507060890859,46.43989061766664],[0.186382312823012,46.44090089217839],[0.186159870460897,46.44152432945623],[0.184798704112407,46.441179018660335],[0.183841288373766,46.44116802197985],[0.184627112395837,46.43978089242867],[0.183869519510593,46.439560377177735],[0.182610974266069,46.43937434945121],[0.181813701805457,46.43974572034816],[0.181166949905964,46.439827065663444],[0.180335362267618,46.4394749509621],[0.179107866620532,46.43979783401217],[0.176574144506344,46.43909276596602],[0.175427907281351,46.43842467865206],[0.176471987283419,46.43771706262723],[0.175844900444826,46.43699063527582],[0.175348836695046,46.43617554024214],[0.175193072363693,46.435659897964015],[0.174675663160207,46.43510647258056],[0.173383209894882,46.43404279201194],[0.173178492760899,46.43341600761363],[0.172669396849614,46.432577149036895],[0.171037606721753,46.430394054113606],[0.170324917660242,46.429210445852924],[0.16956547842599,46.42857710874796],[0.166756322956728,46.42696483642722],[0.165472764381576,46.42656444330506],[0.164357645261699,46.42650881357411],[0.161521080080882,46.426756377392906],[0.160070179381931,46.427494283384306],[0.159778674870823,46.42723654036407],[0.158164413688917,46.42653139122053],[0.15673862946982,46.42641118592441],[0.156363251880629,46.42626307383154],[0.155094504751481,46.42540519974392],[0.154719378683599,46.42495253485532],[0.154526351380823,46.424881045489705],[0.153908013660238,46.42491969141579],[0.153460599982844,46.42507883179498],[0.152572169141331,46.42594870734945],[0.152050184147954,46.42621320668458],[0.151354517436379,46.426459853598544],[0.149077145625401,46.42705174855398],[0.148629010205029,46.42719913909343],[0.148194327257155,46.42746309920149],[0.14735121212183,46.42813673952518],[0.145582771213257,46.42901159971237],[0.145279515997019,46.42932839352033],[0.144652813520878,46.430671500374636],[0.143735566143014,46.4315396903846],[0.144396822986265,46.43215182736305],[0.14351942992386,46.432681317642604],[0.142912245389577,46.43444659566967],[0.141993649903917,46.4358364472704],[0.141307320585689,46.43649865438834],[0.142848745256192,46.437501364167964],[0.142997830223762,46.437765498191204],[0.140586509322018,46.43868907515046],[0.139823324857959,46.4388024123224],[0.139170206222819,46.43960059737555],[0.139351029438608,46.4403529995753],[0.140025230294284,46.44064471035184],[0.14139590267388,46.44157467970317],[0.142606478449569,46.441555425282395],[0.142683107680634,46.44173484952852],[0.143541487996418,46.442642058072664],[0.144601493849897,46.4436074636124],[0.145719609063504,46.4436372224397],[0.145774871814051,46.444524332675215],[0.145421192123702,46.44560395521571],[0.145265796071841,46.44590822808406],[0.144747291887746,46.44640075073238],[0.144321450583047,46.44646759146761],[0.143279625216215,46.44629916571819],[0.142967129835588,46.44644182197755],[0.142502975826644,46.44788720103521],[0.140702234146435,46.44896663162389],[0.140358037501335,46.449067039222086],[0.139214278474785,46.44892756131901],[0.138307500411537,46.449166144291674],[0.142974061257829,46.45542002531121],[0.143335011724193,46.455821910729846],[0.145520658463088,46.45762999447837],[0.146409164669076,46.458141465267396],[0.147656460137805,46.458673603450954],[0.148855855782953,46.45932437035215],[0.162874545213352,46.46784857449349],[0.164042263327674,46.46660801177117],[0.164469206007187,46.46687360393685],[0.166041584141279,46.465874632641786],[0.166238444679231,46.46595069839185],[0.168315768651605,46.46476869868719],[0.16886226158985,46.464565096129306],[0.16916186428611,46.46399315678489],[0.169702033149088,46.46350917215572],[0.170450613835658,46.463179919925196],[0.171613589415504,46.463307837814945],[0.172735116315966,46.46353112827804],[0.174071326012665,46.46313440276914],[0.175358022251707,46.46326534327369],[0.175953685235992,46.462514195524506],[0.176575871626346,46.46195562033467],[0.177476015964547,46.4614426556115],[0.178141727296184,46.46132755424672],[0.178932499295341,46.46106326389526],[0.179753544665653,46.46059157777786],[0.180787720568218,46.45892227201212]]]]}}]}