{"type":"FeatureCollection","name":"COM_40303","crs":{"type":"name","properties":{"name":"urn:ogc:def:crs:OGC:1.3:CRS84"}},"features":[{"type":"Feature","properties":{"fid":4279,"ID":"COMMUNE_0000000009758057","NOM":"Solférino","NOM_M":"SOLFERINO","INSEE_COM":"40303","STATUT":"Commune simple","POPULATION":361,"INSEE_CAN":"08","INSEE_ARR":"2","INSEE_DEP":"40","INSEE_REG":"75","SIREN_EPCI":"200069656"},"geometry":{"type":"MultiPolygon","coordinates":[[[[-0.962087444186638,44.04680176701671],[-0.955101072075006,44.061005280904645],[-0.953031842682354,44.06494780532805],[-0.949846797057644,44.06380482054455],[-0.946893740459115,44.064202454477915],[-0.946762659282668,44.0642765712045],[-0.936742539222807,44.08595421315017],[-0.929639054049466,44.09786317174508],[-0.928902812248345,44.0993512699362],[-0.942892814285742,44.11091675551939],[-0.94511390518886,44.11273282339774],[-0.945495204337642,44.112946181474015],[-0.945474431366778,44.11306137876453],[-0.945678808341253,44.11324866831151],[-0.957473320085338,44.122955949527],[-0.958708593567193,44.123537632248464],[-0.980474199375572,44.132478122392676],[-0.979232746367814,44.13444098257721],[-0.97839793193088,44.13543919409444],[-0.977379551225961,44.136461186318186],[-0.973029405532499,44.14028511954762],[-0.971753530237968,44.141636319172164],[-0.970484136868965,44.14213202835868],[-0.961802684133708,44.14976041457963],[-0.961258557783146,44.15032170705],[-0.960834931066151,44.15097777298082],[-0.959886959439349,44.15208446099322],[-0.959060667174785,44.15335707076482],[-0.945274973765373,44.17652566809033],[-0.922565454694147,44.17307254877018],[-0.9222413172156,44.17829572205416],[-0.921088065695323,44.17706359506718],[-0.921717750691485,44.18656125781337],[-0.921593872543605,44.18658100875195],[-0.920200390104101,44.18511863760188],[-0.919306519658745,44.18443414595226],[-0.91864767195948,44.1835799353642],[-0.916588548281411,44.181524901904766],[-0.916403422992804,44.18150988645154],[-0.91567064024372,44.18101697577317],[-0.913697154250853,44.180110554773904],[-0.903191767661653,44.17531860452552],[-0.902307992684084,44.17497607857635],[-0.879513345486002,44.18748496663569],[-0.879039125862086,44.187674768456496],[-0.878972060283577,44.18533680370533],[-0.868484093069732,44.177313015349355],[-0.867218476449263,44.17617805028358],[-0.846950629633349,44.159941519538215],[-0.849331156699942,44.159012668249304],[-0.844404270882288,44.13902095596689],[-0.83995339208673,44.11954342581696],[-0.834774766807639,44.097610780601556],[-0.834553974465491,44.09661738950288],[-0.834941904116645,44.09606584411792],[-0.833475752047967,44.095127782289964],[-0.837044228972153,44.08934656246016],[-0.837355962120415,44.08914910772753],[-0.837881703081304,44.08815839047333],[-0.838587566194811,44.087539816182435],[-0.845214170783514,44.07641834605865],[-0.862323777622507,44.07888955596289],[-0.864408702715281,44.07892499555272],[-0.877925153962562,44.081216954803395],[-0.910470326486954,44.0853324682686],[-0.910594773275189,44.08525142546877],[-0.911452389198777,44.08537848158861],[-0.911829269130841,44.0852595799822],[-0.913247914475882,44.08512776846471],[-0.922643415867348,44.08362808540194],[-0.922952078385873,44.083426881540504],[-0.923490552022199,44.08244335577837],[-0.924364272702331,44.08178934127128],[-0.924708415179121,44.081359771448334],[-0.935491613683244,44.06437345028599],[-0.940803409021153,44.04337854691693],[-0.961997238764808,44.04667256550389],[-0.962107168956517,44.046708234219885],[-0.962087444186638,44.04680176701671]]]]}}]}