{"type":"FeatureCollection","name":"COM_16423","crs":{"type":"name","properties":{"name":"urn:ogc:def:crs:OGC:1.3:CRS84"}},"features":[{"type":"Feature","properties":{"fid":4023,"ID":"COMMUNE_0000000009751890","NOM":"Xambes","NOM_M":"XAMBES","INSEE_COM":"16423","STATUT":"Commune simple","POPULATION":235,"INSEE_CAN":"05","INSEE_ARR":"3","INSEE_DEP":"16","INSEE_REG":"75","SIREN_EPCI":"200072023"},"geometry":{"type":"MultiPolygon","coordinates":[[[[0.112832961951896,45.84542148991379],[0.113679921319286,45.844709649019805],[0.113982990052666,45.84337746849097],[0.11510361896338,45.84135160955953],[0.115059888245972,45.84065935415346],[0.114453612532962,45.83945802527189],[0.113492867097267,45.838798200074024],[0.112989952265647,45.83880066197802],[0.112286051827921,45.8382095677062],[0.110740378116734,45.83722388015811],[0.11074025842675,45.837029240670525],[0.110191451440981,45.83625917831092],[0.109740396435875,45.835395197944],[0.109087738369637,45.83456570213499],[0.108750109768283,45.83372714850339],[0.109619352603894,45.833178109232534],[0.109876660125143,45.832917070608346],[0.109882838718136,45.83272529556865],[0.109515474172493,45.83191301597753],[0.110102511555827,45.83173070319626],[0.111478527651696,45.831127939906004],[0.11154760331152,45.83103959767767],[0.111428030600571,45.830812166161266],[0.112205127831465,45.83069237528789],[0.111899213583124,45.83028176145016],[0.111904991867803,45.83014674517756],[0.112614293388612,45.83011532686518],[0.112656768797851,45.82908195772629],[0.11325567594838,45.82859806692134],[0.113077468158995,45.82823487504899],[0.113363612464506,45.8275204159346],[0.114657687866983,45.825745904226295],[0.115606875025399,45.824847440980335],[0.114226280222269,45.824235459215075],[0.112601872076236,45.82426871457569],[0.111799986646734,45.82439598148869],[0.110783740245207,45.82192170470971],[0.111926138085586,45.821271512790105],[0.112796752967669,45.82054407376575],[0.114890001113772,45.819330656940416],[0.117429654192605,45.8185250844739],[0.118451712923408,45.81802944815587],[0.120364549073251,45.81745380695678],[0.120929890540815,45.81714023133395],[0.121504943004042,45.81693683360598],[0.121847707914686,45.816714895126076],[0.122904871527858,45.815593858765524],[0.123642888952889,45.8152549358087],[0.122472332211675,45.81392933446916],[0.121783907470848,45.813465742498835],[0.121599939645005,45.81323758096419],[0.120032179687268,45.81221630202929],[0.119241236645187,45.81107606206048],[0.118673494935657,45.81079484684456],[0.117593241454523,45.81045818957195],[0.116903614147959,45.80999453504612],[0.115920335773443,45.808665533270684],[0.115771778527284,45.808179652874024],[0.11542829153977,45.80787351391612],[0.114267557696211,45.807229295595626],[0.113962138624232,45.806959267812594],[0.112521707433743,45.80698279615117],[0.112397475237444,45.806845354702105],[0.11029234406193,45.80639859498326],[0.109471972360148,45.806022554903],[0.10862250052903,45.80524297380189],[0.107750666408384,45.805333270172625],[0.106924677240609,45.8056058552934],[0.105685440709176,45.80628954974863],[0.104902171108091,45.80702457748091],[0.103459690655598,45.807651672556],[0.102374748724296,45.80797164525977],[0.102291649947145,45.80810647844398],[0.100605262039759,45.80854345191165],[0.100351486778146,45.80854233862749],[0.100335217598148,45.80917088706019],[0.100822387334014,45.80985562161622],[0.101788091114161,45.81070312633783],[0.100739268257068,45.811168188311385],[0.100027852425332,45.81195549306997],[0.099289793641504,45.812440241134134],[0.100164939091988,45.81390809079884],[0.10043326483259,45.8146628957452],[0.095896963134283,45.81542754688441],[0.095244048437753,45.81563962568549],[0.095346275613527,45.816317180599036],[0.095593205414721,45.816547007546895],[0.097129832033445,45.81675774512291],[0.096392953584278,45.81746327649339],[0.096308999325459,45.81795672187063],[0.096475434101885,45.818589970918104],[0.096913363150716,45.81891301516331],[0.097547794200804,45.819151000363185],[0.098045352577727,45.81956568308374],[0.098084348850627,45.8201965540386],[0.098886347936389,45.82102275098276],[0.099054108582569,45.821656029374985],[0.09862743425088,45.82263807517695],[0.098934285780355,45.82300369760594],[0.098912335683988,45.82354379298536],[0.098557691669215,45.82384195348114],[0.098151559503324,45.82389369042744],[0.096958007051007,45.82342957474053],[0.096272514824395,45.82303438366972],[0.095619132502846,45.82227416753173],[0.094710267336789,45.82151998760124],[0.09284322977187,45.82050864326223],[0.0927281692957,45.82053992183646],[0.092689520938342,45.82305930784517],[0.093005565356421,45.82320080979297],[0.09560959377793,45.82519799327274],[0.094834275286732,45.82538259392318],[0.09360207623561,45.8259212752868],[0.094598976853283,45.82674260769306],[0.095635488536946,45.82815877489687],[0.09611226215378,45.82906763399779],[0.098066378194321,45.83009647249795],[0.098628402654786,45.83051280710098],[0.098968483337674,45.830884688906295],[0.098090424855803,45.83137935540544],[0.097121192798734,45.832136594850326],[0.097523397571349,45.83238122093689],[0.100338102383916,45.834722509210195],[0.099727256875319,45.835135743847445],[0.097224305478478,45.83635098791996],[0.095170566955679,45.83674511894775],[0.095178529574717,45.83688769775872],[0.096168658544262,45.83789085903482],[0.096502196652626,45.838020183310825],[0.097855319216204,45.83822617712414],[0.098063847709911,45.83837931670246],[0.098390881843076,45.83929422707474],[0.098949855798392,45.84018716101554],[0.099481845329172,45.84139748673286],[0.099759634909435,45.84374027082752],[0.105161708382023,45.84433302784712],[0.106216984304324,45.84314179056867],[0.106649425002438,45.84219770865274],[0.107465237143599,45.84124452295014],[0.109461930089406,45.84149749468992],[0.109660340333834,45.84204142803191],[0.110053977356679,45.84257503850512],[0.112832961951896,45.84542148991379]]]]}}]}