{"type":"FeatureCollection","name":"COM_19254","crs":{"type":"name","properties":{"name":"urn:ogc:def:crs:OGC:1.3:CRS84"}},"features":[{"type":"Feature","properties":{"fid":4062,"ID":"COMMUNE_0000000009753630","NOM":"Ségur-le-Château","NOM_M":"SEGUR-LE-CHATEAU","INSEE_COM":"19254","STATUT":"Commune simple","POPULATION":202,"INSEE_CAN":"18","INSEE_ARR":"1","INSEE_DEP":"19","INSEE_REG":"75","SIREN_EPCI":"248700189"},"geometry":{"type":"MultiPolygon","coordinates":[[[[1.309893283310324,45.44510739026978],[1.31024275433474,45.442072007099895],[1.309931412100469,45.440950490058704],[1.310004800064139,45.43988340639872],[1.309887409849998,45.43877922261492],[1.310022456554,45.43736721306433],[1.309769381170095,45.435592691039304],[1.310315494139429,45.435597318396105],[1.312521401821792,45.4360889729594],[1.316906163412454,45.437377969878064],[1.316814705311611,45.43672271539751],[1.316382633371422,45.435909234777725],[1.316580173256047,45.435596067481676],[1.317318061364292,45.4351396978774],[1.31845143299735,45.43459198317123],[1.319204805811484,45.433791780727205],[1.319759232981342,45.43301291066436],[1.322480868966465,45.43188640163454],[1.322615547235158,45.431620019239766],[1.323042556262156,45.431246326994206],[1.323085526688403,45.43100919503937],[1.32410533067606,45.4310415541779],[1.324336378741157,45.43071806723859],[1.324997922915128,45.43037128971795],[1.325901600606345,45.430309129871716],[1.327230859995119,45.42966428079093],[1.327745151429011,45.429534151054504],[1.328151069873068,45.42964738266074],[1.328215637289715,45.43030762841058],[1.328521428474623,45.43026265088493],[1.328544629366071,45.42987391168057],[1.328298143047665,45.42935055639636],[1.328445379031772,45.428878103758464],[1.328396554776144,45.428545032458906],[1.328564844524146,45.42826563479294],[1.328613695989679,45.42787457610089],[1.328233776527425,45.4270673251521],[1.328366229512865,45.42636318298042],[1.328857962083731,45.426216500497496],[1.329758864328514,45.42577599253717],[1.330237745094344,45.42575880756773],[1.330252534823707,45.42556448551852],[1.330578157857426,45.42524149463481],[1.330495048964468,45.424899808150975],[1.329848884664056,45.42473797319278],[1.329696723485755,45.42490683161892],[1.329023571891454,45.424706762140744],[1.328277621321033,45.42403545905726],[1.328274734765332,45.42345088830121],[1.328591442961717,45.4229989761584],[1.328540182461736,45.42253437264997],[1.329180884448929,45.421898150592504],[1.329304197284504,45.421667618369916],[1.328781955480327,45.42142656409575],[1.328371812937336,45.42141324417082],[1.327887528427683,45.42122859244486],[1.327403783637523,45.42119615798825],[1.32722170248091,45.42112679258527],[1.327008503511149,45.42081648658212],[1.32632570846459,45.4206838056742],[1.325616624045473,45.420362490149145],[1.325483252678338,45.420204684080375],[1.325387720645032,45.41980966904386],[1.324349481847588,45.41929248825765],[1.323695807295732,45.41861892990794],[1.323481082548788,45.41776639710434],[1.323225749593742,45.417242897827045],[1.323008625784804,45.41710635240293],[1.321878322295938,45.41680302822334],[1.321189732784211,45.41618657418326],[1.31997583025445,45.41530735740455],[1.319720567326677,45.414952274127614],[1.319832646495633,45.4144594918245],[1.319593570221,45.41407673039374],[1.318080595798957,45.41302548577603],[1.317686890908624,45.412978147371014],[1.317580222744578,45.41257305071768],[1.31644387243061,45.41179763340138],[1.316011914574481,45.41102918620141],[1.315385496776436,45.41034878151082],[1.315132659189858,45.41021078286923],[1.313749243578147,45.40860391618996],[1.31246923831662,45.40915386965052],[1.31189913049625,45.40931641045734],[1.308859346740496,45.41109442829288],[1.308180183255183,45.41164619268465],[1.307321545540895,45.412086262999296],[1.306954996361037,45.41215548221891],[1.303900239760392,45.412359685855265],[1.302305276335522,45.41279037595641],[1.299809201804891,45.41283000136878],[1.298374473674862,45.4126614224205],[1.294087665463431,45.41163255230684],[1.29379689226459,45.4121072808536],[1.295852201336675,45.41359762479117],[1.293876255812637,45.41427188848304],[1.293509557674391,45.41430323399064],[1.29081476457433,45.415895987480155],[1.290617184308254,45.416041584870946],[1.2897242124644,45.417216845644546],[1.28940742167614,45.41745429170024],[1.290329278720099,45.41816817332202],[1.289312116377522,45.41947123397226],[1.289596726949813,45.41990609588827],[1.289416629633248,45.42052210697573],[1.290585145230439,45.421201921264355],[1.290392938039751,45.42158807895237],[1.290014264906087,45.42184079557259],[1.289175311544847,45.421755942769934],[1.289272309885141,45.42350832232741],[1.289038653904205,45.42424330507643],[1.288735982500071,45.42435307064838],[1.288597645190124,45.425107520931746],[1.288788485451039,45.42530677963429],[1.288419489142806,45.42665665417306],[1.288158863681089,45.427228202967264],[1.286970223473237,45.42815305006359],[1.286635944129833,45.42862349612697],[1.286214949490489,45.42867020170347],[1.285772293127006,45.428465287578256],[1.285072301750825,45.428475298909724],[1.284114467246271,45.42875786614444],[1.283798531227992,45.42871610333272],[1.283386398898833,45.428931359411884],[1.282759400683666,45.42989088041035],[1.282782800625219,45.430085783723655],[1.2837982019501,45.431005603375276],[1.284199042512506,45.43157105434043],[1.283941852028045,45.431946301053074],[1.283535728089967,45.43213192794869],[1.282519759293751,45.43230641299883],[1.282645223055538,45.43267580853937],[1.283280970385385,45.4333394308157],[1.284187750234451,45.43388470549657],[1.284578267854292,45.43399786009607],[1.28596472153794,45.434172175185786],[1.286885737448517,45.43409077836113],[1.287528179425261,45.43412400863094],[1.288050692789813,45.43398067431959],[1.288245529945544,45.43376028247535],[1.287569915170047,45.43231249736834],[1.287569225338073,45.43158744739082],[1.287878808676088,45.431171561965],[1.288337821545674,45.43117856973059],[1.289761715285157,45.431630816423],[1.290456958402853,45.43202600405363],[1.291429560654685,45.43242901640694],[1.292615573995939,45.43321445147087],[1.292971249062418,45.43333785414558],[1.293649272187543,45.43325360346095],[1.294025441999868,45.43370966138535],[1.293025643701729,45.43398266052046],[1.293200766058449,45.43448699881944],[1.292631468204322,45.4347377249948],[1.292072828281531,45.435099393034506],[1.291781466443504,45.435547091144564],[1.291569061497848,45.43571498259085],[1.287280319116039,45.43677089693576],[1.285155493350103,45.43709869309857],[1.283946326042689,45.437851171302356],[1.280641598050668,45.4362027594483],[1.278913068211967,45.43591955207511],[1.278138390097454,45.43519883021107],[1.277794360086249,45.43503052533756],[1.277250893511466,45.4345691389151],[1.27720028430668,45.43401444749739],[1.275601305926052,45.433805232038026],[1.275174151440694,45.434007618731705],[1.274563466612375,45.435300597917596],[1.275019943681023,45.435555305948945],[1.273188045346692,45.436212524704544],[1.272773590071437,45.436581723064606],[1.272428364536915,45.43727532869983],[1.273160832044904,45.437088461775026],[1.273242446648273,45.436355668937125],[1.273483633089146,45.43629273263082],[1.273799932538316,45.43636515252117],[1.275051001915773,45.43711034671007],[1.275193215377444,45.4373097817161],[1.275214080341152,45.437750532185035],[1.274683026665044,45.43853765845925],[1.274748314785919,45.438783646267915],[1.275050755002519,45.43905579886743],[1.275898205787288,45.43932822471819],[1.27633543371311,45.43933854838316],[1.277182062807124,45.439596540973405],[1.277836202352206,45.43970836420072],[1.277983663417104,45.43986284239554],[1.277947475641733,45.44032883565317],[1.278142596064198,45.440679491604044],[1.278135420012494,45.44099371653295],[1.278277997207348,45.4410994829442],[1.278673947558857,45.44120373429832],[1.278871665635734,45.44118154993205],[1.279392014392806,45.440697766705526],[1.27977813821191,45.440582099139476],[1.280328468321878,45.44057612840858],[1.280546639620187,45.4406371166796],[1.280775420811363,45.44089281253452],[1.281042761630994,45.441763357919505],[1.28159454130877,45.441959153753004],[1.281746111601066,45.44193985989061],[1.282274614075772,45.441522838215384],[1.282670478177321,45.44084348884049],[1.283054232771665,45.44076290002791],[1.283575651858508,45.44090598232804],[1.284073249809568,45.44119910995789],[1.284088709425206,45.441568622115774],[1.28442893905885,45.44206919685505],[1.28494128408228,45.4422580680679],[1.28572577229308,45.442334910304936],[1.286107138046025,45.442166008583726],[1.286316631989044,45.441886398911564],[1.286271865147293,45.44171999125618],[1.285960766357321,45.4414774597069],[1.285965087347149,45.4410884355411],[1.286453588440583,45.440971607776234],[1.286735001321405,45.4408074815902],[1.286812589935971,45.440282674724166],[1.287542083658317,45.44023347120438],[1.287957430830756,45.440455973704395],[1.288315027205504,45.440518174426],[1.288926551229139,45.44118409537806],[1.290708376982168,45.44198764463991],[1.291628234476911,45.442280868171245],[1.292154846957378,45.442880629081955],[1.292946992401938,45.44325025498252],[1.293257187070753,45.44398181681542],[1.29320955931555,45.444449440617134],[1.293282553537371,45.44453071107852],[1.293658641536462,45.44474178630472],[1.293981354585588,45.44481604715391],[1.294257155605089,45.44483465273031],[1.294394479680649,45.444737667418835],[1.294733656632006,45.44469238733972],[1.295438043443438,45.44492105692504],[1.295859216480603,45.44528952636198],[1.296007993478058,45.445945673114565],[1.296192675180439,45.446140321434136],[1.296450128300581,45.446256815801846],[1.296885987814826,45.446230110239696],[1.297209902567564,45.44639084415591],[1.298007747332266,45.44632639706507],[1.298193314631647,45.446367040940636],[1.298445342716035,45.446869835516],[1.298951117576171,45.44740169682678],[1.299176242886813,45.4474042101628],[1.299631754727749,45.447237287420315],[1.29974425543773,45.44707326973814],[1.299719371214121,45.44659013387104],[1.300184056021932,45.44578837650874],[1.300122450244353,45.44571088598004],[1.300856223595187,45.44573281261717],[1.30117511376722,45.44589075681672],[1.301750288984501,45.44586884449747],[1.302112528660886,45.44611570785142],[1.302341733221148,45.44611017064755],[1.30239465216488,45.4463883774793],[1.302625894001804,45.44648374536833],[1.303035936421493,45.44625487553929],[1.303819034469619,45.445415589676365],[1.304070279816749,45.44540047496253],[1.304480878739698,45.445656167768846],[1.305020209950144,45.44584445311345],[1.305313448557238,45.44571108206943],[1.305501101320278,45.44538967696575],[1.305783095079533,45.44516336612437],[1.306158991115006,45.44504655287092],[1.306490995019198,45.444816492250624],[1.307974127131339,45.4446839621027],[1.308799316439556,45.44498101867077],[1.309893283310324,45.44510739026978]]]]}}]}