{"type":"FeatureCollection","name":"COM_19187","crs":{"type":"name","properties":{"name":"urn:ogc:def:crs:OGC:1.3:CRS84"}},"features":[{"type":"Feature","properties":{"fid":3951,"ID":"COMMUNE_0000000009754100","NOM":"Saint-Bonnet-la-Rivière","NOM_M":"SAINT-BONNET-LA-RIVIERE","INSEE_COM":"19187","STATUT":"Commune simple","POPULATION":404,"INSEE_CAN":"19","INSEE_ARR":"1","INSEE_DEP":"19","INSEE_REG":"75","SIREN_EPCI":"200043172"},"geometry":{"type":"MultiPolygon","coordinates":[[[[1.332545064856849,45.28951428449024],[1.332863907028467,45.289177695987114],[1.332844494184344,45.28888830219349],[1.333062978683127,45.28875015865478],[1.33373391703971,45.28888444396906],[1.3341243851896,45.28909650612797],[1.33455818547024,45.28918222237461],[1.334670497788742,45.28939464361008],[1.334453311750204,45.28961746945796],[1.334436603123005,45.289749614228256],[1.335208878412995,45.29007993694619],[1.335809857055582,45.29012220394502],[1.335962339895113,45.29044239722871],[1.336334952751846,45.29086853725462],[1.337288603290614,45.29110787671914],[1.337570316362364,45.291245358258166],[1.338050967359985,45.291814497917215],[1.339985283684492,45.29340132172753],[1.340031635371473,45.29355872025365],[1.341076530152876,45.294164138145554],[1.341600863895535,45.29433943134691],[1.342887451068078,45.29514295221826],[1.345057287411113,45.29490938816214],[1.345827167631799,45.29463707580835],[1.346653821390708,45.293870248504795],[1.347086157592809,45.29417925108701],[1.347555697944641,45.294696848079795],[1.347921574182035,45.29531108118617],[1.348106122479896,45.296145092176204],[1.348029621972566,45.29653033464849],[1.34818161582998,45.296999107853225],[1.349002646525563,45.298317148475014],[1.350524141467498,45.29972747089865],[1.351080707242016,45.29998064844782],[1.352624191356369,45.30039156147111],[1.354386591437948,45.301384780871366],[1.355235871976951,45.30322285504424],[1.35686195843029,45.30499127688639],[1.356777766746644,45.30611493222029],[1.357539845623481,45.30697632082881],[1.359121791097248,45.30851620002912],[1.359552675522274,45.30831717382922],[1.359830332084048,45.30846714707341],[1.360463084237351,45.30830439990092],[1.361249149876989,45.30774581489879],[1.361572875405061,45.30771813314334],[1.361254836169081,45.308463702976276],[1.361779456693616,45.308939714916455],[1.361640400800651,45.30945824496237],[1.362081511994411,45.309866385685794],[1.361658511510794,45.31023125374949],[1.36128337005136,45.31126869409895],[1.361499631851317,45.31177081231818],[1.361445737170016,45.31186729156958],[1.361705681544416,45.31196926695353],[1.361777516640725,45.312087401112684],[1.361775682067398,45.31275744592706],[1.361920196786215,45.31292167574941],[1.36181367132278,45.31324524513521],[1.362253642771941,45.31343271298439],[1.36222598320565,45.3141564179609],[1.364929392014473,45.31455350469367],[1.366706695563568,45.31497393791778],[1.365691421450106,45.318383323880376],[1.366454528598609,45.31848002607998],[1.367192243544972,45.31878980274706],[1.368166779267959,45.31899044880328],[1.37007990664193,45.31900662131246],[1.371342782824596,45.31973740836779],[1.37229407900427,45.32016644057076],[1.373657833194218,45.32133547485665],[1.374456748816724,45.32073195010238],[1.374701177712145,45.32044909916225],[1.374814296144608,45.32007247641459],[1.374805354982082,45.319066340519655],[1.375128300124883,45.31810465206968],[1.376462768137631,45.31725671247357],[1.377002534244262,45.31594962083859],[1.377018574872023,45.31496096077099],[1.376843247869597,45.31423160867224],[1.376173099530657,45.31339960982311],[1.376204338533989,45.313203725656734],[1.375920665682117,45.31242596698009],[1.376210855633231,45.311666443844686],[1.376571647760955,45.311287109901365],[1.376961284908818,45.31066232128354],[1.377141887041114,45.30989580284564],[1.3770675877259,45.30946692597392],[1.377237677139576,45.30914876875277],[1.37690017018904,45.308598091583235],[1.376291828144427,45.307968731014995],[1.376621837628653,45.306673911145886],[1.377219365923239,45.30565856392054],[1.37742703241362,45.30549586005771],[1.377361341540286,45.30538503059473],[1.377810861533765,45.30502499320252],[1.378541514991709,45.30417008062044],[1.379784457079912,45.303120843220384],[1.380426237546815,45.30132617816434],[1.381169638732192,45.3000733575667],[1.38162724216617,45.29908118293853],[1.382473335757768,45.29850891316431],[1.382908236598281,45.29794600468408],[1.383848508773708,45.29707337667747],[1.382460222753457,45.29544389165691],[1.381760721921414,45.29483665927874],[1.379544244743022,45.29488112561928],[1.378538845094033,45.29500885550705],[1.375837206957623,45.29142839469557],[1.37572567545705,45.290527048760005],[1.374331825536375,45.29002046028547],[1.368874937722107,45.28831267902291],[1.369175584316626,45.28815404943096],[1.368287566278769,45.287631342222895],[1.368029042045925,45.28783291356259],[1.367804980851424,45.28746759143137],[1.367183427760505,45.28760532160225],[1.364909943016598,45.285209758949094],[1.364867002953623,45.2850208997984],[1.364979908629601,45.28482531281141],[1.365654523698084,45.28457399096376],[1.365554421565491,45.28402854863542],[1.36389051731712,45.28325579705888],[1.364101209998901,45.28285809955237],[1.364184002551876,45.282427909638876],[1.364082263139936,45.28133035697058],[1.364450508799967,45.280128001163085],[1.364441792089993,45.279468614193156],[1.364224292515841,45.27875123522321],[1.364196962637638,45.2782915154011],[1.364595394254281,45.277276932189864],[1.364656524854932,45.27684552514416],[1.365209107185411,45.276097978876514],[1.365669118513877,45.27515724379566],[1.365941671880244,45.27399671702681],[1.36583925833174,45.272529901498714],[1.365931223298568,45.271742297135425],[1.365743929248282,45.27099564283385],[1.365763713855976,45.27027723264125],[1.36595642851702,45.26953343058623],[1.365610729877674,45.26931763144461],[1.364291889735667,45.26957934057486],[1.362603204331702,45.2706209650391],[1.361574923767402,45.271106650424144],[1.359317093529974,45.271937244651916],[1.358976496636569,45.271981780973924],[1.358384114541296,45.2719136439789],[1.358003392145578,45.27215122322038],[1.357333621404313,45.2724151765673],[1.356643406867253,45.27224742461477],[1.355886527826325,45.27217775725677],[1.355489988058818,45.27230251699552],[1.354913251339574,45.272309343877005],[1.353555458635767,45.27250370867474],[1.352871694645559,45.27267916798156],[1.352540379214483,45.27284090338025],[1.352146568881355,45.27334755856024],[1.351884203491933,45.2735067057051],[1.350993549573628,45.27373314200056],[1.350734344144152,45.274173329677474],[1.350385730939957,45.27453114118987],[1.349772041430615,45.274880536897534],[1.34924366573012,45.274976310429054],[1.349277392902859,45.275301935930386],[1.349029714444894,45.27556756791902],[1.348606572690798,45.275684706105956],[1.347817354104734,45.2756289171239],[1.347355147598174,45.27603097347821],[1.346856042556207,45.27604250923106],[1.346333551486893,45.27628335792068],[1.345338439877967,45.27723321404257],[1.345197649672064,45.27767874472759],[1.344819117193736,45.2780541098766],[1.344431774088013,45.27808169938106],[1.343592877552297,45.27789365319353],[1.343521471685848,45.278150176337356],[1.343820665379519,45.27842749948474],[1.343334234856741,45.278569799279396],[1.343057251817029,45.278532372156846],[1.342803054927382,45.278286335254734],[1.342603061405359,45.278233836505414],[1.341461930018246,45.27885726782055],[1.340779593137874,45.27902366996572],[1.340635488118414,45.27949346358895],[1.340203832318348,45.27968069385203],[1.339174063398922,45.279647392355486],[1.33855589498508,45.279714763819875],[1.338066231174933,45.27966515802879],[1.337410437967576,45.279753579243184],[1.337264509971928,45.279684762677284],[1.337158059809541,45.27944721371604],[1.337000334515906,45.27938902898187],[1.336374901734771,45.27957156155353],[1.336445854786228,45.28052819019427],[1.336380685548513,45.280617284195394],[1.336375174982733,45.28088739258997],[1.336092922710654,45.28170997608667],[1.335987549870504,45.282590129826],[1.335745467889878,45.28283600349439],[1.333853327728732,45.285743902693895],[1.333395724714449,45.28619911101542],[1.333341755291624,45.28642526712352],[1.333435951062121,45.286603195486705],[1.333129544868255,45.28724978946689],[1.332939345616861,45.288361942821616],[1.332689466915523,45.28873918749639],[1.332545064856849,45.28951428449024]]]]}}]}