{"type":"FeatureCollection","features":[{"type":"Feature","properties":{"fid":79,"ID":"COMMUNE_0000000009755014","NOM":"Avensan","NOM_M":"AVENSAN","INSEE_COM":"33022","STATUT":"Commune simple","POPULATION":3108,"INSEE_CAN":"30","INSEE_ARR":"4","INSEE_DEP":"33","INSEE_REG":"75","SIREN_EPCI":"243301389"},"geometry":{"type":"MultiPolygon","coordinates":[[[[-0.754600175735114,44.966655693758234],[-0.762680924375716,44.96125262223657],[-0.762799921568547,44.96109625874619],[-0.763222882880203,44.961042276215764],[-0.763462279030128,44.960901665485494],[-0.786398028851287,44.94569029759746],[-0.794104994115752,44.94542647506696],[-0.794788113452192,44.94533644104695],[-0.79915326859091,44.95522260020276],[-0.802056097184126,44.96462416786144],[-0.802402550352345,44.96613660066926],[-0.803514600393315,44.968919067297584],[-0.803645136525437,44.96977544905152],[-0.803542914702353,44.971355517822595],[-0.802449754475009,44.973210166907485],[-0.801662649968929,44.976113497262126],[-0.801692883319771,44.97665240975737],[-0.801444189326709,44.97674925309819],[-0.801173585798314,44.97891829262054],[-0.801008851188426,44.97937282919824],[-0.80028155331482,44.97997820425419],[-0.80031005204219,44.98047300737668],[-0.800530407746575,44.981006322575524],[-0.800522724502019,44.98199723899328],[-0.800798673502797,44.982619696523344],[-0.801155259170763,44.98310148028786],[-0.801442404499125,44.98328997351381],[-0.801414797346078,44.98348201741146],[-0.801100953094473,44.98372351027153],[-0.801099939361335,44.98397053256145],[-0.800744231069491,44.98408184907398],[-0.800384513651518,44.98439611969537],[-0.799947282595555,44.984597657354314],[-0.79913683150705,44.98547628932941],[-0.799135133414772,44.985788236628906],[-0.798633486791545,44.98597664574093],[-0.797700772676978,44.98666383657735],[-0.797585850793769,44.986804776787224],[-0.797719418702352,44.987163484247134],[-0.797516788216277,44.987191137846644],[-0.797410051354553,44.98730295304781],[-0.796718972511311,44.98829467206663],[-0.796570018073588,44.98836466013888],[-0.795887862148718,44.988420401828726],[-0.795428917111714,44.988620858819075],[-0.795567310230863,44.988900981083894],[-0.795873637905272,44.98888511517049],[-0.795698304456777,44.989390483673795],[-0.79483835680287,44.989559555829516],[-0.794815023834441,44.98968384571903],[-0.794494033770629,44.98980206856249],[-0.794500567863001,44.98991722639201],[-0.794741745506363,44.990027080662855],[-0.79487146778691,44.99051662763473],[-0.794784379787678,44.99078731951999],[-0.795057447436467,44.991105212785534],[-0.795329956269331,44.991040023884345],[-0.795436840285884,44.991304996745534],[-0.79582062581095,44.991569531352646],[-0.795685074896482,44.99183737143265],[-0.794608025907706,44.992683601460946],[-0.794485187198797,44.992839230801636],[-0.794509381353255,44.993008772316806],[-0.794426366077584,44.993058478652465],[-0.794182470787597,44.992964941349236],[-0.794041764435048,44.99311937699753],[-0.794062972227587,44.99333859820612],[-0.793703132117903,44.99342749564834],[-0.793603944404066,44.993669754071036],[-0.793434424575025,44.993698974041855],[-0.793308241107751,44.99391781495444],[-0.79322329807205,44.993882853267934],[-0.793350091119329,44.994329234489435],[-0.793215044236497,44.995223536114395],[-0.79245035464237,44.9952811677928],[-0.792466378629666,44.99542394594752],[-0.792179676887547,44.99580510557104],[-0.792221657446994,44.996049759664345],[-0.792466767983425,44.996236105797344],[-0.792413916104982,44.99665616396328],[-0.792039807084321,44.99664728789658],[-0.791525802190761,44.99686132238599],[-0.791449205300637,44.997155991703025],[-0.791500969984621,44.997413833694594],[-0.791803256362658,44.997618964566804],[-0.792226524465159,44.99765951756393],[-0.792034666571665,44.9980906256731],[-0.792130869544412,44.99846053034012],[-0.792003418952593,44.998510848417524],[-0.792020056964007,44.998962790659675],[-0.791756083073077,44.999135848759074],[-0.791873464945059,44.99919945243343],[-0.791811875395779,44.99975321756016],[-0.792280798876137,45.000092385080755],[-0.792576902292665,45.00003721674011],[-0.7927745703522,45.000198138528766],[-0.792973165643802,45.000391479307616],[-0.79276514689429,45.00037784135998],[-0.792732115592725,45.0004528838475],[-0.792953197590328,45.00088433266024],[-0.793300154595752,45.00105458459984],[-0.793324665648002,45.001153805594974],[-0.793017928694132,45.00120212712025],[-0.792881536881852,45.00143934383755],[-0.793113375507785,45.00159819848263],[-0.793112680159736,45.00173794149959],[-0.792925632700673,45.00177136339003],[-0.792677359307968,45.0019700290123],[-0.792506449612147,45.00194160362917],[-0.792583283493378,45.00221301352257],[-0.792394865170978,45.002470032036],[-0.792495347495012,45.00262164887803],[-0.792789356276192,45.00247911456731],[-0.792909927095036,45.00260841202458],[-0.793144635564413,45.00262204111544],[-0.793149705790478,45.00271561535894],[-0.792862912078808,45.00290838379831],[-0.792889346000422,45.0033735138964],[-0.793159697913954,45.00351933694883],[-0.792942890283677,45.003657436437926],[-0.792730452808534,45.004216347349676],[-0.792917933669321,45.00437671557557],[-0.792801245161679,45.004473540788574],[-0.792887300892679,45.004524690970804],[-0.792817870042571,45.00460638331791],[-0.792977827678946,45.00496059305061],[-0.793363889189173,45.004976271544265],[-0.793262912134953,45.00519244966795],[-0.793369679226173,45.00524920306427],[-0.793198076131884,45.00537945119491],[-0.793286863923849,45.005545889197556],[-0.792940629027572,45.00617426581023],[-0.792698736835471,45.006279867618616],[-0.792604738686691,45.0065616104249],[-0.792730264842981,45.00687643121339],[-0.792310606335745,45.006927698968326],[-0.792246222697486,45.00678386487118],[-0.792374399371913,45.00670647980561],[-0.792376437147345,45.00658652203665],[-0.792308260638838,45.00655549427527],[-0.79219663940343,45.00655839872485],[-0.79213193393696,45.00667238041457],[-0.791811696375517,45.006709439527306],[-0.791766844629468,45.00691018141434],[-0.791917147632778,45.00727193336027],[-0.791656429745499,45.00730606128875],[-0.791655206144942,45.00826340634339],[-0.791746201551596,45.008387403908834],[-0.792149608632608,45.0083961861885],[-0.792481389129653,45.00903569643483],[-0.792195211292632,45.00901300283768],[-0.792077183157873,45.00910897130156],[-0.792305015968546,45.009283289620875],[-0.792281645505257,45.009369720985276],[-0.79185251244596,45.00926266020125],[-0.79176723711544,45.00941069527179],[-0.79186526969699,45.009488480730816],[-0.791865358226582,45.00982741018831],[-0.792045454832034,45.010028596158804],[-0.79206926953163,45.01026756101865],[-0.792245910504685,45.01024891893656],[-0.792393535647878,45.01036467553586],[-0.792603411435829,45.010105122895],[-0.792904856160834,45.01029676141685],[-0.792769294933481,45.010546569337386],[-0.793128428438458,45.0107831139579],[-0.793061476010271,45.01107024493608],[-0.793124099120036,45.01118799790817],[-0.793294683798136,45.01122995573257],[-0.79340594837727,45.011034159339715],[-0.793557564703674,45.01124623012712],[-0.79371817652751,45.01108480707814],[-0.793863124596408,45.011160990864255],[-0.793920118050914,45.01134564037775],[-0.794145988512287,45.01135957009704],[-0.794247077718915,45.011576067827185],[-0.794690502814861,45.01144375681656],[-0.794816374541431,45.01151968881964],[-0.794555773193136,45.01157455160564],[-0.794579668729037,45.01164584988195],[-0.794430136636482,45.011670782138964],[-0.794436490233633,45.0117832426604],[-0.794247288609226,45.01180411938022],[-0.794220141510254,45.01192853965939],[-0.794682827345796,45.01215523765652],[-0.794851457139388,45.01233697979639],[-0.79511353812553,45.01232262977161],[-0.795201790656514,45.01238722508736],[-0.795169419642727,45.012640726790345],[-0.795053998445421,45.01275644068499],[-0.795118945013937,45.01290836743819],[-0.795435046282207,45.01286603250303],[-0.79546189678712,45.01301835755178],[-0.795271108938376,45.013109600685944],[-0.795043496658901,45.01338869352704],[-0.795068577821604,45.01351493788232],[-0.795316232910246,45.01358761596147],[-0.795451509792946,45.01398954032126],[-0.79512751546717,45.01406549689773],[-0.795123300631082,45.01417200814642],[-0.794934838357101,45.014316354958254],[-0.794941681128958,45.01443601024133],[-0.795337524834829,45.0144450405155],[-0.795204057414401,45.014575792937244],[-0.7953406547997,45.014697331123585],[-0.795098910355115,45.01471188891482],[-0.795272691478583,45.01481953872147],[-0.794881317219094,45.01517633182151],[-0.795082554061714,45.015257805585954],[-0.795060806463285,45.01533066108106],[-0.794964398445912,45.015445726112546],[-0.794461847969382,45.01551244769852],[-0.794290822560274,45.015464196238995],[-0.794211797966222,45.01557325911181],[-0.794301572768905,45.016016399407434],[-0.794152484632281,45.01636672804936],[-0.794910513714722,45.016843863108676],[-0.794962963296885,45.017261233988],[-0.794846480031301,45.01769879055724],[-0.794794604514562,45.017777180851176],[-0.794456212704073,45.01784731596897],[-0.794112395984219,45.01802490396873],[-0.793422732498462,45.01870645956599],[-0.793267608747398,45.01898668195807],[-0.79258421682514,45.019498551166684],[-0.7923430536507,45.01989708690115],[-0.792357643722821,45.02014988827636],[-0.792515085732657,45.020278832566696],[-0.792281994500854,45.020458949528944],[-0.792203993374969,45.0212584629189],[-0.79206247914973,45.02140210517414],[-0.791857490553714,45.021434331885864],[-0.791886163677018,45.02161363841538],[-0.791692105429218,45.021844705856445],[-0.791443292223454,45.02190546793807],[-0.79131255140372,45.02209561577282],[-0.79108593768561,45.02222142405676],[-0.790616003314277,45.02220768989887],[-0.790452708695472,45.02229257840295],[-0.790318369495345,45.02242966385337],[-0.790227217587222,45.02279153384883],[-0.790039344980894,45.02277630014545],[-0.789935631848664,45.02293397579155],[-0.789300406543465,45.02333240604721],[-0.789172865034844,45.023645034980134],[-0.789409393978032,45.0241534916623],[-0.789289302990612,45.024613699612686],[-0.789075796621194,45.024876973981016],[-0.788455843014592,45.02531363955011],[-0.787561589461213,45.025641553861796],[-0.786149805010149,45.025666168817736],[-0.786122630847252,45.02590326479974],[-0.785067983580444,45.026528675280666],[-0.785010264841945,45.02680286664765],[-0.784308862322143,45.02776509982692],[-0.784160166982342,45.02812261098891],[-0.784122586703179,45.028845022352755],[-0.783904208017367,45.02898045028257],[-0.783309879450951,45.02912054877639],[-0.783426327070772,45.02952673369029],[-0.78389077480162,45.02981561893626],[-0.78388454827031,45.02993031061142],[-0.783361182509938,45.030349237795825],[-0.783508077012654,45.03037849683191],[-0.783540366796633,45.030461230623466],[-0.783381876070427,45.03056126849793],[-0.783357936524431,45.03077121115609],[-0.78242502352884,45.030942647347175],[-0.782127570789042,45.031206056234986],[-0.783459162951022,45.031553804733214],[-0.783929863339569,45.031746927719595],[-0.784288888547458,45.03167973157774],[-0.785312957269692,45.03225425737659],[-0.785931668126918,45.032849778386144],[-0.7845254323945,45.03372962343637],[-0.783736851655325,45.03472005616064],[-0.783532451916561,45.03470537209386],[-0.781699046388533,45.03601886103134],[-0.781554765126917,45.036197737617385],[-0.781547489217114,45.037387855531016],[-0.781077348636442,45.038746040822666],[-0.780965991003992,45.03952504327454],[-0.780652248869905,45.03996207261887],[-0.780678154652532,45.04066519965014],[-0.780801213951939,45.04098102235066],[-0.780682879497646,45.041130170665454],[-0.779843853988583,45.041188417136794],[-0.778717849410328,45.04176029355437],[-0.778511263190954,45.04161947531778],[-0.778143168809337,45.04185462196462],[-0.777562216108077,45.04281632275592],[-0.774915049166184,45.04490818541375],[-0.773176478257803,45.045938864340926],[-0.771602721127061,45.04630319291383],[-0.771327224932635,45.04647928977317],[-0.771131316572177,45.04676085898535],[-0.770444962628261,45.04725555126156],[-0.769506422365632,45.04744238398203],[-0.769262893435323,45.047432603064],[-0.768642586610957,45.04722825477969],[-0.768177030430446,45.04716920003699],[-0.767906750485269,45.04721530800766],[-0.766351894415606,45.04833340176022],[-0.76581732889049,45.0486092928365],[-0.76455706541694,45.04898544637815],[-0.764430775225142,45.04880943549699],[-0.76419339618706,45.04873994222979],[-0.763903736256507,45.04898951288827],[-0.761911136109573,45.04987806026519],[-0.760567984368728,45.05021370066418],[-0.759189901093842,45.05071095475659],[-0.758908181684117,45.05088993344724],[-0.757125509171008,45.05157389321373],[-0.755692558003154,45.052220784699095],[-0.754692199792543,45.05235999673204],[-0.750904183649107,45.05234528315505],[-0.750374236550804,45.05147796085116],[-0.749405265540427,45.05140243531012],[-0.749938591519958,45.05402738539156],[-0.748395426578805,45.05454989191342],[-0.744873982861039,45.05635313295115],[-0.74223071429071,45.056572724458476],[-0.737036183601628,45.05939823502899],[-0.73708267924275,45.059656277005004],[-0.736882784934502,45.05999560289825],[-0.735670235528513,45.060673585101725],[-0.735409083981841,45.060629165210905],[-0.735226326493668,45.060996757509095],[-0.735071875481013,45.06098841836155],[-0.734867609558417,45.06118636742461],[-0.734533940925378,45.061294010119994],[-0.734136501493334,45.0611513994769],[-0.733960061477193,45.06127089329801],[-0.733782963677956,45.061228157409126],[-0.733170922136394,45.06128113233664],[-0.732353494535132,45.06117242842927],[-0.731658237371282,45.06123629732492],[-0.731121007679347,45.06115244538473],[-0.730988692417436,45.06084679962256],[-0.730285569366796,45.06081177017935],[-0.730074710982311,45.06073951230355],[-0.729488601555865,45.060170537377985],[-0.729195950374835,45.060054145452824],[-0.728407807632085,45.06015535869477],[-0.727436467720877,45.060103153412804],[-0.726740054575938,45.059863261137124],[-0.727058480909655,45.05901160172821],[-0.72719521058458,45.05892589880159],[-0.727183440524355,45.05586786787701],[-0.726953230006868,45.05519953137836],[-0.72653665248363,45.05448244884591],[-0.726587810587517,45.05429595098688],[-0.726242800230147,45.05354582471301],[-0.725961987384946,45.05318655543818],[-0.725191023394875,45.05299061630838],[-0.723579348469124,45.051359842604064],[-0.722556568889149,45.05072341831318],[-0.721940812347784,45.04983991693447],[-0.721785509790304,45.04903476217596],[-0.722111525820446,45.04804855926125],[-0.722517283300486,45.04743917257928],[-0.722563857176813,45.04666782991491],[-0.723580676881322,45.04423612609059],[-0.723859898031978,45.04291075847322],[-0.72389958011739,45.04180703418317],[-0.723752169273646,45.04133062582689],[-0.723757088375194,45.040984328689916],[-0.723969447548089,45.03890313239403],[-0.724891963002487,45.03876228981649],[-0.724941218291797,45.03829913112724],[-0.724565957055795,45.03680637572114],[-0.723545784011556,45.03477273695638],[-0.72301132062322,45.03405779347704],[-0.722675781860696,45.03340920551801],[-0.722769546110173,45.03258310479209],[-0.723443207632893,45.03170334856061],[-0.723748275647947,45.0314930326339],[-0.723850302690115,45.03105875648724],[-0.720732957841549,45.03135773610047],[-0.71893655238319,45.031067151614934],[-0.717229856593774,45.030940297402495],[-0.715718622689082,45.0310385451064],[-0.714186057540521,45.030987855185586],[-0.711946221798643,45.03165750551137],[-0.711564085104473,45.03174146118726],[-0.711104535752942,45.03173154988991],[-0.711577192321805,45.03100009134124],[-0.711816703528227,45.03087402156148],[-0.713128377856528,45.03056525405163],[-0.71521962606162,45.02984104844125],[-0.715734713453124,45.02953901302367],[-0.716300289322432,45.028982902432894],[-0.718129081346304,45.02758145413635],[-0.719146203313625,45.02731760869996],[-0.719349082046684,45.02666003003188],[-0.719698977623847,45.02622558544924],[-0.720585009919803,45.02441122567849],[-0.721742954571257,45.02261570499531],[-0.721637029958692,45.022246076528525],[-0.721374887305071,45.021878067971784],[-0.721414968009588,45.02152518877286],[-0.721279186586247,45.0212034307112],[-0.71904984273858,45.02064701104938],[-0.718029335690201,45.0205711524841],[-0.716724530286967,45.01992699958065],[-0.714846901189554,45.01944077359737],[-0.715472864651504,45.01891509871624],[-0.715767365658433,45.01881422360027],[-0.716013390586078,45.018614914042345],[-0.716158673457231,45.018199934480236],[-0.715841390339371,45.01694319679389],[-0.715811398950771,45.01618523949499],[-0.715537163950191,45.01544265144991],[-0.71472670466394,45.01479639043382],[-0.713741595070062,45.01383506563137],[-0.713714499820372,45.01327351239364],[-0.714438121005836,45.0119225280846],[-0.715378818667356,45.011449438108755],[-0.71590254783546,45.0110695908342],[-0.716022310955247,45.010768136107174],[-0.715321784140557,45.00892478976669],[-0.714945432478622,45.008595739268976],[-0.714988653230955,45.00844286487969],[-0.715510549720073,45.00765295484472],[-0.716089607962504,45.007264947980815],[-0.717237542232353,45.00668035630426],[-0.718625062059319,45.005475708250906],[-0.718922521141912,45.00543962274367],[-0.718936402352185,45.00438635219453],[-0.718833544181346,45.004023833153994],[-0.718498627225727,45.00359155472418],[-0.718445856764928,45.0030840423324],[-0.718273420311125,45.002783340057576],[-0.718310029810735,45.00256939174047],[-0.71978198350342,45.00084000747678],[-0.720241022491976,45.00069305227549],[-0.720416195253955,45.00032754374515],[-0.721978946499788,44.99904848162864],[-0.723084746733898,44.998387715108585],[-0.723262587719512,44.998158219913904],[-0.723712010616587,44.99708405543783],[-0.723747286355258,44.99633473225967],[-0.724818857575927,44.99607710650502],[-0.725802146068923,44.99565747605628],[-0.726533385210123,44.99509665464266],[-0.72694467919473,44.99450058129771],[-0.727373058576098,44.99421851417563],[-0.727671630278188,44.99389482655033],[-0.728428000451376,44.99355939487907],[-0.728989563229898,44.99340806215941],[-0.72954300334405,44.993077624697634],[-0.730290733040633,44.992841621121315],[-0.731798573569519,44.99257469724082],[-0.73260427190179,44.99223667902121],[-0.732908859030669,44.992003813572985],[-0.733007753183493,44.991505636196884],[-0.734921993638152,44.990552594313385],[-0.735708771441174,44.98985553685749],[-0.736189971057353,44.98916693892239],[-0.736625998579203,44.98901978381003],[-0.737672796274684,44.98845098271919],[-0.738935233667175,44.98833462477653],[-0.740942286947033,44.98791828038078],[-0.745084222401444,44.98662417238177],[-0.754600175735114,44.966655693758234]]]]}},{"type":"Feature","properties":{"fid":288,"ID":"COMMUNE_0000000009755424","NOM":"Le Porge","NOM_M":"LE PORGE","INSEE_COM":"33333","STATUT":"Commune simple","POPULATION":3418,"INSEE_CAN":"30","INSEE_ARR":"4","INSEE_DEP":"33","INSEE_REG":"75","SIREN_EPCI":"243301389"},"geometry":{"type":"MultiPolygon","coordinates":[[[[-1.040596239811706,44.84884999606276],[-1.044327142546307,44.84074281151086],[-1.045756035916272,44.83744974528687],[-1.045875699104496,44.83677194864374],[-1.046918561972401,44.83450625122396],[-1.047129859929,44.83353572276174],[-1.04815511610021,44.83048273267509],[-1.050087177068064,44.823476832429925],[-1.083322982008917,44.82868997497841],[-1.141796281093585,44.824462498180864],[-1.146889883717757,44.82399528384274],[-1.149357410588065,44.822792211500094],[-1.151881547692177,44.82110552124859],[-1.155153295938611,44.81947549308972],[-1.156576991822076,44.81921745585858],[-1.167558338302716,44.81348488326188],[-1.172473381435281,44.81305021252401],[-1.173993902843201,44.81299025226139],[-1.194909825031182,44.811149273121366],[-1.196415598156829,44.81094350254167],[-1.196901955772365,44.81080787757908],[-1.19703009961452,44.81020075885855],[-1.197370094664663,44.81017435805076],[-1.224601209018299,44.80876093418977],[-1.227338672252433,44.80875030936476],[-1.231977281327176,44.809227835534465],[-1.232734715093515,44.80897620811982],[-1.232601063399501,44.8106646318062],[-1.231382915234454,44.8168881311604],[-1.231180592978177,44.81862425789306],[-1.230537071780624,44.82065853058311],[-1.230265252536497,44.823271879618794],[-1.229662169941959,44.82581041257504],[-1.229025498876918,44.82988838833167],[-1.228419828255472,44.83183915702378],[-1.228015296765408,44.834290765938995],[-1.227301122038129,44.837022863859524],[-1.226363909090143,44.84265045410715],[-1.225834147365968,44.84468667388625],[-1.225588718625926,44.84667869650573],[-1.22512090340995,44.84898303974533],[-1.224418688470304,44.85366307493587],[-1.223965117982448,44.85548450237383],[-1.22359742086041,44.85893550199213],[-1.222906433934828,44.863010113911926],[-1.222574147117126,44.86444012110557],[-1.222425976697037,44.86673318954145],[-1.221811173867108,44.869497537447025],[-1.221572638286678,44.87220789304601],[-1.221114189291484,44.874372115004604],[-1.220904261970525,44.87673876366535],[-1.220431636783242,44.87846262589098],[-1.220163639003613,44.88204688098618],[-1.219647211351062,44.88371199683738],[-1.219445765960494,44.88629381334064],[-1.219059441847754,44.888036929459524],[-1.218373362681658,44.89346739307158],[-1.217905076841302,44.89584205927865],[-1.217662872231699,44.8981197727728],[-1.217286145473274,44.900160960021665],[-1.217175791411877,44.901915224500385],[-1.216725870122792,44.90397902733783],[-1.21645405127753,44.90680876472579],[-1.216015015161496,44.90878198830164],[-1.215184421099773,44.91499784954827],[-1.214550287557694,44.918124455466035],[-1.214164934746069,44.92077997779853],[-1.168709557728809,44.92054654466869],[-1.165980999095696,44.92021978541591],[-1.165410276583461,44.92027545810248],[-1.151196152160582,44.92027492795599],[-1.12751619306463,44.920041522666004],[-1.117865128456511,44.92037911709006],[-1.113846887184362,44.92111318403729],[-1.113588897523224,44.920762110993394],[-1.111091493246672,44.92117646448077],[-1.091874365576123,44.91572138516466],[-1.089395103072818,44.91509598574144],[-1.086158367723202,44.9129206849728],[-1.085572994030855,44.91314057017214],[-1.085398214965823,44.91311003772364],[-1.073512417255601,44.907610949376384],[-1.072806933017403,44.90753946617427],[-1.072770903537358,44.90716574354169],[-1.072633215798868,44.906964340046194],[-1.049594342713433,44.88348920175979],[-1.037393275809481,44.8724132508074],[-1.037738610098749,44.87041193403031],[-1.040281437459482,44.84959980452671],[-1.040596239811706,44.84884999606276]]]]}},{"type":"Feature","properties":{"fid":1469,"ID":"COMMUNE_0000000009755214","NOM":"Salaunes","NOM_M":"SALAUNES","INSEE_COM":"33494","STATUT":"Commune simple","POPULATION":1244,"INSEE_CAN":"30","INSEE_ARR":"4","INSEE_DEP":"33","INSEE_REG":"75","SIREN_EPCI":"243301389"},"geometry":{"type":"MultiPolygon","coordinates":[[[[-0.88402382619587,44.885724910144084],[-0.88418798292454,44.88580660421511],[-0.890395511086582,44.89312881354407],[-0.892968985098836,44.896020553881634],[-0.905645670421217,44.89812363920328],[-0.900476142391614,44.90494366841034],[-0.894564422087577,44.91296765501892],[-0.865548017499558,44.947638537750144],[-0.862046000107902,44.95055118200579],[-0.86181618575443,44.950661032552816],[-0.861515303679543,44.950531766706575],[-0.860988953347851,44.95103593409281],[-0.860439801818085,44.951411985135074],[-0.859966921394018,44.9520107434181],[-0.859802742495812,44.952465363385606],[-0.857614370746906,44.954330715033215],[-0.853724812824744,44.956143252384955],[-0.845925847761534,44.95921239836562],[-0.84477006406353,44.96024216510697],[-0.827574331129114,44.96821842071229],[-0.825316415561722,44.96934991954495],[-0.822381025867896,44.97069667283272],[-0.819463984068785,44.97190479632896],[-0.809657344973969,44.96788299398016],[-0.806089337502341,44.966726129075816],[-0.803363505904474,44.96499228031807],[-0.802244968709733,44.96461950928079],[-0.802056097184126,44.96462416786144],[-0.79915326859091,44.95522260020276],[-0.794788113452192,44.94533644104695],[-0.794893156578128,44.94523820603921],[-0.795034397867527,44.94426888235661],[-0.796444813523842,44.933913181718374],[-0.796308231023497,44.933620388045256],[-0.796430947351758,44.932359644066715],[-0.797356001574405,44.926159754974535],[-0.797274002769152,44.92571726823374],[-0.797579544302398,44.92550761253798],[-0.797740935326845,44.92318910889899],[-0.798128922029186,44.920245400234776],[-0.798472865455886,44.91869315036005],[-0.806095581254995,44.92062526033859],[-0.806514831239117,44.920652355224576],[-0.821770187073397,44.92456244115764],[-0.832381372388354,44.9250630462039],[-0.83265436558432,44.92419367436431],[-0.833131321224688,44.92335692458863],[-0.833283228925362,44.9226467737976],[-0.833650109621169,44.92235286780237],[-0.833909533894411,44.92048789594975],[-0.834558675609486,44.91853374857356],[-0.834798901672087,44.91807654802976],[-0.836382817153651,44.91339487035818],[-0.836997141952501,44.91254704546206],[-0.836988591249774,44.91225528229679],[-0.842369663568303,44.89694523787533],[-0.842788826574838,44.89571472021604],[-0.8427484796769,44.89557008787317],[-0.866182035186626,44.88427279657706],[-0.874048582424714,44.88497291683131],[-0.88402382619587,44.885724910144084]]]]}},{"type":"Feature","properties":{"fid":2113,"ID":"COMMUNE_0000000009754797","NOM":"Brach","NOM_M":"BRACH","INSEE_COM":"33070","STATUT":"Commune simple","POPULATION":881,"INSEE_CAN":"30","INSEE_ARR":"4","INSEE_DEP":"33","INSEE_REG":"75","SIREN_EPCI":"243301389"},"geometry":{"type":"MultiPolygon","coordinates":[[[[-0.998118091548148,45.03157850008708],[-0.993930186817499,45.03656565170492],[-0.994052512646378,45.0369254817499],[-0.992172407060565,45.04017447198079],[-0.99189937571789,45.04023294974255],[-0.988884146952819,45.045809786854235],[-0.98625951985641,45.04575868154961],[-0.977596793899102,45.05330611651458],[-0.967573816131494,45.057724317952406],[-0.964967675905987,45.06206696933744],[-0.960614878260981,45.06540970556244],[-0.960634345329939,45.06559472701681],[-0.959231597483587,45.065636508156395],[-0.958319191898103,45.06550667818086],[-0.957448065401587,45.06552863236376],[-0.955688398977929,45.06543430463805],[-0.954184775426665,45.06550665206241],[-0.951354236541509,45.065811795037625],[-0.949368263017019,45.065827270947416],[-0.949143352413203,45.0659749845035],[-0.948975907426198,45.06589167373977],[-0.948499223739337,45.065878830900665],[-0.946817043626587,45.06614312315023],[-0.945701441520873,45.066432386704385],[-0.944452523301526,45.06656318781646],[-0.942118908056546,45.0661409942621],[-0.939819568785978,45.06595193341159],[-0.937294699207626,45.065215471150466],[-0.92445802082396,45.06057701958094],[-0.923814697639769,45.06047258519077],[-0.922403285203244,45.059591074332005],[-0.911728522040799,45.057329818029615],[-0.910274134348146,45.056211679644406],[-0.90913785037358,45.05413037765229],[-0.907561507059066,45.05155607716708],[-0.906120598867842,45.049352929226345],[-0.905698830519271,45.049031475024194],[-0.905423671776149,45.04867873189925],[-0.905229295122504,45.04800763276763],[-0.904207595916594,45.04636039964898],[-0.901444939361583,45.03911378002179],[-0.895546160462359,45.03242591025238],[-0.917081812594639,45.02802060781952],[-0.917378040838216,45.028148106159236],[-0.918147074580837,45.02789294878499],[-0.924843862511928,45.02651381178955],[-0.926406717750633,45.02603225915005],[-0.926334359423229,45.025888770584444],[-0.942821075050581,45.02071704407988],[-0.95007449681634,45.01969794698828],[-0.965755100254482,45.01597390602491],[-0.978051643857741,45.015304928125666],[-0.982243249715499,45.0227683232742],[-0.984550524654921,45.02410831665338],[-0.988051783429996,45.02587877502211],[-0.998118091548148,45.03157850008708]]]]}},{"type":"Feature","properties":{"fid":2460,"ID":"COMMUNE_0000000009754795","NOM":"Moulis-en-Médoc","NOM_M":"MOULIS-EN-MEDOC","INSEE_COM":"33297","STATUT":"Commune simple","POPULATION":1917,"INSEE_CAN":"30","INSEE_ARR":"4","INSEE_DEP":"33","INSEE_REG":"75","SIREN_EPCI":"243301389"},"geometry":{"type":"MultiPolygon","coordinates":[[[[-0.780678154652532,45.04066519965014],[-0.783410152284108,45.04067962442291],[-0.786764411981719,45.0404952307059],[-0.787273122703071,45.03931418530654],[-0.788844672293647,45.039634781556124],[-0.790972332056785,45.0403564771123],[-0.792283142551779,45.040168490905096],[-0.792944827907903,45.040645330144514],[-0.793387205742256,45.0406816333222],[-0.794427278587235,45.04122579293712],[-0.794620294612549,45.040978531305825],[-0.795043993341048,45.04072069877626],[-0.795486883555362,45.040708299217826],[-0.798053270948556,45.04141039342842],[-0.798340241089666,45.04063709046148],[-0.799995255823591,45.04072481996706],[-0.800253918838239,45.040807933196305],[-0.799970028906206,45.04162620825073],[-0.801063169242145,45.0416402593905],[-0.803902331111148,45.04188309220317],[-0.8034510716396,45.04091235054563],[-0.80326872195164,45.03828640754244],[-0.805647252001445,45.03781567443553],[-0.806139833987936,45.037394085534004],[-0.806568982934956,45.036694319097094],[-0.807455815067202,45.035695842496615],[-0.808823080555138,45.0361899113929],[-0.812332167201345,45.037181216319745],[-0.815015857100475,45.039415850440186],[-0.818993877543442,45.036674250939505],[-0.8215507620658,45.035895068310055],[-0.821225018863682,45.03563041436567],[-0.819656743456823,45.032622074064356],[-0.819034442500758,45.031942116477076],[-0.818919345050292,45.03141061353632],[-0.818949954986667,45.03079748767302],[-0.82002130481068,45.03073727423929],[-0.822234150415341,45.030229492577135],[-0.82226421887405,45.029702019925146],[-0.829305482732235,45.02951670191984],[-0.82932003497962,45.02876349734215],[-0.829106401035358,45.02723930106333],[-0.828490303035087,45.02644650187843],[-0.827417478285435,45.02655823267442],[-0.827207074443218,45.02539630328562],[-0.829252565771271,45.02532592028459],[-0.828829626049884,45.02430922856282],[-0.829010740762913,45.02257223048563],[-0.828977633259963,45.02208839537204],[-0.833788725670426,45.02116369051443],[-0.834968751198207,45.02406442782951],[-0.835478049295805,45.024095548965285],[-0.835595127331888,45.0239121253306],[-0.836208560690256,45.023534003019506],[-0.836179784513447,45.02304010252239],[-0.836853585836575,45.022615723887455],[-0.837271828170338,45.02215328084468],[-0.837314427817069,45.02179213520922],[-0.837489997501343,45.02151654733238],[-0.838738776755413,45.021395939960065],[-0.839333337334188,45.021688224061634],[-0.84022156297278,45.02157373245472],[-0.840900005079441,45.02101395072907],[-0.841278777578313,45.02095850477953],[-0.841746606019983,45.0212560535424],[-0.842286689735285,45.02125452899293],[-0.842363627263721,45.02133841061175],[-0.843507386279968,45.02129890095497],[-0.843662719870139,45.02111775196127],[-0.843581002024761,45.020871775792976],[-0.844238784152318,45.02056689444751],[-0.844598460991683,45.02019659007948],[-0.845293079150882,45.02013201718237],[-0.845411938717793,45.019993592862185],[-0.845849741147297,45.019891018064584],[-0.846174866141795,45.020016797963244],[-0.846618787384298,45.020003251996286],[-0.846861413060373,45.01981637538508],[-0.847056587678803,45.019900672452685],[-0.847199460869129,45.02016706781112],[-0.847642176894617,45.02015446092503],[-0.847842269717267,45.02032873157259],[-0.849107239520033,45.02068431354849],[-0.849281914729934,45.02063680298269],[-0.849438591440861,45.02069718756503],[-0.849460608602747,45.02046294997945],[-0.849682912391977,45.020553515526096],[-0.849738765752563,45.02051552467804],[-0.849747917294908,45.02035294683579],[-0.849532696067879,45.020235994295795],[-0.849739840520383,45.020069269345434],[-0.850022233891008,45.02016496631774],[-0.850395766548842,45.020162855810675],[-0.850467890264124,45.02025050459013],[-0.850859570112171,45.020050346579744],[-0.85097244569114,45.019880572187084],[-0.850805067418686,45.019775487675545],[-0.85073909286678,45.019537083929556],[-0.850740787555126,45.01935853794276],[-0.850926218485866,45.01928270732419],[-0.850791652623953,45.0191187941349],[-0.850826407738507,45.01895893566406],[-0.851140334818614,45.018884966680524],[-0.851278143058829,45.01892977562743],[-0.851478746900293,45.01929603139631],[-0.851722191854518,45.01917672406676],[-0.852066300417892,45.0190611421264],[-0.853248847094586,45.01899494678508],[-0.853700014316624,45.018846804815254],[-0.853832165965644,45.0189017226039],[-0.853945749023934,45.019148391541115],[-0.854114822283698,45.01914884418526],[-0.85421767711859,45.01909209493717],[-0.854242847324838,45.018737853312345],[-0.855150593616016,45.01881547471501],[-0.855737750316889,45.018538210819514],[-0.856140053270806,45.01845575551207],[-0.856287982047177,45.01807562272521],[-0.856833570394094,45.01785928961877],[-0.857150543355771,45.01777438016632],[-0.857944117762674,45.01776308724494],[-0.85853294310693,45.01762096820724],[-0.858904025660555,45.01767570522189],[-0.858872545212944,45.016998001534944],[-0.858966385128762,45.01690279778543],[-0.859341080668885,45.01678883570429],[-0.859609167868235,45.016787647419854],[-0.860480558568985,45.01703866397858],[-0.861436886214331,45.01691802992604],[-0.862220251143409,45.016943118752685],[-0.862766626839249,45.01729104035842],[-0.863650486724837,45.01748300515442],[-0.86458467222223,45.01812754988692],[-0.864926524309697,45.01823737015979],[-0.865290360461804,45.0182238271396],[-0.857454496600715,45.02627718639608],[-0.85719940006346,45.02637527483885],[-0.853086243065249,45.03071767507857],[-0.852600762074738,45.031698141364025],[-0.850879881655764,45.0330341718418],[-0.850217777743995,45.034367798615115],[-0.848487752427674,45.03644149402398],[-0.847249440306567,45.03710721780444],[-0.845736307637925,45.03745609884353],[-0.844891569346113,45.0377998958765],[-0.843409861519629,45.0391617916623],[-0.839999991379704,45.039182149710925],[-0.837166591323195,45.04045176712067],[-0.832861574452826,45.040583895104476],[-0.83003799243566,45.04094162459834],[-0.829703005172672,45.04063584439399],[-0.826894988081956,45.04148154001098],[-0.826909640300044,45.041751469153205],[-0.824591939870542,45.042312513896825],[-0.824742657148559,45.04271298330922],[-0.823212575552438,45.04261321339415],[-0.822573919918718,45.043891760622444],[-0.822531208357751,45.0442529027626],[-0.822913704144985,45.044286639821856],[-0.822531794770374,45.045377881796306],[-0.81480524402432,45.045724113857176],[-0.809586038076996,45.046628538086196],[-0.809395683079545,45.04663415199783],[-0.80933301768478,45.045900726075395],[-0.805790896665893,45.0461877670456],[-0.804670333669035,45.04685617938212],[-0.803569891603585,45.047633866733335],[-0.803020496337918,45.04845581571823],[-0.802088185412041,45.04921962926637],[-0.801784499455057,45.05008365801119],[-0.802252695928918,45.050797825099956],[-0.801778411826478,45.05162170832141],[-0.801346239554871,45.051849206160846],[-0.799786855007955,45.05218189316954],[-0.797501688750003,45.05199575876074],[-0.797110621057776,45.05312867525002],[-0.79550341176393,45.0527949730201],[-0.794699087174751,45.055110221298584],[-0.794767026145818,45.05541799681574],[-0.794351937117061,45.05561693912699],[-0.793149845636624,45.055256771314156],[-0.792395378794274,45.05664002741797],[-0.792530144910426,45.05677065038281],[-0.793242820822692,45.0570213038489],[-0.792895278981153,45.057616369867944],[-0.792641379591236,45.05762321743376],[-0.792506550172061,45.057491695223966],[-0.79232098637967,45.05758725823101],[-0.792024168178653,45.05795523620998],[-0.791831992789008,45.05791580936601],[-0.791365395589647,45.057524256212275],[-0.789384602476629,45.05843543504025],[-0.787829269910188,45.059019306465586],[-0.785579449924454,45.05965922425824],[-0.785457314169785,45.05975261839494],[-0.785460289899427,45.06002204323368],[-0.785017750368623,45.060079457019455],[-0.785093782762627,45.06351400577427],[-0.783755278996606,45.063470262699845],[-0.783302756832322,45.06330535615928],[-0.782862866428411,45.06327072518599],[-0.782108548358398,45.063081813816396],[-0.78141037982485,45.062763889735336],[-0.780900626856574,45.06327608359699],[-0.778565178824512,45.06331120144133],[-0.778790506208546,45.063577586097225],[-0.779028877683861,45.06428161886723],[-0.777039823472618,45.06443655273666],[-0.777010233977001,45.06518483485615],[-0.775751183669527,45.064830013176206],[-0.774939055221781,45.06489631288219],[-0.774042047704916,45.06445888593743],[-0.773587686732326,45.06434177815627],[-0.772973379326994,45.06405972081813],[-0.772853658357519,45.06490570325877],[-0.772737178231553,45.06502683481041],[-0.767400775489276,45.06685081598007],[-0.76557900058735,45.066998078087536],[-0.766468845100105,45.070709760010566],[-0.766371326477643,45.07237797605688],[-0.767191114855589,45.07257469753498],[-0.76734521385876,45.07344566236054],[-0.768163134820763,45.07357663700898],[-0.768003150705527,45.07486476938545],[-0.767795681016013,45.07535404840613],[-0.768790711646192,45.078621376008286],[-0.760099020230435,45.07997163911985],[-0.758414025609265,45.08051347808668],[-0.753393700690273,45.08163467977804],[-0.752792165384946,45.0823021648866],[-0.75271527528176,45.082256079489134],[-0.752766906581336,45.08293039895644],[-0.75213508020117,45.08341230835531],[-0.750693616182356,45.08373669294696],[-0.749183422300441,45.08390923077682],[-0.748773520434662,45.084115028794926],[-0.747732128561762,45.084979373074056],[-0.744883928444182,45.08565478104094],[-0.745754820048878,45.08985941690906],[-0.745758680855182,45.091075289547256],[-0.739948083323093,45.091947490417745],[-0.738683318448543,45.0918547363827],[-0.739130663568827,45.09095183523333],[-0.739604336565639,45.08914934558081],[-0.739723509775449,45.087963600451],[-0.740111586320452,45.0869743467791],[-0.7385353547761,45.086846081632885],[-0.737722881943685,45.086684054309956],[-0.738122047679117,45.08481376399538],[-0.736522421559459,45.0846961732748],[-0.736288630294639,45.08506277506275],[-0.73577889281418,45.08503209912095],[-0.735555739532632,45.08445367151916],[-0.73556458768084,45.08346273255233],[-0.735626387938866,45.083416490974976],[-0.736202592101969,45.083490007601014],[-0.736581703094958,45.08230907021649],[-0.734463835430631,45.08191768552934],[-0.73476763362771,45.08168485195748],[-0.735060154363487,45.08122614369637],[-0.73531854908813,45.07991404975043],[-0.736148098853853,45.0790767638337],[-0.735977525508484,45.078256801641174],[-0.735975537083228,45.077446507864394],[-0.735052667134852,45.0774008449937],[-0.735047927667583,45.07731086380442],[-0.735910345425579,45.076261548662046],[-0.735235033804637,45.07616972381742],[-0.733916089331866,45.07497453001245],[-0.733373157636384,45.07320706044741],[-0.73445180204633,45.07318621559206],[-0.735283611746217,45.07329803363936],[-0.735263444681776,45.07293905127389],[-0.735811892304708,45.07229417930487],[-0.73592942441498,45.071882803003085],[-0.736063717760048,45.071893621126065],[-0.736413186151193,45.07074613029003],[-0.736198034732505,45.07007729923219],[-0.73669341171862,45.069838030295784],[-0.736964604600798,45.07014622219989],[-0.737466418386773,45.069984254199355],[-0.736255242142783,45.06805894741993],[-0.736811012204894,45.06788615733801],[-0.737428119571905,45.06754634922607],[-0.737479781138707,45.067234533350025],[-0.737313024335281,45.06660464358672],[-0.737062837318718,45.06590634350812],[-0.736947308133943,45.06585253150603],[-0.736237715932377,45.06596918957855],[-0.736109368877992,45.065932933443406],[-0.735387070268227,45.06515492324361],[-0.735020044554674,45.06504915298245],[-0.734022231269385,45.0650781145049],[-0.733192197960635,45.0652005952808],[-0.731284145531839,45.06626600732493],[-0.730439315343299,45.066319555186],[-0.73025013409611,45.065867082728936],[-0.729796301238224,45.06569930317055],[-0.728804567723492,45.063015716019095],[-0.729108798061267,45.06284778231737],[-0.729468757763927,45.06277172601861],[-0.730443160441221,45.06296443032834],[-0.730635915807604,45.063127434021986],[-0.73075038965436,45.063470635581446],[-0.730877818560368,45.06351233670376],[-0.731324932926552,45.06354152141424],[-0.731903499330965,45.06340584967149],[-0.732389010747576,45.063381462038194],[-0.732407547355526,45.06314467466803],[-0.732305369899772,45.062985848616016],[-0.733021808079155,45.06192432119248],[-0.733002906566971,45.061755492372804],[-0.733224290090975,45.061680464364066],[-0.733138189980789,45.061514790259785],[-0.733170922136394,45.06128113233664],[-0.733782963677956,45.061228157409126],[-0.733960061477193,45.06127089329801],[-0.734136501493334,45.0611513994769],[-0.734533940925378,45.061294010119994],[-0.734867609558417,45.06118636742461],[-0.735071875481013,45.06098841836155],[-0.735226326493668,45.060996757509095],[-0.735409083981841,45.060629165210905],[-0.735670235528513,45.060673585101725],[-0.736882784934502,45.05999560289825],[-0.73708267924275,45.059656277005004],[-0.737036183601628,45.05939823502899],[-0.74223071429071,45.056572724458476],[-0.744873982861039,45.05635313295115],[-0.748395426578805,45.05454989191342],[-0.749938591519958,45.05402738539156],[-0.749405265540427,45.05140243531012],[-0.750374236550804,45.05147796085116],[-0.750904183649107,45.05234528315505],[-0.754692199792543,45.05235999673204],[-0.755692558003154,45.052220784699095],[-0.757125509171008,45.05157389321373],[-0.758908181684117,45.05088993344724],[-0.759189901093842,45.05071095475659],[-0.760567984368728,45.05021370066418],[-0.761911136109573,45.04987806026519],[-0.763903736256507,45.04898951288827],[-0.76419339618706,45.04873994222979],[-0.764430775225142,45.04880943549699],[-0.76455706541694,45.04898544637815],[-0.76581732889049,45.0486092928365],[-0.766351894415606,45.04833340176022],[-0.767906750485269,45.04721530800766],[-0.768177030430446,45.04716920003699],[-0.768642586610957,45.04722825477969],[-0.769262893435323,45.047432603064],[-0.769506422365632,45.04744238398203],[-0.770444962628261,45.04725555126156],[-0.771131316572177,45.04676085898535],[-0.771327224932635,45.04647928977317],[-0.771602721127061,45.04630319291383],[-0.773176478257803,45.045938864340926],[-0.774915049166184,45.04490818541375],[-0.777562216108077,45.04281632275592],[-0.778143168809337,45.04185462196462],[-0.778511263190954,45.04161947531778],[-0.778717849410328,45.04176029355437],[-0.779843853988583,45.041188417136794],[-0.780682879497646,45.041130170665454],[-0.780801213951939,45.04098102235066],[-0.780678154652532,45.04066519965014]]]]}},{"type":"Feature","properties":{"fid":2528,"ID":"COMMUNE_0000000009755422","NOM":"Le Temple","NOM_M":"LE TEMPLE","INSEE_COM":"33528","STATUT":"Commune simple","POPULATION":648,"INSEE_CAN":"30","INSEE_ARR":"4","INSEE_DEP":"33","INSEE_REG":"75","SIREN_EPCI":"243301389"},"geometry":{"type":"MultiPolygon","coordinates":[[[[-1.037393275809481,44.8724132508074],[-1.036178596722129,44.873433789696655],[-1.036211133027722,44.87353357612091],[-1.036109175808762,44.87363194449038],[-1.032857665414902,44.87624918143136],[-1.032937828012207,44.87635895743059],[-1.019220693345181,44.88752876364541],[-1.018520983379435,44.88751533703233],[-1.015208780433578,44.88776593978064],[-1.013246430647573,44.8879712440402],[-1.011639220125443,44.88824841821465],[-1.010238732673867,44.888348615644205],[-1.008454104204244,44.88875205386585],[-1.007595020626634,44.8888155330509],[-1.004048422337503,44.88942584883906],[-1.003002995142506,44.889490605637306],[-1.001564677571788,44.889754326987834],[-1.00005341561456,44.88988453151385],[-0.999825272516758,44.88981522473184],[-0.999456204464808,44.8898681911574],[-0.99872425247758,44.88982965728761],[-0.998072885264195,44.88972961817162],[-0.995717290896101,44.88872453768135],[-0.99261248281021,44.88784643267384],[-0.991234060227426,44.887276685766686],[-0.988699284023397,44.88572799787101],[-0.988209798162744,44.88510372616543],[-0.987744253328296,44.88426313567911],[-0.986347922114055,44.88306473581899],[-0.985321601195886,44.881951295781576],[-0.982596883869599,44.88172187541253],[-0.978943133848499,44.881587005538364],[-0.976479249919191,44.88156624345448],[-0.974050848856889,44.88179567023232],[-0.973024628521381,44.88173595745568],[-0.970452265659628,44.88181269944418],[-0.969320053844807,44.881885656705],[-0.968208431141713,44.88205252160176],[-0.964360313864259,44.88288059193694],[-0.963802596727655,44.883080809989536],[-0.961867806454674,44.88498621172391],[-0.958825530183364,44.88819856421247],[-0.934154949198755,44.89745944228154],[-0.934011818752188,44.897679063918105],[-0.933453448535166,44.90139937034498],[-0.933011449485904,44.90254817448162],[-0.926401036760443,44.90155978981463],[-0.905645670421217,44.89812363920328],[-0.892968985098836,44.896020553881634],[-0.890395511086582,44.89312881354407],[-0.88418798292454,44.88580660421511],[-0.88402382619587,44.885724910144084],[-0.884098753457768,44.8855068450806],[-0.883019515274247,44.876071456890415],[-0.88315641561986,44.87566823361002],[-0.88124117168853,44.85756877454055],[-0.881158991414145,44.85751666299663],[-0.884798580435602,44.84987858196138],[-0.884893696324203,44.849824770641],[-0.921800017004059,44.84125215091966],[-0.922015306135988,44.84159519833346],[-0.925027102614566,44.84137866300509],[-0.925755683334169,44.84096254727189],[-0.928847904727908,44.83975958113383],[-0.930133387784717,44.83942646762191],[-0.93119730251588,44.83936712091257],[-0.93205070974487,44.83908806357503],[-0.932429355156382,44.838796088969],[-0.933378490871143,44.83847306090413],[-0.934697305121096,44.83836317124709],[-0.937510551879318,44.83745020294092],[-0.93818158928621,44.83670340901337],[-0.93942434112326,44.83588942489269],[-0.942757560084061,44.83449990411992],[-0.943181234559972,44.83418285122312],[-0.943209667023475,44.834226912735474],[-0.943292315368856,44.83419512698723],[-0.943863526233366,44.83370605539993],[-0.944485968559043,44.83347748101524],[-0.947915817896377,44.83278118397709],[-0.949169258977976,44.83260853963867],[-0.950671413368136,44.83209979034618],[-0.951755377450645,44.83196741001011],[-0.952633476007403,44.831772044416425],[-0.953863705065117,44.831288268717785],[-0.955203402481972,44.83111788718584],[-0.956231692880082,44.83077109788457],[-0.958188782377411,44.830319928432566],[-0.959671237318766,44.83016242429133],[-0.960173855343371,44.830194052934225],[-0.960669417411626,44.830071781411945],[-0.961295917242705,44.83004579316407],[-1.006393572524557,44.829817188325876],[-1.006472788253218,44.830092885556425],[-1.040596239811706,44.84884999606276],[-1.040281437459482,44.84959980452671],[-1.037738610098749,44.87041193403031],[-1.037393275809481,44.8724132508074]]]]}},{"type":"Feature","properties":{"fid":2758,"ID":"COMMUNE_0000000009755423","NOM":"Saumos","NOM_M":"SAUMOS","INSEE_COM":"33503","STATUT":"Commune simple","POPULATION":549,"INSEE_CAN":"30","INSEE_ARR":"4","INSEE_DEP":"33","INSEE_REG":"75","SIREN_EPCI":"243301389"},"geometry":{"type":"MultiPolygon","coordinates":[[[[-0.933011449485904,44.90254817448162],[-0.933453448535166,44.90139937034498],[-0.934011818752188,44.897679063918105],[-0.934154949198755,44.89745944228154],[-0.958825530183364,44.88819856421247],[-0.961867806454674,44.88498621172391],[-0.963802596727655,44.883080809989536],[-0.964360313864259,44.88288059193694],[-0.968208431141713,44.88205252160176],[-0.969320053844807,44.881885656705],[-0.970452265659628,44.88181269944418],[-0.973024628521381,44.88173595745568],[-0.974050848856889,44.88179567023232],[-0.976479249919191,44.88156624345448],[-0.978943133848499,44.881587005538364],[-0.982596883869599,44.88172187541253],[-0.985321601195886,44.881951295781576],[-0.986347922114055,44.88306473581899],[-0.987744253328296,44.88426313567911],[-0.988209798162744,44.88510372616543],[-0.988699284023397,44.88572799787101],[-0.991234060227426,44.887276685766686],[-0.99261248281021,44.88784643267384],[-0.995717290896101,44.88872453768135],[-0.998072885264195,44.88972961817162],[-0.99872425247758,44.88982965728761],[-0.999456204464808,44.8898681911574],[-0.999825272516758,44.88981522473184],[-1.00005341561456,44.88988453151385],[-1.001564677571788,44.889754326987834],[-1.003002995142506,44.889490605637306],[-1.004048422337503,44.88942584883906],[-1.007595020626634,44.8888155330509],[-1.008454104204244,44.88875205386585],[-1.010238732673867,44.888348615644205],[-1.011639220125443,44.88824841821465],[-1.013246430647573,44.8879712440402],[-1.015208780433578,44.88776593978064],[-1.018520983379435,44.88751533703233],[-1.019220693345181,44.88752876364541],[-1.032937828012207,44.87635895743059],[-1.032857665414902,44.87624918143136],[-1.036109175808762,44.87363194449038],[-1.036211133027722,44.87353357612091],[-1.036178596722129,44.873433789696655],[-1.037393275809481,44.8724132508074],[-1.049594342713433,44.88348920175979],[-1.072633215798868,44.906964340046194],[-1.072770903537358,44.90716574354169],[-1.072806933017403,44.90753946617427],[-1.064794204387025,44.91763564502271],[-1.064484172558784,44.91789221502567],[-1.063856474330344,44.91880772154604],[-1.057489330179614,44.92541809128543],[-1.057541686838192,44.925615419788365],[-1.057440974249689,44.92573179265784],[-1.053027896116132,44.930303291894326],[-1.052788304525885,44.930324656825775],[-1.052611469280798,44.93049428905433],[-1.047227765299418,44.93611788642681],[-1.046694196306963,44.93656826407267],[-1.043884898018502,44.93751261689814],[-1.043171201913716,44.93782438603172],[-1.034679972703078,44.94065022771966],[-1.033477736577362,44.941177111192935],[-1.029070391871903,44.943876674604915],[-1.028668480492626,44.9439895179016],[-1.028409445547129,44.94430633435654],[-1.027602433693623,44.94452311466708],[-1.024241462420018,44.94491898205092],[-1.024234413568499,44.94535107070847],[-1.023260848772162,44.94542329598977],[-1.011068104398353,44.94737875126233],[-1.010496655141343,44.94728759270804],[-1.010155480179909,44.94746939475339],[-1.005896248741023,44.94817839145516],[-1.005356759442014,44.94825013085816],[-1.005219522344666,44.948159517300724],[-0.996113334204098,44.95047256909466],[-0.980596054701644,44.95133521146601],[-0.980132718579544,44.95117511514477],[-0.977844873534885,44.95002919865027],[-0.976127200861808,44.94863385268366],[-0.964337916186489,44.92709293939284],[-0.950291773222627,44.9176987666129],[-0.949840096244433,44.91717665019447],[-0.944607465003391,44.91257491369091],[-0.94242147497471,44.91080543171209],[-0.936752799916496,44.905811396085575],[-0.936649376012408,44.90569336504764],[-0.936729284367222,44.9056752065354],[-0.933508516343539,44.90281722960305],[-0.933317344367872,44.90246071198122],[-0.933011449485904,44.90254817448162]]]]}},{"type":"Feature","properties":{"fid":3020,"ID":"COMMUNE_0000000009755015","NOM":"Castelnau-de-Médoc","NOM_M":"CASTELNAU-DE-MEDOC","INSEE_COM":"33104","STATUT":"Commune simple","POPULATION":4850,"INSEE_CAN":"30","INSEE_ARR":"4","INSEE_DEP":"33","INSEE_REG":"75","SIREN_EPCI":"243301389"},"geometry":{"type":"MultiPolygon","coordinates":[[[[-0.851722191854518,45.01917672406676],[-0.851478746900293,45.01929603139631],[-0.851278143058829,45.01892977562743],[-0.851140334818614,45.018884966680524],[-0.850826407738507,45.01895893566406],[-0.850791652623953,45.0191187941349],[-0.850926218485866,45.01928270732419],[-0.850740787555126,45.01935853794276],[-0.85073909286678,45.019537083929556],[-0.850805067418686,45.019775487675545],[-0.85097244569114,45.019880572187084],[-0.850859570112171,45.020050346579744],[-0.850467890264124,45.02025050459013],[-0.850395766548842,45.020162855810675],[-0.850022233891008,45.02016496631774],[-0.849739840520383,45.020069269345434],[-0.849532696067879,45.020235994295795],[-0.849747917294908,45.02035294683579],[-0.849738765752563,45.02051552467804],[-0.849682912391977,45.020553515526096],[-0.849460608602747,45.02046294997945],[-0.849438591440861,45.02069718756503],[-0.849281914729934,45.02063680298269],[-0.849107239520033,45.02068431354849],[-0.847842269717267,45.02032873157259],[-0.847642176894617,45.02015446092503],[-0.847199460869129,45.02016706781112],[-0.847056587678803,45.019900672452685],[-0.846861413060373,45.01981637538508],[-0.846618787384298,45.020003251996286],[-0.846174866141795,45.020016797963244],[-0.845849741147297,45.019891018064584],[-0.845411938717793,45.019993592862185],[-0.845293079150882,45.02013201718237],[-0.844598460991683,45.02019659007948],[-0.844238784152318,45.02056689444751],[-0.843581002024761,45.020871775792976],[-0.843662719870139,45.02111775196127],[-0.843507386279968,45.02129890095497],[-0.842363627263721,45.02133841061175],[-0.842286689735285,45.02125452899293],[-0.841746606019983,45.0212560535424],[-0.841278777578313,45.02095850477953],[-0.840900005079441,45.02101395072907],[-0.84022156297278,45.02157373245472],[-0.839333337334188,45.021688224061634],[-0.838738776755413,45.021395939960065],[-0.837489997501343,45.02151654733238],[-0.837314427817069,45.02179213520922],[-0.837271828170338,45.02215328084468],[-0.836853585836575,45.022615723887455],[-0.836179784513447,45.02304010252239],[-0.836208560690256,45.023534003019506],[-0.835595127331888,45.0239121253306],[-0.835478049295805,45.024095548965285],[-0.834968751198207,45.02406442782951],[-0.833788725670426,45.02116369051443],[-0.828977633259963,45.02208839537204],[-0.829010740762913,45.02257223048563],[-0.828829626049884,45.02430922856282],[-0.829252565771271,45.02532592028459],[-0.827207074443218,45.02539630328562],[-0.827417478285435,45.02655823267442],[-0.828490303035087,45.02644650187843],[-0.829106401035358,45.02723930106333],[-0.82932003497962,45.02876349734215],[-0.829305482732235,45.02951670191984],[-0.82226421887405,45.029702019925146],[-0.822234150415341,45.030229492577135],[-0.82002130481068,45.03073727423929],[-0.818949954986667,45.03079748767302],[-0.818919345050292,45.03141061353632],[-0.819034442500758,45.031942116477076],[-0.819656743456823,45.032622074064356],[-0.821225018863682,45.03563041436567],[-0.8215507620658,45.035895068310055],[-0.818993877543442,45.036674250939505],[-0.815015857100475,45.039415850440186],[-0.812332167201345,45.037181216319745],[-0.808823080555138,45.0361899113929],[-0.807455815067202,45.035695842496615],[-0.806568982934956,45.036694319097094],[-0.806139833987936,45.037394085534004],[-0.805647252001445,45.03781567443553],[-0.80326872195164,45.03828640754244],[-0.8034510716396,45.04091235054563],[-0.803902331111148,45.04188309220317],[-0.801063169242145,45.0416402593905],[-0.799970028906206,45.04162620825073],[-0.800253918838239,45.040807933196305],[-0.799995255823591,45.04072481996706],[-0.798340241089666,45.04063709046148],[-0.798053270948556,45.04141039342842],[-0.795486883555362,45.040708299217826],[-0.795043993341048,45.04072069877626],[-0.794620294612549,45.040978531305825],[-0.794427278587235,45.04122579293712],[-0.793387205742256,45.0406816333222],[-0.792944827907903,45.040645330144514],[-0.792283142551779,45.040168490905096],[-0.790972332056785,45.0403564771123],[-0.788844672293647,45.039634781556124],[-0.787273122703071,45.03931418530654],[-0.786764411981719,45.0404952307059],[-0.783410152284108,45.04067962442291],[-0.780678154652532,45.04066519965014],[-0.780652248869905,45.03996207261887],[-0.780965991003992,45.03952504327454],[-0.781077348636442,45.038746040822666],[-0.781547489217114,45.037387855531016],[-0.781554765126917,45.036197737617385],[-0.781699046388533,45.03601886103134],[-0.783532451916561,45.03470537209386],[-0.783736851655325,45.03472005616064],[-0.7845254323945,45.03372962343637],[-0.785931668126918,45.032849778386144],[-0.785312957269692,45.03225425737659],[-0.784288888547458,45.03167973157774],[-0.783929863339569,45.031746927719595],[-0.783459162951022,45.031553804733214],[-0.782127570789042,45.031206056234986],[-0.78242502352884,45.030942647347175],[-0.783357936524431,45.03077121115609],[-0.783381876070427,45.03056126849793],[-0.783540366796633,45.030461230623466],[-0.783508077012654,45.03037849683191],[-0.783361182509938,45.030349237795825],[-0.78388454827031,45.02993031061142],[-0.78389077480162,45.02981561893626],[-0.783426327070772,45.02952673369029],[-0.783309879450951,45.02912054877639],[-0.783904208017367,45.02898045028257],[-0.784122586703179,45.028845022352755],[-0.784160166982342,45.02812261098891],[-0.784308862322143,45.02776509982692],[-0.785010264841945,45.02680286664765],[-0.785067983580444,45.026528675280666],[-0.786122630847252,45.02590326479974],[-0.786149805010149,45.025666168817736],[-0.787561589461213,45.025641553861796],[-0.788455843014592,45.02531363955011],[-0.789075796621194,45.024876973981016],[-0.789289302990612,45.024613699612686],[-0.789409393978032,45.0241534916623],[-0.789172865034844,45.023645034980134],[-0.789300406543465,45.02333240604721],[-0.789935631848664,45.02293397579155],[-0.790039344980894,45.02277630014545],[-0.790227217587222,45.02279153384883],[-0.790318369495345,45.02242966385337],[-0.790452708695472,45.02229257840295],[-0.790616003314277,45.02220768989887],[-0.79108593768561,45.02222142405676],[-0.79131255140372,45.02209561577282],[-0.791443292223454,45.02190546793807],[-0.791692105429218,45.021844705856445],[-0.791886163677018,45.02161363841538],[-0.791857490553714,45.021434331885864],[-0.79206247914973,45.02140210517414],[-0.792203993374969,45.0212584629189],[-0.792281994500854,45.020458949528944],[-0.792515085732657,45.020278832566696],[-0.792357643722821,45.02014988827636],[-0.7923430536507,45.01989708690115],[-0.79258421682514,45.019498551166684],[-0.793267608747398,45.01898668195807],[-0.793422732498462,45.01870645956599],[-0.794112395984219,45.01802490396873],[-0.794456212704073,45.01784731596897],[-0.794794604514562,45.017777180851176],[-0.794846480031301,45.01769879055724],[-0.794962963296885,45.017261233988],[-0.794910513714722,45.016843863108676],[-0.794152484632281,45.01636672804936],[-0.794301572768905,45.016016399407434],[-0.794211797966222,45.01557325911181],[-0.794290822560274,45.015464196238995],[-0.794461847969382,45.01551244769852],[-0.794964398445912,45.015445726112546],[-0.795060806463285,45.01533066108106],[-0.795082554061714,45.015257805585954],[-0.794881317219094,45.01517633182151],[-0.795272691478583,45.01481953872147],[-0.795098910355115,45.01471188891482],[-0.7953406547997,45.014697331123585],[-0.795204057414401,45.014575792937244],[-0.795337524834829,45.0144450405155],[-0.794941681128958,45.01443601024133],[-0.794934838357101,45.014316354958254],[-0.795123300631082,45.01417200814642],[-0.79512751546717,45.01406549689773],[-0.795451509792946,45.01398954032126],[-0.795316232910246,45.01358761596147],[-0.795068577821604,45.01351493788232],[-0.795043496658901,45.01338869352704],[-0.795271108938376,45.013109600685944],[-0.79546189678712,45.01301835755178],[-0.795435046282207,45.01286603250303],[-0.795118945013937,45.01290836743819],[-0.795053998445421,45.01275644068499],[-0.795169419642727,45.012640726790345],[-0.795201790656514,45.01238722508736],[-0.79511353812553,45.01232262977161],[-0.794851457139388,45.01233697979639],[-0.794682827345796,45.01215523765652],[-0.794220141510254,45.01192853965939],[-0.794247288609226,45.01180411938022],[-0.794436490233633,45.0117832426604],[-0.794430136636482,45.011670782138964],[-0.794579668729037,45.01164584988195],[-0.794555773193136,45.01157455160564],[-0.794816374541431,45.01151968881964],[-0.794690502814861,45.01144375681656],[-0.794247077718915,45.011576067827185],[-0.794145988512287,45.01135957009704],[-0.793920118050914,45.01134564037775],[-0.793863124596408,45.011160990864255],[-0.79371817652751,45.01108480707814],[-0.793557564703674,45.01124623012712],[-0.79340594837727,45.011034159339715],[-0.793294683798136,45.01122995573257],[-0.793124099120036,45.01118799790817],[-0.793061476010271,45.01107024493608],[-0.793128428438458,45.0107831139579],[-0.792769294933481,45.010546569337386],[-0.792904856160834,45.01029676141685],[-0.792603411435829,45.010105122895],[-0.792393535647878,45.01036467553586],[-0.792245910504685,45.01024891893656],[-0.79206926953163,45.01026756101865],[-0.792045454832034,45.010028596158804],[-0.791865358226582,45.00982741018831],[-0.79186526969699,45.009488480730816],[-0.79176723711544,45.00941069527179],[-0.79185251244596,45.00926266020125],[-0.792281645505257,45.009369720985276],[-0.792305015968546,45.009283289620875],[-0.792077183157873,45.00910897130156],[-0.792195211292632,45.00901300283768],[-0.792481389129653,45.00903569643483],[-0.792149608632608,45.0083961861885],[-0.791746201551596,45.008387403908834],[-0.791655206144942,45.00826340634339],[-0.791656429745499,45.00730606128875],[-0.791917147632778,45.00727193336027],[-0.791766844629468,45.00691018141434],[-0.791811696375517,45.006709439527306],[-0.79213193393696,45.00667238041457],[-0.79219663940343,45.00655839872485],[-0.792308260638838,45.00655549427527],[-0.792376437147345,45.00658652203665],[-0.792374399371913,45.00670647980561],[-0.792246222697486,45.00678386487118],[-0.792310606335745,45.006927698968326],[-0.792730264842981,45.00687643121339],[-0.792604738686691,45.0065616104249],[-0.792698736835471,45.006279867618616],[-0.792940629027572,45.00617426581023],[-0.793286863923849,45.005545889197556],[-0.793198076131884,45.00537945119491],[-0.793369679226173,45.00524920306427],[-0.793262912134953,45.00519244966795],[-0.793363889189173,45.004976271544265],[-0.792977827678946,45.00496059305061],[-0.792817870042571,45.00460638331791],[-0.792887300892679,45.004524690970804],[-0.792801245161679,45.004473540788574],[-0.792917933669321,45.00437671557557],[-0.792730452808534,45.004216347349676],[-0.792942890283677,45.003657436437926],[-0.793159697913954,45.00351933694883],[-0.792889346000422,45.0033735138964],[-0.792862912078808,45.00290838379831],[-0.793149705790478,45.00271561535894],[-0.793144635564413,45.00262204111544],[-0.792909927095036,45.00260841202458],[-0.792789356276192,45.00247911456731],[-0.792495347495012,45.00262164887803],[-0.792394865170978,45.002470032036],[-0.792583283493378,45.00221301352257],[-0.792506449612147,45.00194160362917],[-0.792677359307968,45.0019700290123],[-0.792925632700673,45.00177136339003],[-0.793112680159736,45.00173794149959],[-0.793113375507785,45.00159819848263],[-0.792881536881852,45.00143934383755],[-0.793017928694132,45.00120212712025],[-0.793324665648002,45.001153805594974],[-0.793300154595752,45.00105458459984],[-0.792953197590328,45.00088433266024],[-0.792732115592725,45.0004528838475],[-0.79276514689429,45.00037784135998],[-0.792973165643802,45.000391479307616],[-0.7927745703522,45.000198138528766],[-0.792576902292665,45.00003721674011],[-0.792280798876137,45.000092385080755],[-0.791811875395779,44.99975321756016],[-0.791873464945059,44.99919945243343],[-0.791756083073077,44.999135848759074],[-0.792020056964007,44.998962790659675],[-0.792003418952593,44.998510848417524],[-0.792130869544412,44.99846053034012],[-0.792034666571665,44.9980906256731],[-0.792226524465159,44.99765951756393],[-0.791803256362658,44.997618964566804],[-0.791500969984621,44.997413833694594],[-0.791449205300637,44.997155991703025],[-0.791525802190761,44.99686132238599],[-0.792039807084321,44.99664728789658],[-0.792413916104982,44.99665616396328],[-0.792466767983425,44.996236105797344],[-0.792221657446994,44.996049759664345],[-0.792179676887547,44.99580510557104],[-0.792466378629666,44.99542394594752],[-0.79245035464237,44.9952811677928],[-0.793215044236497,44.995223536114395],[-0.793350091119329,44.994329234489435],[-0.79322329807205,44.993882853267934],[-0.793308241107751,44.99391781495444],[-0.793434424575025,44.993698974041855],[-0.793603944404066,44.993669754071036],[-0.793703132117903,44.99342749564834],[-0.794062972227587,44.99333859820612],[-0.794041764435048,44.99311937699753],[-0.794182470787597,44.992964941349236],[-0.794426366077584,44.993058478652465],[-0.794509381353255,44.993008772316806],[-0.794485187198797,44.992839230801636],[-0.794608025907706,44.992683601460946],[-0.795685074896482,44.99183737143265],[-0.79582062581095,44.991569531352646],[-0.795436840285884,44.991304996745534],[-0.795329956269331,44.991040023884345],[-0.795057447436467,44.991105212785534],[-0.794784379787678,44.99078731951999],[-0.79487146778691,44.99051662763473],[-0.794741745506363,44.990027080662855],[-0.794500567863001,44.98991722639201],[-0.794494033770629,44.98980206856249],[-0.794815023834441,44.98968384571903],[-0.79483835680287,44.989559555829516],[-0.795698304456777,44.989390483673795],[-0.795873637905272,44.98888511517049],[-0.795567310230863,44.988900981083894],[-0.795428917111714,44.988620858819075],[-0.795887862148718,44.988420401828726],[-0.796570018073588,44.98836466013888],[-0.796718972511311,44.98829467206663],[-0.797410051354553,44.98730295304781],[-0.797516788216277,44.987191137846644],[-0.797719418702352,44.987163484247134],[-0.797585850793769,44.986804776787224],[-0.797700772676978,44.98666383657735],[-0.798633486791545,44.98597664574093],[-0.799135133414772,44.985788236628906],[-0.79913683150705,44.98547628932941],[-0.799947282595555,44.984597657354314],[-0.800384513651518,44.98439611969537],[-0.800744231069491,44.98408184907398],[-0.801099939361335,44.98397053256145],[-0.801100953094473,44.98372351027153],[-0.801414797346078,44.98348201741146],[-0.801442404499125,44.98328997351381],[-0.801155259170763,44.98310148028786],[-0.800798673502797,44.982619696523344],[-0.800522724502019,44.98199723899328],[-0.800530407746575,44.981006322575524],[-0.80031005204219,44.98047300737668],[-0.80028155331482,44.97997820425419],[-0.801008851188426,44.97937282919824],[-0.801173585798314,44.97891829262054],[-0.801444189326709,44.97674925309819],[-0.801692883319771,44.97665240975737],[-0.801662649968929,44.976113497262126],[-0.802449754475009,44.973210166907485],[-0.803542914702353,44.971355517822595],[-0.803645136525437,44.96977544905152],[-0.803514600393315,44.968919067297584],[-0.802402550352345,44.96613660066926],[-0.802056097184126,44.96462416786144],[-0.802244968709733,44.96461950928079],[-0.803363505904474,44.96499228031807],[-0.806089337502341,44.966726129075816],[-0.809657344973969,44.96788299398016],[-0.819463984068785,44.97190479632896],[-0.8281855451188,44.97506173322561],[-0.828452596722195,44.97506695878802],[-0.829268130727289,44.975943000147936],[-0.829826543868857,44.9770144911652],[-0.829897851320612,44.97779717904236],[-0.830061558947725,44.97803672749602],[-0.82871069442425,44.97893511191999],[-0.828687597943271,44.97965614897684],[-0.829167914054723,44.980272408853665],[-0.829305261056586,44.98060931965448],[-0.829797331546351,44.98069152616489],[-0.830172447852537,44.981459241198316],[-0.829942713973745,44.981870095203256],[-0.830023798266026,44.98218280234609],[-0.830921044936972,44.98347158240363],[-0.831081482220602,44.984052885608826],[-0.830788775814042,44.987386549991015],[-0.83123847551413,44.98883498101345],[-0.83075028650138,44.99144702668991],[-0.830448918602406,44.99235253196504],[-0.830505831437579,44.99290585421242],[-0.830993511630587,44.99479738832633],[-0.832206111391701,44.99536317193811],[-0.835246085414692,44.99771568086158],[-0.835582659655786,44.99806645012627],[-0.833425805320359,45.00250738205645],[-0.834602503908743,45.0031212596341],[-0.844445548968717,45.011532661148195],[-0.849812182400583,45.0169639736391],[-0.851722191854518,45.01917672406676]]]]}},{"type":"Feature","properties":{"fid":3534,"ID":"COMMUNE_0000000009755215","NOM":"Sainte-Hélène","NOM_M":"SAINTE-HELENE","INSEE_COM":"33417","STATUT":"Commune simple","POPULATION":3068,"INSEE_CAN":"30","INSEE_ARR":"4","INSEE_DEP":"33","INSEE_REG":"75","SIREN_EPCI":"243301389"},"geometry":{"type":"MultiPolygon","coordinates":[[[[-0.933011449485904,44.90254817448162],[-0.933317344367872,44.90246071198122],[-0.933508516343539,44.90281722960305],[-0.936729284367222,44.9056752065354],[-0.936649376012408,44.90569336504764],[-0.936752799916496,44.905811396085575],[-0.94242147497471,44.91080543171209],[-0.944607465003391,44.91257491369091],[-0.949840096244433,44.91717665019447],[-0.950291773222627,44.9176987666129],[-0.964337916186489,44.92709293939284],[-0.976127200861808,44.94863385268366],[-0.977844873534885,44.95002919865027],[-0.980132718579544,44.95117511514477],[-0.980596054701644,44.95133521146601],[-0.980757017626585,44.95154580628301],[-0.981905926731435,44.95211676069109],[-0.988644124805691,44.958169431820835],[-0.988920829171801,44.95829292311273],[-0.988916580512552,44.958607704007534],[-0.994511301236707,44.970790889441915],[-0.994714833250572,44.97145430559166],[-0.994509879345954,44.97418967422303],[-0.992917945144258,44.983819230780554],[-0.990335662928602,44.99091677874061],[-0.990470451595054,44.99093628221618],[-0.990429071154767,44.9910865187426],[-0.985902569922714,45.00340140578079],[-0.985341014323092,45.00449164027502],[-0.980313562368791,45.01163504638503],[-0.980348082753422,45.01199532160349],[-0.979859959585225,45.012226449720394],[-0.977919784053171,45.014540645573526],[-0.977889282976536,45.01473736665606],[-0.978051643857741,45.015304928125666],[-0.965755100254482,45.01597390602491],[-0.95007449681634,45.01969794698828],[-0.942821075050581,45.02071704407988],[-0.926334359423229,45.025888770584444],[-0.926406717750633,45.02603225915005],[-0.924843862511928,45.02651381178955],[-0.918147074580837,45.02789294878499],[-0.917378040838216,45.028148106159236],[-0.917081812594639,45.02802060781952],[-0.895546160462359,45.03242591025238],[-0.895543093053704,45.03230882532077],[-0.887288439504434,45.02982097661553],[-0.878703507079883,45.029140685558446],[-0.857454496600715,45.02627718639608],[-0.865290360461804,45.0182238271396],[-0.864926524309697,45.01823737015979],[-0.86458467222223,45.01812754988692],[-0.863650486724837,45.01748300515442],[-0.862766626839249,45.01729104035842],[-0.862220251143409,45.016943118752685],[-0.861436886214331,45.01691802992604],[-0.860480558568985,45.01703866397858],[-0.859609167868235,45.016787647419854],[-0.859341080668885,45.01678883570429],[-0.858966385128762,45.01690279778543],[-0.858872545212944,45.016998001534944],[-0.858904025660555,45.01767570522189],[-0.85853294310693,45.01762096820724],[-0.857944117762674,45.01776308724494],[-0.857150543355771,45.01777438016632],[-0.856833570394094,45.01785928961877],[-0.856287982047177,45.01807562272521],[-0.856140053270806,45.01845575551207],[-0.855737750316889,45.018538210819514],[-0.855150593616016,45.01881547471501],[-0.854242847324838,45.018737853312345],[-0.85421767711859,45.01909209493717],[-0.854114822283698,45.01914884418526],[-0.853945749023934,45.019148391541115],[-0.853832165965644,45.0189017226039],[-0.853700014316624,45.018846804815254],[-0.853248847094586,45.01899494678508],[-0.852066300417892,45.0190611421264],[-0.851722191854518,45.01917672406676],[-0.849812182400583,45.0169639736391],[-0.844445548968717,45.011532661148195],[-0.834602503908743,45.0031212596341],[-0.833425805320359,45.00250738205645],[-0.835582659655786,44.99806645012627],[-0.835246085414692,44.99771568086158],[-0.832206111391701,44.99536317193811],[-0.830993511630587,44.99479738832633],[-0.830505831437579,44.99290585421242],[-0.830448918602406,44.99235253196504],[-0.83075028650138,44.99144702668991],[-0.83123847551413,44.98883498101345],[-0.830788775814042,44.987386549991015],[-0.831081482220602,44.984052885608826],[-0.830921044936972,44.98347158240363],[-0.830023798266026,44.98218280234609],[-0.829942713973745,44.981870095203256],[-0.830172447852537,44.981459241198316],[-0.829797331546351,44.98069152616489],[-0.829305261056586,44.98060931965448],[-0.829167914054723,44.980272408853665],[-0.828687597943271,44.97965614897684],[-0.82871069442425,44.97893511191999],[-0.830061558947725,44.97803672749602],[-0.829897851320612,44.97779717904236],[-0.829826543868857,44.9770144911652],[-0.829268130727289,44.975943000147936],[-0.828452596722195,44.97506695878802],[-0.8281855451188,44.97506173322561],[-0.819463984068785,44.97190479632896],[-0.822381025867896,44.97069667283272],[-0.825316415561722,44.96934991954495],[-0.827574331129114,44.96821842071229],[-0.84477006406353,44.96024216510697],[-0.845925847761534,44.95921239836562],[-0.853724812824744,44.956143252384955],[-0.857614370746906,44.954330715033215],[-0.859802742495812,44.952465363385606],[-0.859966921394018,44.9520107434181],[-0.860439801818085,44.951411985135074],[-0.860988953347851,44.95103593409281],[-0.861515303679543,44.950531766706575],[-0.86181618575443,44.950661032552816],[-0.862046000107902,44.95055118200579],[-0.865548017499558,44.947638537750144],[-0.894564422087577,44.91296765501892],[-0.900476142391614,44.90494366841034],[-0.905645670421217,44.89812363920328],[-0.926401036760443,44.90155978981463],[-0.933011449485904,44.90254817448162]]]]}},{"type":"Feature","properties":{"fid":3570,"ID":"COMMUNE_0000000009754796","NOM":"Listrac-Médoc","NOM_M":"LISTRAC-MEDOC","INSEE_COM":"33248","STATUT":"Commune simple","POPULATION":2801,"INSEE_CAN":"30","INSEE_ARR":"4","INSEE_DEP":"33","INSEE_REG":"75","SIREN_EPCI":"243301389"},"geometry":{"type":"MultiPolygon","coordinates":[[[[-0.886585408777731,45.087393355016],[-0.883897949617659,45.087671007346756],[-0.880842397282456,45.08660648986542],[-0.879592318948237,45.086453518343774],[-0.878849436945591,45.08609085416779],[-0.878175517365669,45.085548192062284],[-0.873897660233327,45.08327659869742],[-0.872468143443762,45.08271781657416],[-0.871330453400089,45.08236703064292],[-0.871486393382533,45.08134834893599],[-0.870976418245309,45.08050696885837],[-0.870511584046214,45.08018867762517],[-0.87049016373232,45.07964042286209],[-0.870050715829277,45.07937623783716],[-0.868952197502487,45.079075453601604],[-0.868730573407298,45.078244781129555],[-0.86836067722593,45.07762479570366],[-0.867573697724612,45.07702650791918],[-0.867396452875805,45.0757886295579],[-0.867003924244767,45.07553993278569],[-0.866230593100856,45.0752855261072],[-0.865102005155631,45.07460352747554],[-0.863091108983776,45.07277030352426],[-0.862172713750236,45.07225677278531],[-0.860914028783973,45.071955161317625],[-0.859098825487775,45.07221641103531],[-0.856024874956568,45.0723778953541],[-0.854123713474132,45.07275832859537],[-0.853512041762729,45.072928240546794],[-0.852478057418296,45.07344990892484],[-0.847664018016849,45.0742825406057],[-0.845491876207245,45.07496065329549],[-0.843851955601048,45.07536794251846],[-0.840358727075864,45.07650351327106],[-0.838518182245918,45.076547140755174],[-0.830739097012112,45.076040667467836],[-0.828393854993292,45.076517058295956],[-0.827382078517521,45.07565759781459],[-0.826298716094514,45.07529458430345],[-0.824471921315645,45.075036424056826],[-0.824497164259343,45.07350850132476],[-0.821753919186118,45.073316928240445],[-0.821212760946985,45.07334721913981],[-0.821021976437339,45.07491146774002],[-0.82059519144524,45.076410796233034],[-0.821577367277564,45.07804838012012],[-0.821543623355648,45.07950898418712],[-0.822985780272713,45.08078281474135],[-0.823756068401513,45.08224105921273],[-0.824216025121881,45.083440422647506],[-0.824681745664105,45.08539320138197],[-0.824274646830373,45.08786814572123],[-0.824356639929311,45.08808077763086],[-0.825013261617253,45.088824465138],[-0.824997122643402,45.091024566050876],[-0.824879714696495,45.09128010338268],[-0.825804400971723,45.09517688670222],[-0.825687141644534,45.09536030346008],[-0.82328974750561,45.0962773590827],[-0.82366780889885,45.0969107255633],[-0.823048503629632,45.09701130914355],[-0.824202277500344,45.10014573022981],[-0.817988500152393,45.1014135578484],[-0.815837958926303,45.101719812015446],[-0.814821141955547,45.09980209302577],[-0.802817954596572,45.101735911791096],[-0.804037319557917,45.10463389518784],[-0.803818033633696,45.104703581849414],[-0.803357403913676,45.105304345233364],[-0.803329008496032,45.10548560357792],[-0.803033186274177,45.105814813039714],[-0.802984777332119,45.10615090150897],[-0.801661365218865,45.107223712324775],[-0.800648198521202,45.10842294326011],[-0.800656105048365,45.10855789020988],[-0.80092165881721,45.10877509425934],[-0.800866063820979,45.10891220742586],[-0.800429270580237,45.10905961889349],[-0.800156610359595,45.109748607484235],[-0.79907209394055,45.11059238227392],[-0.797630329143327,45.11050721507176],[-0.797618139463568,45.110964662194895],[-0.797558404610644,45.11107847700673],[-0.797413457391002,45.11111857317583],[-0.794705425385137,45.11085205590756],[-0.789275835035096,45.11064380462634],[-0.789225133422222,45.11124768979967],[-0.789960794002274,45.11302825311573],[-0.789978276176181,45.11334226089641],[-0.789218928495672,45.11340864981045],[-0.787372218271466,45.11129445914751],[-0.78150820436263,45.1106111152832],[-0.780013526074225,45.11077811543557],[-0.779552949607344,45.11091362957684],[-0.77948640161572,45.11102135452286],[-0.777951539540389,45.111497979366376],[-0.77613046554867,45.11131902530358],[-0.775950532230471,45.11259343700671],[-0.776115516259815,45.113263920097886],[-0.776062895316103,45.11344598964469],[-0.769879882928396,45.113393924615394],[-0.769451554716533,45.111007911706295],[-0.767200766857028,45.111327415211996],[-0.766583951769696,45.11124189863046],[-0.765648801722758,45.11143846625234],[-0.764711064358302,45.111785651267795],[-0.764344044663368,45.11219557915938],[-0.763375950233629,45.110013479163946],[-0.761860634451464,45.10752984616716],[-0.760700079066652,45.10498194233249],[-0.759815914377521,45.10341897160459],[-0.759214850924876,45.10305524868674],[-0.756652551226947,45.10068711131222],[-0.754772273131856,45.10051072086691],[-0.754446885964985,45.10038467147887],[-0.753911870172708,45.09990421673786],[-0.752519430755747,45.09910740169306],[-0.751337842942733,45.098701896349226],[-0.749824415778869,45.0983390987395],[-0.749687350962792,45.09821210575494],[-0.748974405805668,45.09796207043113],[-0.74812013694676,45.09744546031341],[-0.746954815266666,45.09707271592182],[-0.746095880068992,45.0964670086732],[-0.745206824582653,45.09626614040572],[-0.743673441980191,45.096344723669205],[-0.742841272740673,45.09623296759076],[-0.742284160641607,45.096370670264136],[-0.743020989475685,45.09595199920601],[-0.746148420519702,45.09466872844466],[-0.749228642723406,45.09313906594999],[-0.74984214914183,45.09276145558943],[-0.7508380104299,45.09237367169191],[-0.751888346947368,45.09184973296755],[-0.751807485743147,45.09147927119197],[-0.75216291179562,45.09108690259596],[-0.752337199634826,45.09063122600005],[-0.751304702409518,45.090245042863565],[-0.750598365069986,45.09013001098558],[-0.750616949126135,45.0904448797355],[-0.750491670236647,45.09049326723296],[-0.75002979503963,45.090190619169825],[-0.745758680855182,45.091075289547256],[-0.745754820048878,45.08985941690906],[-0.744883928444182,45.08565478104094],[-0.747732128561762,45.084979373074056],[-0.748773520434662,45.084115028794926],[-0.749183422300441,45.08390923077682],[-0.750693616182356,45.08373669294696],[-0.75213508020117,45.08341230835531],[-0.752766906581336,45.08293039895644],[-0.75271527528176,45.082256079489134],[-0.752792165384946,45.0823021648866],[-0.753393700690273,45.08163467977804],[-0.758414025609265,45.08051347808668],[-0.760099020230435,45.07997163911985],[-0.768790711646192,45.078621376008286],[-0.767795681016013,45.07535404840613],[-0.768003150705527,45.07486476938545],[-0.768163134820763,45.07357663700898],[-0.76734521385876,45.07344566236054],[-0.767191114855589,45.07257469753498],[-0.766371326477643,45.07237797605688],[-0.766468845100105,45.070709760010566],[-0.76557900058735,45.066998078087536],[-0.767400775489276,45.06685081598007],[-0.772737178231553,45.06502683481041],[-0.772853658357519,45.06490570325877],[-0.772973379326994,45.06405972081813],[-0.773587686732326,45.06434177815627],[-0.774042047704916,45.06445888593743],[-0.774939055221781,45.06489631288219],[-0.775751183669527,45.064830013176206],[-0.777010233977001,45.06518483485615],[-0.777039823472618,45.06443655273666],[-0.779028877683861,45.06428161886723],[-0.778790506208546,45.063577586097225],[-0.778565178824512,45.06331120144133],[-0.780900626856574,45.06327608359699],[-0.78141037982485,45.062763889735336],[-0.782108548358398,45.063081813816396],[-0.782862866428411,45.06327072518599],[-0.783302756832322,45.06330535615928],[-0.783755278996606,45.063470262699845],[-0.785093782762627,45.06351400577427],[-0.785017750368623,45.060079457019455],[-0.785460289899427,45.06002204323368],[-0.785457314169785,45.05975261839494],[-0.785579449924454,45.05965922425824],[-0.787829269910188,45.059019306465586],[-0.789384602476629,45.05843543504025],[-0.791365395589647,45.057524256212275],[-0.791831992789008,45.05791580936601],[-0.792024168178653,45.05795523620998],[-0.79232098637967,45.05758725823101],[-0.792506550172061,45.057491695223966],[-0.792641379591236,45.05762321743376],[-0.792895278981153,45.057616369867944],[-0.793242820822692,45.0570213038489],[-0.792530144910426,45.05677065038281],[-0.792395378794274,45.05664002741797],[-0.793149845636624,45.055256771314156],[-0.794351937117061,45.05561693912699],[-0.794767026145818,45.05541799681574],[-0.794699087174751,45.055110221298584],[-0.79550341176393,45.0527949730201],[-0.797110621057776,45.05312867525002],[-0.797501688750003,45.05199575876074],[-0.799786855007955,45.05218189316954],[-0.801346239554871,45.051849206160846],[-0.801778411826478,45.05162170832141],[-0.802252695928918,45.050797825099956],[-0.801784499455057,45.05008365801119],[-0.802088185412041,45.04921962926637],[-0.803020496337918,45.04845581571823],[-0.803569891603585,45.047633866733335],[-0.804670333669035,45.04685617938212],[-0.805790896665893,45.0461877670456],[-0.80933301768478,45.045900726075395],[-0.809395683079545,45.04663415199783],[-0.809586038076996,45.046628538086196],[-0.81480524402432,45.045724113857176],[-0.822531794770374,45.045377881796306],[-0.822913704144985,45.044286639821856],[-0.822531208357751,45.0442529027626],[-0.822573919918718,45.043891760622444],[-0.823212575552438,45.04261321339415],[-0.824742657148559,45.04271298330922],[-0.824591939870542,45.042312513896825],[-0.826909640300044,45.041751469153205],[-0.826894988081956,45.04148154001098],[-0.829703005172672,45.04063584439399],[-0.83003799243566,45.04094162459834],[-0.832861574452826,45.040583895104476],[-0.837166591323195,45.04045176712067],[-0.839999991379704,45.039182149710925],[-0.843409861519629,45.0391617916623],[-0.844891569346113,45.0377998958765],[-0.845736307637925,45.03745609884353],[-0.847249440306567,45.03710721780444],[-0.848487752427674,45.03644149402398],[-0.850217777743995,45.034367798615115],[-0.850879881655764,45.0330341718418],[-0.852600762074738,45.031698141364025],[-0.853086243065249,45.03071767507857],[-0.85719940006346,45.02637527483885],[-0.857454496600715,45.02627718639608],[-0.878703507079883,45.029140685558446],[-0.887288439504434,45.02982097661553],[-0.895543093053704,45.03230882532077],[-0.895546160462359,45.03242591025238],[-0.901444939361583,45.03911378002179],[-0.904207595916594,45.04636039964898],[-0.905229295122504,45.04800763276763],[-0.905423671776149,45.04867873189925],[-0.905698830519271,45.049031475024194],[-0.906120598867842,45.049352929226345],[-0.907561507059066,45.05155607716708],[-0.90913785037358,45.05413037765229],[-0.910274134348146,45.056211679644406],[-0.911728522040799,45.057329818029615],[-0.911051854265235,45.057602407003706],[-0.904102496758136,45.06205270793519],[-0.899061591393933,45.065865980626285],[-0.897696394773452,45.06841721826201],[-0.897589300233113,45.0687058379269],[-0.89762261649907,45.06900126160554],[-0.897491423394161,45.06927269498512],[-0.886585408777731,45.087393355016]]]]}}]}