{"type":"FeatureCollection","name":"COM_16402","crs":{"type":"name","properties":{"name":"urn:ogc:def:crs:OGC:1.3:CRS84"}},"features":[{"type":"Feature","properties":{"fid":4025,"ID":"COMMUNE_0000000009752662","NOM":"Vibrac","NOM_M":"VIBRAC","INSEE_COM":"16402","STATUT":"Commune simple","POPULATION":294,"INSEE_CAN":"07","INSEE_ARR":"2","INSEE_DEP":"16","INSEE_REG":"75","SIREN_EPCI":"200070514"},"geometry":{"type":"MultiPolygon","coordinates":[[[[-0.058559599927338,45.63351317956628],[-0.059453088388375,45.63431704713122],[-0.060218253460555,45.634820709103955],[-0.060939719293473,45.63520750362697],[-0.062006087930375,45.63560563364815],[-0.062222174435017,45.63449583360798],[-0.062551513023311,45.63408675441893],[-0.063094656206128,45.63398996176755],[-0.064348742909311,45.63404322117232],[-0.065313820846371,45.63386463343261],[-0.066059301072412,45.63401193410511],[-0.066428603348058,45.63446416345055],[-0.066389846168504,45.63476170143179],[-0.066181086165608,45.63514407612168],[-0.066210415366278,45.63527935188561],[-0.066347884764599,45.63541888950584],[-0.066687400510231,45.63551867550256],[-0.067416486844961,45.63550871173428],[-0.067650271159486,45.63567085424926],[-0.067687368202664,45.636178097213666],[-0.067559246162162,45.63711158834068],[-0.067934614422547,45.63952727777468],[-0.06852703776985,45.640504201562074],[-0.069049529485785,45.64100721715779],[-0.070055802234689,45.64207918184203],[-0.071704244451899,45.643563464055816],[-0.071061616535303,45.64383693594082],[-0.070350941200504,45.64371755175587],[-0.069965943839778,45.6437253532541],[-0.069783378641921,45.64395472359225],[-0.069882116490865,45.64476217450269],[-0.070655783980673,45.64483568601244],[-0.070984014293692,45.645008763071836],[-0.070803894908995,45.64528222530634],[-0.068479484774025,45.6478977262521],[-0.066753304542905,45.649510100793876],[-0.063652350142992,45.65196191443906],[-0.062648081138084,45.65287779344064],[-0.061783316453237,45.65322664278772],[-0.059468793008758,45.65375638945241],[-0.056964728748877,45.65239069572535],[-0.055860924456519,45.65148257038218],[-0.055207016383099,45.65104253793383],[-0.054482238494124,45.65069183774479],[-0.053087374976373,45.64949060152688],[-0.05117999324177,45.648500600553106],[-0.049705206110568,45.6474321604703],[-0.048895915870175,45.646385323493135],[-0.047632220525366,45.64466861762805],[-0.04646311729496,45.643595464639624],[-0.046310651741238,45.643066110793725],[-0.046122369170641,45.642796356989905],[-0.045977637732296,45.64217397490031],[-0.047259481014279,45.64226182283317],[-0.047699329655952,45.642223776201355],[-0.048580324171292,45.64179799540604],[-0.048898872133672,45.64126038735756],[-0.049053760648708,45.64031718904466],[-0.049392370773444,45.639957463865244],[-0.051348596073462,45.63845987824031],[-0.052585590370874,45.637828857703475],[-0.052677340971672,45.6376290155282],[-0.051678411904034,45.63628636203729],[-0.051188856308738,45.63535162706059],[-0.051018313128816,45.63447131998885],[-0.052054977516948,45.634308928904794],[-0.054015154839129,45.63349335685199],[-0.055231322728615,45.63351170049046],[-0.05609053032543,45.632997233255146],[-0.056665359191622,45.63293926171326],[-0.057375916435211,45.63305963198264],[-0.058034591714121,45.63344995266585],[-0.058559599927338,45.63351317956628]]]]}}]}