{"type":"FeatureCollection","name":"COM_33177","crs":{"type":"name","properties":{"name":"urn:ogc:def:crs:OGC:1.3:CRS84"}},"features":[{"type":"Feature","properties":{"fid":4163,"ID":"COMMUNE_0000000009753936","NOM":"Gaillan-en-Médoc","NOM_M":"GAILLAN-EN-MEDOC","INSEE_COM":"33177","STATUT":"Commune simple","POPULATION":2376,"INSEE_CAN":"22","INSEE_ARR":"4","INSEE_DEP":"33","INSEE_REG":"75","SIREN_EPCI":"200069995"},"geometry":{"type":"MultiPolygon","coordinates":[[[[-1.046155391647602,45.30393410923],[-1.040037311188059,45.307744713608656],[-1.036522531456544,45.31444445821698],[-1.034271533220011,45.31700965025745],[-1.032055748993759,45.32013432660843],[-1.031508242438855,45.32123871048466],[-1.031208077120965,45.322705641592876],[-1.029088807180926,45.32192547894442],[-1.028623567333673,45.321624871143264],[-1.028435484754008,45.32167492396632],[-1.026933435485515,45.3232067663606],[-1.027531452967274,45.32359366285736],[-1.027605656847687,45.32377131346094],[-1.026657159588015,45.32497035359176],[-1.026402136438677,45.324978633582944],[-1.025871103575958,45.32463440013943],[-1.025683008361289,45.3246844483649],[-1.024480386223152,45.326117116778285],[-1.024554583734249,45.3262947694864],[-1.02507841791212,45.3265040265867],[-1.025025069731645,45.326685367630084],[-1.023325554782154,45.328123280243894],[-1.023117214009779,45.32824708259346],[-1.022018697189753,45.32776185300115],[-1.020454600161177,45.329200258309946],[-1.019399137522421,45.329682686998325],[-1.018992410434253,45.32928977448886],[-1.017005964720314,45.33042142799044],[-1.017218070546951,45.33077445405095],[-1.017811598120802,45.33108132145836],[-1.016854366452345,45.33189829927702],[-1.0143954613714,45.33314514298539],[-1.014144441429988,45.332713265129044],[-1.013956373262943,45.33276419300238],[-1.01271904961961,45.33446664439484],[-1.012232926115775,45.33488710071929],[-1.010826069102857,45.335054762773694],[-1.009856261208229,45.33589466629669],[-1.010313136875426,45.3360613139963],[-1.00997131543162,45.33674616642287],[-1.009260543026439,45.33766874150038],[-1.005751160489556,45.337683566092046],[-1.005942238279225,45.33866848848953],[-1.005876554217996,45.33871501922813],[-1.00603854216033,45.33910051481886],[-1.005809798723187,45.339297141337624],[-1.004495313698617,45.33945329714384],[-1.003077987164467,45.34004588679197],[-1.000776262282047,45.340251745961936],[-0.999194295574089,45.34102688595154],[-0.998958999610649,45.34081260166486],[-0.997244358958371,45.34096944962275],[-0.995779906383243,45.34210007818425],[-0.995341930475751,45.342250058628636],[-0.994147502044112,45.342940056075534],[-0.993756763273265,45.34308924510146],[-0.992821612467425,45.343170408854554],[-0.991786220223113,45.343476032659154],[-0.990626173458072,45.34411156925889],[-0.989991317432789,45.34417298096137],[-0.988277768325322,45.345648682060464],[-0.98877790307096,45.34615107319854],[-0.985191195694122,45.34782421866081],[-0.978709146956901,45.35045854974194],[-0.973821917334978,45.349363691660095],[-0.969861747912189,45.34708441418843],[-0.966526392549228,45.349475599212916],[-0.944987093135993,45.33496449255097],[-0.943155916086485,45.33372809443641],[-0.943079608283161,45.33358923822373],[-0.949320970812773,45.328487950685215],[-0.950604287955189,45.327534748389695],[-0.948510367707281,45.32561982667301],[-0.948340374044514,45.32477294358244],[-0.948442944005531,45.32391283193557],[-0.947891376710919,45.32255110026377],[-0.945741873498003,45.318838573352124],[-0.945589289574435,45.31881330365071],[-0.943189508722496,45.32097966103684],[-0.942964957972815,45.32100290487767],[-0.944622810607278,45.31603090743247],[-0.943898143836289,45.31384673219319],[-0.94353129230128,45.31202318385888],[-0.944251231258396,45.31170658553864],[-0.944551647675304,45.310897201848604],[-0.945031317558332,45.31050793293944],[-0.945191077462248,45.31020207505753],[-0.945186615237062,45.309976841301726],[-0.944949108964419,45.309672378267614],[-0.945156010041721,45.30702078956507],[-0.945223300016854,45.30690662121522],[-0.945530120351197,45.30674703615731],[-0.946318804356865,45.30662634032948],[-0.947118123027794,45.30642141781437],[-0.947337893280375,45.306295553891395],[-0.947875410133471,45.30560581048516],[-0.948466128778404,45.30505392793206],[-0.948018986578933,45.304729828254715],[-0.947782108668983,45.304127833040795],[-0.947895506515759,45.303727140082636],[-0.946258746038205,45.302859018945135],[-0.945590219915208,45.302745576838774],[-0.945854182679374,45.301729213930415],[-0.945895132766882,45.300702690668004],[-0.946023128790863,45.30034566145544],[-0.945639937293686,45.29955318884302],[-0.945626809123921,45.29933186763774],[-0.946301828052505,45.29834787599579],[-0.946502947330714,45.297652883129054],[-0.946803278812491,45.29751065171934],[-0.947730231190282,45.29779256659808],[-0.94844944578022,45.29835137958049],[-0.948996461131707,45.29723845924109],[-0.949327089605488,45.296046630557605],[-0.949796150929137,45.294951786104185],[-0.94999735066837,45.29366445452674],[-0.949922225584629,45.29350572913428],[-0.95132918122101,45.29122823538717],[-0.953704995373251,45.28899849577482],[-0.954292617988869,45.28734497158376],[-0.955505167970413,45.28580546472957],[-0.95732855959351,45.284254232554915],[-0.960119601698945,45.28494424288323],[-0.961578581644454,45.28302989376061],[-0.963769619209951,45.28058287761363],[-0.964170457356641,45.279916824147676],[-0.965566202690763,45.27806867000441],[-0.966073415537388,45.27721130689466],[-0.966697731270262,45.27651026393364],[-0.970220259991279,45.27757704666283],[-0.970086180371188,45.277684589611],[-0.972019636013824,45.27858146878388],[-0.978063074294665,45.279502484912896],[-0.982042351694297,45.280360613825415],[-0.987699685112512,45.284213308466846],[-0.995884689612954,45.28529588193543],[-1.007441121029799,45.28647431566413],[-1.007991375289654,45.285708061920005],[-1.018735297723306,45.287762884640394],[-1.019043979278172,45.287898746336204],[-1.021391562715143,45.289543581791776],[-1.024230773423122,45.29173237528347],[-1.026129240245372,45.29277929691352],[-1.028043477753519,45.293460468822346],[-1.028459593655903,45.29349145468969],[-1.030182337776107,45.29397933560526],[-1.031699997469679,45.29403370019659],[-1.032294465112037,45.29416372753868],[-1.037698633429329,45.29827836799887],[-1.046155391647602,45.30393410923]]]]}}]}