{"type":"FeatureCollection","name":"COM_47020","crs":{"type":"name","properties":{"name":"urn:ogc:def:crs:OGC:1.3:CRS84"}},"features":[{"type":"Feature","properties":{"fid":4242,"ID":"COMMUNE_0000000009756310","NOM":"Baleyssagues","NOM_M":"BALEYSSAGUES","INSEE_COM":"47020","STATUT":"Commune simple","POPULATION":188,"INSEE_CAN":"07","INSEE_ARR":"2","INSEE_DEP":"47","INSEE_REG":"75","SIREN_EPCI":"244700449"},"geometry":{"type":"MultiPolygon","coordinates":[[[[0.162732204824965,44.670566225952186],[0.162124646560069,44.670497488837334],[0.16129177477497,44.67014009617903],[0.160450634070335,44.669521235502295],[0.160096576957868,44.66903198727642],[0.159476977689246,44.6684764618377],[0.159153918234339,44.66832402707001],[0.158365671255976,44.668309183416085],[0.157071204534655,44.66886958546853],[0.15655684602263,44.66898068227659],[0.156173752006394,44.668867234000714],[0.155948868599842,44.66869569324069],[0.155569948158854,44.66792472160058],[0.155018014229984,44.66780512514004],[0.154218608027943,44.667886356858375],[0.15399712259149,44.667972545758694],[0.1537494509386,44.668202198237964],[0.153616713847403,44.668655519287476],[0.153719977477844,44.66881042237152],[0.153946106345741,44.66890722834233],[0.154736530278847,44.6689041420679],[0.154976347986385,44.66900490146589],[0.154999833915241,44.66923972957157],[0.154902070833786,44.669350723427975],[0.154472233467772,44.66943785988478],[0.152947466271332,44.669283311719575],[0.15186833953435,44.66897896421995],[0.151679095933294,44.66870203038247],[0.151625550635426,44.66811328899656],[0.151506755573114,44.667966091582024],[0.151275350819297,44.667898873034865],[0.151020225116403,44.66790131026685],[0.150325343558433,44.66818699973652],[0.148739859382704,44.66845963928555],[0.148185110408497,44.66839578948263],[0.147853925196385,44.66825482264819],[0.147651185700743,44.66807032241333],[0.147382776367228,44.66619140471959],[0.146943960151137,44.66610711579139],[0.146207540428165,44.66621603911958],[0.145884861288293,44.66618158751359],[0.14545826913551,44.66578140469309],[0.144791963999334,44.66552817889276],[0.144033925210229,44.665515813634684],[0.142577704328361,44.66572954160569],[0.141293881566514,44.66568014969816],[0.140704656830398,44.66589824241872],[0.1400180421936,44.666293987116184],[0.138967974541402,44.66715958801587],[0.138157929849608,44.66747465449057],[0.137577413889899,44.667570438770085],[0.137295167073638,44.667535206823544],[0.13718898545369,44.66731444834755],[0.137908305501253,44.66682227284101],[0.137955426465579,44.66661539177005],[0.137817942550298,44.66646409164552],[0.136548432348764,44.66640600669716],[0.135619527243134,44.66687382748253],[0.135144746202173,44.66690116859735],[0.134936740197536,44.66677146055],[0.13512915523045,44.66636384689865],[0.135090059779746,44.66621419084979],[0.134927416394014,44.66606133433912],[0.134609305181741,44.66601165321274],[0.134323413987923,44.66614748415013],[0.134062013949426,44.666447006358815],[0.133997081297694,44.66682999496636],[0.134101360091853,44.66753447444056],[0.133935007553269,44.66777700210665],[0.133587128541075,44.66798960087031],[0.132591693097156,44.66837459525175],[0.132941156702123,44.66852779387088],[0.133284904808427,44.668520488292806],[0.133257940117203,44.66877743831135],[0.13370426756047,44.669086292939895],[0.133391012504073,44.66923852949484],[0.132952540997228,44.66922175928726],[0.132871940334595,44.66958992784325],[0.132442732393263,44.669688707299706],[0.132454365422671,44.669931343211815],[0.131917963858525,44.67000301808499],[0.131764903659663,44.66995941070225],[0.13119737604883,44.67024558328482],[0.13144451793137,44.67042496047561],[0.13154623683955,44.670683446032335],[0.131358838945444,44.67076867315278],[0.130861922766759,44.670684615492256],[0.130802391926904,44.67078757241727],[0.130906268799625,44.6713506094297],[0.131022633037072,44.671495064687186],[0.130915533887681,44.67156525735475],[0.130648080157483,44.671536698633545],[0.130341106927382,44.67163954222958],[0.130061664512732,44.67182147526735],[0.130174222998836,44.67213970117172],[0.129885286924045,44.67235922422585],[0.129960983027894,44.67260802755575],[0.129872449059443,44.67290842369398],[0.130000299390841,44.67324866762009],[0.130145252103131,44.67335242545689],[0.131101716481085,44.67346191890445],[0.131261255755223,44.67372550803717],[0.130996319096238,44.67399430378562],[0.131220252267538,44.67410911736742],[0.131561186004501,44.67467830195822],[0.131533246755541,44.674904597472015],[0.130844937073399,44.674834495542946],[0.130652917864849,44.67503491393395],[0.130561473777885,44.67546676297889],[0.130755728022278,44.675891609002086],[0.131106949320649,44.67588720546062],[0.131886065043473,44.67615785206664],[0.132050430235462,44.67642606952844],[0.131823085167107,44.67674989478572],[0.131978989941801,44.67696113796973],[0.131827180193595,44.677165303756965],[0.13193003294712,44.677327425151645],[0.132313161741739,44.677514830038504],[0.13212769636679,44.67773524041449],[0.132176379626029,44.677994152461075],[0.132709915898641,44.67825302055671],[0.132717031042882,44.67841085789965],[0.133103015204867,44.678641575819775],[0.133132255179092,44.67878647340373],[0.132911206441544,44.67901136830031],[0.132950278061052,44.6790871534725],[0.133326216649123,44.67916806511052],[0.133538099879103,44.679396071413294],[0.134047784635788,44.67960296485471],[0.133760632502571,44.679762186907425],[0.133598483367357,44.67999581632172],[0.133486309808442,44.680512714145024],[0.133480959157072,44.681461196256144],[0.133939209664451,44.681637028289494],[0.134304808164836,44.68236809965691],[0.134376752792968,44.68288976788272],[0.13457973079274,44.68334276004571],[0.134917434926605,44.68345600767775],[0.135466589459517,44.68402967103514],[0.135375474849491,44.68408316607541],[0.135748613107101,44.68444326729536],[0.136004103496128,44.68520481445139],[0.136273927166511,44.685113603637575],[0.136593205899339,44.68519213570599],[0.136571038266357,44.685429392864215],[0.137154836670551,44.6855210752253],[0.137260639275678,44.6869670140694],[0.136868272798485,44.68782890820959],[0.136968837680041,44.68830987536237],[0.137579755379602,44.68896170009998],[0.137611515173299,44.68913188632226],[0.137550507442077,44.68938795840227],[0.137120575484697,44.68942368039207],[0.137020402694279,44.68953099524864],[0.137087789350035,44.689646249248824],[0.137716005115276,44.68990844154284],[0.137645129012917,44.69011020592748],[0.137733469341539,44.690335007537676],[0.137597759376142,44.69049545621028],[0.137775845589669,44.69081807232939],[0.137795034700658,44.691111353404764],[0.137685521392879,44.69117878880746],[0.137198420692304,44.69114636772648],[0.136824005609829,44.690909658903784],[0.13664145023005,44.69094817688162],[0.136448716085192,44.69121165028079],[0.136494685330456,44.691524543273474],[0.136090794177522,44.692041103065215],[0.13605755020128,44.69232221714062],[0.136089982894255,44.692379811852376],[0.136412068227859,44.692379139059774],[0.136845933707625,44.692812877835145],[0.137476131132973,44.693061609037834],[0.138063526797724,44.69320833131403],[0.138492317198131,44.69317077360585],[0.139071188701267,44.69333618840396],[0.139209537530626,44.69344696963918],[0.139250634562405,44.6937318081714],[0.139931934486843,44.69429264836854],[0.140076784838273,44.69469818302336],[0.140033358618068,44.69500606122073],[0.139391568973747,44.69570566876832],[0.139259630328436,44.69611485956477],[0.13888785577818,44.69644668017315],[0.138603379131767,44.69672580354072],[0.138642230725262,44.696880858222976],[0.138856305490901,44.697067469862795],[0.138567389713428,44.697732054225014],[0.137583837635195,44.698718303758724],[0.137211193172085,44.69891766805841],[0.137117198305322,44.69939990929217],[0.137908932523687,44.69930507636385],[0.137923499739021,44.69916761868122],[0.138536387366326,44.699112298756795],[0.138500689742819,44.699193355631444],[0.139166197372504,44.69932046936446],[0.138781522341941,44.70030329226608],[0.138830971650016,44.70044871134492],[0.139281903264145,44.70082162125536],[0.139793028601007,44.700954649526864],[0.140083560482369,44.70135223840245],[0.141568217472341,44.7007212436021],[0.142883166062686,44.70029755460673],[0.14739803075482,44.69826904298542],[0.147510039850851,44.69840165619182],[0.147650149371395,44.69840346591954],[0.148429139791223,44.69801094172294],[0.149167505746036,44.69789663661306],[0.150475891934751,44.6975501670611],[0.152890406076165,44.697533939237545],[0.153184273714518,44.69744240371029],[0.153606447498946,44.697161381294265],[0.154804672373536,44.69684445951613],[0.156445286295796,44.69619566250036],[0.157474673026758,44.69609508714108],[0.157925784054342,44.69646612110262],[0.158294115419917,44.696350359649614],[0.158253539973044,44.696203376833125],[0.159323917438913,44.695640790489236],[0.159781062015173,44.69604260102803],[0.160024305965098,44.69562723762858],[0.160320475823764,44.695464574274865],[0.161984933634217,44.69526764459498],[0.163187188542507,44.694893983304375],[0.163539540643145,44.69466879049237],[0.164279568869521,44.69386796925434],[0.164786317168302,44.69323503385113],[0.16492044851445,44.69267813226924],[0.165584077466915,44.69171319086766],[0.166576389084115,44.690716124826096],[0.16654410843641,44.69012793489103],[0.166779270317192,44.690022249623915],[0.167112110127186,44.68910468426851],[0.167270842117278,44.68893668339286],[0.167219874088922,44.68811739484395],[0.167740071224853,44.6866379831737],[0.17051420472232,44.68289832366402],[0.170765968809335,44.68243631537855],[0.170616209486127,44.68149649243638],[0.168299423244138,44.68101471229304],[0.167070933251045,44.68063642919014],[0.165647069800769,44.68032699723154],[0.165302922698147,44.68039114913938],[0.164924246734516,44.680087764611265],[0.164783789267152,44.679266183111864],[0.164937739010925,44.67874132330695],[0.164924228582701,44.67795632750943],[0.164148517260678,44.67249975553403],[0.163956831820729,44.67201918747575],[0.162934401803737,44.671915494014264],[0.162866682570099,44.67175610669921],[0.162943250916574,44.67156438591838],[0.163476511275835,44.67137897247917],[0.16355775785956,44.67119457820709],[0.163463069918938,44.67101918514251],[0.162732204824965,44.670566225952186]]]]}}]}