{"type":"FeatureCollection","name":"COM_40268","crs":{"type":"name","properties":{"name":"urn:ogc:def:crs:OGC:1.3:CRS84"}},"features":[{"type":"Feature","properties":{"fid":4255,"ID":"COMMUNE_0000000009760323","NOM":"Saint-Laurent-de-Gosse","NOM_M":"SAINT-LAURENT-DE-GOSSE","INSEE_COM":"40268","STATUT":"Commune simple","POPULATION":735,"INSEE_CAN":"15","INSEE_ARR":"1","INSEE_DEP":"40","INSEE_REG":"75","SIREN_EPCI":"244000659"},"geometry":{"type":"MultiPolygon","coordinates":[[[[-1.283763952603264,43.54412494048741],[-1.282503602003274,43.54415039010299],[-1.281791984970017,43.54402621123153],[-1.280559333828497,43.544140649902175],[-1.279468227154988,43.544558549746014],[-1.278633304749985,43.54470772927278],[-1.277008846916935,43.54441859572152],[-1.276196472461722,43.54450469460911],[-1.275774028813303,43.544470892408405],[-1.274966373643051,43.54463698930932],[-1.274053855416776,43.54514150201653],[-1.27331956699929,43.545361460783035],[-1.273082858443651,43.545359975189434],[-1.272522610105261,43.545771301406],[-1.27217607586663,43.54625800345894],[-1.271029483342608,43.54664736518996],[-1.269964185502568,43.54759666855999],[-1.269306439310837,43.54791360142603],[-1.266835993959779,43.548542440175524],[-1.267861733045733,43.546027806815005],[-1.266424816969459,43.54457869900969],[-1.264870166000593,43.54249446702379],[-1.264530792189696,43.542378063330354],[-1.265562835260051,43.5413481298038],[-1.267087252224274,43.5405105569334],[-1.267390636767648,43.54002647253669],[-1.267660344980197,43.539122926266856],[-1.267619884158153,43.539011888472245],[-1.267256118221653,43.53875048552111],[-1.26717362983842,43.53852396622164],[-1.266419055810168,43.53750394592371],[-1.26630662890273,43.537157865049316],[-1.265966214097984,43.536993753303975],[-1.265354771566916,43.53628255939488],[-1.264987464608918,43.53618978377414],[-1.264828089119871,43.535861767432586],[-1.26441445826736,43.53547887602517],[-1.264167844595809,43.53541018440351],[-1.264442622200084,43.534624486625304],[-1.264269871592526,43.53456640597734],[-1.264212098711561,43.53440559046719],[-1.264500826662715,43.53434107413743],[-1.264668802028126,43.53418489555317],[-1.264107667809904,43.53418353732914],[-1.262326793131728,43.53365076540339],[-1.261654648207357,43.533138367075416],[-1.260582190722339,43.533205742747484],[-1.260539544810849,43.53309839347379],[-1.25941102821846,43.53262734097366],[-1.258894663660879,43.532261081927516],[-1.258581214771039,43.53192559546609],[-1.256373621277105,43.531598707004385],[-1.254605929118323,43.53097429399143],[-1.254508870012249,43.53063390994401],[-1.254099390122184,43.53040579863772],[-1.253925166563035,43.530127008746796],[-1.25445924886144,43.52941316294617],[-1.253452376272309,43.52904450318798],[-1.252464867667073,43.52836872664093],[-1.247566451931075,43.52149764794868],[-1.248414887385788,43.52126707857484],[-1.24938670330295,43.52079650024718],[-1.250150805046947,43.52027999553839],[-1.250396998049369,43.519390949056046],[-1.250930419117238,43.51855190831601],[-1.250361130404484,43.516732552713215],[-1.260169120150067,43.51309214096253],[-1.266236639139412,43.510375682210494],[-1.275831300386909,43.505060873419],[-1.283103620455574,43.50178950420907],[-1.28782260387787,43.49899441372005],[-1.29109532704649,43.49815125162194],[-1.29328317778822,43.49812856512244],[-1.294975481922828,43.49884450031668],[-1.297973234001815,43.50119177603386],[-1.29897038085743,43.501697350722175],[-1.30646349250135,43.502580204342124],[-1.309525488529495,43.50269004991681],[-1.312980998582206,43.50345723053274],[-1.315144720385324,43.50365402562784],[-1.317933171397637,43.50338437406746],[-1.319932941498764,43.503359640697546],[-1.319805968999513,43.50461716317495],[-1.322545738875756,43.5050981096374],[-1.322395572160001,43.505635720676345],[-1.322048385390443,43.50580905374819],[-1.320253999708866,43.505915740837885],[-1.316923462219666,43.50651790484088],[-1.315760420611551,43.5064272659346],[-1.314814933375795,43.50616756657272],[-1.312381370082796,43.50603826443389],[-1.311636074261587,43.505921948217946],[-1.310682770125901,43.50557422244044],[-1.310258305914561,43.505559568286884],[-1.309864431722397,43.505754540749976],[-1.308873530543261,43.506885108746545],[-1.308534333479968,43.5070995272671],[-1.308346073301593,43.507081782037694],[-1.308389472977482,43.50729720887211],[-1.309425671780759,43.50787503094344],[-1.311163430667579,43.50854658130379],[-1.312196277306845,43.508765895034614],[-1.313545986397758,43.50921497128743],[-1.314893373663246,43.50908925327346],[-1.316087018937688,43.50950396488272],[-1.315280849611514,43.515150531548514],[-1.315053553279785,43.51523977429453],[-1.314900788697258,43.516155921863565],[-1.314389413245997,43.516616893508356],[-1.313241361836413,43.51798082710203],[-1.311432357238199,43.51933229263744],[-1.307817808120862,43.52165564526199],[-1.306010034013382,43.52406660618318],[-1.303276892935236,43.5272846723555],[-1.302865561295213,43.52812456346281],[-1.301955471183662,43.529315833279064],[-1.301688016505703,43.52986167276118],[-1.301351343366496,43.53128518394918],[-1.300871464357492,43.53461560869361],[-1.300380049706997,43.535412713712105],[-1.29721485627073,43.53725561685768],[-1.293538732353318,43.53894384838431],[-1.291472622853965,43.54043308630402],[-1.290658903766157,43.541196043007176],[-1.289911595002894,43.54100845452883],[-1.2886448597361,43.54108018461199],[-1.287922803189842,43.54147907203578],[-1.287526178543351,43.541939875692044],[-1.286544478255004,43.54234541450115],[-1.286020975433168,43.542849071716184],[-1.285505904996952,43.54298476259497],[-1.284932949737502,43.54302542426432],[-1.284877801130689,43.54338171775549],[-1.283763952603264,43.54412494048741]]]]}}]}