{"type":"FeatureCollection","name":"COM_33346","crs":{"type":"name","properties":{"name":"urn:ogc:def:crs:OGC:1.3:CRS84"}},"features":[{"type":"Feature","properties":{"fid":4186,"ID":"COMMUNE_0000000009756775","NOM":"Puybarban","NOM_M":"PUYBARBAN","INSEE_COM":"33346","STATUT":"Commune simple","POPULATION":411,"INSEE_CAN":"27","INSEE_ARR":"3","INSEE_DEP":"33","INSEE_REG":"75","SIREN_EPCI":"200044394"},"geometry":{"type":"MultiPolygon","coordinates":[[[[-0.0540636710341,44.52728577430958],[-0.054043774107217,44.52708091994139],[-0.053191798455933,44.52576486396348],[-0.053244392727188,44.524758005443836],[-0.053127940597571,44.524467535402],[-0.053161788617942,44.52413867166861],[-0.052831735642473,44.52357753706431],[-0.052791382672777,44.52304081775403],[-0.052933366088002,44.521451309130164],[-0.056343794478774,44.52162173839768],[-0.060154411443616,44.52208907036983],[-0.060986447408178,44.52238490568595],[-0.061573801592259,44.52292896737348],[-0.060900832929805,44.52514944532771],[-0.0639131703343,44.52663520073128],[-0.064776361178733,44.527619337224905],[-0.067357618335954,44.52888544758514],[-0.06869532230086,44.52983924658802],[-0.069087804211833,44.530294098771186],[-0.067954589291115,44.53222292663003],[-0.069414131875233,44.532937294802004],[-0.069749949222414,44.53322975683191],[-0.070086134324215,44.53403842881435],[-0.07055042668812,44.53423812398959],[-0.071158920938673,44.53475002321028],[-0.071501966135706,44.53549904116418],[-0.070893592074223,44.536587157049084],[-0.070921833651113,44.537036826518694],[-0.071393520399798,44.53802010629751],[-0.070958904455347,44.53806553629975],[-0.067494856342825,44.538921353830546],[-0.066927812749397,44.53894071885244],[-0.067593189858375,44.53966457404241],[-0.068933667093114,44.54233273961071],[-0.069294723544366,44.54364433674071],[-0.069711542895579,44.54433635630288],[-0.071645939620892,44.543769912514904],[-0.072356103061072,44.543254641097036],[-0.073508662025682,44.54207298093252],[-0.074296900297255,44.54160417115556],[-0.074846065154503,44.541441120805736],[-0.075664508110534,44.5413651588954],[-0.076363038236053,44.544589884882456],[-0.076409061117148,44.54661296155264],[-0.076755240404398,44.54894209311193],[-0.078368827171337,44.54905205660249],[-0.079894025784198,44.54904283914721],[-0.080238730159181,44.54912601404664],[-0.080440839467064,44.54932037738216],[-0.08044619492628,44.54978780532096],[-0.081674770446201,44.55013730043022],[-0.081739818738778,44.550751713977085],[-0.081666086685182,44.55129342433937],[-0.082973436112436,44.551538902731906],[-0.082952895782176,44.55220075311119],[-0.083897759319211,44.55222210591967],[-0.086931933607297,44.552640903690026],[-0.088048784030866,44.55267362761273],[-0.088326645574752,44.55362984267545],[-0.08813981923868,44.55378462346897],[-0.087770075874421,44.55455715009044],[-0.08777723108166,44.55512543366343],[-0.086146526868073,44.55535122452889],[-0.085690488906039,44.55576758834401],[-0.085582851953562,44.55596519699629],[-0.085719001922879,44.55654248739072],[-0.085376893671627,44.55770613528836],[-0.084767496688343,44.55792227150819],[-0.083867364325337,44.557637504731424],[-0.082419153870409,44.557514887778574],[-0.082562781630301,44.55862171617225],[-0.08242723592905,44.55955435419937],[-0.082524204422813,44.559599395428435],[-0.08202981155516,44.56176010360349],[-0.082073737636948,44.56203365939065],[-0.082347059515267,44.562192699266056],[-0.081738786559085,44.56314574303124],[-0.080765958675897,44.5657774716917],[-0.080628232813706,44.565978617732576],[-0.08038652991741,44.566098878700025],[-0.079798618400904,44.565833291379185],[-0.079559574824049,44.56551742839439],[-0.079007084407617,44.56523102877247],[-0.0785241412744,44.56481025129129],[-0.077891948482026,44.56451796074523],[-0.075187593041632,44.56380231532751],[-0.074367665863191,44.56367199542431],[-0.073395353634578,44.56377474621911],[-0.072754584352443,44.56355564087399],[-0.071408660568474,44.56390211121498],[-0.069779969366051,44.56454111888593],[-0.069364785094738,44.56480852443539],[-0.069086719263881,44.56477030815012],[-0.068100719906046,44.565525658288735],[-0.067872952874771,44.56534639837503],[-0.067834253638301,44.56301229000483],[-0.064533799409615,44.563103959462296],[-0.063102775412626,44.563392328282525],[-0.061356089016178,44.56387862468522],[-0.060351746035626,44.56274068581491],[-0.059640591175069,44.56210543270941],[-0.059130703550143,44.56176550394484],[-0.058411612413037,44.56142506284608],[-0.058738269092126,44.561174567196296],[-0.059222482200345,44.56020437819301],[-0.059648651801299,44.55979075904347],[-0.061425025429742,44.5584369839216],[-0.06115094861107,44.55793736992559],[-0.061035849492673,44.55734866108855],[-0.05901368751753,44.55735246583996],[-0.058981678628636,44.55636685309116],[-0.059422051324339,44.556076266173974],[-0.060077387898146,44.55505628505168],[-0.060658425096581,44.554362688696855],[-0.060941285765415,44.55367735845119],[-0.060916145998074,44.552865432470846],[-0.060363811451877,44.55199695368622],[-0.060190198964148,44.551327885435676],[-0.060215648050781,44.55021725705303],[-0.060475741831288,44.54950733449263],[-0.060501261799512,44.549118334222165],[-0.060238329751758,44.54742921066627],[-0.060295280356717,44.54666726346612],[-0.060771659375606,44.54604323585019],[-0.060664306671817,44.5452948544594],[-0.061108974944897,44.54401674365774],[-0.061162242529495,44.5429548961563],[-0.061573310485193,44.54189393401471],[-0.062063342337869,44.53996680824944],[-0.062677873731035,44.53847767031335],[-0.062861235956393,44.53742302346248],[-0.062772535356836,44.53715791597363],[-0.061608198373511,44.536359591483496],[-0.060798893709012,44.535441497643305],[-0.060497224249763,44.534848961240804],[-0.060693822116421,44.534014675052575],[-0.060309782519875,44.53385415526744],[-0.059813081951084,44.533450811492614],[-0.060302028008855,44.5319453532558],[-0.060991365249631,44.53039649576066],[-0.056153240301701,44.53045493961723],[-0.056031098248947,44.53015291709154],[-0.056547426259096,44.52964041560719],[-0.05728166629036,44.52757052069115],[-0.056100613830506,44.52752846782465],[-0.0540636710341,44.52728577430958]]]]}}]}