{"type":"FeatureCollection","name":"COM_24133","crs":{"type":"name","properties":{"name":"urn:ogc:def:crs:OGC:1.3:CRS84"}},"features":[{"type":"Feature","properties":{"fid":4038,"ID":"COMMUNE_0000000009753159","NOM":"La Coquille","NOM_M":"LA COQUILLE","INSEE_COM":"24133","STATUT":"Commune simple","POPULATION":1259,"INSEE_CAN":"21","INSEE_ARR":"2","INSEE_DEP":"24","INSEE_REG":"75","SIREN_EPCI":"242400752"},"geometry":{"type":"MultiPolygon","coordinates":[[[[0.972167474782493,45.5728296313531],[0.971998633095323,45.571589825570925],[0.972031386201496,45.57079953891442],[0.972419887369599,45.5693995424516],[0.97286393365757,45.56872476706156],[0.974667437399221,45.56664407124709],[0.976250779349099,45.565075526447345],[0.976551540524923,45.56438915043594],[0.976908059718876,45.5622445309437],[0.977389211304974,45.562307237415695],[0.978708682557126,45.56223819696529],[0.97944628678355,45.56212535293126],[0.980325987297021,45.561843011044594],[0.981192389736633,45.56174958486722],[0.981472152500146,45.56213113102688],[0.982306135598384,45.56211818304051],[0.983246103235244,45.56222332982106],[0.986218429608031,45.56325035734321],[0.987135429052998,45.56338838795288],[0.987297685496469,45.564005616601136],[0.987546282597099,45.564222649154516],[0.988699342680109,45.56510081931138],[0.989209747153721,45.565171204142175],[0.990035176687548,45.56507697606404],[0.990331492936184,45.56475619764248],[0.990670852123257,45.564556890639814],[0.991797056731333,45.56430138513104],[0.992821271941966,45.563462152999584],[0.993267143945197,45.563366527100804],[0.993817835046757,45.56306739625196],[0.994842099966819,45.56300550719476],[0.995478529517232,45.56313666180729],[0.995946023242593,45.5631522050187],[0.996602318078413,45.56340801282357],[0.99776920225493,45.56419085309291],[1.000750223198996,45.565377980585424],[1.002003636293475,45.565684009535396],[1.002673067596376,45.56607512880848],[1.002905408932043,45.56610447878189],[1.003124346625677,45.56600748342794],[1.003628932928619,45.565563363845385],[1.003798614713669,45.564697142439634],[1.004071633258433,45.56466505999343],[1.004161954222028,45.56457838929073],[1.004362121611843,45.56461076804553],[1.004345377559724,45.56425647139976],[1.004546396204346,45.564158254529126],[1.004705830291341,45.564217833088705],[1.004684859351978,45.56401659096269],[1.004835267141671,45.563970620000575],[1.004763821398075,45.56363967296091],[1.005401012304676,45.56310872484836],[1.005579642879735,45.562634491518715],[1.005757826298726,45.562493531637244],[1.005826410747833,45.56208400157929],[1.006070640855077,45.56188926674752],[1.006350032587487,45.56164381180443],[1.006672109401241,45.56081722192794],[1.006684779354451,45.56032202832083],[1.005047779824459,45.55913280105128],[1.004547429341474,45.558677140344074],[1.004240345521768,45.55808889480624],[1.004218068235449,45.5576390194179],[1.004840822750509,45.557079895998854],[1.005261772157413,45.55603528047929],[1.005717453461477,45.5552723174072],[1.005658916143773,45.55504608844162],[1.004380700971489,45.553618209285204],[1.003981729356758,45.552912132800515],[1.003884575271891,45.55283294157287],[1.002926854557373,45.55272584831231],[1.002697176191053,45.55251729333989],[1.002115024342228,45.55259071497145],[1.002119108982849,45.55240613157295],[1.001930242387342,45.55234602541556],[1.001658889551384,45.55251144384328],[1.001425940824076,45.55246496504697],[1.001293564338016,45.55236712980131],[1.001315865431271,45.55192615344731],[1.000994350798422,45.551811441986445],[1.000769757099266,45.55185338502694],[1.000571244628089,45.55174086074368],[1.000248073479098,45.551067645491806],[0.998799423606901,45.55010596284493],[0.998047554021563,45.549376463542515],[0.996406699151521,45.5483788965502],[0.994267732610923,45.54747329916196],[0.993693149053424,45.54694870486899],[0.994023422319269,45.5463591977693],[0.993494979584038,45.545445395760225],[0.993153075115065,45.54529336557029],[0.99220627538835,45.54517196121666],[0.991498985392374,45.544844052132404],[0.990665811615778,45.54420492526431],[0.989670192962288,45.54369799987142],[0.989166877587278,45.54333138934083],[0.988917102675436,45.54304317789681],[0.988761719246861,45.542555785343325],[0.988749593473914,45.542112392430894],[0.988583280041799,45.54206797977],[0.988181948269972,45.541434762702636],[0.988064544316591,45.54138491972656],[0.988259798293929,45.541161423785674],[0.988078429831549,45.54075463362959],[0.988082748371391,45.54052951999262],[0.988417873186909,45.53994822319139],[0.988599381396243,45.53911376294376],[0.988044270358974,45.538975013299314],[0.987825972218414,45.538773836181214],[0.987874707998277,45.53859635788371],[0.987334390814751,45.53833266341207],[0.987187235607342,45.53747790423853],[0.987628284751946,45.537262416575565],[0.988088371692614,45.53715806212723],[0.988281423777173,45.53699487824515],[0.98762635147834,45.536361618316086],[0.987824013103116,45.53610663996022],[0.987286815442474,45.53572229845416],[0.98774642559163,45.53559541801311],[0.987889797598285,45.53535297854817],[0.988805693109078,45.53455418987854],[0.989280714375182,45.5334358394583],[0.990494908144797,45.53296304885759],[0.991826828470999,45.53139702386596],[0.993558339446727,45.53047406089037],[0.990982070177002,45.52874718919008],[0.989863709177559,45.52770931869525],[0.99023537334008,45.52746105415384],[0.990395167916397,45.52648118230463],[0.990292935080397,45.525942499070084],[0.990508806915413,45.52532483614138],[0.990867895301196,45.52478629974411],[0.98836886859956,45.52578104631104],[0.987633079372573,45.52497429356226],[0.986509761782708,45.52407681782129],[0.985788115036864,45.52330543556317],[0.982568820605389,45.51936716348234],[0.98234678566219,45.5189542279761],[0.981677239009558,45.51819816585134],[0.98070267329631,45.516775454681984],[0.979836518395298,45.51695173868721],[0.978662545748271,45.51689007863262],[0.973796084315944,45.51766620953319],[0.972965203562598,45.5175422218986],[0.971759652577225,45.5168719026487],[0.971193413754132,45.5167292613057],[0.970732756206663,45.51667770093546],[0.969292259720932,45.51700205876033],[0.968424628279105,45.516622455523525],[0.96794877380796,45.516566104900136],[0.967484263618838,45.516619851182746],[0.967450737755505,45.51687055843853],[0.966627141656818,45.517527620812196],[0.966614620610779,45.51779942592008],[0.967181227461659,45.51831681633858],[0.967883826785083,45.518689839612385],[0.968240016668286,45.518795368962415],[0.967781779130505,45.51916720122434],[0.966882784786259,45.51971300808254],[0.966477039719155,45.51984077680457],[0.966181590215555,45.52010565686273],[0.965158189625136,45.520478952215406],[0.964478838526749,45.52104403339861],[0.963993778842621,45.52165677099892],[0.963035936764435,45.52418767812717],[0.959013426890206,45.5256513640546],[0.958341644740002,45.52586794992625],[0.957891675818286,45.52587238010642],[0.957541631463537,45.525773235475334],[0.957006864070031,45.5258184562147],[0.954729668204586,45.526443581576245],[0.953409088734632,45.52698160762059],[0.952444877319063,45.52751620743286],[0.951206066302101,45.52757378541476],[0.950864945770911,45.527788251866774],[0.950477666122423,45.52789918686019],[0.94963412485028,45.52697040634443],[0.949521409529076,45.526448602172636],[0.948666510665627,45.52572408216685],[0.947568532091795,45.525023938151065],[0.947077828446369,45.524501528344246],[0.94698071166021,45.524286269600836],[0.946519021973725,45.524434563645315],[0.946418523771113,45.52465701889576],[0.945501892474452,45.52508253492226],[0.944767806122234,45.52576900601466],[0.944263243789131,45.526036309701354],[0.944080878765696,45.526531100316504],[0.943910918352297,45.52669102936703],[0.94309608674068,45.52713460435168],[0.941013576283234,45.52765312613257],[0.940770648099954,45.52743068458173],[0.94049698545723,45.527518446783695],[0.939547124388571,45.52648945310377],[0.938423704817171,45.52709758001724],[0.937170952262836,45.5275988307019],[0.93623637273632,45.52815906049761],[0.936016471168152,45.528454978729606],[0.934793777332133,45.5288702815943],[0.93425285322264,45.529354861631816],[0.933692586652995,45.52956704825101],[0.933184054822149,45.52962885329907],[0.931928618944013,45.53002730938319],[0.9308943190991,45.53081896246307],[0.930019751596611,45.53114154169338],[0.929439882760955,45.53146594405688],[0.928164520254028,45.53246481280774],[0.926463875367669,45.5333188994465],[0.92623718677834,45.533005746565216],[0.925176472386726,45.532649266291386],[0.923836284212176,45.53191828981903],[0.923552199409184,45.53242017879831],[0.922234879231615,45.533714564561336],[0.919252984192162,45.53554380684586],[0.920192959929222,45.5371384863735],[0.920497403404535,45.538146694679654],[0.920534331401312,45.53859777007897],[0.921468657004572,45.53884025729905],[0.923547990004417,45.53989569483198],[0.924982688841606,45.54067525836056],[0.926236043936178,45.541609092472996],[0.927141304897378,45.542082495685825],[0.928431908585103,45.5426728928343],[0.930386699436282,45.54336288787552],[0.930320997706361,45.544333620524924],[0.930189015357541,45.544332089861925],[0.929955996088462,45.54456470220876],[0.929258954877194,45.54558595442631],[0.92881218613814,45.54580922011905],[0.928262710677824,45.548507741487015],[0.930480273239165,45.549410657060264],[0.931003914324396,45.54949866869236],[0.932284077691338,45.549515028227844],[0.933194239668108,45.55051542692452],[0.933433133620941,45.5511233442807],[0.934167650241999,45.55102335268418],[0.934534191356277,45.552025453926134],[0.936451678841285,45.55145445940033],[0.937433556232614,45.55180487506874],[0.938313345767457,45.551659781568276],[0.939271123700433,45.55176202437435],[0.941534821714588,45.55277725915147],[0.943556019738862,45.55321151107468],[0.944564170584912,45.55330472143497],[0.945907574711969,45.5533121723509],[0.946341051849351,45.553170566486635],[0.947408813893456,45.553177465330045],[0.948547101183405,45.55287217127352],[0.94875814121414,45.55302465215716],[0.947877634237194,45.55343194035514],[0.947294367598634,45.55353298325564],[0.946678474058141,45.55351092124582],[0.945783006743993,45.55383685010854],[0.945495217695947,45.55406038620211],[0.945368938281633,45.55470033193144],[0.945803367416375,45.555191091332716],[0.946765353781143,45.555493318504595],[0.94736621340002,45.5558528965656],[0.946987681922218,45.555999113725655],[0.947608492042881,45.55661667722221],[0.948792376050029,45.55646714572354],[0.949356181283874,45.55769078231451],[0.950465001385097,45.557699300530416],[0.950446315742862,45.5597662425874],[0.950998725042537,45.560397851880346],[0.951359282518726,45.56014860458532],[0.951735386183025,45.56086707364594],[0.952097018955541,45.56225545548319],[0.951464611446556,45.56347619275969],[0.951637718200686,45.56399729468101],[0.951610811473535,45.56587132148051],[0.951743384510999,45.567663582018035],[0.95236544909693,45.56839103438865],[0.952555683217276,45.56848367680806],[0.95460380473118,45.56855339472663],[0.954590604062396,45.568354983652156],[0.955124694088138,45.56823498992544],[0.95517041735266,45.56873395113455],[0.955957446089095,45.56881492397421],[0.956191462320253,45.56890295164902],[0.95629836591835,45.56927331292981],[0.956626224773946,45.56959904924376],[0.957121112879687,45.56988188083566],[0.957584940318288,45.56989391301579],[0.958232762929942,45.57013357885117],[0.958791447505335,45.57021668876245],[0.959429926375877,45.570187746808514],[0.959874922199428,45.57032823846558],[0.961322271024076,45.57181015111405],[0.962512362086595,45.57191820375197],[0.96299535172811,45.57214224262204],[0.963144479511235,45.57248183465034],[0.963523048246703,45.57293007330675],[0.963535965303641,45.57352121534892],[0.964350955540782,45.57322701173984],[0.96498702692743,45.5734042712919],[0.965515323594493,45.57365253929446],[0.96613454877078,45.57379976177452],[0.967549980222696,45.57350018372132],[0.968415737614532,45.57311499010588],[0.972167474782493,45.5728296313531]]]]}}]}