{"type":"FeatureCollection","name":"COM_19171","crs":{"type":"name","properties":{"name":"urn:ogc:def:crs:OGC:1.3:CRS84"}},"features":[{"type":"Feature","properties":{"fid":3918,"ID":"COMMUNE_0000000009755118","NOM":"Reygade","NOM_M":"REYGADE","INSEE_COM":"19171","STATUT":"Commune simple","POPULATION":181,"INSEE_CAN":"02","INSEE_ARR":"2","INSEE_DEP":"19","INSEE_REG":"75","SIREN_EPCI":"200066751"},"geometry":{"type":"MultiPolygon","coordinates":[[[[1.885907297056773,45.00791063545664],[1.887256664138887,45.008483323270745],[1.887061891826137,45.00902255609856],[1.886855397044721,45.01104564050445],[1.886859719427797,45.01216946650907],[1.887733366901717,45.01388188368697],[1.888105577347526,45.01482839165232],[1.887778570540383,45.01620824336119],[1.887842120829856,45.018505972762505],[1.888937909237122,45.019011271794916],[1.889404043010875,45.02021804851608],[1.890375346881541,45.02220246202244],[1.890513901161303,45.02277113840841],[1.890084612062903,45.0230982321556],[1.889920943077146,45.02309209801303],[1.888986460282977,45.02341144788417],[1.888529229971584,45.02380219034614],[1.887165071808258,45.02440178337643],[1.886690728159614,45.02475812967813],[1.886384765782085,45.0253944037293],[1.885348180366911,45.02573701526714],[1.884865585515132,45.02746288797973],[1.88430809284966,45.02861260786613],[1.883599944474087,45.029738303310964],[1.88236307485778,45.03063086965459],[1.882082156153796,45.031089991985375],[1.881750513795017,45.03224466977538],[1.88129524759557,45.032530949550306],[1.880950539394212,45.033003836132146],[1.880757615581433,45.03318919557672],[1.880358057642939,45.03335626869023],[1.880098747350648,45.033685935741474],[1.879863009711656,45.033725886887574],[1.879339491225716,45.03405829704278],[1.879657529574674,45.03485571514764],[1.880504711772554,45.03580252909698],[1.879516552514247,45.03618879919012],[1.879042764457707,45.03695393650256],[1.878806359629185,45.03759719683384],[1.877342176347519,45.03841268356569],[1.875949493885976,45.03895422835612],[1.875344082848568,45.03975584260763],[1.874450432488974,45.0404266735405],[1.874449892148705,45.040516715682934],[1.877114868455165,45.04043736182875],[1.878815233321272,45.04197359545857],[1.880621230125747,45.04191612231114],[1.882614205063624,45.04197215496343],[1.883391214293234,45.041860184928744],[1.88412804266312,45.041852261994904],[1.884531316059508,45.04169241549107],[1.884950062948878,45.041775850629875],[1.887379193641918,45.04167858104547],[1.887299930195202,45.04125726769335],[1.887346938007897,45.040745367596934],[1.887992447702718,45.04079413719372],[1.88794097407978,45.03999670386979],[1.888531303834173,45.04032946908043],[1.889400849425548,45.0401607507109],[1.889553452671322,45.04047113487483],[1.891093255707282,45.040319890171034],[1.892119204662743,45.04001313457526],[1.893487075033041,45.03982052563987],[1.893486426637443,45.04139544647326],[1.894122334570222,45.041352236768326],[1.894700154133432,45.040455699137894],[1.895333385571294,45.040547526981555],[1.895139975028982,45.04095172156082],[1.895582699506581,45.041043458734215],[1.896407809620454,45.041002112168535],[1.89902910335712,45.038493228429964],[1.89892054173911,45.03619955505239],[1.898580217623286,45.035552352709075],[1.899626792135338,45.03554649085656],[1.899941621533981,45.036005239619165],[1.900902425953288,45.03681074304192],[1.90074754380809,45.0377132871977],[1.900909112303306,45.03795800913946],[1.901382288198016,45.038309359555726],[1.901477586622643,45.03850119954978],[1.901453811546346,45.039065560521166],[1.901082039653985,45.03950042217721],[1.900864745407724,45.04060585794457],[1.900243635009079,45.04183607432473],[1.900158282802476,45.04256011166841],[1.900002226403325,45.042874636262205],[1.900486406515742,45.04292624194299],[1.90176320407779,45.04336386269952],[1.903890872708086,45.04458785397393],[1.904420531881946,45.04504240108046],[1.90503057473664,45.04541399201132],[1.905979514923817,45.045863648143246],[1.906483831167906,45.04586139694112],[1.906791005838667,45.04561228020028],[1.907131591960785,45.04547334808899],[1.907446359020845,45.04516037061136],[1.907779612388652,45.045136625037266],[1.908578326022969,45.044627584123404],[1.909469890650461,45.04365480372622],[1.910300079476074,45.04309293143217],[1.910393020757321,45.04288583198504],[1.910295127006027,45.04269487484529],[1.910590470414053,45.04246454229454],[1.911498270413496,45.04215555242559],[1.911695835264164,45.04198909521731],[1.912106667642625,45.04182832302772],[1.912832060035696,45.040970054735375],[1.912875709078391,45.04074986567934],[1.913296513432092,45.04040188889243],[1.913274722951342,45.040150445191415],[1.913506135532598,45.03987535843803],[1.913498230508539,45.03936651599599],[1.913862206474612,45.038411967040055],[1.913702869552242,45.03824562701877],[1.913643840549217,45.037949697300746],[1.913735378714744,45.03742111441008],[1.915034721055287,45.03426953508869],[1.915335671197975,45.03243551264445],[1.91546125587336,45.03224583676983],[1.915872116459262,45.0319481811456],[1.9166438455153,45.031704461820695],[1.918231254729384,45.02992706564526],[1.918742765146788,45.029742035561554],[1.91838322477293,45.029159543689694],[1.918512409241451,45.02897980481116],[1.919721506166984,45.02830988945385],[1.920358160656138,45.02808734630669],[1.920036073445071,45.0251018812715],[1.92044297409414,45.02513734372269],[1.922452205515526,45.02563855633352],[1.92292493423803,45.02588265410158],[1.923384868302428,45.02633013116334],[1.927878149013437,45.02316783808583],[1.929949361322857,45.02201986389529],[1.93074599869185,45.022389503864574],[1.932527786375872,45.02090102937176],[1.931787246422348,45.020785870810634],[1.931215260228667,45.02082000139787],[1.930889500395771,45.02092492901958],[1.929746683964997,45.02079958975295],[1.929605645875144,45.02047316685102],[1.929601409505039,45.01989773067665],[1.929476773112224,45.019576868135935],[1.929614014047178,45.01910544514821],[1.929397706095983,45.018599106400124],[1.92934937259279,45.01747486516551],[1.929885629186073,45.01592042214194],[1.929648163543322,45.01572453995032],[1.929276901950424,45.0146251083383],[1.928741995423751,45.01438314067021],[1.928421981038323,45.01405679500828],[1.927800751777598,45.01388152632445],[1.927292726436922,45.0135623708797],[1.926576072249429,45.01339878212632],[1.925451188238609,45.01327357037713],[1.924948439195121,45.0130111841005],[1.924649486044951,45.012316742195736],[1.924974913303398,45.01163193333837],[1.924886270168518,45.010959333378935],[1.923811221822272,45.00982877124895],[1.923795705429024,45.00938109229098],[1.924041288238503,45.00882157919314],[1.924094596619436,45.008359257887705],[1.923998749041434,45.00832681524026],[1.923980153028024,45.00803938864739],[1.924076218248397,45.007994393839994],[1.923874917461682,45.00657962596216],[1.923556719170628,45.006492806196086],[1.923441850844001,45.006591646239414],[1.923326030248998,45.00654190106556],[1.923310564819398,45.006421990288054],[1.92301989516255,45.006421879430484],[1.922625119359795,45.00609299269467],[1.922447454956319,45.00615700635046],[1.922408208371253,45.006019756461136],[1.922083613915598,45.00586983831896],[1.921653782176587,45.00492289310476],[1.921241688628311,45.00450558857017],[1.920982148894806,45.00381242004422],[1.920739362859935,45.0036993094101],[1.920486001961631,45.0034105060427],[1.919964871518423,45.00325147145421],[1.918263368449906,45.00315750694961],[1.917709979393683,45.003288996752325],[1.916771220542638,45.003067355163616],[1.916661187615601,45.00291590731677],[1.916735454629946,45.00275094556478],[1.9174177749075,45.002515361082466],[1.917480409571825,45.002361091243536],[1.916860984701212,45.00131323253797],[1.916836556546839,45.000869968669264],[1.916613226244606,45.00073632771098],[1.91624556377348,45.00071563922245],[1.916054322061826,45.000629133508085],[1.915918060486241,44.999800283956375],[1.915635615776769,44.99937701768441],[1.915349947017638,44.99918603778371],[1.914966274222083,44.99907514298994],[1.914164558281136,44.99898988388519],[1.913170175359868,44.99895766557565],[1.912687175540199,44.99912583575806],[1.912355519286363,44.99914690725221],[1.912018529830127,44.998985132273965],[1.911363049840659,44.99895080780594],[1.911366698074467,44.998828380948765],[1.91118280374982,44.99875634600545],[1.910958471425528,44.998479510641545],[1.910692222982795,44.99853093238783],[1.910495141072117,44.998680280356595],[1.910081206734289,44.999473134307195],[1.909596934599205,44.99957554517021],[1.908958194281216,44.999919564005374],[1.908800381991588,45.00020256227852],[1.90882989011579,45.001163643220494],[1.908142723607352,45.00184215446689],[1.90771719133413,45.00244579020512],[1.907137026059803,45.002777767704195],[1.906695918322539,45.00287788883857],[1.906309702805199,45.002831772430135],[1.90578390298487,45.0024592157148],[1.906008716493763,45.00193105396753],[1.905967405764797,45.00157676652121],[1.9051488090667,45.00118511977585],[1.905029297346654,45.000546417312435],[1.904614336271373,45.000478400974835],[1.904293397282218,45.00021050594487],[1.904090848570648,44.99914596726796],[1.903643186286949,44.998414885834535],[1.903672755849239,44.997941534697],[1.904237287311182,44.997109666405315],[1.904296690438381,44.99686262467024],[1.904160224544592,44.9960535679178],[1.904020070096969,44.99595223654875],[1.9037241856913,44.99596192847146],[1.903433975497683,44.99581139357392],[1.902839953535356,44.99568667761685],[1.902593405689776,44.99499179246426],[1.902257776073981,44.994698533804154],[1.900199233639438,44.99496455385713],[1.899704840410976,44.99493715496016],[1.899084987220589,44.994771642662315],[1.896734639277107,44.99471054544859],[1.896073027585999,44.99499033057716],[1.89538893559727,44.99505828026122],[1.893584000410599,44.99565356323883],[1.892959033916402,44.995747298897456],[1.892336320515678,44.99611209261196],[1.891006427047617,44.99649144873129],[1.890688691479721,44.99670709421793],[1.890775096201891,44.99702221698026],[1.890094272702493,44.996923581428995],[1.889419646247185,44.99657647579761],[1.88672702179626,44.99566261468704],[1.885974187932365,44.99548489300198],[1.885416961704852,44.99670214231619],[1.885413532019973,44.997065895225425],[1.887132569012655,45.00022661838855],[1.887271421977065,45.001414818645905],[1.886549149313843,45.00314369062083],[1.887159618449523,45.004806652100676],[1.885907297056773,45.00791063545664]]]]}}]}