{"type":"FeatureCollection","name":"COM_33353","crs":{"type":"name","properties":{"name":"urn:ogc:def:crs:OGC:1.3:CRS84"}},"features":[{"type":"Feature","properties":{"fid":4187,"ID":"COMMUNE_0000000009756317","NOM":"Rimons","NOM_M":"RIMONS","INSEE_COM":"33353","STATUT":"Commune simple","POPULATION":196,"INSEE_CAN":"27","INSEE_ARR":"3","INSEE_DEP":"33","INSEE_REG":"75","SIREN_EPCI":"200069599"},"geometry":{"type":"MultiPolygon","coordinates":[[[[-0.010103334387045,44.67893569341076],[-0.009855146155133,44.679229844875806],[-0.009533553460783,44.679898979797],[-0.010087727969703,44.68117133801439],[-0.009956553008701,44.681575823537685],[-0.009308336593226,44.68208807244913],[-0.008676683150011,44.68231967601056],[-0.00809050691847,44.682669863619246],[-0.007458841945203,44.682901460280554],[-0.006139581885485,44.68316885761886],[-0.005197574104978,44.683998084690145],[-0.004911453530474,44.68448154999953],[-0.003545318558681,44.68496010602398],[-0.002869708157891,44.68562351489207],[-0.002610706095975,44.685716133372495],[-0.002412219655053,44.685996305004906],[-0.002370103445361,44.6862722327723],[-0.002068945562311,44.68661645350814],[-0.00203072649618,44.686941826765754],[-0.001802362255316,44.68737236298402],[0.000176949336959,44.68869366201634],[0.000342323556428,44.68888463906966],[0.001479508870678,44.68956233497632],[0.002476815476245,44.689855134419076],[0.002595139540843,44.68995744267709],[0.002926838453723,44.68998985264137],[0.003372889222097,44.690199238805626],[0.004457665569301,44.690961071862525],[0.005254774593175,44.691314193057934],[0.006210864334834,44.69188423003254],[0.008277649554557,44.692777999498986],[0.009088023289939,44.693096314329544],[0.00973856840497,44.69304722858041],[0.010838654828933,44.693261644096495],[0.011300238879472,44.6934173608917],[0.011912797220289,44.693417688320494],[0.015009147411289,44.694382371948],[0.016792945248413,44.69447102097408],[0.017234849068134,44.69435500243434],[0.017814103965102,44.69431656020161],[0.018075060751524,44.694397469202116],[0.018553744080675,44.69485092193926],[0.019553609102194,44.69524183319028],[0.020226201247788,44.69539688871005],[0.022080076146575,44.69542697653384],[0.023737547597876,44.69606618197185],[0.024140915904962,44.695842790116124],[0.024713981225683,44.694678889557515],[0.025235165381977,44.69459199896491],[0.025921662353953,44.69410143072176],[0.027365767996151,44.69354292439148],[0.027557721398445,44.69337600483853],[0.02763506569313,44.692963657938535],[0.028916406818153,44.69242508516919],[0.029888118331146,44.6924403624135],[0.030284978511593,44.6926266945276],[0.030814207832792,44.692721980571314],[0.033379519296853,44.69101777951114],[0.03382909802375,44.69080280113669],[0.034352366134939,44.69036366546713],[0.035239787952101,44.68871714508633],[0.036423545057724,44.68599835855968],[0.038367804027824,44.68243144498608],[0.039316956444962,44.68099917161888],[0.039783762247231,44.67999813602896],[0.041091293493209,44.67801597395197],[0.043214985424441,44.67424298791929],[0.043461004520308,44.673981993788026],[0.043501346684288,44.67280468218048],[0.043402720022442,44.67249483576567],[0.043621735165092,44.67144932888876],[0.043560308754866,44.671248586121635],[0.043043671153955,44.6710131517697],[0.042371587040703,44.67032400458803],[0.041754227723717,44.66876153409942],[0.041422197500547,44.66830490101699],[0.041385141236603,44.66790480713359],[0.041062167583303,44.66768445327732],[0.041011372368073,44.66723354082287],[0.041191314525985,44.667100515920964],[0.040615798661848,44.66577609750777],[0.040464159755889,44.665610777132564],[0.039949572493309,44.66533754381629],[0.039350266171482,44.66475483022244],[0.039184295576234,44.664526060713456],[0.039078587018723,44.66411151540578],[0.037268130986765,44.66301166758606],[0.036981792216089,44.66274363342276],[0.036956533503025,44.662479891276064],[0.03610724502765,44.661875145427274],[0.035688750605626,44.661791855681685],[0.035657450140914,44.66169101575048],[0.034405322296152,44.66108987170436],[0.033972438994265,44.66096835119528],[0.033533952833346,44.66054577482127],[0.033240328763513,44.66044059963407],[0.033211639453842,44.66029027894485],[0.032967669917724,44.66027292246732],[0.0327907448405,44.65989339686494],[0.032093089539695,44.65945485092951],[0.031400603333039,44.659277703058095],[0.03021464779602,44.65871612412155],[0.029520231545008,44.6585758496311],[0.028924401881596,44.657739112817026],[0.028051429495807,44.65765799576984],[0.027888420757132,44.65780496764734],[0.02776817214336,44.657739572712366],[0.027884128072778,44.657479623381185],[0.027242692583082,44.65731643349271],[0.027188999308306,44.65737715288035],[0.026822160264786,44.657320442709036],[0.026082514280185,44.65688973726893],[0.025791852809198,44.65782877806676],[0.025694370827742,44.65850364203929],[0.02373784185261,44.66149068214729],[0.02244096993741,44.66114135195146],[0.020299945069158,44.661096296036256],[0.01952974960719,44.661600774556945],[0.018112046532775,44.662175179525256],[0.017544661122571,44.662162581779555],[0.015539050409662,44.66189585713318],[0.013474731224354,44.66183201869418],[0.013329994750583,44.66191910260709],[0.009051377493476,44.661929593748845],[0.007857240406693,44.66204774421724],[0.006616245577466,44.661360991502214],[0.005604857706819,44.65851642873863],[0.005105753276998,44.657742534990554],[0.004229460306277,44.656822381550235],[0.003778121382491,44.655815536052565],[0.001923195373538,44.6568968156187],[0.001098321265383,44.656078933315044],[0.001356688361393,44.655991343373884],[0.001376260586055,44.65552880031697],[-0.001102351022054,44.651447046718545],[-0.002236797309115,44.65208293083147],[-0.003543497743225,44.65254024696335],[-0.003705361704358,44.65268810584711],[-0.003772011947514,44.65320432599182],[-0.005187299052691,44.653992916819284],[-0.006017232839688,44.65462082457423],[-0.009267115563069,44.6559630961114],[-0.010746338146217,44.656764295472044],[-0.010200109464027,44.657620632921216],[-0.01036487956382,44.65784588388409],[-0.010093181707831,44.65866681792255],[-0.009168900515647,44.6602208482491],[-0.008236276547415,44.66147779108179],[-0.007088165388646,44.66099278568328],[-0.007072074326663,44.66194460264597],[-0.006524359112478,44.66275141014533],[-0.005705139488042,44.66362775831629],[-0.005141837051677,44.66459264448842],[-0.004980106365382,44.665560130953665],[-0.004807369250832,44.665895464900125],[-0.004376500797849,44.66631439006762],[-0.004026593941314,44.66699688812747],[-0.003784702201114,44.66759807067294],[-0.003860104963423,44.667757288872984],[-0.003546751981612,44.667823458600964],[-0.002426749119275,44.668530466100925],[-0.002661446315062,44.66874121817003],[-0.003488895671409,44.66886920566083],[-0.003898088128192,44.66858781411586],[-0.004751794471413,44.6684033576314],[-0.004716335951325,44.66816467391566],[-0.004904439629445,44.668117219719505],[-0.005136110188371,44.6682001170348],[-0.005546510995584,44.66808355628844],[-0.005856613191875,44.66774358676426],[-0.006129671165431,44.667584809041884],[-0.007023346812719,44.667321768141655],[-0.007920944448904,44.6672505111963],[-0.009782428175689,44.66728545649962],[-0.010657449883671,44.66771300651012],[-0.010956107571877,44.66808056445049],[-0.011775598775666,44.66813032577958],[-0.012378008569196,44.66844095777651],[-0.012739279373295,44.66844463119554],[-0.012881327012222,44.66812633629441],[-0.013554471853482,44.66784762705796],[-0.014882589260268,44.667870892045315],[-0.015603922034314,44.66688902947121],[-0.016062767409316,44.66595666449887],[-0.016353357044514,44.66617307159523],[-0.016362944979789,44.66649354229993],[-0.017025400241385,44.66691152429134],[-0.017204281876087,44.66744630363287],[-0.017621080878617,44.66785026269031],[-0.017633186593853,44.66805264259847],[-0.01792122054512,44.668433086024315],[-0.01783505138771,44.668615624224394],[-0.017433855368255,44.66897433140537],[-0.017114785713198,44.669499271459834],[-0.016261866820043,44.670428875317945],[-0.016161010345523,44.67071451920093],[-0.016312522547952,44.67189331475448],[-0.016093860470478,44.67224253392527],[-0.015441551614853,44.67272249935232],[-0.015492288643254,44.673222035989845],[-0.015268905696226,44.67386058232812],[-0.015275681933521,44.67443519435324],[-0.015386334484447,44.674992559787405],[-0.015644795391484,44.67540985431103],[-0.015795711825762,44.67594089575193],[-0.015072195274548,44.6772849957489],[-0.014268375522228,44.67762493320273],[-0.014136653603375,44.67778258259454],[-0.013731456958757,44.67797381008205],[-0.011798510464483,44.67866341721253],[-0.011838734287539,44.67861277058481],[-0.011317664774427,44.678361180882774],[-0.011085864752693,44.67834767032211],[-0.010516322288995,44.6786064245953],[-0.010103334387045,44.67893569341076]]]]}}]}