{"type":"FeatureCollection","name":"COM_24281","crs":{"type":"name","properties":{"name":"urn:ogc:def:crs:OGC:1.3:CRS84"}},"features":[{"type":"Feature","properties":{"fid":4147,"ID":"COMMUNE_0000000009756054","NOM":"Monsac","NOM_M":"MONSAC","INSEE_COM":"24281","STATUT":"Commune simple","POPULATION":178,"INSEE_CAN":"08","INSEE_ARR":"1","INSEE_DEP":"24","INSEE_REG":"75","SIREN_EPCI":"200034833"},"geometry":{"type":"MultiPolygon","coordinates":[[[[0.690104855421786,44.755847300692615],[0.685779110136322,44.75532649551409],[0.68328421562052,44.75547070303652],[0.681170940332768,44.756077693016124],[0.680199284970485,44.75603663589333],[0.679048543731533,44.75586301934064],[0.677443174419647,44.75803607945585],[0.676173261808848,44.75900201800635],[0.675547029120363,44.76005350495877],[0.675436037564944,44.760567275713534],[0.675426723474971,44.761098491604784],[0.675628316108927,44.7615737855182],[0.675723609496384,44.76235758988929],[0.676737428295432,44.76508364706012],[0.676809356779666,44.76652537161566],[0.676936507933088,44.76767102386691],[0.676889200912006,44.76805102771526],[0.676167566161531,44.7693896478144],[0.676281734465556,44.76971719446602],[0.676208001105286,44.770155189766406],[0.676530957341498,44.771580563981516],[0.676002384057355,44.7728052415212],[0.67604261402293,44.773116826913814],[0.675590284906866,44.774729503349064],[0.675178702540644,44.77483615996689],[0.675404139883115,44.77647926535955],[0.676726100786295,44.77732392175755],[0.677299714090958,44.77758093551937],[0.677730556737068,44.778049321811],[0.677836275810002,44.77879641731704],[0.677499135009035,44.779335178530395],[0.677594859478805,44.77983437202524],[0.677902453030852,44.78016416896303],[0.678161998541106,44.78031011591812],[0.678636270825192,44.78003362691773],[0.679069553640759,44.78013727457477],[0.679248643990702,44.78027162641897],[0.678654632273449,44.780446533049],[0.677182282847359,44.781617223991326],[0.676589436080804,44.78191644153891],[0.675996314036909,44.78243632270075],[0.675854224957743,44.782661221444066],[0.675594587188402,44.782792683931284],[0.67547992575639,44.78296591661415],[0.675381367847275,44.78363667564423],[0.675064002213817,44.78384889045048],[0.674603932929448,44.78384194158621],[0.674453483618024,44.7839018344869],[0.673950555392473,44.78447223625249],[0.673386494076361,44.78572498835416],[0.673209939601669,44.78711827717208],[0.672973909895863,44.78728986090291],[0.67302928652448,44.78772426309966],[0.672547892218533,44.78804831869516],[0.672544871109885,44.788151836520505],[0.672871659913881,44.788476646808626],[0.672981827332733,44.78887076690405],[0.673366800065961,44.789104024269534],[0.673359638005716,44.789399305735145],[0.673167511687047,44.78939617383144],[0.672880034112575,44.789527046683176],[0.672911039918085,44.789847448545295],[0.67335703333609,44.79028734802182],[0.673151736510615,44.79038842174773],[0.673380512791975,44.79042294686089],[0.673472313035813,44.790527554119535],[0.673398439871063,44.79072325856326],[0.673234103860034,44.79081258225078],[0.67328945411535,44.791186636782776],[0.673858088788237,44.791597583372585],[0.674205364673721,44.79222275492707],[0.675061169657505,44.79318374666225],[0.675347531698044,44.793324857892266],[0.675696851239485,44.79374830899178],[0.675817790870189,44.79415796421677],[0.675786738019663,44.794480667161906],[0.675412454457842,44.79511952788655],[0.675208482001805,44.79521883223248],[0.67507056029935,44.79540328722566],[0.675120562045366,44.79599880311004],[0.675211302683652,44.7966798399189],[0.67494093077948,44.796793964347515],[0.674913672264107,44.79696362659496],[0.675852337003703,44.79821727851123],[0.675796146621699,44.79865834854408],[0.676186658694842,44.7990042999534],[0.675960329016223,44.799154477885395],[0.676040134030413,44.7994272640477],[0.675802931544691,44.7999320931936],[0.675880202485329,44.80035794697863],[0.676887644232979,44.80025566301561],[0.677370743946689,44.80056572020958],[0.677678452385098,44.80061990328548],[0.678391309113933,44.800145747419606],[0.679070020573544,44.799272759651906],[0.679819172357426,44.79892995778442],[0.680254490716606,44.798803960618265],[0.681816099838954,44.7986375667075],[0.683132169715891,44.798596622655666],[0.684044533395933,44.797638418710065],[0.685178866877243,44.79697216789021],[0.686727035522745,44.795870494548055],[0.687353184721561,44.79565567958193],[0.687962174140749,44.79555038918866],[0.688211804839928,44.79541688646593],[0.689474550671384,44.79568640022939],[0.690128811864728,44.79592611006652],[0.691072935393823,44.79606917292181],[0.691841986775274,44.795947379175665],[0.692216989073837,44.796087589083314],[0.692849436926081,44.79615029084996],[0.693984352752175,44.79605230803179],[0.694136138263002,44.79620678296177],[0.695523495543085,44.796585101383315],[0.696745122792575,44.79665552225194],[0.697527788153001,44.79700413783242],[0.698064670247402,44.79736205610809],[0.698752428375432,44.79755737447814],[0.699401041750961,44.79892548930508],[0.699042153351601,44.79993583414099],[0.700470930601346,44.80029423199949],[0.701630489066576,44.8004614863981],[0.702245984056286,44.80038327273989],[0.704200673542617,44.79957440430332],[0.705015997977451,44.79931116632105],[0.706522572332555,44.798197553130024],[0.706662815436069,44.7980158109652],[0.706934846504345,44.797115335340045],[0.706931444468491,44.79664059723596],[0.706801844849141,44.796251517350164],[0.706274334516208,44.79569388144739],[0.706077012047949,44.795228641642495],[0.706094821487362,44.794110343964014],[0.706540334072301,44.79286398984639],[0.70642670613175,44.78975874045649],[0.707540846966725,44.78774711606537],[0.707821968133185,44.785877683679104],[0.707892182355615,44.78462086620228],[0.708052340945984,44.78429092129403],[0.708539440700979,44.783820922539626],[0.709938324088462,44.78325897836907],[0.710444608300613,44.78284521120822],[0.7126624636939,44.782264120015334],[0.712987283894701,44.78233116895094],[0.714209361799631,44.78210328364467],[0.715627806801457,44.781711003246166],[0.717370756598538,44.78154875956032],[0.717920543604928,44.781370035081494],[0.718616105799815,44.78096463282538],[0.719198036241174,44.78089734857759],[0.719514550407957,44.78088854958679],[0.719649957736208,44.77879723507892],[0.719971441210351,44.777137576784845],[0.717266233106357,44.7766477599701],[0.715074303530533,44.776628711549996],[0.715454177098089,44.77558904177156],[0.715583719264056,44.77492159994217],[0.715297651354735,44.773715085771556],[0.71551575175694,44.77127241407325],[0.712279530104551,44.77110027310893],[0.710845153452642,44.77095806676981],[0.710418218675463,44.77082315043471],[0.709785497781796,44.77046331100117],[0.709086737659048,44.7698625194119],[0.708144830126117,44.76930262990958],[0.706979007179447,44.76896327125946],[0.705582719415314,44.768384949264295],[0.70422621279482,44.76844332038373],[0.703896940856993,44.76851846100519],[0.703624056610262,44.76848218293026],[0.703073770082439,44.76827262617688],[0.702264594866225,44.767808207546196],[0.701422335011902,44.76772048587004],[0.700970598820535,44.76751296260448],[0.699267926332799,44.76703988790631],[0.697690407005104,44.76675312800328],[0.696935921140485,44.7668689504123],[0.695342173917982,44.767410456487305],[0.695077663873694,44.767386040330855],[0.693800027452867,44.76669294477075],[0.692891070194729,44.76675238389992],[0.692623566813214,44.76633880003729],[0.692655356771319,44.765995397254656],[0.692489110384485,44.76576406007964],[0.691992500067334,44.765234017456486],[0.691326437454157,44.764828340462806],[0.689449098735621,44.762917568859514],[0.687761173209822,44.76147637541299],[0.687177065970687,44.76107778689321],[0.687102111026941,44.76093301202205],[0.686578548639901,44.76115265903745],[0.686434679246153,44.760992934356615],[0.686594711977748,44.76042163350255],[0.687116616575459,44.759627309921484],[0.688156963880174,44.758460108612695],[0.690104855421786,44.755847300692615]]]]}}]}