{"type":"FeatureCollection","name":"COM_16366","crs":{"type":"name","properties":{"name":"urn:ogc:def:crs:OGC:1.3:CRS84"}},"features":[{"type":"Feature","properties":{"fid":4041,"ID":"COMMUNE_0000000009752671","NOM":"Segonzac","NOM_M":"SEGONZAC","INSEE_COM":"16366","STATUT":"Commune simple","POPULATION":2093,"INSEE_CAN":"07","INSEE_ARR":"2","INSEE_DEP":"16","INSEE_REG":"75","SIREN_EPCI":"200070514"},"geometry":{"type":"MultiPolygon","coordinates":[[[[-0.170003696038366,45.635055627360764],[-0.163728303320834,45.63393184650769],[-0.161172331302953,45.633713512535216],[-0.161209215253835,45.63174965736001],[-0.161306405702212,45.63147205937477],[-0.16129521238955,45.63071356164611],[-0.161588162005416,45.62812789000927],[-0.160945467672529,45.628097287585526],[-0.160958258860584,45.62697132708708],[-0.161352055133699,45.62574724214594],[-0.161104467210761,45.624537578397124],[-0.161145514175681,45.62404166509333],[-0.162220433022523,45.62226311714747],[-0.163270391942381,45.620790766888284],[-0.165001500734465,45.62137290680658],[-0.171434963940043,45.62270209996178],[-0.172782324267602,45.62301737268538],[-0.173323874420332,45.623233704806026],[-0.173450955008244,45.62316523235557],[-0.175750126913246,45.6233697983228],[-0.176922448299305,45.62320781812676],[-0.178278860899406,45.62321005093572],[-0.178706907725017,45.62234360764616],[-0.179503982763078,45.6201203232636],[-0.18031911604755,45.618302065671394],[-0.17999458692375,45.618219319120996],[-0.17985596780802,45.617997035005416],[-0.180275173447591,45.61735793919584],[-0.182334520742377,45.61611909812756],[-0.182693777835321,45.614370495849876],[-0.183515995843773,45.611896829953864],[-0.18329952286768,45.6109008119604],[-0.182967926341576,45.61053799876882],[-0.182737195713141,45.61005337006277],[-0.182532009678322,45.60847124534409],[-0.182272613625765,45.60818028638962],[-0.181602355382575,45.6077107980334],[-0.18072020609283,45.60741943115063],[-0.182061780959639,45.60710299891546],[-0.183584651859466,45.604869950183556],[-0.184456552712467,45.60388907472413],[-0.184442805782191,45.603672272344525],[-0.184086746434246,45.603329983211644],[-0.184332620449409,45.60284988433037],[-0.185259219252525,45.60183861360966],[-0.18693375081848,45.6003050619982],[-0.187221092132334,45.599408321921786],[-0.187161511234397,45.59846193670538],[-0.1873807403804,45.59763111299666],[-0.187315405848717,45.59741036617463],[-0.189503434229718,45.597262695201955],[-0.190278584756518,45.59714697436772],[-0.191521262263776,45.59714684974183],[-0.19242650396759,45.59723920584616],[-0.193772916911487,45.59719014861508],[-0.19306487432405,45.5966659282535],[-0.192664387290466,45.59486225857205],[-0.192469189449621,45.59330149339399],[-0.192577740005091,45.59318035159094],[-0.193735024009819,45.59294740838644],[-0.19586062168583,45.59272207514781],[-0.198205027987438,45.592885208629085],[-0.203070627247564,45.592826880085816],[-0.203551292989149,45.59272576459409],[-0.203898264856774,45.59226616778384],[-0.205713716750279,45.59222792725381],[-0.205497247526991,45.59072726201295],[-0.205712438489218,45.589965002357694],[-0.205933196087815,45.58843384355042],[-0.206368385568559,45.58728138791252],[-0.206535968678642,45.586273550294244],[-0.206550205244659,45.58494474726823],[-0.206707229507036,45.58417603361751],[-0.20706435413453,45.58358275507795],[-0.207340418731919,45.58263130084135],[-0.207637387681694,45.58212985872729],[-0.208271155208937,45.58137186767324],[-0.209347784851361,45.58132490644856],[-0.211019160329834,45.58086620922915],[-0.211718128490207,45.58074710229976],[-0.213868978754445,45.58083341591734],[-0.214587086336391,45.58088948199291],[-0.215802181875689,45.581127790461075],[-0.216104958304375,45.58110380567918],[-0.216213144620946,45.581287262897824],[-0.21758423527176,45.58149315036997],[-0.218699084632473,45.582126330826036],[-0.219504192679945,45.582817941619],[-0.220511067709118,45.583337039235104],[-0.22318722811068,45.58503844314759],[-0.225516676176141,45.58598459615819],[-0.22733995519068,45.58659105542621],[-0.228160784703808,45.5867783709588],[-0.229525272606705,45.58744033008796],[-0.230577527700574,45.58849246870916],[-0.231145995798543,45.58646458171727],[-0.231730660873321,45.58662982103912],[-0.233240502152445,45.58676844742329],[-0.233143969723392,45.58757782651784],[-0.233504808359136,45.5880423955979],[-0.234683392963942,45.588794358646815],[-0.235813316885043,45.589262020290285],[-0.235286307017844,45.590238805953774],[-0.235947104719079,45.59040994470082],[-0.236512514174344,45.59044233262286],[-0.236995838833422,45.590322069415286],[-0.237200982500155,45.590142223418425],[-0.23717583811275,45.5910081320017],[-0.236641299675512,45.5918778944109],[-0.236511188001462,45.59226556627356],[-0.23641648904456,45.5938968220846],[-0.235900002004806,45.594834554129235],[-0.23616867774081,45.59497281963921],[-0.236697088329817,45.59487649542015],[-0.23829573843659,45.59479530622656],[-0.238854385960342,45.59455750802303],[-0.239281263114326,45.59544734436025],[-0.239441188771988,45.59611866239997],[-0.239295172917459,45.59711242638903],[-0.23842077675376,45.59880129843719],[-0.238385747279725,45.599036628627765],[-0.23861411396778,45.599253556473535],[-0.238387348995434,45.60040375628352],[-0.238811378191668,45.602254395178974],[-0.238749644395962,45.60398744731139],[-0.240814714436679,45.60368821212011],[-0.242959492937193,45.604049049000224],[-0.242421872547227,45.60556872021826],[-0.242514759863194,45.60568590607985],[-0.243848694255904,45.60594663988136],[-0.24575257035091,45.60620442542095],[-0.246458508080266,45.606375107262906],[-0.247048634156437,45.60665096948959],[-0.248078027193708,45.60697272076889],[-0.24949983432043,45.60691361390512],[-0.250978519186304,45.60701416672261],[-0.252580140021049,45.606977760153555],[-0.254487618917503,45.60661794413518],[-0.256468595752996,45.60648217869165],[-0.258309294525681,45.60607916854988],[-0.2584269158371,45.60585225108167],[-0.258934511729401,45.60575011867891],[-0.261471756052855,45.605598138969384],[-0.26162206260619,45.606122810591586],[-0.262365991088606,45.606588802208854],[-0.262623783164658,45.606736336513414],[-0.262698931513388,45.60696577641611],[-0.262380931180778,45.60937142013127],[-0.262351253628313,45.61196336759326],[-0.262886522087432,45.6132456338237],[-0.262862528886288,45.613383319703146],[-0.263812415188179,45.614008257423386],[-0.263819086268027,45.61414325106488],[-0.263343437217191,45.61491951147012],[-0.262731566024685,45.61556363348868],[-0.262103610917442,45.61584771925181],[-0.261209838015865,45.61591419853417],[-0.261197325888801,45.61637780254001],[-0.261431637599267,45.61645302082091],[-0.261369602922402,45.61692617237153],[-0.261455104566497,45.61907587211301],[-0.261184226248536,45.61947036268874],[-0.261200049153855,45.62054599362261],[-0.261619614050892,45.62058249382035],[-0.261131780379944,45.62337789147884],[-0.262150415030097,45.6235538355833],[-0.261896098385529,45.62706436452719],[-0.26006966481554,45.627830204122354],[-0.259604280586991,45.627954545229194],[-0.259510031366537,45.62805551248342],[-0.259553178900076,45.62830841394558],[-0.257915893469285,45.62825130421591],[-0.250692444870508,45.62762934826017],[-0.248941489954403,45.62764839451235],[-0.24879984343373,45.62772999272142],[-0.248088244742967,45.627686555776584],[-0.247853024617493,45.62823138957737],[-0.247829959464196,45.62864842944375],[-0.24811784900676,45.629526938864025],[-0.248120179034208,45.62985131883501],[-0.247495179530995,45.632117062855194],[-0.247367876267324,45.633888975366965],[-0.246647239227026,45.63581770567525],[-0.246314130593121,45.63734501044887],[-0.246396239973118,45.63808796834981],[-0.246255770574725,45.63968001060388],[-0.245854867756962,45.64141024669628],[-0.245736578189672,45.6424825326296],[-0.245733803225149,45.6428953816612],[-0.246445241777153,45.64560562111085],[-0.24625214558124,45.647571395638195],[-0.240409888288039,45.647360374081835],[-0.231408745428462,45.64669997389827],[-0.226052151394257,45.646683348889795],[-0.218591052364969,45.64644910924816],[-0.217439715757777,45.64633784071073],[-0.216421592267835,45.64613082724931],[-0.210971355252674,45.645583538469886],[-0.204981367674764,45.644499816102176],[-0.202630015066238,45.643877334623156],[-0.20126258473403,45.64369364759793],[-0.196322258958208,45.64251291497478],[-0.194211035854472,45.641929402900494],[-0.194199653564069,45.64186573955286],[-0.189483892107805,45.64083064560618],[-0.185361614536545,45.63967942402558],[-0.17819221938946,45.637410160430406],[-0.172104321020686,45.635732701684006],[-0.170003696038366,45.635055627360764]]]]}}]}