{"type":"FeatureCollection","name":"COM_33253","crs":{"type":"name","properties":{"name":"urn:ogc:def:crs:OGC:1.3:CRS84"}},"features":[{"type":"Feature","properties":{"fid":4130,"ID":"COMMUNE_0000000009756560","NOM":"Loupiac","NOM_M":"LOUPIAC","INSEE_COM":"33253","STATUT":"Commune simple","POPULATION":1087,"INSEE_CAN":"12","INSEE_ARR":"3","INSEE_DEP":"33","INSEE_REG":"75","SIREN_EPCI":"200069581"},"geometry":{"type":"MultiPolygon","coordinates":[[[[-0.285200272062246,44.608605821322016],[-0.285235521318853,44.607738878059685],[-0.285436618452436,44.60766171580636],[-0.286563775468377,44.60668029871972],[-0.288330092534643,44.60774862459321],[-0.28965499058881,44.60695771428136],[-0.28994662503146,44.60672467114046],[-0.290715425787209,44.60580704236342],[-0.290771694374909,44.60530168642256],[-0.291218281291504,44.60497932608199],[-0.29135492845547,44.60472746953172],[-0.291420906149463,44.6044101407141],[-0.29122866334213,44.60390407969708],[-0.293075616736135,44.60378325932542],[-0.294131621667757,44.60363824253592],[-0.294023501441873,44.603126073064054],[-0.295784123699835,44.60297444249655],[-0.301040225488494,44.602274166687074],[-0.302933638516032,44.604174630432965],[-0.303554831910596,44.60498231099174],[-0.304023154905812,44.60686139698663],[-0.304063539292313,44.60737828942843],[-0.303916494513679,44.60835581504487],[-0.303299086684459,44.61008896575804],[-0.30286494449664,44.61094622490912],[-0.302282910003918,44.61296124058168],[-0.302020490270222,44.6143602980374],[-0.302133158259189,44.61527149218328],[-0.303188784315814,44.617915145494386],[-0.303698254289113,44.61870815323832],[-0.305676209812194,44.6210926405236],[-0.308093516977132,44.62345764018536],[-0.309992858512404,44.625206472808344],[-0.313148151394128,44.62743393446335],[-0.309115864426163,44.629588431469436],[-0.307611487403283,44.63027141331955],[-0.306134276579092,44.63083732521674],[-0.305972539653027,44.63057545180611],[-0.301375085314868,44.63177162091276],[-0.302459795651997,44.633356601744644],[-0.299787059363594,44.63301113741672],[-0.29805886336349,44.63299964916858],[-0.296028055866034,44.6335747317951],[-0.294540093662367,44.63415431984548],[-0.293597206251479,44.63427973551379],[-0.293036817154618,44.634623514423495],[-0.292550605372715,44.634509150169436],[-0.290368589584579,44.63556528443829],[-0.289908206773051,44.63567720341512],[-0.289635913468897,44.63658995974733],[-0.288717075372197,44.637560699978124],[-0.288093264989377,44.638613661622244],[-0.287208537813328,44.639737452688294],[-0.287397344943072,44.64057251495848],[-0.286402662549115,44.64124003483818],[-0.286441547874767,44.64166867845241],[-0.286913357194323,44.64246559305792],[-0.287154195329907,44.64319729110534],[-0.287306945617498,44.64414966249734],[-0.28721475798394,44.644256925640725],[-0.287335340999522,44.644528159736865],[-0.287298850403932,44.64481127329864],[-0.287486371624303,44.644996719131655],[-0.28745140388509,44.64528429276697],[-0.287622439238874,44.64579280452203],[-0.287957223356949,44.646425296105825],[-0.289363202822697,44.648239634406906],[-0.289322789220989,44.64886616663958],[-0.287497087485954,44.64870602349306],[-0.285820146315357,44.64823957741739],[-0.284462522248067,44.648097008303324],[-0.283745353633677,44.64811470917402],[-0.282987726210112,44.647914652157695],[-0.280946982679821,44.6485257775749],[-0.280041038320463,44.64835803465382],[-0.27971243278137,44.64869756715572],[-0.277721488466666,44.649102616468355],[-0.27534337199849,44.64923166723633],[-0.273749604155964,44.64926085382912],[-0.272144104151946,44.64863170186768],[-0.269817359366741,44.648384279901],[-0.269310855827284,44.648291134898194],[-0.268868750325022,44.64811138553417],[-0.268376401555863,44.64808809906326],[-0.267196860863797,44.64751115892686],[-0.265628598449865,44.64728267963894],[-0.265295769673886,44.64709338123629],[-0.264911002362062,44.647075011283036],[-0.264756247872986,44.64690928524692],[-0.264397951525274,44.64686850685439],[-0.264294424432709,44.64673730907824],[-0.263643284903361,44.64669616473358],[-0.263379809451855,44.64652733935009],[-0.263023131565667,44.64651444102208],[-0.26232366373983,44.64631433075844],[-0.261898110503539,44.64607099367457],[-0.26085929643228,44.64576465332632],[-0.260325876436747,44.6452929259266],[-0.259418460630117,44.64483582846582],[-0.259023587870799,44.64398788261907],[-0.258007443972723,44.643112295932326],[-0.258266046836548,44.64241177795957],[-0.258483699909322,44.642203530394994],[-0.258461532464067,44.64173294274454],[-0.260404515770999,44.64082867673787],[-0.262854034864217,44.63949765042578],[-0.262663778117011,44.638849114614885],[-0.263513644280436,44.63846631395389],[-0.266280699007115,44.6363680599364],[-0.267285427254256,44.635914876553926],[-0.267712078205692,44.635590504702265],[-0.268596487276002,44.63465160295708],[-0.269386340633176,44.634171415442474],[-0.269487892249981,44.633420550699945],[-0.270425471482843,44.63294229229929],[-0.271343017487193,44.6327060965779],[-0.271644265781772,44.63243948261139],[-0.271738047661611,44.63212044223568],[-0.272432847039187,44.631612410218345],[-0.272924224089998,44.63140413633532],[-0.273456917783887,44.631342406636676],[-0.274374645480739,44.63084938346147],[-0.27449301150224,44.63058457535673],[-0.274402736268559,44.630160158036226],[-0.27452576306915,44.62971500423419],[-0.274244658078339,44.62950257873708],[-0.274196862184866,44.62922287104916],[-0.274485456295363,44.62884759810755],[-0.274957582335416,44.62846057837323],[-0.275160667067645,44.62811216554019],[-0.275816624434849,44.62774041749455],[-0.277474615211859,44.626244190218934],[-0.278587047085616,44.624740697024045],[-0.278621300025581,44.624527035769326],[-0.279093947705628,44.62375974356415],[-0.279040637742572,44.623385592677245],[-0.279255027979969,44.62295033660931],[-0.279169902822361,44.6223329488641],[-0.278873075723507,44.62211019043548],[-0.278706261529074,44.62173670460392],[-0.27838605916124,44.62167592426306],[-0.278123196874557,44.621125981082876],[-0.279076640507561,44.62109859226515],[-0.279372376025922,44.62089068653518],[-0.279935981087437,44.620798271084006],[-0.280372819350887,44.62058707506876],[-0.28088405336612,44.62046196998378],[-0.282425090164773,44.62058109236206],[-0.282802775270056,44.62039416960621],[-0.283794686516295,44.62013943601489],[-0.283804370912483,44.61842176850355],[-0.283485506295409,44.618210490274905],[-0.284699993624016,44.617532853184606],[-0.284333375931361,44.61738967396939],[-0.284918374418157,44.61682084775727],[-0.284721818846591,44.61673838957085],[-0.285901699817337,44.615597732305076],[-0.287043114164979,44.614988016666835],[-0.286691621419929,44.614736271132905],[-0.286415274588448,44.61430208173854],[-0.286019815957181,44.61413994384672],[-0.285754542812585,44.61383066801871],[-0.285230235426931,44.61347052699897],[-0.284770113327676,44.61295620021203],[-0.283767493501978,44.61226697792323],[-0.282931864472292,44.61141240106486],[-0.284365576056182,44.61071113096886],[-0.284275089094492,44.61045702579679],[-0.283762413745348,44.6101442885816],[-0.285200272062246,44.608605821322016]]]]}}]}