{"type":"FeatureCollection","name":"COM_33456","crs":{"type":"name","properties":{"name":"urn:ogc:def:crs:OGC:1.3:CRS84"}},"features":[{"type":"Feature","properties":{"fid":4180,"ID":"COMMUNE_0000000009753926","NOM":"Saint-Palais","NOM_M":"SAINT-PALAIS","INSEE_COM":"33456","STATUT":"Commune simple","POPULATION":512,"INSEE_CAN":"13","INSEE_ARR":"1","INSEE_DEP":"33","INSEE_REG":"75","SIREN_EPCI":"243300811"},"geometry":{"type":"MultiPolygon","coordinates":[[[[-0.59448520594731,45.32123281644602],[-0.594030419138745,45.32034335153948],[-0.594003842334622,45.32009001778769],[-0.594092998694731,45.319808628053266],[-0.594685584725916,45.318954009718865],[-0.594755320663188,45.318668736635296],[-0.59469430848058,45.31835701905734],[-0.593799316202998,45.316882287909216],[-0.592581247238122,45.316042581894045],[-0.591991340882242,45.315829876577745],[-0.589453366055913,45.31567970763694],[-0.585579960461327,45.31683241848414],[-0.582517255205758,45.316747586418664],[-0.580644322315674,45.31710501536432],[-0.579182519282991,45.317617811783556],[-0.577748921747889,45.31771505763109],[-0.575780957755496,45.317687856081484],[-0.576199203936092,45.31707868114008],[-0.576452402410461,45.31642610865087],[-0.576654659136008,45.315756235930536],[-0.576642823041796,45.315194162588845],[-0.576303125929055,45.314221636559616],[-0.575359107133723,45.31263116727141],[-0.575140157394548,45.31079307529815],[-0.574080970581523,45.310770145676805],[-0.574034883373227,45.31035068208633],[-0.573385296868437,45.309703530989346],[-0.573460800964846,45.30920807301659],[-0.573083838937269,45.30793207167963],[-0.573194030680536,45.307519332362254],[-0.572970839335932,45.30656921762659],[-0.572296769272003,45.305818286872],[-0.572212405323844,45.305160284227064],[-0.572023142368444,45.30461920416644],[-0.571476214379837,45.30369925929006],[-0.57107431736858,45.3032082349179],[-0.571125566428721,45.30247379234754],[-0.570642635879129,45.301754606857116],[-0.5706436445951,45.301471547696345],[-0.570975707292074,45.3009534774866],[-0.571114222485486,45.30036497243974],[-0.571089043087138,45.29987273289526],[-0.570940983221674,45.299595336152315],[-0.570566486015791,45.29923233070485],[-0.569755166348003,45.29870930952046],[-0.569268482881803,45.29811012070959],[-0.568552421939607,45.29761830234496],[-0.56800448227261,45.297497882201824],[-0.568503024786516,45.297206155705325],[-0.569535918891105,45.2969226060005],[-0.5696009734494,45.29674206004381],[-0.569887016215988,45.296622059955034],[-0.569621539172984,45.295986966550736],[-0.569840867872458,45.295782566114454],[-0.570249306543187,45.295679387992095],[-0.571537810460467,45.29559857377534],[-0.573061100825829,45.295753608444684],[-0.575606017707477,45.295828181756185],[-0.576611887809517,45.29568153473192],[-0.578452168974348,45.295582085973614],[-0.580925820443653,45.29575977202096],[-0.581342971844136,45.29400497468399],[-0.581958886190221,45.29242227727173],[-0.582102396329434,45.29141716502195],[-0.584653086474818,45.291683332318605],[-0.585519890818974,45.291678970206796],[-0.589265250876163,45.29130099134029],[-0.589052375230875,45.29271395931035],[-0.58871934217721,45.29404605548666],[-0.588816957086496,45.29419345040651],[-0.589278885665202,45.29432644541922],[-0.589917340643961,45.29472147677961],[-0.590279925266973,45.29481889898723],[-0.589985485225232,45.29605601831056],[-0.591208481916588,45.29565258738187],[-0.591213726040532,45.29603099406807],[-0.59133828237228,45.29610090536169],[-0.594027240526774,45.29650664522134],[-0.594908507445316,45.29783307356307],[-0.59758030148086,45.29818880667427],[-0.597502721630492,45.298747450154806],[-0.600412336682794,45.29910628173075],[-0.600431740882984,45.29932739506094],[-0.600830976453651,45.29937853572155],[-0.600027231257069,45.300478856601806],[-0.599927653186536,45.30077591092138],[-0.600333625293874,45.30085207529425],[-0.599935452705544,45.30117316608451],[-0.59980331515059,45.30148028232129],[-0.599761089561512,45.303257350409694],[-0.600420041992292,45.3031171526527],[-0.601290708549716,45.30324865741479],[-0.602235612609927,45.30322452994112],[-0.605315806800156,45.30264301837742],[-0.60678974627881,45.302839756534354],[-0.607604308518527,45.30257821820608],[-0.608137587401894,45.30248980196585],[-0.611485254693478,45.30274498115975],[-0.611996869920087,45.30293306880077],[-0.612504065388376,45.30332861481357],[-0.613262972168611,45.30376469977238],[-0.614129398178065,45.3041450246149],[-0.616924293376325,45.3048550819633],[-0.61991554857903,45.30593188911561],[-0.620820441004382,45.306077460468785],[-0.623455782744923,45.30592268772493],[-0.623352145068796,45.30656783421547],[-0.623397865925351,45.307191916012265],[-0.623583726614335,45.307515801445916],[-0.624610704977215,45.3086335912929],[-0.624475182856152,45.309671877130164],[-0.624557243697909,45.31002977304817],[-0.625091507570906,45.31046585408996],[-0.626075437774708,45.31098019646799],[-0.627204382427652,45.31095530265469],[-0.63012605891527,45.312269375333294],[-0.63155090320256,45.31339222200196],[-0.632128301095537,45.31395937675875],[-0.632423037550651,45.3144626972366],[-0.633190519542876,45.31647401730964],[-0.633337426939208,45.31737424537344],[-0.633406146487638,45.318466306631834],[-0.633335637548626,45.318560539508404],[-0.633326837933035,45.318641049546756],[-0.632964624287608,45.318709603589916],[-0.632157065065294,45.318747550223286],[-0.63157551880021,45.31892057291872],[-0.631036984044795,45.31889118524065],[-0.629442395024444,45.31922327546835],[-0.625780359028922,45.319141040023695],[-0.62409290063195,45.31871438841238],[-0.623467726708388,45.31876709416449],[-0.622769525721035,45.318993425883754],[-0.622038173649405,45.31904415432726],[-0.620698724225291,45.319508471995796],[-0.620423344259864,45.3198319709153],[-0.619960839997965,45.32008761167006],[-0.619549343206693,45.3204596816005],[-0.618324900933902,45.321672004851024],[-0.617803296474404,45.32200165882537],[-0.617322108071096,45.32216685200342],[-0.616402992907674,45.32310426943677],[-0.615759471846962,45.323426136804855],[-0.615339964170922,45.32353794799568],[-0.614463313135194,45.323614954326615],[-0.613163977831702,45.32347936038947],[-0.611737445783542,45.32351010803779],[-0.610526802016551,45.32365826008107],[-0.609446821918729,45.323594864311325],[-0.608382665704494,45.32367697177882],[-0.605526923781187,45.32426932654643],[-0.604678378167095,45.324228169951866],[-0.604175865088433,45.32274266237582],[-0.603919453803462,45.322354316818746],[-0.603487898167115,45.321964402464026],[-0.602791399935651,45.32188318039825],[-0.602275467362852,45.32168977616421],[-0.602058141963102,45.32153001992322],[-0.600468961817872,45.32153431490761],[-0.599520641997987,45.3216684955703],[-0.59916266257597,45.321506950662716],[-0.598081612271104,45.32132720379014],[-0.596916736166367,45.32099690840242],[-0.596265672604193,45.32043194905936],[-0.59448520594731,45.32123281644602]]]]}}]}