{"type":"FeatureCollection","name":"COM_16229","crs":{"type":"name","properties":{"name":"urn:ogc:def:crs:OGC:1.3:CRS84"}},"features":[{"type":"Feature","properties":{"fid":4261,"ID":"COMMUNE_0000000009750607","NOM":"Montjean","NOM_M":"MONTJEAN","INSEE_COM":"16229","STATUT":"Commune simple","POPULATION":251,"INSEE_CAN":"08","INSEE_ARR":"3","INSEE_DEP":"16","INSEE_REG":"75","SIREN_EPCI":"200043016"},"geometry":{"type":"MultiPolygon","coordinates":[[[[0.100458854032127,46.061152123255255],[0.098083055904002,46.06143195471464],[0.097767309793829,46.06143018044253],[0.097678182380749,46.06135310769861],[0.09476241792185,46.0622480147205],[0.095255036226863,46.06370329801363],[0.096023260235498,46.06511247252487],[0.096258485489136,46.066172783468566],[0.096702972404731,46.06699695720739],[0.098031481017602,46.070201932414875],[0.098298471653825,46.07139731397372],[0.098627905410844,46.07400901680889],[0.098650700677699,46.074974676437726],[0.098414721543261,46.07586342979089],[0.099173901461023,46.07632078483663],[0.098158614825774,46.07759870044224],[0.097619919091072,46.07791832219543],[0.097536662440838,46.078366740894964],[0.098125162248695,46.07913872295284],[0.098151327748143,46.079427743940215],[0.098722695551388,46.08030381140786],[0.099024135862216,46.081019785085985],[0.099043716649639,46.08123745053679],[0.09863386566845,46.08117650541646],[0.098635102410393,46.081275657854434],[0.100315470582964,46.08287752927164],[0.101593116241476,46.08445646766396],[0.103239562799794,46.086950410264805],[0.103614697857354,46.087817832951316],[0.103803297638095,46.088637239033986],[0.101114832683074,46.089028125024],[0.099896309825861,46.08873115492367],[0.099613652906907,46.08873744454833],[0.097580387953723,46.089007130311266],[0.097173662695838,46.089130986546685],[0.097091029698361,46.08924871803198],[0.097649857212119,46.08980007205738],[0.098093416905591,46.09003309005319],[0.098528717029293,46.090447015628264],[0.099018358448594,46.09113175723578],[0.100333876632753,46.092192641852094],[0.100312915257943,46.092687709428866],[0.100243703393581,46.092821104857634],[0.099069997255406,46.09302267938136],[0.098409249969338,46.09336982462271],[0.097995596610815,46.093991814522205],[0.097281471415914,46.095642378400065],[0.097318276358911,46.09631824259583],[0.097743231717588,46.097002234639525],[0.097333007103165,46.09753420081414],[0.096564626259626,46.09957264796801],[0.096018226356851,46.099739784746724],[0.095195817983117,46.10034950112591],[0.093736934792442,46.10108978974351],[0.093200155924413,46.10146621510642],[0.093269240789838,46.10209424921055],[0.092902518117808,46.10322204155398],[0.094606210221636,46.10412352557443],[0.096583007245272,46.10498150957196],[0.096993521591408,46.10532722144343],[0.097300292280525,46.105895552273175],[0.099174255859505,46.10495046610772],[0.100382320630178,46.10405411565639],[0.100959558319513,46.103450713360225],[0.101170642382027,46.10286318506251],[0.101954618640424,46.101778468125296],[0.104142722068773,46.09980957496857],[0.106559348404384,46.09733555134181],[0.107118249098552,46.09700378378514],[0.107827025060258,46.09714620536253],[0.109512867449105,46.09718196020533],[0.110066784100843,46.097116775096175],[0.110662712503334,46.09689316388128],[0.110943264333869,46.09690301176005],[0.112849337702911,46.097750802109694],[0.113239907716193,46.09771298273729],[0.11485351708531,46.096214965489644],[0.115181493021431,46.09608633993375],[0.115695602983861,46.09618681732385],[0.117572261336824,46.09690492351827],[0.118076461697229,46.09731781607036],[0.119259742681144,46.097822741297975],[0.1211881398281,46.094912515741065],[0.121501404932348,46.094100474413935],[0.121526746879111,46.093394664332855],[0.121335489841658,46.091830027605994],[0.121117553199674,46.091441534547705],[0.120445549952589,46.09074685991967],[0.120978620995448,46.09041076782418],[0.121424600392139,46.09072304915939],[0.122403542437131,46.09028112244483],[0.122098134403143,46.0898318416213],[0.122435256970413,46.089478156534774],[0.122441265595967,46.08886917351715],[0.122142541366905,46.08826777825767],[0.121555330118916,46.088377229256956],[0.12138092538472,46.087726723151754],[0.121300018783184,46.086774922683816],[0.120631389635856,46.085918137262986],[0.120132645278793,46.085452227944934],[0.120372560583848,46.085025796262904],[0.120806671994223,46.08373564412703],[0.121464631952791,46.0805706000282],[0.122725474196955,46.07822912654975],[0.123519289257931,46.077238241959556],[0.126770616007473,46.07498324041561],[0.127952276573829,46.07407514146866],[0.131409770382836,46.070765561501844],[0.129622845541085,46.070103100754444],[0.128595014000322,46.07005184860279],[0.127583603075915,46.07030557028055],[0.127120461056814,46.07029924423883],[0.127006524716782,46.07022517179822],[0.127280470888028,46.06892283313324],[0.127386537959112,46.0688254995478],[0.12817500197751,46.06879951548812],[0.128461363073102,46.068720263220996],[0.128751722114341,46.06851495943045],[0.129121725251154,46.06787554579089],[0.129589079244231,46.06770175364127],[0.129815116672402,46.066943354654384],[0.129508270673416,46.06686980798019],[0.129302102452782,46.066678063838516],[0.127527985918222,46.065922177234995],[0.126709223313667,46.06543917490169],[0.126593939852638,46.06566332745568],[0.12595884525332,46.06602478710566],[0.125514693738963,46.066497412408495],[0.124496403780862,46.066710381957336],[0.123497307370097,46.06715000264087],[0.122638601727713,46.067380520554096],[0.121528473208238,46.06633141103868],[0.121344772857434,46.06635378019155],[0.119240441039109,46.06409627059184],[0.119036987321637,46.0641992320937],[0.117357527860863,46.061199165870605],[0.116321164834494,46.06148639147241],[0.11549979549049,46.06162318886866],[0.113031731759939,46.06151711905226],[0.11241209253589,46.06141123016157],[0.111612049905421,46.06114214962269],[0.110558491923502,46.0609188660954],[0.109431995453302,46.06080274543036],[0.107706036177336,46.060320796488114],[0.107161942716251,46.06025555260328],[0.103521652068869,46.06038698363536],[0.100458854032127,46.061152123255255]]]]}}]}