{"type":"FeatureCollection","name":"COM_86012","crs":{"type":"name","properties":{"name":"urn:ogc:def:crs:OGC:1.3:CRS84"}},"features":[{"type":"Feature","properties":{"fid":4133,"ID":"COMMUNE_0000000009750599","NOM":"Asnois","NOM_M":"ASNOIS","INSEE_COM":"86012","STATUT":"Commune simple","POPULATION":132,"INSEE_CAN":"06","INSEE_ARR":"2","INSEE_DEP":"86","INSEE_REG":"75","SIREN_EPCI":"200070035"},"geometry":{"type":"MultiPolygon","coordinates":[[[[0.373147072795842,46.102634917247336],[0.37301678019013,46.104843825494164],[0.373252723935049,46.109577668919776],[0.375031748066183,46.11298221439791],[0.376374520254871,46.116655047584274],[0.377254014003203,46.116659156166136],[0.379176103836252,46.116426051297054],[0.380676801942205,46.116552593848105],[0.382016887165243,46.11624384076037],[0.383647426547595,46.115712017292545],[0.384147506725338,46.11568480154545],[0.384596195622378,46.115757309456264],[0.386364687434517,46.117116183870785],[0.387060464537942,46.11790434464526],[0.389788682245245,46.11924560819848],[0.391671178328394,46.11998263670209],[0.392712199261972,46.12067868414387],[0.393599082910227,46.121619852497744],[0.394388456001906,46.121640677730525],[0.395312086047844,46.121480778651105],[0.395598833974173,46.121363023090645],[0.39586610043353,46.12110967318172],[0.396003264532593,46.12062178679365],[0.396536124819119,46.11990421752573],[0.397608598114338,46.11958283547418],[0.397957495953566,46.11938360924775],[0.398222764489458,46.119062635133574],[0.398819793884332,46.117673497010486],[0.399608647735639,46.11655544048473],[0.401736717522561,46.115690585713594],[0.403671173911867,46.114699632045934],[0.404166603928865,46.11471546900607],[0.404722788715044,46.115090380158755],[0.405395557256094,46.11530127321321],[0.406228315469126,46.115306792353365],[0.407231166251421,46.11494769263426],[0.40848774306371,46.11544309517644],[0.409480148553531,46.11544232475778],[0.410332567660631,46.115717653392785],[0.410887225586964,46.11549425238797],[0.411402247739487,46.11539698194191],[0.411752552926724,46.11544100969429],[0.41225656440755,46.11576964420935],[0.41268817104845,46.11590291687911],[0.413862678810803,46.11596932692958],[0.414732031932493,46.11572064237674],[0.41502138721864,46.11571101530554],[0.416884715187115,46.116033638954605],[0.4166162104168,46.116260879294124],[0.419266328655852,46.11787083430575],[0.420496680341341,46.11776996305698],[0.421853412497206,46.11779177805795],[0.422243448848837,46.1179006440959],[0.422412063155334,46.118062142718486],[0.423219856072978,46.11964906912382],[0.424212533027792,46.12052751872993],[0.424506337618701,46.12122432637585],[0.425679955417239,46.12205821490632],[0.426808635097755,46.121115266818],[0.430143435173427,46.12001235084829],[0.434555395235016,46.11653892841157],[0.436339942967002,46.115999028997344],[0.437135764511467,46.11560255832506],[0.444417372870178,46.11099255378439],[0.446756005467033,46.10967392959815],[0.448472857195954,46.108938617775934],[0.451009298664432,46.108126190946614],[0.452803043542488,46.10564738808617],[0.45282554748724,46.10524606608374],[0.452513171800577,46.10527869624219],[0.452248541454244,46.105454748834674],[0.450321258103227,46.105062792206176],[0.448314905387839,46.105118603033],[0.446744276402352,46.10374264698257],[0.446419925949889,46.103782198511745],[0.445596511733357,46.10327354376615],[0.444694747635194,46.103168550740044],[0.443355131497205,46.10167431461463],[0.442097636578959,46.10236674459306],[0.442240543297673,46.10196813693154],[0.43486402512232,46.096737303730755],[0.434959042032578,46.09639438234652],[0.43465699044802,46.09565236615186],[0.433377618987841,46.09531710403764],[0.432136734397107,46.09510072472468],[0.431606842437837,46.09372106429359],[0.431416182225638,46.093810448484646],[0.430432616638359,46.09396296435271],[0.429424738888177,46.09397076629225],[0.428425610501652,46.09373639741975],[0.42760003788734,46.09369515793535],[0.426833644730734,46.09330297620076],[0.425744450090998,46.09322240794453],[0.425134150286455,46.09298151473343],[0.424439200634493,46.09255760176026],[0.423608036253801,46.09224951898093],[0.423216539349107,46.09231360633212],[0.422989714044435,46.09251117245718],[0.422608732271654,46.09257189273491],[0.421640015170391,46.0925183477045],[0.420715644373492,46.09220992703527],[0.419864642309372,46.09224193207726],[0.419717626861147,46.09184306250058],[0.418545743642039,46.09049197643007],[0.419032126893007,46.090420153386916],[0.418195321358061,46.08880098807339],[0.417430812941524,46.088729528433575],[0.416222991920822,46.08665862156035],[0.414131397847914,46.08829037656565],[0.414111141663325,46.087042968482315],[0.413708002190886,46.08622740742215],[0.413369008395479,46.08512229296514],[0.413166423286602,46.08480503567168],[0.412873049067387,46.08454607259828],[0.412348223392993,46.08425299801055],[0.411733141529925,46.08403444428898],[0.411272105832838,46.083706780998895],[0.410164658648522,46.082287694695715],[0.409994937214394,46.08218020747137],[0.40960333596863,46.08202801030299],[0.408985821596332,46.08197156079091],[0.406693900752017,46.081921888016794],[0.406133100152856,46.08113062206624],[0.405421381550715,46.07909435546154],[0.40373977790685,46.07761161033509],[0.401944380591349,46.07878321495013],[0.401113707304376,46.079183139569125],[0.400179132676426,46.079890613461856],[0.399992753551937,46.08084678431441],[0.399559322696438,46.08075846324806],[0.397800913460868,46.082948960915814],[0.397760350352009,46.08312191934203],[0.39731833125066,46.08346045720958],[0.397166662434171,46.08379214144855],[0.397323272000884,46.08409395898831],[0.397222755590925,46.08430248182573],[0.395982032668123,46.085019116875635],[0.394288185045806,46.085242406124735],[0.391395864795734,46.08610844692605],[0.389896684820615,46.08716595250103],[0.388846891694651,46.088248199800624],[0.387744310516092,46.089159838038825],[0.385071291479724,46.09213096680311],[0.38420343460928,46.09333179342639],[0.381841581425801,46.095227945581364],[0.38125940767155,46.09581276372008],[0.38066595437349,46.09674239600354],[0.380007108507161,46.09746779395557],[0.378583064537356,46.09940896165249],[0.378162217453661,46.09967854361953],[0.376919753109708,46.10022916177694],[0.375349148157063,46.101357818585676],[0.374415044984441,46.10179661265095],[0.373147072795842,46.102634917247336]]]]}}]}