{"type":"FeatureCollection","name":"COM_24119","crs":{"type":"name","properties":{"name":"urn:ogc:def:crs:OGC:1.3:CRS84"}},"features":[{"type":"Feature","properties":{"fid":4098,"ID":"COMMUNE_0000000009753658","NOM":"Cherval","NOM_M":"CHERVAL","INSEE_COM":"24119","STATUT":"Commune simple","POPULATION":226,"INSEE_CAN":"16","INSEE_ARR":"3","INSEE_DEP":"24","INSEE_REG":"75","SIREN_EPCI":"200040400"},"geometry":{"type":"MultiPolygon","coordinates":[[[[0.41042211418804,45.36861722099176],[0.408609706531673,45.3691113505477],[0.407741181821579,45.36942729741868],[0.407113069728823,45.369877638274716],[0.405284790756552,45.371916453397404],[0.404987386127097,45.372126687928336],[0.404014655231367,45.37245550885823],[0.400757024368773,45.371020432764745],[0.400222872617289,45.37112695748979],[0.398546743455707,45.37050692837165],[0.398474551905596,45.3702466820142],[0.397159727906544,45.36832505935955],[0.396718711296708,45.367834607409],[0.396197185241209,45.368299979538676],[0.395606961435275,45.368676360682954],[0.39329076851046,45.37127213372153],[0.392054600875655,45.37206591190255],[0.387924610598209,45.37135881913015],[0.385372727489338,45.371724513234824],[0.385166316509251,45.371166514545244],[0.384787052553152,45.36933685145955],[0.38395765826635,45.36960578098293],[0.383467589753386,45.36991596842523],[0.383472943890006,45.37004673039964],[0.383902195021213,45.37067660844224],[0.38193104453611,45.37103326528732],[0.379798264820303,45.37094013844097],[0.378181128967128,45.37099869093969],[0.377842123125337,45.370896154269474],[0.37678216923964,45.370279408453015],[0.375935902876059,45.3701460623342],[0.37438390985553,45.370287171269645],[0.372839307035173,45.370325724188284],[0.370847039145375,45.370911433901995],[0.368291316516837,45.371518105467175],[0.368090560111069,45.371492665630576],[0.367765278452059,45.37118140021054],[0.367655473688849,45.37117881919654],[0.366749590441672,45.37211613325004],[0.364980346417981,45.373252962229536],[0.362643657816785,45.37452055604368],[0.361357660329479,45.37492542456449],[0.358823984656926,45.37535762166536],[0.356994988753277,45.376212725272616],[0.356847304346781,45.37654980096213],[0.356258859284044,45.37690800648237],[0.354315511359299,45.377665768953776],[0.353669619854892,45.377860432402294],[0.351976344137461,45.37811682551595],[0.350775897163838,45.378439810187636],[0.351141156097721,45.37962870384072],[0.351411872327404,45.38100456169182],[0.351721430150908,45.38167228341365],[0.35230746150323,45.382252840322025],[0.353774334825934,45.38270014371157],[0.354496380217198,45.38305595963382],[0.354890463374888,45.38347970676591],[0.355226458097838,45.3840228090612],[0.355907895983026,45.385932707841],[0.355367541546486,45.386971368566954],[0.355202878187791,45.387987364594814],[0.354874589851198,45.38886795736351],[0.354710882584578,45.38991731134706],[0.354126498725694,45.39075131195401],[0.353218716430937,45.39150198923599],[0.353551094004771,45.39169183527275],[0.353447732008115,45.39195607722597],[0.35378410640367,45.39249198502592],[0.354232710330162,45.39225481701567],[0.355084947528324,45.39280650640393],[0.35453991348098,45.39351170111855],[0.355709474204972,45.39400600904365],[0.355042373101619,45.39450831245757],[0.35414897116256,45.394955715250354],[0.354217340979592,45.39548078699261],[0.354862583402224,45.39748173625732],[0.355159902067894,45.39910867951054],[0.355471497427151,45.401995500014465],[0.355330283998301,45.403593172103264],[0.355532678273147,45.40364029402842],[0.355631829681191,45.403760659723545],[0.357147498872051,45.40402796529086],[0.357857532172711,45.40440058864986],[0.359323898798087,45.40476400510886],[0.359163263700622,45.40599182959574],[0.358164257706807,45.40868557394668],[0.357754205641328,45.40851283254458],[0.356314843836317,45.40924740379756],[0.357151969984657,45.41028433322397],[0.356889107849405,45.41086285679983],[0.356928901996319,45.41158636537637],[0.357657306251372,45.412570272354415],[0.357918821621002,45.41277374826951],[0.358345932023017,45.412776609122105],[0.358916383610469,45.412670226555704],[0.364736119849931,45.41098098651528],[0.365875331941241,45.410937495106495],[0.366654049709877,45.411078326405914],[0.366938561550671,45.410877791623264],[0.367226089873963,45.410856617310316],[0.367568679620776,45.4111583769839],[0.368874251900075,45.41105929968109],[0.36953751490677,45.41112622452137],[0.371447034983725,45.410508827752736],[0.371764075904353,45.410512659888724],[0.372662358010642,45.41072202292867],[0.374448637739596,45.41073595792877],[0.37462091071944,45.41069044150562],[0.374705602292844,45.4104951167983],[0.377154300409279,45.408072133298454],[0.377905650681621,45.40759959895624],[0.378688518113262,45.40672957673407],[0.379461231357988,45.406562954875376],[0.379790909840921,45.40684094939753],[0.380026634323594,45.40685997527854],[0.382260955534395,45.40659145449745],[0.383901399219763,45.40654867898287],[0.384175557230921,45.40648480513403],[0.38456039071128,45.406243324093346],[0.385099631330625,45.40611806369562],[0.388369088858364,45.40608439496079],[0.388063417184925,45.40551237634526],[0.390096209109916,45.40400380612968],[0.390426813688432,45.403935826528226],[0.391263769896564,45.403379610681334],[0.392358992332254,45.40345195307553],[0.393531261487166,45.40392699753801],[0.394223649307415,45.404107974073625],[0.394827215312787,45.40375532382545],[0.395621284623126,45.403021494340756],[0.395851460404478,45.402421409585855],[0.396138453641745,45.402028060127634],[0.396930752433322,45.40141310594681],[0.397180726563905,45.40109997905374],[0.397828293716361,45.40078977952638],[0.398209041241136,45.40049680550348],[0.399238173040029,45.3992467654065],[0.399938362225531,45.39890444115585],[0.401050955968387,45.39895908463745],[0.401488051018377,45.399101661070134],[0.401808054156895,45.3993964824677],[0.401861373330434,45.39962385517729],[0.402622281601672,45.39978835036356],[0.40273802556932,45.39993878779256],[0.403220568286879,45.399875194279055],[0.40349549488936,45.40004013132014],[0.404535325578933,45.40020206720182],[0.405005212772756,45.400190427377744],[0.405945634236744,45.39998877070009],[0.40784603578396,45.39933001993509],[0.40953479386438,45.398711391896185],[0.411184418084212,45.397971109472095],[0.411977770136042,45.39752095038968],[0.412775128086758,45.39692943142162],[0.413766793747454,45.39675141789949],[0.414075733810997,45.396625210268596],[0.414164372867428,45.396506530608946],[0.414724096035472,45.39544192802803],[0.414462688226747,45.39531607113328],[0.414756946857566,45.394075065371275],[0.415246834963695,45.3928890254683],[0.41552142115589,45.39163044723082],[0.417367431450009,45.39150094066887],[0.419540878133957,45.39090055082757],[0.421901626243328,45.39058912527302],[0.421891746037222,45.38978166231646],[0.4221992404754,45.3874508193606],[0.422018380465665,45.38721511773279],[0.421203412981849,45.386619762720805],[0.421558480369243,45.38632432207945],[0.420213183613682,45.38564107265188],[0.420151488169623,45.38553784638858],[0.420744270431861,45.385106436627474],[0.42180716178795,45.38460025672458],[0.423435009157015,45.383516954065755],[0.423524035197141,45.382229769767584],[0.424248088758699,45.379155330460144],[0.428020296670192,45.38247905380224],[0.428304414861422,45.38197475060065],[0.428094978207523,45.38133388595523],[0.428332781364014,45.3801167857414],[0.42464862087071,45.37829063883736],[0.42417360917819,45.37822385786335],[0.424019539991197,45.37776894855882],[0.423656119320076,45.377638963880585],[0.422542642275797,45.37752955860046],[0.42172214537263,45.37553943744333],[0.420908792772163,45.3755747661045],[0.419358702140104,45.375977812984125],[0.417821448556914,45.376241490465695],[0.417321822175987,45.376375020243394],[0.416968736403139,45.37660111993513],[0.416792516419016,45.37610154279804],[0.417022094596626,45.37426803524599],[0.417529904654223,45.37178236353144],[0.417434127627385,45.37142248508432],[0.413934007331048,45.37209128991605],[0.41383019367541,45.371712302672],[0.413789137963256,45.37014823631753],[0.413662403652139,45.36957501909705],[0.412656128918952,45.3696103347795],[0.412567170052111,45.3693794424278],[0.41183773043917,45.36917879570114],[0.411407146891634,45.368763423251224],[0.41042211418804,45.36861722099176]]]]}}]}