{"type":"FeatureCollection","name":"COM_47107","crs":{"type":"name","properties":{"name":"urn:ogc:def:crs:OGC:1.3:CRS84"}},"features":[{"type":"Feature","properties":{"fid":4115,"ID":"COMMUNE_0000000009757711","NOM":"Galapian","NOM_M":"GALAPIAN","INSEE_COM":"47107","STATUT":"Commune simple","POPULATION":334,"INSEE_CAN":"06","INSEE_ARR":"1","INSEE_DEP":"47","INSEE_REG":"75","SIREN_EPCI":"200068922"},"geometry":{"type":"MultiPolygon","coordinates":[[[[0.401128186608099,44.318482697239475],[0.401362028739436,44.31836213639347],[0.401649635333922,44.31832750485585],[0.401849470970036,44.318127784613715],[0.402277575744509,44.317928954591196],[0.403346043263319,44.3176623910741],[0.403834544534117,44.31767843051029],[0.404077115708425,44.31750403260101],[0.404383190395562,44.3174220968552],[0.40483204976516,44.31835853822883],[0.409208578399518,44.317679110849],[0.410894545819457,44.31699292298817],[0.411263980875023,44.316924168623],[0.412019035721791,44.31698157214437],[0.412145393221592,44.31748349254894],[0.412463536592151,44.31757653986723],[0.412814897048208,44.31757400106496],[0.413273628260057,44.31733532189427],[0.413484183260799,44.31711962262201],[0.41352020822466,44.31688000348795],[0.416221313922176,44.315139568149334],[0.418289154550733,44.31430013384283],[0.418439085986969,44.31447837512791],[0.418648430916093,44.314536427376915],[0.419502708927709,44.3143700539017],[0.420327810166764,44.314183175651564],[0.421969745276521,44.31396321310355],[0.423639258724381,44.313163874130424],[0.424993122857493,44.313016370592166],[0.427852531542283,44.312087226285335],[0.427485764009614,44.311656255136754],[0.426769871905993,44.31104149096568],[0.425227299544423,44.30918702726408],[0.425222345177154,44.30899237809004],[0.427627874035212,44.30797245953421],[0.428261034273037,44.307618022149164],[0.429064174482377,44.307359419631425],[0.429306676716282,44.307156148540635],[0.429617867916212,44.30718053723077],[0.429954536850967,44.3069749635915],[0.431277115544511,44.30560452387268],[0.431755567838955,44.30523114208887],[0.430744026540639,44.30455455941443],[0.430740120728104,44.30441937627592],[0.431289305674884,44.30400712263528],[0.431771386450795,44.303830159508486],[0.430531412083092,44.302964512379475],[0.42708334081247,44.301179895796025],[0.425191130858836,44.30001612419272],[0.424921046966865,44.30005392684128],[0.42433665114018,44.29969529904813],[0.423764893740557,44.300134907233506],[0.422987362890792,44.29988702347354],[0.423534894874392,44.29926312642614],[0.425154228010155,44.2984265799913],[0.425575404764949,44.2980437795435],[0.426303110908659,44.29759340540232],[0.427593242258238,44.29646542411313],[0.428016180990132,44.29596017373988],[0.428765953082052,44.294386341361985],[0.429577141474952,44.29413963739524],[0.429612449747201,44.29377571691387],[0.431065780271135,44.29205891814188],[0.431019407091508,44.29172641085771],[0.429861272025753,44.29146787568417],[0.429336963314629,44.29094676942092],[0.427586343978571,44.28810581795743],[0.424961141455332,44.286886152202385],[0.424508129946328,44.2863982140004],[0.423631260356821,44.2845052974326],[0.42301378074471,44.284078340197915],[0.422585465938497,44.281944665610496],[0.42234596877893,44.28139418115243],[0.422148069530173,44.28130758325709],[0.421705371269286,44.281421479601455],[0.42110400373632,44.28144068904226],[0.420710254699186,44.281084713459585],[0.420973766053479,44.279893994385525],[0.419440472839054,44.279373467380836],[0.419335829618385,44.27946917559568],[0.418652774700794,44.27946573852213],[0.418739273202325,44.279383113740394],[0.418095647640569,44.279119423777175],[0.41788754520163,44.2792847478706],[0.417658325073149,44.27911545041992],[0.417105971063124,44.2794627094779],[0.416474109962013,44.279133542138126],[0.416161641246923,44.279388270852344],[0.415604065170121,44.278832091191276],[0.415645021286556,44.27853855619852],[0.414750474945108,44.278994832943404],[0.410317384045159,44.28166611182224],[0.405645888774392,44.28375700576342],[0.403844507529618,44.28438271420683],[0.404780739222938,44.28553960335257],[0.404546599479608,44.28635453252811],[0.404693903644134,44.28705328588913],[0.404201490938274,44.28723798894207],[0.403717341337357,44.28789931045565],[0.403477441748429,44.28807286461681],[0.401830485237444,44.289046229302315],[0.401023082988616,44.28942791110429],[0.400824765035025,44.28940520826641],[0.400029412151106,44.28955120638295],[0.398408364226919,44.29028557144237],[0.397898905360634,44.29070400495905],[0.396990716477396,44.29202351863624],[0.396540374887944,44.29249198053639],[0.394999071652249,44.29323449288948],[0.393762024753314,44.29371311358975],[0.393634818342415,44.29421624615384],[0.393371711302296,44.29453873300838],[0.393317582838275,44.294788722708034],[0.392468148563573,44.29553590250951],[0.392030935619807,44.29579931772156],[0.391674861539729,44.29620695549463],[0.39151382994601,44.29665434598221],[0.391090227853508,44.296948702156705],[0.391082250505332,44.297476278430544],[0.390791753769677,44.29831146608423],[0.390505918258137,44.29880002357643],[0.389834280057608,44.29946945099729],[0.389634682981019,44.29980064405649],[0.389428715347114,44.30018842498016],[0.389242055648001,44.30132778660932],[0.388566082473406,44.30238977861065],[0.389045923925227,44.304387962060034],[0.389652773179729,44.30564434105322],[0.390079721970687,44.306177744115054],[0.393084392378064,44.30711364615263],[0.394670632022996,44.30769433144992],[0.396917605076507,44.309837918635985],[0.397393919335355,44.310090564612125],[0.398246530809956,44.310425065828134],[0.401834831409482,44.311551956657524],[0.403530359342362,44.311969378058805],[0.403974463150716,44.31199517688136],[0.403304121878004,44.31266382078087],[0.401820188396318,44.314744332795286],[0.401277742598187,44.316616526569845],[0.401302122100219,44.318054506499635],[0.401128186608099,44.318482697239475]]]]}}]}