{"type":"FeatureCollection","name":"COM_16114","crs":{"type":"name","properties":{"name":"urn:ogc:def:crs:OGC:1.3:CRS84"}},"features":[{"type":"Feature","properties":{"fid":4209,"ID":"COMMUNE_0000000009751350","NOM":"Couture","NOM_M":"COUTURE","INSEE_COM":"16114","STATUT":"Commune simple","POPULATION":173,"INSEE_CAN":"08","INSEE_ARR":"3","INSEE_DEP":"16","INSEE_REG":"75","SIREN_EPCI":"200043016"},"geometry":{"type":"MultiPolygon","coordinates":[[[[0.301371527724717,45.94675494127572],[0.305474539493487,45.94438844229767],[0.305805498574656,45.94411790929132],[0.302074087301852,45.940983551582356],[0.301454736692357,45.94068225650563],[0.302128039376559,45.940462247339],[0.30310594501444,45.94035131081207],[0.307201331194627,45.9386576400045],[0.308852685337407,45.937079610057054],[0.307916461759408,45.936577093311705],[0.306879696308455,45.93556940758516],[0.306580560969134,45.93542803434409],[0.305836287695377,45.935252633420156],[0.305371872371273,45.93482079696208],[0.306183996710457,45.93453289206332],[0.307189608856886,45.935226289577265],[0.307873138804838,45.93508578125574],[0.308591184448459,45.9347938183525],[0.30906248501803,45.93476808869673],[0.309769004271887,45.9348704892373],[0.310690708915254,45.935511402145195],[0.311894340229986,45.934927319201776],[0.313586025954069,45.93489992879461],[0.315094256043271,45.93455640845294],[0.317075500673409,45.93457548281479],[0.318401046562229,45.93485378985325],[0.319515184170532,45.934090007317096],[0.320923059264464,45.93121579495038],[0.321549719856518,45.929614221189524],[0.321713330153382,45.92887836519052],[0.321289953714769,45.92818537321447],[0.320981152438568,45.927446438576254],[0.320949347897222,45.927091587838504],[0.321106798255155,45.92666823770307],[0.318940570388518,45.92591952789637],[0.317859519419133,45.92566233746222],[0.316851682971789,45.925227571755556],[0.315997723703143,45.92447028157917],[0.314952744575142,45.92416256059939],[0.313987309885536,45.92423604567212],[0.313468242923886,45.92410478360554],[0.311530919092668,45.924542594689854],[0.309985667090568,45.92440674178732],[0.308869046929301,45.924429734766115],[0.307162589837145,45.92476574408869],[0.306459928123053,45.925247274905566],[0.306004204842752,45.92540491133723],[0.304428774437196,45.92382753667493],[0.303396444667239,45.923104639268814],[0.303397363427963,45.922584773730655],[0.303186289301155,45.92230763344449],[0.302180389667017,45.92244312378666],[0.301884467312337,45.92223784046502],[0.301486046395817,45.92212201467461],[0.301172239343301,45.9220974074691],[0.300793844036397,45.92223163933992],[0.299519214548462,45.91944769593656],[0.298850803032871,45.918177513670095],[0.2985784939498,45.917886286948495],[0.29795206511894,45.918024494840466],[0.297157856966033,45.91655667508362],[0.296905797643756,45.91627403710179],[0.296486685846407,45.91608111108813],[0.296050583820287,45.91599770175866],[0.295664103725305,45.91563976494056],[0.292046923574469,45.91322586376111],[0.290709007603102,45.911978336321575],[0.290515570663408,45.91197460249076],[0.27943917915197,45.914666726154834],[0.278912867471594,45.9151559351869],[0.277689886002997,45.91605455930224],[0.276346378074284,45.91680520277517],[0.275659860941819,45.91740046478414],[0.274023657220194,45.92022991417516],[0.273835179167748,45.92069931260007],[0.272639728034178,45.92257616843948],[0.272654895272495,45.92297388849334],[0.272948239120863,45.92393335075234],[0.272866089554507,45.924575606464664],[0.272601333990179,45.92494224883816],[0.271354834858292,45.92607451310233],[0.271099133907088,45.92644046978727],[0.270644753854632,45.92766301746927],[0.269161894546177,45.930305091511734],[0.268619167624813,45.93250041636443],[0.267897734382419,45.93447067090517],[0.267840105694536,45.93487744659118],[0.267941019738389,45.93536824319369],[0.26780282072942,45.93565503780763],[0.265513486459191,45.937652275679184],[0.265164576978536,45.937734845850365],[0.264032640501546,45.93842379791543],[0.26275587798006,45.939011923663664],[0.261442314065722,45.940001907309416],[0.260394150225709,45.94173084536434],[0.259449110332103,45.94258015961596],[0.256377304373012,45.9441978565456],[0.255852011797083,45.94481223894221],[0.255538759760591,45.945551600601824],[0.255449630630026,45.94604410793508],[0.255483648489443,45.94704598515805],[0.263587249378798,45.94686742537571],[0.265186085206705,45.944765226265176],[0.267227035057305,45.945384893468834],[0.268613341039794,45.94600133577791],[0.270469309157857,45.946341662397714],[0.27206225700245,45.94706396114638],[0.272650655837832,45.94725835156935],[0.272940924041577,45.9468481709265],[0.274024761851671,45.945931811050464],[0.275692951012007,45.9470658387515],[0.276006707649097,45.94717250588593],[0.278512484164093,45.94701565550649],[0.280467293131553,45.945905737513726],[0.286135100823285,45.942415198906474],[0.292082787932046,45.940597984893266],[0.295055363120664,45.94060602313523],[0.295987503829558,45.94142751129405],[0.296563653575509,45.941766548421306],[0.297114523925078,45.94230500509426],[0.298047518049697,45.94347879415544],[0.298717405660726,45.94459313312744],[0.299087965843049,45.94496418948369],[0.300970483668338,45.94653093302081],[0.301324168630451,45.9467988626853],[0.301371527724717,45.94675494127572]]]]}}]}