{"type":"FeatureCollection","name":"COM_17341","crs":{"type":"name","properties":{"name":"urn:ogc:def:crs:OGC:1.3:CRS84"}},"features":[{"type":"Feature","properties":{"fid":4243,"ID":"COMMUNE_0000000009753445","NOM":"Saint-Germain-de-Vibrac","NOM_M":"SAINT-GERMAIN-DE-VIBRAC","INSEE_COM":"17341","STATUT":"Commune simple","POPULATION":186,"INSEE_CAN":"07","INSEE_ARR":"1","INSEE_DEP":"17","INSEE_REG":"75","SIREN_EPCI":"200041523"},"geometry":{"type":"MultiPolygon","coordinates":[[[[-0.351171122227133,45.41157548172956],[-0.352439950844584,45.41292457464292],[-0.349266481244845,45.414644465816885],[-0.349898476204754,45.41498157312801],[-0.349173894696916,45.41544395297465],[-0.347131180070427,45.41728679408336],[-0.345907284986847,45.418022728353414],[-0.344883122031226,45.41844175009441],[-0.343606914455282,45.41924501155764],[-0.342191352044223,45.41992353317097],[-0.342433652192613,45.42073916024315],[-0.342393560503693,45.42122163109624],[-0.342013157602529,45.42208917741384],[-0.341132884070719,45.423178917365966],[-0.340190469378871,45.42366124761923],[-0.338897272019007,45.4238439868035],[-0.338216600305551,45.42423107852372],[-0.33947079957909,45.42486875785637],[-0.339871491543977,45.42497668511438],[-0.340579115571973,45.42539991723459],[-0.341504766280171,45.42561746528998],[-0.341185148741998,45.42624075559769],[-0.340926558019258,45.42728311601576],[-0.340275594795181,45.4289527340642],[-0.340769570369588,45.42920658751489],[-0.341180543470519,45.42922948583589],[-0.342076319821834,45.429481268675275],[-0.34276359789586,45.4298203772514],[-0.340941485118497,45.43044791194594],[-0.340470971337362,45.43075484736021],[-0.340115482299041,45.43120796275008],[-0.340317663286075,45.43163274182522],[-0.340514036493984,45.43306801158651],[-0.340505910279485,45.4331457625548],[-0.340173914581912,45.43328724132817],[-0.340095501233015,45.43364377508397],[-0.340216607899965,45.433848358269415],[-0.340100056480884,45.43401766421819],[-0.339344939237855,45.43399870551527],[-0.338438747796768,45.43365978649419],[-0.337702704946487,45.434427051925425],[-0.336166967964107,45.43526498232051],[-0.335742912705302,45.43562188533493],[-0.33498952510028,45.43603725378413],[-0.333656049700841,45.436172454012336],[-0.332572142669912,45.435922590035425],[-0.329314193336941,45.43581572027268],[-0.326779086615168,45.435594475348296],[-0.324711659863642,45.43555127062106],[-0.322721795214543,45.435734647891856],[-0.32271402107712,45.435133740184774],[-0.322279086718098,45.43464643504337],[-0.32098784551382,45.43407454971154],[-0.319707261688889,45.43365915306024],[-0.318099441708712,45.432801000571914],[-0.315758270049207,45.431407549571176],[-0.313241468455589,45.43024365707961],[-0.311659475642007,45.42968657399785],[-0.30995707911893,45.42951425409868],[-0.306972008702928,45.42856503412118],[-0.305640950373448,45.42824380184626],[-0.304133671802034,45.427670894284596],[-0.305077600385689,45.42671297498989],[-0.306564958014374,45.42456378813722],[-0.30684381202656,45.42428158102127],[-0.307492005589471,45.42386139736236],[-0.308425259988062,45.423457128188794],[-0.310007585869044,45.42241181989939],[-0.312439924945703,45.419825463511444],[-0.313390111274156,45.41672320920989],[-0.313988358830713,45.41563933901621],[-0.314402408121422,45.414406800173055],[-0.314779270953322,45.411800052705885],[-0.315610866893017,45.408880632830424],[-0.315905974669057,45.40835818677637],[-0.319056947159229,45.410344070236384],[-0.319649990918669,45.41063292596276],[-0.319823259635594,45.41059895198438],[-0.322058569490833,45.41081208440409],[-0.323637570980453,45.411112237757486],[-0.32428924815566,45.41116139953055],[-0.324940345458368,45.41113667190432],[-0.325958196403398,45.41056931362989],[-0.326204095995358,45.40973916810504],[-0.326412051749895,45.40938691226121],[-0.326278183654593,45.408347233877265],[-0.326494856631875,45.4077558865091],[-0.327105596328225,45.4070789336426],[-0.327676420182843,45.40671860194938],[-0.328247630550006,45.406535802949136],[-0.330673973951424,45.406479917294526],[-0.332808433657175,45.40697612081926],[-0.333163442286804,45.40683667940971],[-0.334793392283066,45.40773088994201],[-0.336584314723577,45.40928090788069],[-0.338125821226866,45.41034083610235],[-0.339494217463021,45.410839912796206],[-0.340659534220476,45.411046711155954],[-0.341202293662575,45.41122069292681],[-0.341573530600903,45.410904093605794],[-0.344725019006381,45.409158941520104],[-0.345450639954297,45.40990515345412],[-0.349846727946672,45.40819928805713],[-0.350147401735115,45.40962150811766],[-0.350418439017157,45.41027583403643],[-0.351171122227133,45.41157548172956]]]]}}]}