{"type":"FeatureCollection","name":"COM_33305","crs":{"type":"name","properties":{"name":"urn:ogc:def:crs:OGC:1.3:CRS84"}},"features":[{"type":"Feature","properties":{"fid":4071,"ID":"COMMUNE_0000000009757004","NOM":"Le Nizan","NOM_M":"LE NIZAN","INSEE_COM":"33305","STATUT":"Commune simple","POPULATION":506,"INSEE_CAN":"29","INSEE_ARR":"3","INSEE_DEP":"33","INSEE_REG":"75","SIREN_EPCI":"200043982"},"geometry":{"type":"MultiPolygon","coordinates":[[[[-0.307844778981296,44.4862450358923],[-0.305325010610655,44.4860295926678],[-0.305010192780153,44.48591919859712],[-0.304131866779914,44.48596534977994],[-0.303429833959311,44.48573320865975],[-0.301819131666788,44.48580308761696],[-0.300819320168399,44.48570869144413],[-0.300071863038583,44.48596983392924],[-0.299461472175989,44.485797994402155],[-0.299533732162904,44.485095757278756],[-0.298308041940571,44.48496935665045],[-0.295311715911946,44.48510491718201],[-0.293953853919196,44.48499953825166],[-0.292190818128484,44.485003551121686],[-0.291285105431601,44.48483868476389],[-0.290244831000102,44.48532383874976],[-0.289957587270434,44.48536214441052],[-0.287433997946868,44.48531669706301],[-0.284027438299824,44.485085767185666],[-0.28355980683153,44.48496544980422],[-0.282968389206516,44.484642490695045],[-0.281279791804105,44.48432426202732],[-0.280753208942842,44.483947104574405],[-0.280459837607937,44.48400989450788],[-0.279873336201141,44.48461659175947],[-0.279909369450633,44.48521557702491],[-0.279027239282969,44.48606351953807],[-0.27890771765573,44.48641125165038],[-0.278618298581429,44.4865423937733],[-0.278410005986564,44.48677023111855],[-0.278065628738232,44.48740755881986],[-0.277645181500929,44.487731801558596],[-0.277404243967637,44.48806962686937],[-0.276406227939347,44.48865700289522],[-0.276390025497467,44.48902869102036],[-0.276242226137195,44.48930157748877],[-0.275475615766425,44.48997306709062],[-0.275110263018757,44.49007582185921],[-0.275019529788464,44.49031277378379],[-0.274446163500609,44.490865891736675],[-0.274369221696232,44.491210551895115],[-0.274499114193584,44.49164907868045],[-0.274501031716843,44.49259415737066],[-0.273309786086398,44.4920862359628],[-0.271030800354994,44.490596070681455],[-0.26847939364096,44.48907249445665],[-0.267115922172782,44.48830472784673],[-0.265967449348447,44.48779366317222],[-0.265400572510024,44.48780685153385],[-0.264716382663173,44.48792442097654],[-0.264025027646859,44.48789623936391],[-0.262167833081388,44.487534957639035],[-0.260158290242155,44.48701957861956],[-0.260194243204012,44.48609411159826],[-0.25816721234328,44.4845322807964],[-0.256752225560069,44.48299738545418],[-0.256519886379874,44.48163026255335],[-0.256321631447864,44.48129104604579],[-0.25631148930922,44.48089671886402],[-0.255706784171847,44.48044877718],[-0.25525325843238,44.479916181429324],[-0.255284826776473,44.479459356630805],[-0.255474521806475,44.479191571105744],[-0.255379177239941,44.4786943468993],[-0.255425341820795,44.47833800013293],[-0.2549497548425,44.4778808364789],[-0.254904864138785,44.477669532596586],[-0.255032465840458,44.477241406486606],[-0.255490834103371,44.47696298350313],[-0.255587560555289,44.476785337955725],[-0.255066815643732,44.47552223853116],[-0.254706902159807,44.47493191911867],[-0.254416928341134,44.47468190277602],[-0.254642586835868,44.47429593075808],[-0.254656960377574,44.47406485776295],[-0.254033978180233,44.473603935933234],[-0.253504625390175,44.4729114007767],[-0.25331165178858,44.471810706434596],[-0.253631831268832,44.470990382412744],[-0.253751728785104,44.46996964872676],[-0.253502901861236,44.46949407541681],[-0.254034807229358,44.468767507396606],[-0.254087420060782,44.46856683988039],[-0.254024905467932,44.46800558052886],[-0.253664492197717,44.46755853002069],[-0.253544902084878,44.46722960359178],[-0.25362925282324,44.46699015880069],[-0.253962085475505,44.46682716736517],[-0.254124281296461,44.466366488482386],[-0.253958220945942,44.46577675335871],[-0.254194891690207,44.46547334662188],[-0.254153587741887,44.46514931713644],[-0.25395057435688,44.46492286230253],[-0.253765324422365,44.46371563103159],[-0.25398118121367,44.4632912089087],[-0.254446174282755,44.46295493129675],[-0.254477934378711,44.462698118866264],[-0.254002743949498,44.46250763256982],[-0.253862613594062,44.46232436951293],[-0.253842549866723,44.46175735351635],[-0.250738863633669,44.45961186281941],[-0.251415343517037,44.45831613964972],[-0.251443982246467,44.45804860949291],[-0.251150630225933,44.45727883357348],[-0.255235423918983,44.45699966191695],[-0.256724009405069,44.457051176454435],[-0.258953790830942,44.456954615843436],[-0.259177551266293,44.45690835491985],[-0.258943754711623,44.45612602395854],[-0.261993534596901,44.4560709147654],[-0.262870978379707,44.455516066453626],[-0.264027497359676,44.45506736666854],[-0.266472526875647,44.454474147571936],[-0.266801601999916,44.45426978182863],[-0.268104045219615,44.453952757453756],[-0.268843351018848,44.45392542004257],[-0.271160458880228,44.45420983107502],[-0.271540863978329,44.454110241261255],[-0.273773163239436,44.45425476260451],[-0.27442624818381,44.45399839974837],[-0.275725301117467,44.45412286138757],[-0.275798185016959,44.4529278065093],[-0.275740751383999,44.45191501930465],[-0.277475966615639,44.451926481959084],[-0.278394726661804,44.452326208300185],[-0.279936434042574,44.452275817421636],[-0.282825122597135,44.45256909356102],[-0.288965791529762,44.45273913680369],[-0.289858162366237,44.45281340384276],[-0.29054821758882,44.45297749742076],[-0.290755712417161,44.45282534144449],[-0.29083517863198,44.45265628668043],[-0.291006523158898,44.452596208904666],[-0.293054420984765,44.45255483954033],[-0.295401722153702,44.45318291644066],[-0.297008627661393,44.453797064210775],[-0.298140119164544,44.454390283681626],[-0.298649281104914,44.455075105668655],[-0.298997279132335,44.4553692192498],[-0.299852094133325,44.45548867985546],[-0.300250018154472,44.456034471419954],[-0.30060791342266,44.456777875915556],[-0.30163302201173,44.45780942647722],[-0.301981267680721,44.457913416284406],[-0.302806848537168,44.45791930612724],[-0.302839280897399,44.458086818605956],[-0.303809580800446,44.458610034988574],[-0.304794063485795,44.458902164997085],[-0.30496781330824,44.45952854687236],[-0.305785968576778,44.46048247891373],[-0.305998532694753,44.46035266600725],[-0.306232321620258,44.460327631642485],[-0.306504065816629,44.46052129942996],[-0.306603789517258,44.46080662382872],[-0.306771771215175,44.460839424495184],[-0.306963231459149,44.46082196581603],[-0.307183381833165,44.46069282387949],[-0.308731188765673,44.460742764147845],[-0.309571938033485,44.46062020831224],[-0.30820374937113,44.4695279632868],[-0.30859471210214,44.473347259263214],[-0.308495674743865,44.47477200463996],[-0.308592103909415,44.47583859337293],[-0.307844778981296,44.4862450358923]]]]}}]}