{"type":"FeatureCollection","name":"COM_64246","crs":{"type":"name","properties":{"name":"urn:ogc:def:crs:OGC:1.3:CRS84"}},"features":[{"type":"Feature","properties":{"fid":4070,"ID":"COMMUNE_0000000009761576","NOM":"Gomer","NOM_M":"GOMER","INSEE_COM":"64246","STATUT":"Commune simple","POPULATION":302,"INSEE_CAN":"27","INSEE_ARR":"3","INSEE_DEP":"64","INSEE_REG":"75","SIREN_EPCI":"200067296"},"geometry":{"type":"MultiPolygon","coordinates":[[[[-0.181774610298147,43.244531541041944],[-0.182350143173363,43.244494771087986],[-0.182524510606706,43.24455264894276],[-0.182972474052027,43.244413405850146],[-0.18294292598519,43.244324251215],[-0.18311247144281,43.244160806732395],[-0.183916989291055,43.24383279458996],[-0.184319279559846,43.24436108423428],[-0.187860788500836,43.242708115739774],[-0.188821163928773,43.24381948063587],[-0.189380254035656,43.24368593042831],[-0.190099904309315,43.24311550747627],[-0.191589870923307,43.24280228904839],[-0.193007070116898,43.24293233030372],[-0.193370976003196,43.243299676209546],[-0.19388579882764,43.243256537743434],[-0.194287055510658,43.24349763926573],[-0.19445164927866,43.2437124330661],[-0.195375862453418,43.24392365052874],[-0.195587689399615,43.244235173521155],[-0.196558851659433,43.24476008423149],[-0.198532402354204,43.2434178508195],[-0.199785306625891,43.24424857732223],[-0.200484491971875,43.24457625413862],[-0.202377180372542,43.243154420847404],[-0.206304107740513,43.241178805211696],[-0.207508583996162,43.24049483051859],[-0.208152754364072,43.23978878420654],[-0.208416503503113,43.239261491395496],[-0.208880598124051,43.23863911611204],[-0.208944070252911,43.23840766136019],[-0.209366390052685,43.2379863849603],[-0.20945415477161,43.23770469305059],[-0.210935789719585,43.237157380343604],[-0.212477406228821,43.23627246223519],[-0.213756181117628,43.23526750975716],[-0.214214283743222,43.23449494487928],[-0.214579698523848,43.23466681661575],[-0.215039042303948,43.23528692297596],[-0.21711591710798,43.23651782585694],[-0.217996137171212,43.23686789996488],[-0.216128336963344,43.23843872062657],[-0.21196204709721,43.24283004889768],[-0.210699905510312,43.24427021667451],[-0.208518541822734,43.24634447602518],[-0.206956104392928,43.247702595984904],[-0.204214847181277,43.249701568083054],[-0.205015681502042,43.250726615088595],[-0.205260857562781,43.250772452734246],[-0.205635712251681,43.251024203309285],[-0.206767457682459,43.252041214755074],[-0.207171161741166,43.252080539188455],[-0.206947327443257,43.2522636418255],[-0.206812118783679,43.252268558082186],[-0.205391533402727,43.25356752580837],[-0.204830174856738,43.254947206842836],[-0.203106509115895,43.25684572057654],[-0.202624596480421,43.25697345019316],[-0.201946573686375,43.25674148116897],[-0.20185318503703,43.2568342780802],[-0.200230834921529,43.25616575496304],[-0.199903835256577,43.256643589114255],[-0.199189862239261,43.257406571998374],[-0.197587489790591,43.25658707168157],[-0.196782173553546,43.25583578199005],[-0.196900776218412,43.25577555329478],[-0.195336033633657,43.25476675203473],[-0.194536552847368,43.25443120066344],[-0.194249958218002,43.25477187957754],[-0.193680270985247,43.25456006283274],[-0.192860539597296,43.25399192858087],[-0.192253831612387,43.25466886543264],[-0.191470930473903,43.25414284496496],[-0.190679837555131,43.25480451622173],[-0.189800939300046,43.25514827962978],[-0.189670109301206,43.254564268985945],[-0.189101212136612,43.254500049352124],[-0.18814156241503,43.25451938677283],[-0.188236780921486,43.2546822245104],[-0.188225435382153,43.2553460572886],[-0.187522881505736,43.25582773718836],[-0.187193094024721,43.25587798438315],[-0.185678339818736,43.2570201128866],[-0.185921659252552,43.257165979596806],[-0.185753252363678,43.25730598869278],[-0.184055119363067,43.25630996552995],[-0.183626663751434,43.25691587538305],[-0.184232336475428,43.257110479112136],[-0.184268917420133,43.25728225181174],[-0.184126678203642,43.25742778844768],[-0.182937327619748,43.257057733811045],[-0.182728053964383,43.257126921239006],[-0.182729688695064,43.2569333155971],[-0.18116099659901,43.25596044154479],[-0.181522835499917,43.255620283213595],[-0.182734134220139,43.25489318078263],[-0.180058584859188,43.253323631237286],[-0.181815662072551,43.25074662744286],[-0.181644856632048,43.250664335581746],[-0.181080557140509,43.25066025736619],[-0.182969963098188,43.24896609472956],[-0.182823087691171,43.248826382971544],[-0.182919713399271,43.248457127954495],[-0.182826602851921,43.24833203589717],[-0.182125478867341,43.24816905026052],[-0.181526136069187,43.247819407775836],[-0.181561876687333,43.247440245311616],[-0.181383934512858,43.24720601998044],[-0.181391780257581,43.24703563971853],[-0.182092294989124,43.24662968329287],[-0.182348311968522,43.246247628915015],[-0.182301927331756,43.24589789510071],[-0.18192325303305,43.24537340276598],[-0.1819321887206,43.24499953213463],[-0.181774610298147,43.244531541041944]]]]}}]}