{"type":"FeatureCollection","name":"COM_47024","crs":{"type":"name","properties":{"name":"urn:ogc:def:crs:OGC:1.3:CRS84"}},"features":[{"type":"Feature","properties":{"fid":4223,"ID":"COMMUNE_0000000009756983","NOM":"Beaupuy","NOM_M":"BEAUPUY","INSEE_COM":"47024","STATUT":"Commune simple","POPULATION":1678,"INSEE_CAN":"13","INSEE_ARR":"2","INSEE_DEP":"47","INSEE_REG":"75","SIREN_EPCI":"200030674"},"geometry":{"type":"MultiPolygon","coordinates":[[[[0.137970724285529,44.543415178318675],[0.138356416079846,44.54343508869899],[0.138865400805358,44.542240281136245],[0.138506586951978,44.54114368503807],[0.139385877493118,44.54042059965687],[0.139852767375092,44.540204793049504],[0.140181722243273,44.54087181880628],[0.140364628954735,44.54104050802495],[0.140915258303001,44.5429762279469],[0.141203747331684,44.54404487007628],[0.141091376455735,44.5446220891774],[0.141209456990952,44.544802609961145],[0.141179322600858,44.54497478741351],[0.141483469809697,44.546033025003766],[0.142064060599754,44.54680655367393],[0.14159116927604,44.54731408286226],[0.141736070905622,44.54796012279911],[0.142285677612545,44.548674294388285],[0.142421496530131,44.549674122243374],[0.142883914324221,44.550518454605786],[0.143269261032668,44.55099415475632],[0.144402595055758,44.55194952812947],[0.144381416049111,44.551695848601405],[0.14459680655627,44.551596925113245],[0.14530271390866,44.550343221001754],[0.145651914900776,44.55016397980236],[0.147769942571559,44.55008180651377],[0.148338825610629,44.55026676077819],[0.150832083387501,44.550786962669704],[0.152308690933599,44.551333130856385],[0.153046767727866,44.55136117826924],[0.153674697398568,44.55132512468403],[0.15462725895298,44.5508470265253],[0.155045856155639,44.550765032023655],[0.156413196076853,44.55065523417689],[0.157479573425436,44.550417860566135],[0.157758696274572,44.55042865161655],[0.158446176671718,44.550660746798144],[0.158922656513038,44.55065499576425],[0.160118738513176,44.55031824222707],[0.160955545157123,44.54978576666306],[0.160948575100002,44.54942345910517],[0.161221415129298,44.548507139966205],[0.161053790421913,44.548333475183924],[0.161117254786896,44.548148638618365],[0.162184802779407,44.547435621125494],[0.163277777129015,44.546366525166064],[0.163264159411067,44.5462364578866],[0.163527910698685,44.54620179904292],[0.164396051602265,44.545444902561506],[0.165452813765584,44.54489462668287],[0.165999118974834,44.544851904730095],[0.166052867291568,44.54463438736566],[0.165886872190133,44.54440312011809],[0.16683279989368,44.54352569362168],[0.167030366490479,44.543454196134164],[0.167103438206864,44.54337860197839],[0.167047564328414,44.54331230932086],[0.167571597664338,44.54333656920778],[0.167359348596398,44.542822163269754],[0.166983668345664,44.54262785391161],[0.166673281716768,44.54256313476122],[0.166274602324828,44.542199780663],[0.16556551557808,44.54106996983385],[0.165622976712492,44.540903894679396],[0.165873673242729,44.540702245607534],[0.164746787546723,44.53918966408246],[0.164382955488542,44.53778225726415],[0.164383947444634,44.53685985267187],[0.164137963893083,44.53636619314696],[0.162598723157976,44.53546815358641],[0.161738967029387,44.53468305668938],[0.161170675463631,44.53428829603464],[0.160244507934012,44.53402304791309],[0.16012220531503,44.53410097341593],[0.159944283662367,44.533957669376804],[0.160224729865164,44.533815352383634],[0.158936342087267,44.53273994938021],[0.158782852538664,44.53251169536261],[0.158734877141603,44.53228886051663],[0.158997881233859,44.53216771721173],[0.158704062171456,44.531950262922535],[0.159003601751589,44.531553511541674],[0.158942128274343,44.531273578269186],[0.157479017792282,44.52984324295006],[0.157512156410712,44.52976032126555],[0.155507435023176,44.527734080629145],[0.15477123254917,44.52685032008282],[0.15610962619635,44.52527868208646],[0.156550110429053,44.52503330457118],[0.156664993239168,44.524527308176665],[0.155847813540962,44.524701720831935],[0.153942349783304,44.52540746274514],[0.152325941295791,44.52357674418762],[0.151957332349697,44.522821358277795],[0.149155757844391,44.5197033586969],[0.14899332603907,44.51937937341216],[0.148804587525381,44.51927720810097],[0.146118707131124,44.51611887838602],[0.145262699962585,44.51492117196965],[0.143652706885723,44.51329857259236],[0.143038457703697,44.51237554933472],[0.14144941015,44.51258030197821],[0.14091302051317,44.512731248609064],[0.139101164851102,44.513631024310044],[0.138155304140086,44.51386231943355],[0.13667099747472,44.51453274036542],[0.135601762169171,44.5150364608956],[0.133729725144021,44.51607691948862],[0.13271521131114,44.515700137081204],[0.132469184035808,44.51568563454661],[0.132050746401887,44.515793664167674],[0.125519717460928,44.51869906836239],[0.124944587974923,44.5191389949895],[0.124906777227526,44.51936231377904],[0.125099407198053,44.519708744751014],[0.125082539967783,44.51991639466737],[0.124777885757441,44.520311121692316],[0.123445256260773,44.52086461800578],[0.122293826228804,44.521148075020925],[0.122145452569334,44.521267617234074],[0.122170082992675,44.521550217050304],[0.123022359131397,44.522591275671374],[0.126224384009068,44.52580778712418],[0.12752982477954,44.5274488484104],[0.129578617142142,44.530768548832874],[0.129443519968679,44.53080016635775],[0.129824388751914,44.53113617197935],[0.130359481850946,44.53200587090334],[0.131335005350024,44.53402295565337],[0.132688303664535,44.5356210565385],[0.132774025714579,44.53581786168834],[0.132607903806245,44.53623693211348],[0.133027863406393,44.536945080957985],[0.13455193883636,44.536645056248226],[0.135196289504991,44.5379950035223],[0.136424669700168,44.539998786728454],[0.136924128970091,44.541574673957854],[0.137808198682436,44.5432668316745],[0.137970724285529,44.543415178318675]]]]}}]}