{"type":"FeatureCollection","name":"COM_16399","crs":{"type":"name","properties":{"name":"urn:ogc:def:crs:OGC:1.3:CRS84"}},"features":[{"type":"Feature","properties":{"fid":4250,"ID":"COMMUNE_0000000009752939","NOM":"Verrières","NOM_M":"VERRIERES","INSEE_COM":"16399","STATUT":"Commune simple","POPULATION":321,"INSEE_CAN":"07","INSEE_ARR":"2","INSEE_DEP":"16","INSEE_REG":"75","SIREN_EPCI":"200070514"},"geometry":{"type":"MultiPolygon","coordinates":[[[[-0.259784838701622,45.54010328644],[-0.259924343582383,45.540403855882445],[-0.260491584902782,45.54047571005802],[-0.26091987562707,45.54084540039996],[-0.260819878619198,45.54198026133421],[-0.261097249097898,45.542378666816056],[-0.261719780563283,45.54256156500695],[-0.262740638889511,45.54314926179138],[-0.263790134174158,45.543569388065876],[-0.264705070663822,45.54405650350348],[-0.264734404204047,45.54470724887302],[-0.264420608430716,45.545063348233526],[-0.264433513283687,45.545326135831075],[-0.265021532848626,45.54572812083711],[-0.266057945915191,45.54620809031907],[-0.266072582897467,45.54669613837664],[-0.26701040322723,45.5479405176769],[-0.267396542570654,45.54815910244595],[-0.268498100958726,45.548372190522834],[-0.269108837628539,45.54883207591238],[-0.269566707080264,45.54902693603641],[-0.270532259965204,45.54967385795111],[-0.270735073420377,45.54963280372473],[-0.270994329408037,45.54943959740425],[-0.271490512413947,45.549479221229994],[-0.271750786540208,45.54925984728264],[-0.271961667372298,45.54935554518275],[-0.272161305349664,45.54958675716854],[-0.270927719239806,45.550202188517325],[-0.270440731472036,45.550753511319854],[-0.270588976316162,45.55135302942504],[-0.27039759821049,45.55165330898381],[-0.270755013568116,45.551884435949525],[-0.270882431888269,45.552217791584035],[-0.271893537382963,45.55370063559275],[-0.272018806076806,45.55375827149169],[-0.272450438159564,45.55370333911677],[-0.273204671598053,45.55385440314969],[-0.273592047172702,45.55367998883875],[-0.273787835538009,45.55341111859178],[-0.274486391968297,45.55322763129846],[-0.274833471936278,45.553283304083635],[-0.275342085920325,45.5534892804864],[-0.276472567514613,45.554080876838526],[-0.276286479907723,45.55444860650684],[-0.276618120496497,45.55489406387168],[-0.276804069794691,45.5549364059103],[-0.276951356809188,45.55512768035976],[-0.277168206415463,45.55515019416496],[-0.277354531714016,45.555459294139055],[-0.278409854142626,45.555950323217566],[-0.278636067986485,45.55615281099765],[-0.279011114298192,45.55631220032647],[-0.279184930671992,45.55651801907365],[-0.27954301966915,45.55662923423268],[-0.279957408467237,45.5570848847117],[-0.280258782890696,45.55716981490136],[-0.281125263984396,45.55722201747071],[-0.281638086256721,45.557541401984274],[-0.281875289868414,45.55792922061596],[-0.282561359997241,45.55751262444681],[-0.28350939587202,45.55744706542474],[-0.284566787077799,45.55790643518117],[-0.285873974092492,45.55868384185256],[-0.286610313480243,45.55935356351796],[-0.286825948092052,45.55970144760167],[-0.287216887542066,45.56006312824791],[-0.288283644861952,45.56054922912133],[-0.288512689364064,45.560906631756424],[-0.288483766291813,45.5610895319244],[-0.288609923182696,45.56120480470484],[-0.288961977122821,45.56127831529055],[-0.289540574088992,45.56153715907177],[-0.289797911185964,45.56176575272583],[-0.290461787357199,45.56179678074469],[-0.290849882203188,45.562131495592084],[-0.291048187199621,45.56203556096492],[-0.291509138240427,45.561566021011465],[-0.291844898539312,45.5620996410953],[-0.292050200875952,45.562121564272225],[-0.292287622110897,45.562036197506416],[-0.293436140983589,45.56281727097882],[-0.294424552583282,45.56327857578581],[-0.293945996664344,45.56371079141442],[-0.294844066757205,45.56409813487164],[-0.29580190932709,45.56438998718807],[-0.295907009977081,45.56451758654103],[-0.295737200004181,45.56537335643712],[-0.295261135078453,45.5661497853418],[-0.294731824248799,45.56674301529324],[-0.294490385960268,45.5668474310047],[-0.293934210010755,45.56739908540116],[-0.293287807689789,45.56777132727923],[-0.290547445793088,45.5707617752774],[-0.289522842378325,45.57213554984152],[-0.288870545945177,45.57323164553673],[-0.289087661103276,45.57511702846043],[-0.287874142517074,45.57519039406592],[-0.287961148268742,45.575683539302965],[-0.288613244379412,45.577243459194534],[-0.28931736721262,45.578576539520526],[-0.28811327493199,45.578874943793885],[-0.287552646860715,45.57920318061095],[-0.28743931053078,45.57952103458517],[-0.287606556202055,45.57989557106594],[-0.286217180376126,45.58029490721247],[-0.286175003757523,45.58038446359243],[-0.284916760473114,45.58096110086251],[-0.28339297276871,45.580695598532984],[-0.27934238253533,45.580347920193255],[-0.279156623167625,45.58057054241574],[-0.278064446622569,45.58050597112991],[-0.277354086521839,45.580386995171004],[-0.276139155862681,45.58046027152691],[-0.274463580334077,45.58027477964306],[-0.273183211176094,45.580304868177855],[-0.272172513949853,45.58059836659358],[-0.271591716032676,45.58052154582395],[-0.271260586881081,45.580304070147754],[-0.270300628640105,45.58032660124179],[-0.269973533298383,45.58019912940111],[-0.269570297536765,45.57980349745158],[-0.268663757041299,45.579600050041],[-0.268530185500504,45.57946784658265],[-0.268273837397335,45.57947349951367],[-0.267727542049183,45.580264458120446],[-0.264792161995637,45.57978198626453],[-0.264255698590738,45.57956414714039],[-0.263571129629122,45.579402878920234],[-0.263169485816455,45.57914236605254],[-0.262638404675849,45.57897212927427],[-0.257897936401442,45.5779524596731],[-0.255902724461182,45.577063980551145],[-0.25523718953851,45.576854345987016],[-0.254574498508434,45.576452661020014],[-0.24951439882454,45.574418099058846],[-0.24855325256907,45.57444048152691],[-0.247645521976773,45.574191842103865],[-0.246298536005408,45.57417759034861],[-0.243650156167707,45.57374396907753],[-0.243395113094804,45.573749528307644],[-0.243033175965063,45.57425294997291],[-0.242193510301443,45.57409242642087],[-0.239759850810148,45.574148197462506],[-0.238849535576746,45.573854501179206],[-0.23780183717039,45.57338360868961],[-0.237153134244822,45.5732184470288],[-0.236962199814376,45.573223046085396],[-0.236425109630605,45.57409018047478],[-0.236174036528151,45.57418573209276],[-0.234320584690702,45.574024601082755],[-0.234214882278816,45.57425835849466],[-0.232912276239398,45.57379475768921],[-0.231512384434272,45.57307078119918],[-0.230456020152885,45.57269199708181],[-0.229457832997197,45.57243049362841],[-0.228300843223164,45.57228439508915],[-0.22794410755318,45.57210808928764],[-0.227936472067122,45.57166850952585],[-0.228680786083465,45.57083241526156],[-0.228759608684885,45.57044532603359],[-0.228373842560787,45.568492635230804],[-0.228367225192871,45.56705717001372],[-0.228295177600796,45.56705383276709],[-0.228280656025672,45.565526669774435],[-0.228205187847122,45.56533237065517],[-0.229230452382175,45.56540024023099],[-0.229192233476793,45.56485429355015],[-0.229788516070711,45.56390167949723],[-0.229807006478373,45.56362447103319],[-0.233304656702525,45.56349502819545],[-0.234413601568974,45.56392003216328],[-0.236607720646138,45.56427411531062],[-0.237890419629363,45.56429032886647],[-0.238908833741959,45.564131196900966],[-0.240863227934441,45.56345659202299],[-0.242555627367668,45.56332664898007],[-0.241937511313634,45.56212511825124],[-0.240797262329775,45.560462797384915],[-0.239747297016269,45.55821476660759],[-0.240133593103175,45.55685628383943],[-0.240904346548276,45.555228054619775],[-0.241278100446373,45.55343643619921],[-0.241547771920831,45.55273921190971],[-0.241481202697557,45.55201744361026],[-0.241555929842938,45.55154033787446],[-0.243325881102398,45.548882880884214],[-0.244702125581631,45.54761024558983],[-0.245128314344432,45.546980588046274],[-0.245806121951765,45.544295154049436],[-0.246845728672901,45.54559983166909],[-0.247649487695629,45.54613986454443],[-0.249661626416987,45.54475594737369],[-0.251394792198859,45.544849983845545],[-0.251775081454349,45.544751554058436],[-0.25346181481036,45.54385734507823],[-0.255448739529186,45.542506493045444],[-0.259062038901286,45.54035227822254],[-0.259784838701622,45.54010328644]]]]}}]}