{"type":"FeatureCollection","name":"COM_47204","crs":{"type":"name","properties":{"name":"urn:ogc:def:crs:OGC:1.3:CRS84"}},"features":[{"type":"Feature","properties":{"fid":4169,"ID":"COMMUNE_0000000009756755","NOM":"Peyrière","NOM_M":"PEYRIERE","INSEE_COM":"47204","STATUT":"Commune simple","POPULATION":290,"INSEE_CAN":"19","INSEE_ARR":"2","INSEE_DEP":"47","INSEE_REG":"75","SIREN_EPCI":"244700464"},"geometry":{"type":"MultiPolygon","coordinates":[[[[0.277936031543053,44.57739126868922],[0.277062191285916,44.578314644600034],[0.277490531821759,44.57863147042979],[0.277915490064225,44.57917520781913],[0.278090683669535,44.579775842597634],[0.277847766652169,44.58016079414477],[0.277765112560743,44.5805938340185],[0.277874762374071,44.58088118353893],[0.278173288693076,44.58114616456722],[0.278207799202178,44.58144967753344],[0.278385692872883,44.58147207714393],[0.278477852593764,44.58159955677523],[0.278644199247815,44.58154780736637],[0.279365166121075,44.582278988587206],[0.279794807144957,44.582543591669626],[0.280954023653642,44.582969381110374],[0.281439360365311,44.58299393954196],[0.281739650435842,44.58324904530117],[0.281772830853945,44.58347595782643],[0.282836921086584,44.584411929620174],[0.284304256423256,44.586476575535904],[0.284599021318696,44.58634960632329],[0.284963292929935,44.58661168049654],[0.28527436028553,44.586669770181324],[0.285757893443003,44.586915856438644],[0.286062776350346,44.586814353802964],[0.287288001653926,44.58678770315456],[0.288018894690685,44.58689663026138],[0.288705052057436,44.58688735306762],[0.289464283952021,44.58714109076098],[0.289792012685744,44.58711490323015],[0.290813223497661,44.58682198153672],[0.291125501904309,44.58682873993325],[0.291690614860019,44.587345232151904],[0.292566564172839,44.58776755304506],[0.293284576408042,44.58832922023642],[0.294507948057578,44.58899874428679],[0.294776592191098,44.58999437785667],[0.295027867469589,44.59022212284698],[0.29569085038655,44.59053921603666],[0.296258954307889,44.59052159590935],[0.296935547427994,44.590607514815005],[0.297526103004334,44.59085796833487],[0.29933548826778,44.59219123247581],[0.300900617082222,44.59130709205463],[0.301754296021801,44.59059021323952],[0.301940357900589,44.58991557370064],[0.302231415372427,44.58939122560467],[0.303286823936494,44.58843515372975],[0.303673185077425,44.58797348123471],[0.304706328051758,44.58750867605448],[0.308209075963969,44.586403274592506],[0.312216904451575,44.58461466436877],[0.312444181569395,44.58492375411172],[0.313002403945711,44.58524449810195],[0.313651416446687,44.58529991904909],[0.314354965029118,44.585639503552535],[0.314822723124933,44.5854779287419],[0.314737934234876,44.58540560745953],[0.314841549214377,44.58532075197402],[0.314559761516511,44.58499142599381],[0.315336401068824,44.58490761875398],[0.316215275747144,44.584502914827446],[0.318848780906965,44.58364449020736],[0.319423521833816,44.58396289970914],[0.323191422292504,44.58060525764402],[0.323128162606941,44.5803713274435],[0.322988941099134,44.58025085366596],[0.323186486119323,44.5799124511068],[0.323819772014624,44.5791558450834],[0.325665098590452,44.57771519033571],[0.325922668363804,44.57698730711533],[0.327747810298503,44.576874754031664],[0.327999224691839,44.5767817537809],[0.328113060763288,44.57661336363689],[0.329149922425835,44.575768311495175],[0.330006062686684,44.575306207557205],[0.330030876124481,44.57510143450411],[0.329834255278079,44.57491562797982],[0.330000875745705,44.57485660356676],[0.33014806299016,44.57462236193424],[0.330844899839744,44.57403750066906],[0.332160472896737,44.57243982153718],[0.333187229870825,44.57156566792158],[0.333284593018045,44.570598805850906],[0.333629350878504,44.56884975761786],[0.333624415789315,44.56828756738647],[0.33339856935658,44.56789388808597],[0.333376296934127,44.567618620015494],[0.333018445183025,44.567458650319544],[0.33286497373397,44.567266685541576],[0.332268215265072,44.56701627124496],[0.33241649379197,44.566864923858155],[0.331963748360074,44.56658015531799],[0.33154871619784,44.56675027679005],[0.33070877094036,44.56655342619059],[0.330001434747412,44.56704254862304],[0.328604661144813,44.56710964856811],[0.327307480553707,44.56752142931987],[0.326220153706008,44.56807789465168],[0.324836812269976,44.56831281399027],[0.324108014846235,44.56667559131977],[0.324191871267314,44.56636866361972],[0.324110256643803,44.5661766258329],[0.323145506299757,44.56529121543864],[0.322776536151076,44.56456977003003],[0.321547993472721,44.56369506266079],[0.320272544249399,44.56306601023229],[0.319692933658717,44.56327893194134],[0.318798043271608,44.56378955204049],[0.317122578756876,44.564578451496544],[0.315971016379124,44.56531881212101],[0.315830167356003,44.565021740159004],[0.315438623236501,44.56467083250772],[0.314502790639167,44.563895939153085],[0.313250152946753,44.56305387832625],[0.312787434269499,44.562928220512944],[0.31128021832901,44.56285549542044],[0.310457317640743,44.56256792616211],[0.310011780610713,44.56218775947348],[0.309693633477401,44.56254481605111],[0.30987045374397,44.56282655922601],[0.309817945149344,44.563214409029385],[0.3093917527251,44.56517669389903],[0.309253599768919,44.56537870116217],[0.310147871348179,44.56641655172994],[0.308909706465648,44.56791317601254],[0.308411932494186,44.567702874888056],[0.306997564875956,44.56747742593814],[0.302436030297712,44.56711116018642],[0.3025023985528,44.56754154648181],[0.301994628964186,44.5676462399783],[0.299690720578793,44.56760433225483],[0.298434655185886,44.56746821705354],[0.296363672427296,44.56740401468584],[0.293708454077039,44.56764612931072],[0.292267025629713,44.5674342393371],[0.291759360061623,44.5671425496561],[0.291360805747028,44.56704539844949],[0.290350244172249,44.567150314168174],[0.28892807421855,44.567665775512594],[0.288317073011042,44.56800387438561],[0.287917254116342,44.568378684463696],[0.289037939263457,44.56936552786115],[0.288612909253452,44.57026487242231],[0.288812697312061,44.57032922908019],[0.288469131934333,44.57176203024953],[0.287468550476587,44.57160504184528],[0.285022407301689,44.57168724776462],[0.284777811378116,44.57260632973094],[0.283468145228622,44.57470715689271],[0.283037189039383,44.57481095323859],[0.28106805406999,44.574981376531596],[0.280697229245823,44.57558927853689],[0.280534239568331,44.576591434231844],[0.278262319915867,44.57721104789986],[0.277936031543053,44.57739126868922]]]]}}]}