{"type":"FeatureCollection","name":"COM_16206","crs":{"type":"name","properties":{"name":"urn:ogc:def:crs:OGC:1.3:CRS84"}},"features":[{"type":"Feature","properties":{"fid":4268,"ID":"COMMUNE_0000002324290057","NOM":"Mansle-les-Fontaines","NOM_M":"MANSLE-LES-FONTAINES","INSEE_COM":"16206","STATUT":"Commune simple","POPULATION":2092,"INSEE_CAN":"05","INSEE_ARR":"3","INSEE_DEP":"16","INSEE_REG":"75","SIREN_EPCI":"200072023"},"geometry":{"type":"MultiPolygon","coordinates":[[[[0.199881040107546,45.90931234177599],[0.199086376507872,45.907652731074464],[0.199885503152649,45.906735423161535],[0.199838712218685,45.90628463581792],[0.200632292332137,45.90552667348167],[0.201639773524379,45.904978540903684],[0.202670436632874,45.90407505552386],[0.202501159949395,45.90301122281913],[0.202114087186872,45.90252588553874],[0.202554563937096,45.902188076175214],[0.202884404931464,45.90113118697953],[0.202456542351918,45.90025468327724],[0.20220865528829,45.90002778953749],[0.202220365779311,45.899593769337926],[0.20333200980714,45.89933023368749],[0.203725337845583,45.89915794981558],[0.203866391757668,45.89884516757571],[0.204326443560245,45.89862947922237],[0.205172015391418,45.89842061772174],[0.206739801959533,45.89786466980922],[0.20727665254693,45.89753373026783],[0.206987090952298,45.89728869756519],[0.207013226464897,45.896874857468],[0.207616895748096,45.89662576146387],[0.208760870927313,45.89638459855009],[0.208788344890078,45.89609693919567],[0.208358305678609,45.89521139492591],[0.208910366309579,45.89480873971816],[0.210461063279245,45.89509751108211],[0.211266436700222,45.89517144606931],[0.212328806512604,45.8957517982857],[0.212611519922096,45.89582634887307],[0.214681224886419,45.89613686821454],[0.215116664702441,45.89604938170159],[0.215726412339103,45.89573011117869],[0.216655444072601,45.89481229140808],[0.216689247632985,45.89391297256874],[0.216516660440116,45.89301217582175],[0.214125016068872,45.892869458730814],[0.213027870597886,45.8929775711468],[0.212797343641922,45.89294305338363],[0.212374185801814,45.89273708975502],[0.21146584761956,45.892097462817354],[0.210530955239231,45.89185543891942],[0.209422139981652,45.891710031546076],[0.207183099352583,45.89097623624208],[0.206599632836094,45.890293234497115],[0.20632193673727,45.889636709592104],[0.206266941924354,45.88914337351969],[0.206630677178815,45.88825491150075],[0.206832706048284,45.88683983992468],[0.206905107002674,45.886658714786606],[0.207570519635651,45.88641114765436],[0.207718776394832,45.88549663474201],[0.208500682055386,45.88447703296889],[0.209055687941279,45.88319862692558],[0.209389282331114,45.881400249347294],[0.209405625623805,45.880516717979205],[0.209263803982277,45.87962297347555],[0.208318927703532,45.87828319386355],[0.207504332314316,45.87745391915375],[0.206743915021727,45.87621779884601],[0.206106122293534,45.87602452345633],[0.205381565550701,45.87596515815731],[0.203676916879452,45.87623024805226],[0.201557160449525,45.876870686262905],[0.200892631676818,45.876899280497064],[0.199916640063191,45.87668497719785],[0.199309862462525,45.876719498396604],[0.198736668775674,45.87688009612437],[0.198038382948289,45.87742053965832],[0.197218933589595,45.87783182575774],[0.19658011767019,45.878039442628605],[0.19574285679104,45.87816644261789],[0.193890471285659,45.87821417004934],[0.19256911251221,45.878093947598444],[0.190682849646732,45.87835072840659],[0.190232654085182,45.878198068735294],[0.189324854296725,45.87753213433568],[0.187234723471723,45.87756212490584],[0.186956875728338,45.877470508625464],[0.186819123966305,45.87718684848557],[0.186807024737451,45.87676665141948],[0.18696679503558,45.876416510667],[0.186885929150226,45.87623158157059],[0.186521897080916,45.87605942588662],[0.186245682079087,45.87611291964448],[0.18457767419718,45.87447108179998],[0.184321742427303,45.874279085322996],[0.184054831093009,45.87437785864558],[0.183785660900881,45.87346017346399],[0.183862775172285,45.873440469825795],[0.184067047946497,45.87052701082677],[0.184469603709078,45.8693881849669],[0.184676035978421,45.867871430478104],[0.18362357916158,45.86776951088689],[0.181961948306892,45.86742261709383],[0.180441443044227,45.86676294603041],[0.179819594165709,45.86621129069458],[0.179589678939819,45.865486500036496],[0.178959924525578,45.86415702119971],[0.175135768656909,45.865467132687876],[0.171644340495884,45.866447548091315],[0.17123294628262,45.86574252328496],[0.169890837967209,45.863947318095796],[0.168530746057036,45.864538581936756],[0.165285516622138,45.866825220230645],[0.164618399657732,45.867081505180494],[0.162579183402575,45.86760789863014],[0.162092323041094,45.86779480795014],[0.161508088051856,45.86816939559704],[0.160325777005038,45.86981298180258],[0.159989573639735,45.87010458947948],[0.158470337071334,45.87062505893177],[0.156931279431286,45.87147930921428],[0.156461182172304,45.87161525607489],[0.156809094413694,45.872798113566375],[0.15790053678329,45.87527289388846],[0.158037126475158,45.876977560437936],[0.157908704660321,45.87784206665032],[0.157957734821888,45.87844251524214],[0.158637499124295,45.879971614120024],[0.158844352897268,45.880864374322975],[0.159384826289105,45.88169253317671],[0.16028571191404,45.882587414672614],[0.16020529295931,45.88277101537737],[0.160294875150898,45.883060709293105],[0.160899087055492,45.88375439908529],[0.161239761350403,45.88455500140906],[0.162521886917444,45.88636682005979],[0.163122480523997,45.88790921716765],[0.163412604965044,45.88836433256208],[0.164717506076181,45.88810602761391],[0.165425162620214,45.888120173150625],[0.165545082282663,45.888347547757775],[0.165931819287136,45.888354542562205],[0.166583009796593,45.88818705037756],[0.169398168247936,45.88786652385031],[0.170710988630403,45.890796337610546],[0.171309226888724,45.89238998645138],[0.171767717078955,45.8928601042529],[0.171890750279808,45.893128097303126],[0.172604112165241,45.8935856654857],[0.172930854021217,45.8939831001494],[0.173638895766546,45.89444413253838],[0.174375014114591,45.895389736299876],[0.175338954917682,45.89773227824698],[0.175635982721784,45.898811070702614],[0.176320684430666,45.89867138937296],[0.177777016245818,45.89865999984368],[0.177902680003587,45.89716375988365],[0.177770228044662,45.895214146252535],[0.176983052085624,45.893677091130705],[0.178170726366654,45.89359231089331],[0.178327766869585,45.89375121480875],[0.178955176535661,45.89384706985352],[0.182430192791842,45.893950862595055],[0.182644006336202,45.894337342870486],[0.182783080533847,45.89502471814719],[0.183354618703749,45.89591119253519],[0.183647007835587,45.89602300126408],[0.184225218842738,45.896450994623144],[0.184652572253475,45.896522911267795],[0.185033411299722,45.896899129036825],[0.185042806535452,45.896967843939414],[0.184833649840984,45.897095993029865],[0.185016452946612,45.89728165939756],[0.186879047498832,45.897982198658504],[0.187688166347648,45.898109557282545],[0.188137714346327,45.89810091673187],[0.190442851003287,45.89776716937171],[0.190587088131898,45.89868443178043],[0.189814011520363,45.89952032567832],[0.189298269688887,45.9005482322137],[0.188895987793135,45.900945510515875],[0.189008139987588,45.901352876720786],[0.190409330963849,45.90262666962294],[0.189680607033763,45.90307260485236],[0.189257833925666,45.90354236161156],[0.188263277507811,45.90403754496815],[0.189466809685908,45.90577138116859],[0.187971198411224,45.90609371702607],[0.187869284047077,45.906219133288815],[0.189552873150232,45.90889210071829],[0.1886938468871,45.909284333384804],[0.187343309515569,45.909645411918085],[0.184578488255339,45.91009831826489],[0.187696270723932,45.910848101428606],[0.188584208015885,45.91087649011042],[0.19078559361425,45.91056266934603],[0.193237191586704,45.90982160695591],[0.194539403001219,45.90967371244549],[0.194957521088807,45.909726435850686],[0.195641309866391,45.90998668376926],[0.196670771986912,45.909694137461265],[0.199881040107546,45.90931234177599]]]]}}]}