{"type":"FeatureCollection","name":"COM_40194","crs":{"type":"name","properties":{"name":"urn:ogc:def:crs:OGC:1.3:CRS84"}},"features":[{"type":"Feature","properties":{"fid":4254,"ID":"COMMUNE_0000000009759597","NOM":"Montfort-en-Chalosse","NOM_M":"MONTFORT-EN-CHALOSSE","INSEE_COM":"40194","STATUT":"Commune simple","POPULATION":1223,"INSEE_CAN":"04","INSEE_ARR":"1","INSEE_DEP":"40","INSEE_REG":"75","SIREN_EPCI":"200069631"},"geometry":{"type":"MultiPolygon","coordinates":[[[[-0.833971801022778,43.68792625006953],[-0.834687989938989,43.688091079215035],[-0.834919846320423,43.688049569259846],[-0.835722846719778,43.68773116081168],[-0.835923097964051,43.68731059231974],[-0.836805511009583,43.68736233812379],[-0.837682872533955,43.687301645038346],[-0.838601610930966,43.68693228357484],[-0.839626159744627,43.68690061148766],[-0.840175887775492,43.68680462181738],[-0.840324037176101,43.686718309783075],[-0.840549892495543,43.68632835823155],[-0.841109870348949,43.68610767986684],[-0.841578103199275,43.68566682144121],[-0.842227553575644,43.68561414327009],[-0.84235467403089,43.68578802557007],[-0.8430304088594,43.68599747150375],[-0.843564632265121,43.68583714871053],[-0.84504845418446,43.685786485246055],[-0.845639106744717,43.68543136719408],[-0.84641097668028,43.685408567305664],[-0.847477474422575,43.68566902467214],[-0.848216330827908,43.68565368652098],[-0.849049916481063,43.68593948928276],[-0.849448196459562,43.686157817437525],[-0.849953077583287,43.68624444365176],[-0.851351646434023,43.68588590696711],[-0.852127544467412,43.68701155643789],[-0.852157406878244,43.68730779168086],[-0.851180105526089,43.688134293630725],[-0.84986151115479,43.68896296134333],[-0.848389093799902,43.68851959777468],[-0.848343504531333,43.689189669921184],[-0.848203424397605,43.68948831714673],[-0.847864539632553,43.6896921994732],[-0.847385553775924,43.69071183722366],[-0.846576591258566,43.691126038211],[-0.845251122331911,43.69248281036975],[-0.844601093281615,43.692398589714024],[-0.844286094350423,43.69312503144154],[-0.844405587575725,43.69338837058607],[-0.844442363300885,43.69406543926833],[-0.844565152707538,43.69432235574077],[-0.845104373310282,43.69464202428432],[-0.848616480632733,43.69589163777139],[-0.849086673589291,43.696255172270156],[-0.849455512975606,43.69690247060315],[-0.852218381820243,43.69662805723818],[-0.853927919696167,43.695554878082305],[-0.854541813046221,43.69482501605213],[-0.855144205430487,43.69486492216946],[-0.855235573620997,43.69520762659738],[-0.857128261162421,43.695914378147286],[-0.856568609538166,43.69678557498918],[-0.856498771553765,43.69733399531528],[-0.857315650204636,43.69843745144313],[-0.857984743125988,43.69891371513581],[-0.858299371792001,43.69899444450443],[-0.865086779062262,43.70041288377116],[-0.865003276389947,43.700555491582435],[-0.865162321386674,43.70180750136119],[-0.865781029916867,43.70269452362044],[-0.866142694041912,43.70273572167576],[-0.866460283084263,43.70398119543416],[-0.866282886339791,43.70438840546677],[-0.865958485791164,43.704807147118636],[-0.865190002660952,43.70519662555849],[-0.862780432355782,43.70566962180391],[-0.862260927316407,43.705884468938606],[-0.861775961354116,43.70598547395416],[-0.860156228092074,43.70695649112854],[-0.859773966351751,43.70708897695088],[-0.859698515608097,43.70742498930409],[-0.859780508243462,43.7074806384176],[-0.859753585158977,43.708591509205206],[-0.859032064073835,43.70866576023023],[-0.857756039009642,43.70863895398205],[-0.857813297028101,43.708788275091024],[-0.857231195549271,43.70943865231463],[-0.856780864836961,43.7096302979169],[-0.8568733910232,43.70980539613189],[-0.856810245713322,43.70990042841327],[-0.855635945078242,43.71064656879447],[-0.854257868625853,43.711391808559775],[-0.854075631044214,43.711618086551624],[-0.854108525407065,43.71177457926539],[-0.853795616643532,43.71205233378492],[-0.853192207961832,43.71292236270367],[-0.851216246598563,43.71467703138901],[-0.850642262049183,43.71535771449863],[-0.850387107822344,43.7158298113411],[-0.850373395479622,43.71614291066818],[-0.850427380541454,43.71639145138335],[-0.850790313054598,43.71683806602803],[-0.852378834938038,43.71720524763915],[-0.852890261099916,43.71744028971865],[-0.854442296760955,43.71774477023033],[-0.853760937783128,43.718122066233065],[-0.853324962484975,43.71854652238349],[-0.852912056858836,43.71876024806387],[-0.852242601615326,43.71892720095093],[-0.852289440161669,43.7192723917747],[-0.851724476897425,43.720290602494224],[-0.851760969100904,43.722235273172814],[-0.851993239162325,43.72247479945796],[-0.851117437739715,43.72323103752125],[-0.84908247143769,43.72407783489296],[-0.848415419153416,43.72461404977227],[-0.848013326718675,43.72532197197714],[-0.846370467555237,43.72645935381697],[-0.845732277030685,43.72668642012782],[-0.84510064543396,43.726844781725205],[-0.842423117100816,43.72724658474951],[-0.842374683776378,43.72757982902135],[-0.841992956960503,43.727556372070744],[-0.840556954569855,43.72722508663027],[-0.839157619680771,43.726810506702286],[-0.838104206610596,43.726718843449305],[-0.837796487840935,43.72668735584827],[-0.837472498631834,43.72654292737912],[-0.836856689508276,43.72595563523166],[-0.836378964071018,43.725130137555226],[-0.836161871260678,43.724300854441836],[-0.835319031080281,43.723606245490096],[-0.834780363419598,43.72359460317633],[-0.83467788057605,43.72352974700669],[-0.834457392121658,43.72226004214375],[-0.834037850555683,43.721690144822766],[-0.833026717738138,43.72078163341067],[-0.832894596709944,43.720478181370936],[-0.833009345714521,43.72009576138941],[-0.832943526667001,43.71994763054499],[-0.83193552135146,43.71863990450618],[-0.831522775742138,43.7183562460832],[-0.831313656112031,43.71796001013792],[-0.830395318360165,43.7172671294019],[-0.830397825582496,43.715764349915936],[-0.830915627217987,43.714704682756],[-0.831274653467475,43.71325871732384],[-0.831014800721285,43.712902107232026],[-0.830923853766708,43.71197018453681],[-0.831131402347214,43.71130432289062],[-0.830852737653968,43.7103510852086],[-0.829890003894397,43.71051471632334],[-0.82980455945211,43.71046277055584],[-0.828552964498643,43.71041133770848],[-0.826661595896133,43.70987429946062],[-0.825808481551126,43.709392605817406],[-0.825436284229781,43.709286779698644],[-0.825623135944821,43.71031712926576],[-0.825186917954505,43.711409031771126],[-0.824333320656692,43.71238858267853],[-0.823738086881443,43.71260680302205],[-0.822807543208388,43.71336472493434],[-0.822636488184598,43.71336983544481],[-0.821832051023474,43.71389629304261],[-0.821329300573201,43.71499772378485],[-0.821096284002873,43.715005008351206],[-0.82045146085384,43.71556008190098],[-0.81841684990572,43.71607926093755],[-0.816561654185452,43.71694255114624],[-0.81613980457792,43.71730329100829],[-0.816150428995065,43.7169038255925],[-0.816327105894087,43.71633097006523],[-0.81633074005673,43.715677700272266],[-0.816015250277714,43.71524913600258],[-0.8155147063753,43.71504417544062],[-0.815439528477829,43.714810780515386],[-0.815070879784672,43.71455344496477],[-0.814656572145637,43.71383465521071],[-0.814268129925951,43.71288883596852],[-0.813548540395579,43.71234110514807],[-0.813205175430792,43.71160541079197],[-0.813268617801245,43.71071221502707],[-0.812930445921238,43.710874517113545],[-0.8121197068138,43.71011376284414],[-0.811400144787063,43.70909936433858],[-0.811683614433483,43.70856331740578],[-0.811909076060691,43.708517579114115],[-0.811992524857155,43.7083533971534],[-0.812298507110719,43.708230062998744],[-0.812502625379887,43.70795714909137],[-0.812863874817734,43.707880523490985],[-0.813007813496827,43.707673680601275],[-0.813320150298389,43.70747805031428],[-0.814022461168642,43.70756243147599],[-0.81503047699319,43.70731447160263],[-0.815370704349742,43.70705299350712],[-0.815555746641987,43.706605971876144],[-0.816384414893265,43.70622014954939],[-0.816228982529731,43.70493194013697],[-0.816420810390766,43.704270269862775],[-0.816737120852793,43.703669094173534],[-0.816615716582899,43.70333822775593],[-0.816253131578011,43.70305906668413],[-0.816223786687771,43.70274929343026],[-0.816714980196492,43.70262935646402],[-0.816874717896775,43.70238051337359],[-0.81693374982169,43.70196223592147],[-0.816664608521863,43.700477125962024],[-0.816284840240247,43.700107580668096],[-0.815790235425691,43.69894659037563],[-0.815757501615127,43.698548651129],[-0.815585285699659,43.69818173137029],[-0.813914295201177,43.69626653356669],[-0.812885193079147,43.69531886910832],[-0.810775735119785,43.69433068663954],[-0.810425748465022,43.694314123269336],[-0.809848384846266,43.694574885342575],[-0.809165580377153,43.69461321955835],[-0.807339297667774,43.69390513357597],[-0.806872187236198,43.69363951591041],[-0.807646828026018,43.69233136039486],[-0.80802530480163,43.69202982924306],[-0.80845632024192,43.69184627191072],[-0.809327633231276,43.6907977710379],[-0.8098599273449,43.691147576668435],[-0.81207193179593,43.69020972105997],[-0.813864470582615,43.690076594456016],[-0.815495566020638,43.690408547035126],[-0.816597094732793,43.69076717282789],[-0.817346970819511,43.69100930931536],[-0.818253576341036,43.69097657666774],[-0.818800888649329,43.69125284252794],[-0.819193072906755,43.69130663376639],[-0.820127709008201,43.691228758294],[-0.820523714607793,43.69137700224984],[-0.821269988811456,43.69111835325479],[-0.821651340619544,43.69108423069795],[-0.822824769707599,43.69108712543923],[-0.823521448331133,43.69125721898453],[-0.823689179695415,43.691240510331596],[-0.825241712302126,43.690803932905176],[-0.82653227685836,43.69075762279689],[-0.827959063206788,43.69001913249625],[-0.828040359316004,43.689508175900755],[-0.828256614627939,43.689196065846346],[-0.830260048685993,43.6890984834409],[-0.83137273378884,43.688453891293015],[-0.832695009027006,43.68812171111072],[-0.833971801022778,43.68792625006953]]]]}}]}