{"type":"FeatureCollection","name":"COM_40082","crs":{"type":"name","properties":{"name":"urn:ogc:def:crs:OGC:1.3:CRS84"}},"features":[{"type":"Feature","properties":{"fid":4256,"ID":"COMMUNE_0000000009759576","NOM":"Classun","NOM_M":"CLASSUN","INSEE_COM":"40082","STATUT":"Commune simple","POPULATION":246,"INSEE_CAN":"01","INSEE_ARR":"2","INSEE_DEP":"40","INSEE_REG":"75","SIREN_EPCI":"200030435"},"geometry":{"type":"MultiPolygon","coordinates":[[[[-0.361882011634313,43.71162878755356],[-0.361588500471652,43.71140909278452],[-0.361368607787777,43.711047522446734],[-0.360959698271619,43.70958129468638],[-0.361198620175459,43.70846972146545],[-0.361325935184583,43.7076777231839],[-0.361774376677881,43.70683617327464],[-0.362159220894928,43.70582096158283],[-0.366852627618949,43.70205070114354],[-0.367824307349388,43.702846512207245],[-0.368461644991242,43.70296007317055],[-0.368725543594055,43.70339411783148],[-0.369630813427093,43.704115416610165],[-0.369897059269122,43.70448363924204],[-0.370515223242113,43.70471396652258],[-0.371034039100325,43.70504914251764],[-0.371404645467086,43.70501784269786],[-0.37282150964237,43.70567642692991],[-0.373510796499874,43.706734031620584],[-0.374162822008057,43.707032639742685],[-0.375754097520631,43.70755248286256],[-0.3759937440454,43.707510821185764],[-0.376227141393899,43.70763687421578],[-0.37650532554513,43.70763814731132],[-0.376781047203104,43.70785024882026],[-0.376788296224967,43.707762660506674],[-0.377374060901674,43.707905693004314],[-0.377776151419867,43.70775540887577],[-0.378255795176615,43.70769908473613],[-0.378499999485532,43.70779777787911],[-0.378433566308344,43.70791332338811],[-0.378558500001934,43.7079896015158],[-0.379147324547408,43.70797401459476],[-0.379492320581324,43.70809749498313],[-0.379944100966072,43.70798979107967],[-0.380609476132027,43.70805107537805],[-0.38086708776773,43.708166459198225],[-0.381863411669328,43.70828139659411],[-0.382016819223549,43.70846126178547],[-0.382392328571052,43.708512632877266],[-0.382570714840946,43.70821167122638],[-0.382843978667556,43.70810860514474],[-0.38317014440358,43.708144395439994],[-0.383327417177221,43.70841060166021],[-0.383488546767964,43.70851096703372],[-0.38376577880065,43.70849603951043],[-0.384107360537044,43.70833050118175],[-0.384832991418822,43.70838177956681],[-0.38601092697597,43.708334314034154],[-0.386644824482561,43.7084929119168],[-0.387254091842587,43.7083820757208],[-0.387689548667444,43.70839733704733],[-0.387933772205715,43.708496009070466],[-0.388381676295763,43.70851178067099],[-0.389295225794046,43.70896877743376],[-0.389840713721425,43.709059860226745],[-0.391162375760509,43.709070006094905],[-0.391274708404904,43.709163775647305],[-0.391713339767642,43.70927439217361],[-0.394167353123322,43.70943112542759],[-0.394618636623237,43.70931526953627],[-0.394896719389991,43.709063412977066],[-0.395208272741051,43.70801522658673],[-0.395419241675722,43.70788795326202],[-0.397632542450469,43.707357708750415],[-0.398059829180347,43.70742362071334],[-0.399072100485541,43.70786934719008],[-0.399851226944621,43.708444841947326],[-0.400092897426877,43.70852105053372],[-0.40012148415089,43.7081661959815],[-0.401783794637481,43.706846991579745],[-0.402265677833939,43.70570068711067],[-0.402171472843915,43.70553611004341],[-0.402251066895143,43.70518326251216],[-0.4027465053144,43.705017354818054],[-0.403474891527867,43.70455144079095],[-0.404226941009013,43.70369029042318],[-0.404360047205029,43.70327722345457],[-0.405181416095484,43.70191222736178],[-0.405158258519295,43.70177334956764],[-0.405284713908099,43.701749576178074],[-0.40523510885283,43.701479128959605],[-0.405320523145929,43.701308030997886],[-0.405909648869594,43.70092301580326],[-0.406127102861972,43.70063429906648],[-0.406463151048353,43.69954298022828],[-0.406888579541098,43.69955757612662],[-0.407331779238711,43.69932843476926],[-0.407684376061548,43.699329097131915],[-0.407891016225663,43.69923435797165],[-0.408354863295072,43.69949812866199],[-0.40906495587894,43.69881028476074],[-0.409844227588112,43.697762704060445],[-0.410575525621025,43.69807752367328],[-0.410776464983126,43.69838735549627],[-0.410795608454118,43.69879205386675],[-0.411923750118539,43.69862067048465],[-0.41390238718213,43.69872250506561],[-0.413852302541447,43.69902760133438],[-0.413248391608014,43.699725656246436],[-0.413115370679368,43.7000973020823],[-0.413118978128116,43.700449349249716],[-0.413402674179662,43.70046026134003],[-0.413665441931047,43.70091135473016],[-0.413110311844672,43.70111611417936],[-0.411805430272276,43.701405635858734],[-0.412277562258668,43.70247432735459],[-0.41272185826334,43.70303411363606],[-0.418355714528916,43.70661030550527],[-0.419054300861286,43.70720621219067],[-0.418863072430931,43.70851549658682],[-0.418569107633679,43.70895705823489],[-0.417368756982888,43.70906592581106],[-0.417441699097214,43.70958062092154],[-0.416720125615432,43.710367958001214],[-0.418225358054154,43.71106012618552],[-0.417035091533908,43.711837873123024],[-0.416721782802221,43.71193507893477],[-0.415317059599213,43.71353104915282],[-0.415179646737341,43.71393346112476],[-0.415260396265173,43.714225447039816],[-0.41498513657098,43.7144403421928],[-0.414844814969243,43.71444024330012],[-0.414254094044098,43.714112924039846],[-0.413279053283536,43.71573230906127],[-0.411225555814919,43.71723869350211],[-0.409940522894461,43.719535166644],[-0.40933966596768,43.721435508012824],[-0.408637352770716,43.72288418346377],[-0.40688257524458,43.72432438057093],[-0.405043490311344,43.725476267502984],[-0.403364888513918,43.726529432434475],[-0.402460466974414,43.7271935927201],[-0.401634543769486,43.72809216930315],[-0.400884804581601,43.72807867515389],[-0.39907245840899,43.727823666161896],[-0.398120395317233,43.72779125374763],[-0.396870946704189,43.72743576774804],[-0.396622102306886,43.72751198650543],[-0.395564796158286,43.728238502000295],[-0.3957923454836,43.72870335468818],[-0.396998297722474,43.72999961607353],[-0.397405263865824,43.73007607858103],[-0.397548496836227,43.7304174664318],[-0.39811282781159,43.73092674211523],[-0.39822823443421,43.731677905683355],[-0.398063482825161,43.73218742928668],[-0.397963396345114,43.732259005823906],[-0.39792666328084,43.73258169456648],[-0.396206514132112,43.732521903245875],[-0.393303389897526,43.733040282506806],[-0.393209243604172,43.7330026875391],[-0.393098079543477,43.732615260409844],[-0.392948888551804,43.732591990884764],[-0.390866412492807,43.73320900918756],[-0.390448485851152,43.73336703841678],[-0.390134241991166,43.73363982459759],[-0.389904381768694,43.73305163907585],[-0.389088531395513,43.73173414507533],[-0.38720510780836,43.730593988200326],[-0.386887271666386,43.729651871536085],[-0.386597377722185,43.7280694099551],[-0.3855868307956,43.72620855023968],[-0.3837154802917,43.724785160172885],[-0.382193795983306,43.72284650219448],[-0.38122573714408,43.7221632626106],[-0.3794550559099,43.721788655168545],[-0.378683978346899,43.72145413747391],[-0.377736547013927,43.721203446836434],[-0.377096371402442,43.72083513312435],[-0.376696016040283,43.72036390381167],[-0.37470531065326,43.721374058650795],[-0.373288235613298,43.721961997794345],[-0.367258447132888,43.722459489108026],[-0.36681960600753,43.72253611443102],[-0.366336919384936,43.72273298103936],[-0.36616712501358,43.72223206516707],[-0.365454832655329,43.72192445828309],[-0.365337212553212,43.72180380571558],[-0.365341620861579,43.7216253396489],[-0.365006146147553,43.721052090567454],[-0.365036702689282,43.720959278809005],[-0.365406381747834,43.720889302896474],[-0.365667596642345,43.72032642004818],[-0.366178839161304,43.7198341586881],[-0.36628360632477,43.719356272576796],[-0.366592628819331,43.71920530874607],[-0.36661012850255,43.71912280774115],[-0.366459872984169,43.71908062275296],[-0.366746416742878,43.71888532123737],[-0.366733612788521,43.71862542839033],[-0.367192067097569,43.71818613276567],[-0.367142703678012,43.7178958485621],[-0.36739056828396,43.71748648600512],[-0.3672822236253,43.7171223725321],[-0.367386951248909,43.71681290914696],[-0.366905264359324,43.71495716096894],[-0.366738398744759,43.71469573179849],[-0.366021703353848,43.71412167646957],[-0.365577034833622,43.713929184],[-0.365102919348925,43.71357368228663],[-0.364655433406205,43.713354253995895],[-0.36427850815475,43.71279309720539],[-0.363812433047359,43.712764277647125],[-0.363814956218156,43.71268043926391],[-0.362828250393683,43.712011139037585],[-0.361882011634313,43.71162878755356]]]]}}]}