{"type":"FeatureCollection","name":"COM_33520","crs":{"type":"name","properties":{"name":"urn:ogc:def:crs:OGC:1.3:CRS84"}},"features":[{"type":"Feature","properties":{"fid":4143,"ID":"COMMUNE_0000000009756526","NOM":"Taillecavat","NOM_M":"TAILLECAVAT","INSEE_COM":"33520","STATUT":"Commune simple","POPULATION":288,"INSEE_CAN":"27","INSEE_ARR":"3","INSEE_DEP":"33","INSEE_REG":"75","SIREN_EPCI":"200069599"},"geometry":{"type":"MultiPolygon","coordinates":[[[[0.165173790123158,44.633143500022264],[0.164145045419432,44.633480152723386],[0.162120199873475,44.632652557786976],[0.160428212043379,44.63295683175391],[0.159055098223496,44.632966591551174],[0.157980545594509,44.63255971178519],[0.15690676458928,44.63248795656976],[0.156446107349595,44.63239142722469],[0.155683698996075,44.63207453132556],[0.155369892851391,44.63204303382078],[0.15499020524365,44.63211704073342],[0.151575263783511,44.63433526917294],[0.151231448082611,44.63384895794302],[0.150185977573165,44.63291755457403],[0.14930530048046,44.633866864422366],[0.145106397812079,44.6356142561108],[0.144820943295411,44.635769938029085],[0.144437998364326,44.6361564221937],[0.143881068701276,44.6360672629978],[0.143707398798536,44.63628258424481],[0.143582228404956,44.63678563041904],[0.143172743325757,44.63699846072508],[0.143100578111125,44.638372202231075],[0.142645085063736,44.63964144734582],[0.141582543296727,44.640962561762244],[0.141179985743437,44.6416350025603],[0.141213648786541,44.641891716683396],[0.14087195623585,44.6420855733673],[0.140345574153609,44.64256202574017],[0.140131253108355,44.642682601972055],[0.13928595578375,44.642829192789314],[0.138995332559223,44.6430856239462],[0.138097148591251,44.64452176943726],[0.138238161240828,44.64487585417692],[0.137858387321245,44.64527231122636],[0.137534333507413,44.6458386707694],[0.136790732731176,44.64629236809723],[0.13662078501973,44.64650777697304],[0.13661469979739,44.6469751664621],[0.136817477932387,44.64782722779537],[0.136504851246396,44.64893800218254],[0.136479625539963,44.64935985330283],[0.136826986878081,44.64987513355018],[0.137280751805598,44.65127691376063],[0.137253558920031,44.6515140374957],[0.137685379428781,44.65198195413466],[0.137685830757312,44.65209727625938],[0.136987775277541,44.65291970933777],[0.137081611848599,44.653233837694366],[0.136728371573739,44.65375259739636],[0.136007652989181,44.654275351901745],[0.13594822755759,44.654898111772205],[0.134614701104864,44.65543381186531],[0.132960928412383,44.655664809012954],[0.132729683616798,44.65596781025319],[0.132496916009209,44.656102309604506],[0.132277975061387,44.65643625858129],[0.131991254740858,44.656539629181296],[0.131368772368931,44.6569658084793],[0.130967005373101,44.65739500862992],[0.130828580401933,44.65743646050574],[0.13057331670178,44.65734335383111],[0.130135582079295,44.657759906665866],[0.129370726528415,44.65808148341487],[0.129085112598224,44.658385769306335],[0.129102184999016,44.65852134281598],[0.130038593191948,44.65832583728946],[0.130724017016803,44.65827515788244],[0.132412978142635,44.658371218112315],[0.13360565478088,44.65829853966192],[0.13380812317301,44.65838756816025],[0.135755175731847,44.658670439389724],[0.136879234302197,44.65895449275051],[0.13997914149347,44.659999533545275],[0.140708836151192,44.66032019212636],[0.146698324230602,44.66208473074592],[0.147897823431313,44.66230215017745],[0.150724502904524,44.66244257690587],[0.151987291067145,44.662382315211445],[0.152327633515031,44.66244152748325],[0.15716400539363,44.66452982646138],[0.162057836752701,44.66646173075412],[0.163631150407792,44.66700476811492],[0.165634945208665,44.667573228724],[0.167491914497919,44.66789916526042],[0.167772381805448,44.66812075125854],[0.167747580507925,44.66846334230906],[0.169614850314596,44.66838412112225],[0.169968824801831,44.66854992761362],[0.170414207280108,44.66895679803907],[0.170823956409032,44.66899250369274],[0.171907399835571,44.66830763585558],[0.172352570260885,44.667838862507836],[0.17263478051482,44.667674013946545],[0.173203477673288,44.66763630066048],[0.174121768015392,44.667927319925276],[0.174597613135804,44.66795389018848],[0.175299506365944,44.6678781293076],[0.176060989424551,44.66757056472063],[0.177018909648858,44.66734818492685],[0.177208126056217,44.6671494217472],[0.17731090475074,44.666735851358155],[0.177823022406318,44.666164267577344],[0.178010754231806,44.66581862669327],[0.17823820044396,44.66450378275827],[0.178355410213844,44.66428065973042],[0.178591657693465,44.66417588225684],[0.178828755340719,44.66418012884957],[0.179779124120769,44.664334089732385],[0.180108703211809,44.66430645951317],[0.180394789587452,44.66418943626045],[0.181128955325555,44.66351810061931],[0.181602190475214,44.66243563049886],[0.182730612799663,44.66135093402144],[0.182508052901623,44.66070295990623],[0.183047395434307,44.66026627580287],[0.182978819294053,44.659996977435604],[0.182699193945497,44.659985349968046],[0.182432222534969,44.66009926194773],[0.182274242833238,44.66005289703193],[0.18232763264371,44.65981823538523],[0.182002255316944,44.65905593556884],[0.181802407732615,44.6588121183589],[0.180645041184866,44.65792861455102],[0.180433594840866,44.65716020598707],[0.178817320784872,44.656393801372275],[0.178225577979353,44.65601205815753],[0.177850015916414,44.65564844091597],[0.177459846754274,44.65499707911361],[0.17681061658757,44.6543526147286],[0.175777471976246,44.65358753719039],[0.174995281932065,44.65312884359579],[0.175490229908068,44.652646021362955],[0.174038494663156,44.65192428428853],[0.173375954105561,44.6517226756124],[0.172758641100914,44.650720464507245],[0.172535511578196,44.65011209169362],[0.172215502288723,44.649900316373994],[0.17172452679471,44.649750829763256],[0.171007504514875,44.648825332374486],[0.17040255148269,44.64830717896663],[0.170333990652971,44.6481144445487],[0.169368971874518,44.6475546390285],[0.168813509769003,44.64705666131109],[0.168791974558205,44.646530915349565],[0.168387680590597,44.64598816044314],[0.168243455525886,44.6448656133944],[0.167884704201595,44.64442131459867],[0.167156254010844,44.64382610918147],[0.166986400513446,44.64343979734643],[0.166672783260452,44.643102050130054],[0.16658991421443,44.642792737233954],[0.166804307521092,44.64234330367035],[0.166806219325083,44.641903739127],[0.167788979061733,44.64153074595671],[0.167816626528638,44.64128191969317],[0.167479073411737,44.6409435616567],[0.167755989610021,44.640580408434936],[0.168366361489129,44.63855292559183],[0.168401774764445,44.63817457675062],[0.16695761376279,44.636734058112076],[0.166867909506607,44.63643538095277],[0.165273960935811,44.634738763266135],[0.165586474763754,44.63381800566817],[0.16542375940759,44.63331566591652],[0.165173790123158,44.633143500022264]]]]}}]}