{"type":"FeatureCollection","name":"COM_16372","crs":{"type":"name","properties":{"name":"urn:ogc:def:crs:OGC:1.3:CRS84"}},"features":[{"type":"Feature","properties":{"fid":4144,"ID":"COMMUNE_0000000009752917","NOM":"Souffrignac","NOM_M":"SOUFFRIGNAC","INSEE_COM":"16372","STATUT":"Commune simple","POPULATION":149,"INSEE_CAN":"19","INSEE_ARR":"1","INSEE_DEP":"16","INSEE_REG":"75","SIREN_EPCI":"200068914"},"geometry":{"type":"MultiPolygon","coordinates":[[[[0.498885880441505,45.56499753412409],[0.498575171084736,45.56477709901982],[0.498060271312066,45.56490347839352],[0.496239639004197,45.565683674338864],[0.493724214807294,45.56622672094983],[0.49188351554942,45.56724965202039],[0.491652678766812,45.5669084536185],[0.491654944129899,45.56580937114388],[0.491401347403458,45.5643838469163],[0.491493790653933,45.562964245308166],[0.491305074258509,45.56259966107788],[0.490644576751328,45.5618056104812],[0.488522505959189,45.56269967409528],[0.486843460162889,45.56321260423773],[0.484817148849975,45.56422676407789],[0.484857063998529,45.56427991143792],[0.484026435512648,45.56424059634401],[0.483887655614626,45.56441587355034],[0.484034030320908,45.56497772819435],[0.484809442687848,45.56603656214234],[0.483669070606645,45.56651915901007],[0.48281528196731,45.5669892445997],[0.482688467376723,45.56698550314455],[0.481704030302304,45.56742292337154],[0.477135222357012,45.56995748615244],[0.476937337353944,45.57013413170858],[0.477822862969608,45.57046302826083],[0.478133587229227,45.570738479302975],[0.475728530872017,45.57177822242053],[0.475718799729843,45.572048284382255],[0.47656723634075,45.573502525936576],[0.475589761693176,45.5739805950209],[0.475063707836168,45.5743769024212],[0.475042701804385,45.57500708543957],[0.475257895011892,45.57622547967922],[0.475806897157178,45.57704414731139],[0.476453272521411,45.577753282126984],[0.476418059133548,45.577878622507995],[0.477022526541733,45.5783813996151],[0.477775217202115,45.57878479267771],[0.478247253392576,45.58033778404674],[0.478369647789697,45.58046756157205],[0.479716354443688,45.58101309817313],[0.483228018298184,45.58332789272479],[0.484275013638214,45.584203610923154],[0.485238598845114,45.58536304861744],[0.485424968533939,45.58575191578977],[0.488484794955127,45.586468085313456],[0.488783689089709,45.586837837752405],[0.48919393846154,45.58681727015016],[0.489537825242249,45.58744028611508],[0.489899898508765,45.58848354101807],[0.490993811604187,45.58977286659612],[0.491596894897851,45.59022687897008],[0.492527671163083,45.59069900793145],[0.493153329381228,45.590767916690666],[0.491413062229143,45.59170841286274],[0.492756035723395,45.59325283401865],[0.49319723696996,45.59348520159247],[0.491826457701812,45.594227630178636],[0.491946324672296,45.59449968248803],[0.494341029772918,45.59725136069659],[0.494126150224857,45.59737720713621],[0.493860717521889,45.59788302025628],[0.49355913912288,45.59816639814633],[0.494760641372893,45.59955177710188],[0.494470640692519,45.60017506647692],[0.494538192209306,45.60080992604618],[0.494193231336191,45.60088872897907],[0.4938040669348,45.60069626635089],[0.493599125998375,45.60068719396016],[0.493646177290671,45.600895456870205],[0.494063448235658,45.60128945402881],[0.49403086456123,45.6015842333446],[0.49374037997399,45.6017354225701],[0.493109225216608,45.6016150441427],[0.492199357168336,45.60198125659241],[0.492286190021919,45.60289853984663],[0.492559392532185,45.603214552433705],[0.492975321293496,45.60403556525002],[0.493136758155269,45.60415538427264],[0.492811169576316,45.604287770323374],[0.493539651225819,45.605463508208835],[0.49360795500768,45.605712786740206],[0.49353035464578,45.6069741636628],[0.493840949045654,45.608450505293966],[0.494846411855022,45.6093504135904],[0.496289077587334,45.610319507226095],[0.496384784459256,45.61320101407817],[0.499017484587334,45.613064083051874],[0.500822473282394,45.61277806735485],[0.501449298269276,45.61538847280927],[0.502651845820372,45.61496921885141],[0.502861010936595,45.614828813088465],[0.503824806575334,45.61309789962343],[0.503844754493218,45.61251273869219],[0.503213258962141,45.6112004836654],[0.504142715021654,45.61077154974994],[0.506096174549402,45.6102932451098],[0.507143193678919,45.60973265591587],[0.508284023173506,45.61011109973923],[0.508452798875792,45.608898587693616],[0.510632820095913,45.60888920242512],[0.510668109520015,45.605875486026065],[0.510799139432736,45.60578739281846],[0.511312172699169,45.605796044288454],[0.512249529957245,45.60653121701689],[0.512629561837432,45.60667205890668],[0.512822685298512,45.606630382930035],[0.513155653548577,45.606275574459126],[0.513500342130842,45.605516509115155],[0.513600060860473,45.60443850541829],[0.513503907516397,45.60349221069886],[0.513920256232652,45.602508597265484],[0.515069263785262,45.60072764108757],[0.515593263926878,45.60037614705568],[0.516630238180272,45.60003327780789],[0.516989142703971,45.59886910289066],[0.514639701190046,45.59820096733018],[0.513123876734426,45.597546716628365],[0.512335142587518,45.59702024766191],[0.51057519819494,45.596916430805614],[0.510166376901763,45.59661818209453],[0.511321346629387,45.59556174053368],[0.513184385106631,45.594196618371235],[0.512751345755056,45.59375189371555],[0.512067902144888,45.59262503284563],[0.511574070493545,45.592077153617424],[0.511702095849565,45.59179799785988],[0.511988945719542,45.59166830638483],[0.512545413444929,45.591735575365504],[0.512818814377749,45.591676757239114],[0.51364842305894,45.59094734011981],[0.513613661911178,45.59023484211264],[0.513766402632152,45.58991929311651],[0.514765473215232,45.58904406296057],[0.516252341944697,45.58819221527557],[0.515765862735457,45.58782380067818],[0.514966676022369,45.58738991222157],[0.514679878830685,45.58708987174761],[0.513896113698335,45.586827491526016],[0.513182407569462,45.586147726287415],[0.51250488698458,45.585691284852786],[0.512537783266739,45.58555867612099],[0.514007031337891,45.58475511966581],[0.514197805495581,45.58456383806834],[0.514159098249723,45.58436838293411],[0.513588665544622,45.583784582917595],[0.509329533995854,45.5800884059557],[0.508695634880956,45.580404997835586],[0.508347687695997,45.579611680099845],[0.507283157309775,45.57852048324632],[0.507089145466585,45.57775670148502],[0.506940653056094,45.57754979922277],[0.506322848980286,45.57716671592571],[0.505240168989422,45.57673727515951],[0.504411457982333,45.57616661184935],[0.50391582227042,45.57566370122295],[0.503555962476564,45.57493767173249],[0.502935667876951,45.5742977497015],[0.502062349818989,45.573608055601014],[0.500671480466808,45.57304558925795],[0.501066371800119,45.57273724384325],[0.503604726434623,45.571518843204544],[0.503873428545685,45.57116354032847],[0.503971018589533,45.57033505511718],[0.504169085992339,45.56995295713184],[0.505094527813972,45.56911312214452],[0.502652075623259,45.567408380519666],[0.500894008744958,45.566344947369224],[0.500138657726335,45.56597228190437],[0.498885880441505,45.56499753412409]]]]}}]}