{"type":"FeatureCollection","name":"COM_47189","crs":{"type":"name","properties":{"name":"urn:ogc:def:crs:OGC:1.3:CRS84"}},"features":[{"type":"Feature","properties":{"fid":4204,"ID":"COMMUNE_0000000009756754","NOM":"Montignac-Toupinerie","NOM_M":"MONTIGNAC-TOUPINERIE","INSEE_COM":"47189","STATUT":"Commune simple","POPULATION":139,"INSEE_CAN":"07","INSEE_ARR":"2","INSEE_DEP":"47","INSEE_REG":"75","SIREN_EPCI":"244700464"},"geometry":{"type":"MultiPolygon","coordinates":[[[[0.376982035669531,44.560250214246715],[0.377088426292991,44.559153845117926],[0.377474814742165,44.558918024375686],[0.378399728759883,44.557720397431616],[0.378511342339468,44.557433011556974],[0.378493897309293,44.55696781878407],[0.378665015230555,44.55659267327342],[0.379914120014277,44.555058654010296],[0.378977854789748,44.55498328556782],[0.378449538495454,44.554858149191055],[0.377855965341416,44.55451078067654],[0.377398385839274,44.55446298087908],[0.377165619351473,44.554348462107946],[0.376769309003039,44.553903991321995],[0.376144072156045,44.55277492533379],[0.375511043154733,44.5518681514518],[0.375504952838539,44.5510780641667],[0.375386781469204,44.55053121215181],[0.375512804822083,44.54936505834177],[0.375621118195637,44.549202799655916],[0.375627927263157,44.54862289039258],[0.37495846570047,44.54771524737002],[0.374959413565821,44.54755944338334],[0.374425268826035,44.54707385508508],[0.373809647724568,44.546119746732344],[0.373049141383117,44.54500455867019],[0.372796129440186,44.54313402371701],[0.372610253970193,44.54290621792384],[0.370947100022751,44.54351514026911],[0.369088063699779,44.543596944902454],[0.365535690959532,44.54334017041231],[0.364946972629243,44.54300095186246],[0.363799053992501,44.54260784187996],[0.363242093962389,44.54231711135656],[0.362303165669099,44.54154886825476],[0.361487402532548,44.53806514783283],[0.360065339811461,44.53895889564572],[0.358847381952608,44.5392846440647],[0.358563678128657,44.53942647546153],[0.35792008641253,44.540073110067844],[0.356089338807378,44.54156952625746],[0.355891336832373,44.54187103323461],[0.355349330056969,44.54220302914046],[0.353815540986636,44.54096198031729],[0.354297174273024,44.540735732579186],[0.353210790569748,44.540107091312244],[0.3544643140596,44.538969792339984],[0.355356773476576,44.538441733467025],[0.355510459113925,44.53825265883456],[0.355228815898845,44.53749019283481],[0.354965279195583,44.537470365840605],[0.352944082514189,44.53523942228647],[0.352543402624094,44.5355126414957],[0.35105786268591,44.53561030207957],[0.350097690761595,44.53575658877352],[0.347914058629206,44.53658685591918],[0.347823906896368,44.53636130646901],[0.34739396383691,44.536425734211754],[0.347153267311743,44.536348790169846],[0.346836906018584,44.536006110335265],[0.346476185513021,44.53534800547461],[0.344994895717626,44.5358906515528],[0.344237158774198,44.5359093492623],[0.340606976002153,44.537236090333074],[0.33981261293129,44.53733674371079],[0.338737947166043,44.535368836228464],[0.334821028313996,44.53711182311779],[0.333603918771814,44.537923717308665],[0.332094582324054,44.53854928708486],[0.327825221847716,44.54009255971164],[0.325805518550572,44.54125334338296],[0.322963809297494,44.54312016165999],[0.323868819278584,44.54334477773612],[0.32428779648016,44.54330089088629],[0.324524738514962,44.54335077155091],[0.324979052128367,44.54370406822498],[0.325149173711855,44.54404777367062],[0.326695923835291,44.54500401197506],[0.326983494846709,44.5454478399262],[0.327588630871206,44.54594169167113],[0.327984223033237,44.5464187577087],[0.328423047902553,44.54662123952673],[0.328857686364656,44.5466993149095],[0.329539220384205,44.54701665609146],[0.329966074970364,44.547685429708345],[0.329353043058955,44.54828941341986],[0.32962378834496,44.548557181013],[0.329569058843241,44.548915255867236],[0.329707552764138,44.54944914766672],[0.330283982912394,44.5496990871017],[0.330867384343888,44.55025454596648],[0.330927244387266,44.55042713575234],[0.331482586620458,44.550750420185445],[0.331512482021685,44.550890759018614],[0.33203501519891,44.55124207137541],[0.332395440381623,44.55134536074776],[0.333029917022458,44.55164712997],[0.333136332307095,44.55176769905415],[0.333567573965795,44.551918633535216],[0.333800708461565,44.5518900362891],[0.334236296631976,44.55200234089419],[0.334528976440015,44.55233998321775],[0.334769534601842,44.553007841818655],[0.335183223546231,44.5536375442588],[0.335793180157953,44.5539792386851],[0.336682775183939,44.554268227159575],[0.337393786939516,44.55484474353781],[0.337760962321646,44.55539314727108],[0.337857913725044,44.55582153934371],[0.338742080292335,44.55708138650489],[0.340604426516561,44.55865123192271],[0.341402962649963,44.558949696766255],[0.342487266537855,44.55895868878682],[0.344163164068747,44.559246723070046],[0.345155456079144,44.55941741121722],[0.347090388475441,44.56009174424643],[0.34795936152857,44.560072088121316],[0.348300986910622,44.559853305931206],[0.349825642426473,44.56035830303235],[0.350635287740075,44.560126427225896],[0.351226353876787,44.560095572340394],[0.35196564981899,44.559698063668534],[0.351995935055141,44.55956277763683],[0.353822868364079,44.56221964106168],[0.35489120999883,44.56189845475232],[0.354760740285689,44.56175211054577],[0.355832651145714,44.56135443782858],[0.35603705968973,44.561589923531635],[0.357173694185664,44.561155056129756],[0.357842434485154,44.56167187520092],[0.358675711441913,44.561284677721744],[0.359307516814223,44.56175646757361],[0.360188005147084,44.56119474337951],[0.361319150296639,44.56198110876025],[0.361641044526808,44.561563651371245],[0.363286285274636,44.560569805518206],[0.363478848783123,44.56038524871996],[0.363454906372838,44.56027748884227],[0.365198111674317,44.55926163620966],[0.366168450629289,44.55931001033791],[0.36761041861523,44.55913272806311],[0.368191978292418,44.55962938883297],[0.36836303851234,44.560148688859776],[0.368130546058905,44.56110873877054],[0.367711117573179,44.56199767733249],[0.368522554015935,44.562482702531],[0.369196028716501,44.56303559269108],[0.369213563552306,44.5629297232766],[0.36949672904075,44.56274731488259],[0.370116503686006,44.56258733606185],[0.372545652889619,44.56139584766097],[0.375034199141075,44.56073985760306],[0.375602731294248,44.5607056344467],[0.376245202392457,44.56054436035112],[0.376982035669531,44.560250214246715]]]]}}]}