{"type":"FeatureCollection","name":"COM_87048","crs":{"type":"name","properties":{"name":"urn:ogc:def:crs:OGC:1.3:CRS84"}},"features":[{"type":"Feature","properties":{"fid":4260,"ID":"COMMUNE_0000000009752122","NOM":"Condat-sur-Vienne","NOM_M":"CONDAT-SUR-VIENNE","INSEE_COM":"87048","STATUT":"Commune simple","POPULATION":5208,"INSEE_CAN":"05","INSEE_ARR":"2","INSEE_DEP":"87","INSEE_REG":"75","SIREN_EPCI":"248719312"},"geometry":{"type":"MultiPolygon","coordinates":[[[[1.228593636434915,45.7675926188985],[1.227086125489366,45.76772656177875],[1.22673634074578,45.76783815701189],[1.226132334943085,45.76837179268332],[1.224206764152563,45.768698181358374],[1.223447708656045,45.76920954664245],[1.222725981242387,45.769840389799796],[1.221983978607497,45.77018087808857],[1.221447311890364,45.77057954281543],[1.221415624801134,45.77080422262418],[1.22118662571327,45.77116089909784],[1.220136981802893,45.77202074234288],[1.219221958750209,45.772576457209645],[1.218460122337242,45.77325077673644],[1.217895132934316,45.774206523032255],[1.216097336210933,45.77463387470167],[1.215491052629139,45.77519264050454],[1.215447345819098,45.7753901074203],[1.214483546050408,45.776376458715866],[1.21343840415517,45.777011134370234],[1.212347038536055,45.777402774663834],[1.211212385568968,45.777540615938236],[1.210917610432152,45.777500814028286],[1.21021737092216,45.77722219423477],[1.209310068384944,45.77705737754721],[1.208357751210255,45.77708999732164],[1.207928309910192,45.77727322931586],[1.207625625712806,45.777556652088414],[1.206979381281744,45.77862905129701],[1.206504808672176,45.77909168539375],[1.205226752935655,45.78074940805272],[1.203640729507899,45.78221576560453],[1.204361741155317,45.78213356666834],[1.205421906525267,45.78219186597286],[1.206599047917116,45.78241414446027],[1.207415429547818,45.78268562394121],[1.207731700496734,45.7828969131372],[1.20831011723555,45.78387707664981],[1.208810916634872,45.784432665858006],[1.209783384840109,45.785093014466966],[1.210242388533327,45.78527053176222],[1.212457176002256,45.78569474907511],[1.214344440651786,45.786773067189856],[1.215012197553343,45.78730424773227],[1.215701006535169,45.78806093692595],[1.218306763459672,45.78874251873538],[1.218740242530057,45.78895472563991],[1.219205789750556,45.78933046698228],[1.219752738403706,45.79005696931981],[1.220845496881297,45.79210622314889],[1.221627088314755,45.79270490960462],[1.222000246731534,45.792832386016855],[1.222550832974746,45.79316801940784],[1.223568646138285,45.79422977808084],[1.224139384277456,45.79458013204424],[1.224566174537941,45.79496244595274],[1.225117849896015,45.79554578074035],[1.225464985157331,45.79660417795988],[1.225872089875605,45.797239278672635],[1.227384394660451,45.798465497216455],[1.228021303888393,45.79880245825929],[1.229469603820517,45.79913593325674],[1.230252136856736,45.79951029352029],[1.231968397733278,45.800846831083305],[1.233384441695498,45.803438744452166],[1.234125871985813,45.80381243328655],[1.235742913524374,45.804109734073094],[1.236818283612816,45.80459310646264],[1.238830692410767,45.80622419027691],[1.239517948455026,45.80696629026009],[1.239743829692549,45.807435481921935],[1.24015281186041,45.808625396825576],[1.240545106556618,45.809167436479],[1.24159425962455,45.80979086405291],[1.243083653632537,45.810422935009974],[1.243913203738713,45.81110867460358],[1.246620116968258,45.812826974060336],[1.246919449647549,45.812648777745174],[1.247317453059043,45.812486523905186],[1.248025117297451,45.81234798942127],[1.248697207178562,45.81203145843099],[1.248871706878375,45.811808987138626],[1.249386993129138,45.811644041716576],[1.250140797409491,45.81163411074861],[1.250938819986552,45.81181400924551],[1.25118520036447,45.81212767076804],[1.251412841249505,45.81213840241564],[1.251501197939283,45.811992054178624],[1.251481367617289,45.81168280302662],[1.251185681638428,45.8092661178],[1.251466209590155,45.80931459794471],[1.251739335357075,45.80967821171557],[1.252842784149535,45.810340203329865],[1.253741234717041,45.80991005367575],[1.253892043201482,45.810028577986664],[1.254811510249032,45.809788795008245],[1.255061255219052,45.80962962685329],[1.2541114795362,45.80846563581441],[1.254672722228948,45.80814915765656],[1.254283323238702,45.80775583117978],[1.253857554146702,45.80782040247489],[1.253418305604452,45.80684534335061],[1.25300948311605,45.806740839896214],[1.252453422368562,45.8063647431256],[1.252049184298893,45.806278321304276],[1.252063795379973,45.80622360416456],[1.251791139531014,45.80608967962382],[1.251733718454606,45.80574742081953],[1.252150506322719,45.80580341397292],[1.252449709130844,45.80526131465991],[1.251911823712094,45.803823557948846],[1.252249414739359,45.803126230822095],[1.252349667797692,45.80309175457955],[1.252377902395122,45.802647240519605],[1.253692006380281,45.80275224488934],[1.253728528406155,45.80233037664322],[1.253185285812443,45.80045119515227],[1.252440995984781,45.79914805504286],[1.253052469338003,45.79886929320508],[1.254651976904827,45.797682582712255],[1.255172098958212,45.797400595764614],[1.259243277122559,45.796516813133316],[1.261680515415225,45.795749143263514],[1.261764568254842,45.79573782787175],[1.262111913162172,45.79619803442329],[1.263680616901458,45.79757954473783],[1.263186789213943,45.795430063351034],[1.261255854899197,45.791405691352324],[1.261214717348093,45.790953802719486],[1.261487172506799,45.7895790159779],[1.262200463406689,45.786141191620125],[1.262899943070984,45.785718720900334],[1.263857801391464,45.78358797694219],[1.264099084741818,45.78258740048917],[1.263002360104594,45.781970652090344],[1.261698521000191,45.781800155316205],[1.261775289227181,45.78120146659858],[1.261543217273853,45.780067503107986],[1.260527284546658,45.77807299047548],[1.261081142649581,45.77295019647727],[1.260612183019802,45.77276012361678],[1.260488363394519,45.77158279109278],[1.260664048290682,45.771317088986095],[1.261217905631588,45.77101758478655],[1.2597061864994,45.76973238346949],[1.260322400037182,45.76929153398314],[1.261109310432249,45.770133217735804],[1.261700636615376,45.76995138088076],[1.26161633310885,45.769358317189216],[1.260724518802302,45.767801659367905],[1.260308254613335,45.768024020365026],[1.259971846308958,45.767549563279],[1.260271450828339,45.76743529079865],[1.259775502408402,45.76659178453057],[1.258376613530776,45.76479399970893],[1.257888987646921,45.76450454832156],[1.256412739368167,45.762347961614545],[1.254399884074696,45.761009901243824],[1.252792641114552,45.75966637821393],[1.252516221283312,45.75892621669208],[1.251930427220771,45.75873249396228],[1.251374652284302,45.76076218420546],[1.25069873065078,45.76126060440479],[1.249782169300957,45.761514797559514],[1.247560728686409,45.76136321382314],[1.244418878300544,45.761789031561285],[1.243956010690193,45.76177642217122],[1.243187802853409,45.76157260829056],[1.242987828736653,45.76118398893163],[1.243029708496435,45.76104052744298],[1.24343339143261,45.760647799629034],[1.244183878763973,45.760355944999226],[1.244520921568275,45.76011619771798],[1.245508482217435,45.758558021768565],[1.245642955354722,45.75817280786271],[1.245607086284069,45.757965086467635],[1.245241856104223,45.75751265224999],[1.244155666502531,45.75707241375037],[1.243439565317416,45.756931560884254],[1.242597244497573,45.75651131764151],[1.242021052355919,45.75638164267672],[1.241234469395659,45.75647476273771],[1.240563961817769,45.756721007782986],[1.239914119931471,45.757166628820585],[1.239370239821465,45.75739592804573],[1.238255000098958,45.75807026064564],[1.237579963407087,45.75857852516242],[1.237369246279255,45.7588913825605],[1.237374772213427,45.75940397454354],[1.237546214731702,45.75991915922259],[1.237743929745854,45.76122467926481],[1.238441352622147,45.76267941586336],[1.23832129021083,45.76321616705137],[1.237466044168952,45.76400624272079],[1.236879821496535,45.764350160909245],[1.234426169830591,45.764777451834135],[1.233548301332912,45.765387002203276],[1.231985694767716,45.766682068421126],[1.230589536097566,45.76699704504288],[1.229754507029915,45.76747213183357],[1.229340642599052,45.76757552370967],[1.228593636434915,45.7675926188985]]]]}}]}