{"type":"FeatureCollection","name":"COM_17254","crs":{"type":"name","properties":{"name":"urn:ogc:def:crs:OGC:1.3:CRS84"}},"features":[{"type":"Feature","properties":{"fid":4049,"ID":"COMMUNE_0000000009750872","NOM":"Nachamps","NOM_M":"NACHAMPS","INSEE_COM":"17254","STATUT":"Commune simple","POPULATION":204,"INSEE_CAN":"18","INSEE_ARR":"5","INSEE_DEP":"17","INSEE_REG":"75","SIREN_EPCI":"200041689"},"geometry":{"type":"MultiPolygon","coordinates":[[[[-0.615020072536386,46.017618185397595],[-0.617833667298718,46.016645838293776],[-0.619316942473569,46.015985469313655],[-0.619176554164466,46.01587727577883],[-0.619390182372999,46.01568294966441],[-0.621256533995665,46.0144748555732],[-0.623129503365475,46.013015014403834],[-0.623967940086315,46.01223097708263],[-0.625171664091543,46.01086552876487],[-0.626081790422042,46.01260141450551],[-0.626113940132802,46.01283385867249],[-0.626253389717652,46.012770799810525],[-0.626654199595272,46.012433445763456],[-0.627279015030584,46.01123615050279],[-0.628306408929308,46.009787971942615],[-0.629002911087741,46.00903097704268],[-0.629337723915371,46.008850775427824],[-0.630199496830662,46.008755544224435],[-0.63127509471627,46.0085092186381],[-0.632130809860764,46.008479070804455],[-0.633294654700513,46.008863611729836],[-0.633995817725864,46.008980837165936],[-0.634920774183931,46.008941234841494],[-0.635769032856234,46.009032994441654],[-0.636470796692095,46.00876797162391],[-0.637110116917851,46.009143175180796],[-0.638816197891323,46.009431818011336],[-0.639829349463742,46.010235802901306],[-0.641384925344586,46.01114223223735],[-0.641554999262156,46.01109259232491],[-0.64381547721543,46.01351780329493],[-0.644086778730952,46.01357037256109],[-0.64318915379017,46.014121192501996],[-0.641861621971272,46.01513565393582],[-0.641523890314466,46.01562338104507],[-0.640363345148056,46.01581934583746],[-0.639461423159249,46.01618908066121],[-0.636791025422176,46.01638664168315],[-0.636017739071259,46.01625642123553],[-0.634972612649226,46.015928489396536],[-0.634419276331405,46.01583717255104],[-0.633980555584979,46.0168338270601],[-0.634025372679245,46.01721820810385],[-0.634409109196973,46.0175817980046],[-0.634479294543733,46.01797798517961],[-0.634145610162772,46.02046586731162],[-0.634406066477566,46.02084332926504],[-0.635582920323929,46.021420347743295],[-0.634464152323688,46.02217200049745],[-0.634133992503982,46.02285417145763],[-0.633799186432274,46.02319213781145],[-0.63343372623499,46.023379643430445],[-0.632152365125479,46.02378672572856],[-0.631322529188367,46.024682324900624],[-0.630692602293579,46.02499999402826],[-0.630996541473636,46.02529133418323],[-0.632323897266486,46.026147519246095],[-0.632698889939941,46.02659342840898],[-0.63338352119782,46.027024898098645],[-0.634185298579803,46.02775999897318],[-0.634192475025096,46.02872972488257],[-0.633030162751919,46.030254392289116],[-0.631911638569228,46.03077793939664],[-0.630321366777406,46.03140944180096],[-0.627425309087839,46.03233694536277],[-0.626703589131704,46.032677359532435],[-0.626474215699412,46.03169221439831],[-0.626250291990683,46.031907615308974],[-0.625233311114914,46.03246119638005],[-0.62403181909842,46.032964780760686],[-0.62398108271839,46.03311784578749],[-0.624233308479298,46.03366506483125],[-0.624820114754118,46.034379162968385],[-0.625053058380611,46.03486930530198],[-0.625067953357583,46.03535019834483],[-0.624876336517925,46.03595759049695],[-0.624304716373736,46.03567028928454],[-0.62403823549612,46.03524071339519],[-0.623593002420902,46.03482857304707],[-0.622835594211387,46.034549911408725],[-0.62194112813063,46.03439101098252],[-0.620815811694367,46.0337337744653],[-0.619139554880778,46.032473038063436],[-0.618405256778961,46.03175821580768],[-0.617852203791642,46.0305327963785],[-0.615706641214993,46.03067341059454],[-0.615278649053212,46.030600531909435],[-0.614949005714997,46.030448792757866],[-0.614332943674792,46.03005469055159],[-0.613827452727971,46.02959035183134],[-0.611921628342681,46.027352474407735],[-0.611090940690189,46.02652710251844],[-0.610334840319627,46.02600944132668],[-0.609652969951647,46.02540016824025],[-0.609377469774771,46.025618980959095],[-0.609226034475946,46.02563822904333],[-0.608282738614619,46.02502826327665],[-0.607541630366769,46.0249157519235],[-0.60696627518972,46.02460775576587],[-0.606254648080615,46.02401744013322],[-0.603940512617184,46.02270829667368],[-0.607321044506468,46.02052919590348],[-0.611027641984763,46.01890569116186],[-0.614999958412055,46.01776486009652],[-0.615020072536386,46.017618185397595]]]]}}]}