{"type":"FeatureCollection","name":"COM_17358","crs":{"type":"name","properties":{"name":"urn:ogc:def:crs:OGC:1.3:CRS84"}},"features":[{"type":"Feature","properties":{"fid":4001,"ID":"COMMUNE_0000000009750856","NOM":"Saint-Mandé-sur-Brédoire","NOM_M":"SAINT-MANDE-SUR-BREDOIRE","INSEE_COM":"17358","STATUT":"Commune simple","POPULATION":298,"INSEE_CAN":"11","INSEE_ARR":"5","INSEE_DEP":"17","INSEE_REG":"75","SIREN_EPCI":"200041689"},"geometry":{"type":"MultiPolygon","coordinates":[[[[-0.301695437415839,46.014173226886385],[-0.302389051537118,46.01443600783343],[-0.304999436749515,46.01486548805858],[-0.307468610573222,46.0155703188949],[-0.310725917242519,46.01617185011631],[-0.316821147167063,46.016337821115314],[-0.31687239587651,46.019481811798194],[-0.3163974431908,46.02037988026416],[-0.316161623137186,46.021081675955756],[-0.316003115259645,46.02261489781557],[-0.314544015271926,46.02304875714834],[-0.313811820138098,46.02384438207904],[-0.313030153948283,46.023819476547764],[-0.312787611623563,46.02393832877572],[-0.312179460236535,46.02629945097288],[-0.310354063596926,46.02767859212398],[-0.307872677235685,46.02905973143018],[-0.30692525528331,46.02974352228206],[-0.306414847922982,46.03046502368821],[-0.305610752715614,46.0319620816014],[-0.306014000266504,46.03249198617784],[-0.306530684351919,46.032605792222824],[-0.309730872810605,46.033789474121654],[-0.309961405954217,46.03407205179024],[-0.31010727627106,46.0350330648614],[-0.310699128195157,46.03579267979583],[-0.31224781546189,46.036903767190495],[-0.312532073821834,46.03726137908048],[-0.314292848434346,46.03832568281273],[-0.314995923201995,46.03869627465557],[-0.316103617009015,46.03901626701751],[-0.317628084429842,46.04066606360003],[-0.319666046635817,46.041473419120074],[-0.321944892515452,46.04206818489792],[-0.32350958125337,46.04307321015063],[-0.324437165199321,46.043537205722444],[-0.320385388815196,46.046053419255976],[-0.319688701735805,46.04634782021154],[-0.317188035916408,46.04703391650798],[-0.315964455739122,46.04762761926505],[-0.314211584838926,46.04906056142254],[-0.313613645184219,46.04940521112627],[-0.312870488604461,46.0499821271138],[-0.312508455152094,46.05043974553544],[-0.308489594215365,46.05235879325186],[-0.307242117651155,46.05281699961484],[-0.306483648800367,46.05286166008408],[-0.3056968926072,46.05301709668246],[-0.303527301150985,46.053834722475294],[-0.303135888427817,46.05414986073656],[-0.302089394850703,46.05465803012029],[-0.301875641532912,46.05491391120109],[-0.301624981384437,46.05552506933424],[-0.301148856314266,46.05611124841659],[-0.300366894424683,46.056067324166406],[-0.299328545317397,46.05615162867577],[-0.299137213919124,46.0560697736566],[-0.298477606396658,46.05610158761468],[-0.298107241386223,46.05603485457301],[-0.296519986016287,46.05542850243637],[-0.296034068925205,46.05531284929648],[-0.29447021396688,46.05507441084698],[-0.293779985168403,46.05517828845828],[-0.293049575628063,46.05517337363039],[-0.292150559710168,46.054925500842],[-0.291758071555904,46.054726902793675],[-0.288431017987846,46.05695227910562],[-0.285315104475496,46.058188144489],[-0.282250907880936,46.05792992079031],[-0.27969832509491,46.05780552318637],[-0.278717967466009,46.057842895894076],[-0.275426245475087,46.05765415861373],[-0.272991086526784,46.05730540794715],[-0.271911589050748,46.05719957958999],[-0.26797893715471,46.05641987254149],[-0.265118807903914,46.05571459099641],[-0.261449837948873,46.05501178601789],[-0.261678990147906,46.0549249803041],[-0.258573205940924,46.054047256355105],[-0.257876171657244,46.05379691516042],[-0.257772689787295,46.05368903466582],[-0.256371972594543,46.053272346728356],[-0.255209369210821,46.05276678961936],[-0.253599966511127,46.05223529344284],[-0.252708198313076,46.05195265874123],[-0.249020575558511,46.05110219301084],[-0.248845734071099,46.050903521383105],[-0.233037728954832,46.04846883982679],[-0.232869187309888,46.04844210378827],[-0.23637970487665,46.04504064411247],[-0.236760049400308,46.04446650193019],[-0.237516936723341,46.04373740226406],[-0.238566623271359,46.04292602756866],[-0.239122523862745,46.042300895562526],[-0.240391998345134,46.041376872605724],[-0.24199502111986,46.03974572414443],[-0.242356750480883,46.03969121354315],[-0.242610750272522,46.03978488588509],[-0.243127461013988,46.03919870592141],[-0.241441269484976,46.03810236265198],[-0.240819640907563,46.03743609357804],[-0.239920575025624,46.037046326900764],[-0.239352697558531,46.036984153555565],[-0.237018454711977,46.037295998327174],[-0.234963795051202,46.03730150011286],[-0.234934929322618,46.036371335352335],[-0.235130855467322,46.035259009546536],[-0.234191402997347,46.03567696901871],[-0.23343183752212,46.035919451636886],[-0.230883955940734,46.03629494619459],[-0.229319143053644,46.036664000531395],[-0.229372028375283,46.03558190052441],[-0.228454124469971,46.035838775376575],[-0.224794758851431,46.03601777980313],[-0.222808413417099,46.0363266395005],[-0.223268758224242,46.035945838939135],[-0.223486677202421,46.0356458349043],[-0.224138480398325,46.03447009520091],[-0.225222801871408,46.034359026073474],[-0.22605076780645,46.03409121911175],[-0.227829711357117,46.032874346369276],[-0.229530631573876,46.032070635196284],[-0.230759458284845,46.031292976842614],[-0.231366778540816,46.031036827767906],[-0.232847793458594,46.03065390874003],[-0.233585573943973,46.03032823374451],[-0.235028452154867,46.029385797464336],[-0.235468477314595,46.029167748066484],[-0.235693308002822,46.029140598675916],[-0.235883415195747,46.028897239721694],[-0.237222820694352,46.028198362001305],[-0.237583332953139,46.02810244189255],[-0.23976694788608,46.026844062640635],[-0.241074353745049,46.02656963947615],[-0.242341632686491,46.02644866074424],[-0.246765033344435,46.02506563346473],[-0.250701072235486,46.02417407805367],[-0.252991333722624,46.023566682801416],[-0.257059212017919,46.02221778176157],[-0.258434264899268,46.02147255302656],[-0.259082249300045,46.02120786885373],[-0.260508466877814,46.02091177142719],[-0.263821329750447,46.01992592407062],[-0.265854494517282,46.01969969090142],[-0.269869045692232,46.01994348327983],[-0.271763768170475,46.01995636984513],[-0.273878037796271,46.019767305014476],[-0.275093377951087,46.01986375866375],[-0.275960548761886,46.020044172749245],[-0.279758699908728,46.020562453023174],[-0.280457954085378,46.020725163231624],[-0.282929917626944,46.021543105103895],[-0.28509443990514,46.02189133581975],[-0.286881222117775,46.02228293249172],[-0.28571323298544,46.02064225209141],[-0.285570670454619,46.01985867540616],[-0.285569257017245,46.01903405256728],[-0.285947319645798,46.01914746181508],[-0.286961946952099,46.01965157813675],[-0.288731317954876,46.01748222995624],[-0.292672507795315,46.015572393352954],[-0.292963689292786,46.01535843764272],[-0.29365996760693,46.01454326780287],[-0.294289966141953,46.0149539539167],[-0.294800524394964,46.01401890035352],[-0.29583715009266,46.01262420769599],[-0.296866878619974,46.012862819556005],[-0.297931935915639,46.012935459775534],[-0.298402469002856,46.0130380229775],[-0.298917729973751,46.013217692764805],[-0.300049839792262,46.01380389194304],[-0.301695437415839,46.014173226886385]]]]}}]}