{"type":"FeatureCollection","name":"COM_79346","crs":{"type":"name","properties":{"name":"urn:ogc:def:crs:OGC:1.3:CRS84"}},"features":[{"type":"Feature","properties":{"fid":4141,"ID":"COMMUNE_0000000009750627","NOM":"Le Vert","NOM_M":"LE VERT","INSEE_COM":"79346","STATUT":"Commune simple","POPULATION":118,"INSEE_CAN":"09","INSEE_ARR":"2","INSEE_DEP":"79","INSEE_REG":"75","SIREN_EPCI":"200069755"},"geometry":{"type":"MultiPolygon","coordinates":[[[[-0.373627087404495,46.094119894841235],[-0.374110926482077,46.0935818408435],[-0.374327163978157,46.093516822908285],[-0.375160052167342,46.093599298465875],[-0.376693192874934,46.09344010197442],[-0.37894058589802,46.093603911451346],[-0.379413396292358,46.09343479945107],[-0.380418021802702,46.09336069878869],[-0.381119780754519,46.093164926962515],[-0.381486525233106,46.0932089742928],[-0.381842795345332,46.09346153674801],[-0.382034306193697,46.093815451732254],[-0.381642043090165,46.094135397134444],[-0.38172692487107,46.09471421525071],[-0.382014853357562,46.095140064997],[-0.382631377961237,46.09534791142548],[-0.382677807138672,46.0957440073283],[-0.382244596144212,46.09619857037567],[-0.382479218031015,46.09638986387054],[-0.382608909136246,46.09666540451756],[-0.382786297420519,46.09794629292731],[-0.383093275903894,46.098155256595945],[-0.383342943863565,46.0981910734531],[-0.384695709748344,46.09802543463043],[-0.385807664223296,46.098051737563296],[-0.38681275405611,46.09798387794487],[-0.387134729025095,46.09717569624969],[-0.387999965403006,46.09639545304732],[-0.38902196028003,46.09616122518427],[-0.390155319718467,46.09601018622869],[-0.390170754209488,46.095819546419904],[-0.391634039813145,46.094466183871866],[-0.392877499696093,46.09293190121408],[-0.393004373196496,46.09173565762016],[-0.393383862445496,46.09114745872016],[-0.393407630437212,46.09067265236914],[-0.394345753097957,46.0901524588647],[-0.394790965782676,46.0895172213535],[-0.396436096313518,46.08907679331884],[-0.396798263422574,46.08850261987641],[-0.397221348504766,46.08822225449715],[-0.397891165278996,46.08793089028634],[-0.398023873436673,46.08739603433419],[-0.399037001894984,46.087063731162225],[-0.399722579704136,46.08600215145192],[-0.400148600464653,46.08503758019846],[-0.400723238159803,46.084465133627454],[-0.40131687744101,46.084178735513866],[-0.403232252550677,46.085468756312785],[-0.40375779833175,46.08567200669973],[-0.403733338448464,46.08579982792725],[-0.403877694047828,46.085913569171815],[-0.405318541243281,46.086421927011536],[-0.405869115090269,46.086756911838116],[-0.406874466243379,46.087615425476706],[-0.407612771361491,46.08859552242103],[-0.408958577623688,46.08903188227578],[-0.410826895747879,46.0892875708323],[-0.413018204445326,46.08969574961199],[-0.415851932333351,46.09035133538256],[-0.416111739961836,46.090466992999474],[-0.416334884375177,46.09040979712576],[-0.416757192604374,46.090846841075724],[-0.417529290788277,46.091325621813176],[-0.422304298363229,46.09379731946338],[-0.422495401180899,46.09557439577011],[-0.422462767444406,46.09935287877979],[-0.423176987786301,46.10511339811174],[-0.423268532476061,46.10793181687328],[-0.423027096826673,46.108424020025964],[-0.423236080653538,46.10955159492252],[-0.42306442122284,46.11126660756012],[-0.422703394756831,46.11181559611437],[-0.422181837629588,46.11209722200416],[-0.421602388987577,46.1121363294136],[-0.421178864293,46.11328388055969],[-0.417935793924103,46.12191183014854],[-0.403919383979589,46.12121006101176],[-0.393513403144742,46.11914943479248],[-0.390496249585603,46.11875380962744],[-0.384627727152674,46.118084463570455],[-0.384131996804066,46.11799018917097],[-0.383748151796448,46.11781866852073],[-0.382521661447046,46.11615084736086],[-0.382323233897639,46.11621174234229],[-0.381072505617236,46.114380590960394],[-0.38007571026382,46.113178191746314],[-0.376965552687554,46.11113739030921],[-0.375632795194366,46.11074892565352],[-0.374411485640494,46.110613103925374],[-0.373564628905209,46.11041295886754],[-0.371955599900146,46.109829871544925],[-0.370828565956804,46.10903415538609],[-0.370121464926603,46.108049299427876],[-0.370871084478067,46.1074898494929],[-0.370059782255152,46.10662255588563],[-0.368844231913534,46.10556536841326],[-0.368074613682541,46.105080782068306],[-0.366522766905689,46.10487717961723],[-0.365950674270678,46.104718399412945],[-0.36503938686162,46.104141556824814],[-0.364869571780615,46.1039501086482],[-0.36445249917212,46.10325495215626],[-0.364559487237217,46.10322473999368],[-0.365681162412097,46.10300670025068],[-0.367531087917533,46.103212280563135],[-0.367842753291435,46.10254777727977],[-0.367833260864657,46.10224521933682],[-0.367603451959757,46.10204744436248],[-0.366783671104598,46.10171575983978],[-0.367219226894713,46.101423426955684],[-0.367723581393628,46.101344462673815],[-0.368733167083558,46.10090529273513],[-0.369996825062924,46.09956086120636],[-0.370184795407065,46.09945703412834],[-0.370442818532145,46.09946018389238],[-0.371132710520445,46.100145410178996],[-0.371407891409327,46.10019581742654],[-0.371562512199722,46.10009748574157],[-0.371638097466466,46.099302987110626],[-0.371972785600178,46.09812854524019],[-0.372441808624681,46.09566123300853],[-0.373627087404495,46.094119894841235]]]]}}]}