{"type":"FeatureCollection","name":"COM_17333","crs":{"type":"name","properties":{"name":"urn:ogc:def:crs:OGC:1.3:CRS84"}},"features":[{"type":"Feature","properties":{"fid":3909,"ID":"COMMUNE_0000000009752699","NOM":"Saint-Georges-de-Didonne","NOM_M":"SAINT-GEORGES-DE-DIDONNE","INSEE_COM":"17333","STATUT":"Commune simple","POPULATION":5093,"INSEE_CAN":"17","INSEE_ARR":"2","INSEE_DEP":"17","INSEE_REG":"75","SIREN_EPCI":"241700640"},"geometry":{"type":"MultiPolygon","coordinates":[[[[-0.987644892420667,45.574675004539884],[-0.988055341810414,45.575026494031036],[-0.988575990864155,45.57537497136504],[-0.989216690351329,45.57562541460952],[-0.990444740030814,45.57616966058282],[-0.99056840979936,45.5761219896737],[-0.991212882696728,45.57619286444086],[-0.991997095532896,45.57643909557155],[-0.992136837985382,45.576543226788225],[-0.992289359228009,45.57653961008544],[-0.99300707768522,45.57711007859361],[-0.993204764132253,45.57764402892656],[-0.992881672889424,45.57766813516999],[-0.993113782425056,45.57794930809457],[-0.993139958769507,45.57808091702156],[-0.993054900430381,45.57812992324583],[-0.993168969554206,45.578305292889624],[-0.993034354705547,45.57836147023794],[-0.992780011983616,45.57828846164687],[-0.992663141708279,45.57850179275569],[-0.992720685381781,45.57862327073121],[-0.993022802549347,45.578699991308625],[-0.993051363671927,45.57877561457684],[-0.992725253303871,45.5787222874503],[-0.992235102871431,45.57876224648733],[-0.991993784026488,45.5788700003936],[-0.991914212447051,45.57904864506344],[-0.991416858403374,45.579131232839615],[-0.991189828619574,45.57933044321527],[-0.99105339530044,45.579361437086014],[-0.990912287349012,45.57923841865403],[-0.990784753984232,45.579268194426085],[-0.990218353310206,45.579960925599885],[-0.990207319074922,45.58009295495492],[-0.990503544800215,45.58031956173934],[-0.990174427764608,45.58027805490605],[-0.989877654575645,45.58040039613448],[-0.989454275169493,45.581153862373704],[-0.989238319814669,45.58216684343175],[-0.98950696047706,45.582563036682885],[-0.989219189135606,45.58266792518429],[-0.988605110404951,45.583145047507486],[-0.988717931221218,45.58328530252955],[-0.988693611030854,45.58330419841929],[-0.98872436356958,45.583321139216594],[-0.988739683838183,45.584229434340585],[-0.988969660810514,45.585443875108375],[-0.989477584129743,45.58688016586124],[-0.989415075109947,45.58695722022735],[-0.989557451143325,45.5870441311237],[-0.989504138010914,45.58708840047156],[-0.989916614642898,45.58807275752695],[-0.989830113069666,45.58810197616973],[-0.989459179874755,45.58724868300041],[-0.989295288086423,45.58716614234655],[-0.989265957035037,45.58684800786491],[-0.989105858822766,45.58662197369706],[-0.98935210876397,45.58774116611359],[-0.989639569265137,45.58848742498914],[-0.989728756475056,45.588531142948284],[-0.989665662984574,45.5886001035226],[-0.989954555841084,45.588813449439634],[-0.989834390653947,45.58887451868442],[-0.98986998405345,45.58901210545353],[-0.990070489186393,45.58913932841576],[-0.990000328464808,45.58918149130288],[-0.990118518361009,45.58928909634225],[-0.990067270557068,45.58943337319821],[-0.990153656518731,45.58965210606561],[-0.990337014901617,45.58971952848742],[-0.990246309089423,45.58977955199957],[-0.990385089742094,45.589923392382154],[-0.990286603814106,45.58994672547039],[-0.990464977226506,45.59033710742064],[-0.990612257896364,45.59045630180596],[-0.990668224081651,45.59075185144393],[-0.990634610799476,45.590766569561225],[-0.990693513618195,45.59081767379144],[-0.991244111626922,45.59223892080141],[-0.991510600869462,45.59251527175831],[-0.991475777491578,45.592691424565835],[-0.991837429620463,45.5933971765349],[-0.992011313511788,45.59352894895943],[-0.992208564355863,45.59402054261918],[-0.992522541967302,45.5943853676149],[-0.992471622684921,45.59446291346849],[-0.993076329141505,45.595475597736176],[-0.993015456292122,45.59545071172954],[-0.993223092744673,45.59564079093663],[-0.994277717653538,45.5973353443761],[-0.995081203548426,45.598075876079996],[-0.995106112968284,45.598207530366174],[-0.996303643260207,45.59908642211708],[-0.998101286557759,45.600200019892036],[-0.998209924070969,45.60019254872762],[-0.998245882960936,45.600281432817575],[-0.999209828650227,45.60071688798543],[-0.999958226728241,45.60095984403631],[-1.000277008180701,45.60078530259718],[-1.000764582464667,45.60022696700244],[-1.001300935912746,45.60014836531171],[-1.00131728556365,45.60003688215628],[-1.001931590627868,45.59982837155434],[-1.001915084437889,45.599599943983065],[-1.002180879987932,45.5993677754411],[-1.002692093354486,45.59933243886377],[-1.003028570308787,45.5991897176785],[-1.003430201895033,45.59923762463476],[-1.004172595201762,45.59955740554731],[-1.005473295837672,45.59978244982103],[-1.005808275459642,45.59979665841992],[-1.006902106834163,45.5996476667825],[-1.00758441721397,45.59972251922619],[-1.008024216266648,45.59930380354992],[-1.007746879809452,45.5991099233419],[-1.007586219131465,45.59882442318225],[-1.007440868683409,45.59882149133415],[-1.007372803368142,45.598732852882],[-1.007500956705066,45.59814312007533],[-1.006558780201412,45.598062204497225],[-1.006519506690759,45.59799868667927],[-1.006541480325903,45.59800060823872],[-1.007649542525472,45.59811978890026],[-1.008140469272704,45.59794629810599],[-1.008843041628833,45.59799968189298],[-1.008852545558606,45.598130982173906],[-1.008681892221434,45.5982930528278],[-1.008745464869774,45.59837283439976],[-1.009065258995244,45.598390279594305],[-1.009134324020317,45.59851043880953],[-1.009399006741475,45.598618209694756],[-1.009863914925007,45.59859981991206],[-1.01014141048526,45.59870713196768],[-1.010200745050124,45.599047637943585],[-1.01013208061725,45.59927008810282],[-1.010292981040184,45.59920393702766],[-1.010486077541695,45.599387292748865],[-1.010684868841589,45.59929454307669],[-1.010748139715955,45.59949425258362],[-1.010885937004554,45.599392859509685],[-1.010974136751755,45.59954659725257],[-1.011244017943308,45.59960188343847],[-1.011413472341821,45.59983116356516],[-1.01140263744856,45.59971704192732],[-1.011593372582989,45.59990318515586],[-1.011797701232382,45.599886875335166],[-1.011828252335244,45.59977668625236],[-1.011867011747279,45.59977981090266],[-1.011861995745168,45.59976376041868],[-1.011889159028174,45.599606806920384],[-1.012046172136737,45.59961112005349],[-1.012239015246212,45.59979087551187],[-1.01220614258464,45.59999311500365],[-1.012399874615132,45.59995464135274],[-1.012631805568234,45.60014201717294],[-1.01263630156098,45.60020406990742],[-1.01271156253698,45.60019687465459],[-1.012790083898263,45.60034103870618],[-1.013072262222114,45.60044186537919],[-1.013055790622706,45.600799503610354],[-1.013554303347593,45.601262277741995],[-1.013404475045114,45.60132172655621],[-1.013606771368274,45.60141909308245],[-1.013509429296241,45.60154699577548],[-1.01363420695653,45.60169131088341],[-1.01385342093404,45.60179167946045],[-1.013803918043851,45.60195934948634],[-1.013975682683681,45.60197214978598],[-1.013874285552152,45.602239050525284],[-1.014043405737154,45.60233940450296],[-1.014065350589173,45.60262444140492],[-1.013755144805737,45.6030232257977],[-1.013903898360986,45.60312611066249],[-1.014078858372893,45.60312978039782],[-1.014045291193515,45.60323376643974],[-1.014200760263254,45.60342928030382],[-1.014024648464038,45.60342745514265],[-1.01375313460084,45.60326133114458],[-1.013792110301411,45.60317879148073],[-1.013714413377553,45.603187877592305],[-1.013740257403291,45.603260889355326],[-1.013656744937367,45.60338469166293],[-1.014057485721717,45.603508331886175],[-1.01413703818292,45.603702048854274],[-1.013927355525616,45.6037510127826],[-1.013819075382552,45.60358627250266],[-1.013644397050894,45.60360423166768],[-1.013582642102309,45.60370922410318],[-1.013233063464497,45.60361801779169],[-1.013133211987274,45.60348092688323],[-1.012881899825414,45.60348719478541],[-1.012735779188404,45.60359790368608],[-1.012695826284142,45.60377334690441],[-1.012794201649744,45.603960982825264],[-1.012641564199742,45.60403495690842],[-1.012748823391391,45.60430973498329],[-1.01237777294187,45.604737736406385],[-1.011861195753109,45.604823798826786],[-1.011816962082888,45.60522390310692],[-1.011646164754863,45.604905408266006],[-1.011532481593287,45.60503840034382],[-1.011224613235179,45.60511520746358],[-1.011227739722195,45.60521157147465],[-1.011126238487954,45.60524675113046],[-1.010679910131461,45.60509677603831],[-1.010173764196205,45.60550434391152],[-1.010385144395374,45.605744753372655],[-1.009983994134813,45.60598808197632],[-1.009869803303415,45.606185106738614],[-1.009470701408141,45.60610196654948],[-1.009664619889535,45.60636734450437],[-1.009392661479142,45.6064257341111],[-1.009419496972695,45.60658346554159],[-1.009230950896599,45.60664068265014],[-1.009182627239248,45.60673617681307],[-1.009172672481792,45.60792940158569],[-1.009285824247853,45.60832118577298],[-1.009237545634405,45.60834635039025],[-1.009263995387238,45.608392292285586],[-1.009244601141023,45.60840831190859],[-1.00928950379041,45.60862039906571],[-1.009602841538464,45.60925750209218],[-1.009760047387835,45.610168862902036],[-1.010007967172607,45.61062977398709],[-1.010199862348417,45.611771618966976],[-1.010316118003808,45.611957717913505],[-1.008604709224806,45.61227482427092],[-1.007487325172766,45.61306031940218],[-1.007319887852713,45.61452784579047],[-1.007074515773834,45.614847657694526],[-1.006800596288276,45.61496832251361],[-1.005892013411921,45.61492947239281],[-1.00516676048753,45.61477859199684],[-1.003635706115736,45.614641980977126],[-1.00311223909201,45.614492015978115],[-1.002232729543745,45.61405538131861],[-1.001124605534665,45.61367286069815],[-1.000836759617369,45.61377867858317],[-1.000011779698403,45.61382967489126],[-0.998969414746527,45.61423282260768],[-0.998185754824703,45.614749381935674],[-0.995343724301736,45.6180593326894],[-0.992187404438836,45.61844104264421],[-0.991474477125653,45.61847897841643],[-0.990441634943513,45.61841015135561],[-0.986198888935678,45.61869319925235],[-0.984714311094563,45.618399600874525],[-0.981648412132198,45.617574137796524],[-0.979318866633508,45.617160722537676],[-0.978588645717174,45.620354870643524],[-0.975914365935948,45.62004464373804],[-0.974565276731685,45.61963341807348],[-0.971827858979357,45.620089901424485],[-0.97166692185156,45.620300254252065],[-0.971785153158654,45.621088601288605],[-0.969925110234814,45.6214716622733],[-0.969951637226034,45.62132195857598],[-0.967169034258494,45.62095223541411],[-0.967226253426561,45.62141004112346],[-0.966565647656762,45.621335973757205],[-0.966648187616832,45.62182444291957],[-0.966529921785166,45.62207475652045],[-0.965962693472206,45.622371561942835],[-0.964511260015458,45.62263012006644],[-0.963316893181928,45.62260280223768],[-0.962496041960212,45.62285713698924],[-0.961572953371884,45.62328096464123],[-0.960836689492206,45.623352885296725],[-0.960191262216209,45.623527090523325],[-0.959959207577647,45.62353436175909],[-0.959500498881712,45.62337289812434],[-0.959451176658208,45.62370733006721],[-0.958957301228775,45.62361111705443],[-0.958902665056021,45.62372754553111],[-0.957826800516587,45.62354272228717],[-0.953515941926567,45.62133126139075],[-0.954441231634863,45.620128432821474],[-0.947619893864031,45.61585740914677],[-0.95024118583202,45.613341817268285],[-0.950934129846363,45.61255650997632],[-0.953343415594967,45.60955871379377],[-0.953431770551206,45.609572737014155],[-0.95382551807278,45.60861039668027],[-0.955045502945607,45.608856895668595],[-0.955257288610852,45.60836888639567],[-0.955536187458497,45.608406857955934],[-0.955586079093194,45.60831403979818],[-0.955670781267015,45.60833089457447],[-0.955764078505896,45.60807245599051],[-0.955849037353279,45.60809290802585],[-0.955947733031641,45.60760436888776],[-0.956325411185726,45.60697527739622],[-0.956741257149184,45.60661081570771],[-0.957171561615546,45.606466737730685],[-0.957335866992444,45.60606965458954],[-0.959737884402847,45.606014816253584],[-0.959790898368707,45.60375621561388],[-0.960696611291952,45.598100953510894],[-0.96039970145327,45.59807986016555],[-0.960390999466688,45.597886320442015],[-0.960461464635978,45.5924417145751],[-0.961122725029596,45.59267356398005],[-0.965712517942856,45.59229620160766],[-0.965915205812995,45.59238281649187],[-0.966161394507646,45.59216224867264],[-0.967518115387701,45.59172215458203],[-0.96871914379906,45.5916544994564],[-0.969959521575248,45.591078733152706],[-0.970726667565359,45.590189683545844],[-0.971458342834046,45.59004210877733],[-0.97234798572159,45.58969780221374],[-0.97228936096724,45.58952496088937],[-0.971806138383666,45.58928688415891],[-0.971619287149947,45.58909873919952],[-0.971428821723772,45.58871687416618],[-0.971783028811727,45.5877288057541],[-0.971860189434985,45.586781184174015],[-0.972303235144484,45.58624438810951],[-0.972556544414442,45.58564036567597],[-0.972422359219901,45.584449565914895],[-0.972751280820978,45.58382573882785],[-0.971949110408959,45.58225463155139],[-0.972037961483958,45.581792567854414],[-0.972316321284415,45.58137699943874],[-0.972279981819717,45.58079854497482],[-0.972557442411606,45.580263092584865],[-0.972462457903673,45.57958302590636],[-0.972838235910965,45.57923704216515],[-0.973268709853883,45.57904510236209],[-0.974828925017701,45.578815901901315],[-0.975415595298616,45.57890424013296],[-0.976921724791163,45.578959130627055],[-0.978487793675027,45.57933015023968],[-0.98201367838456,45.578529021216156],[-0.982570370118276,45.57830732539081],[-0.983707650874923,45.57753578867213],[-0.984237682256692,45.576765039505446],[-0.987644892420667,45.574675004539884]]]]}}]}