{"type":"FeatureCollection","name":"COM_16057","crs":{"type":"name","properties":{"name":"urn:ogc:def:crs:OGC:1.3:CRS84"}},"features":[{"type":"Feature","properties":{"fid":4179,"ID":"COMMUNE_0000000009752670","NOM":"Bouteville","NOM_M":"BOUTEVILLE","INSEE_COM":"16057","STATUT":"Commune simple","POPULATION":330,"INSEE_CAN":"07","INSEE_ARR":"2","INSEE_DEP":"16","INSEE_REG":"75","SIREN_EPCI":"200070514"},"geometry":{"type":"MultiPolygon","coordinates":[[[[-0.095935783194311,45.604752721650314],[-0.099223545467718,45.604036733476605],[-0.10238031233737,45.60306922949316],[-0.106548769996476,45.602447672858275],[-0.10478876310228,45.60105260725602],[-0.103157840278917,45.60008111004682],[-0.099939652691905,45.59737805945843],[-0.100853172993717,45.59684190208742],[-0.102662534256786,45.59534019232004],[-0.10769399009595,45.5896094282098],[-0.108759445451438,45.58901673267334],[-0.110908536591233,45.58820209071724],[-0.113103393248483,45.591218842989115],[-0.114259967898554,45.59222496324072],[-0.115880097191277,45.59339305372829],[-0.117440302123585,45.59436182174242],[-0.122638650559942,45.59608479361432],[-0.123241502562297,45.595142533109964],[-0.121997626401675,45.59475533118549],[-0.121928473509706,45.594667133523004],[-0.122336803814111,45.59375821649521],[-0.12337253365125,45.593960146869385],[-0.123970592067135,45.593001793586915],[-0.124018275915054,45.59264089685092],[-0.123025163463176,45.59194213930083],[-0.123004983494399,45.591493010427655],[-0.123253821174688,45.59130766299913],[-0.124148643023656,45.591242244190695],[-0.123733764674003,45.590576986461244],[-0.124588042249174,45.590043174693285],[-0.125990046994287,45.59057284079962],[-0.126310830704339,45.59059365866753],[-0.12700802121177,45.59043818763302],[-0.12787722351232,45.59110160760525],[-0.129437201067373,45.59054090964789],[-0.131152679208161,45.59018853742922],[-0.132112863284538,45.590167194250334],[-0.133472342885275,45.59057899751835],[-0.134690664113732,45.5907414879841],[-0.135370094868864,45.59059006451244],[-0.136664702329649,45.5906035123546],[-0.137770426062077,45.5910214442457],[-0.137938027498115,45.59139706710822],[-0.140405275849796,45.59108304304725],[-0.141267498507353,45.59073722695281],[-0.141903270324801,45.59026886354915],[-0.142480374060008,45.590056272025606],[-0.143053776995737,45.59007268323879],[-0.143658848261466,45.59035315592187],[-0.144087986260104,45.590451098868954],[-0.146135932117781,45.59046228902219],[-0.146440152196148,45.59055290503625],[-0.146822141283008,45.590905392456044],[-0.147561587948676,45.59217249370144],[-0.148169423413772,45.59277188833964],[-0.148369344874912,45.59348904605999],[-0.148584452277523,45.593818265213294],[-0.148797999867012,45.5939618819092],[-0.148608828615468,45.59433757094706],[-0.148531195254134,45.59480115625635],[-0.147955604002423,45.59565087932067],[-0.148127849224595,45.596038976167975],[-0.147887180732492,45.597135257950136],[-0.148310933316898,45.59797321711258],[-0.148209399710843,45.59844558219848],[-0.147834335441067,45.59896165393672],[-0.148478167598713,45.59901842423339],[-0.148767952756899,45.60000612752568],[-0.149423809404384,45.600725834916226],[-0.14978139381303,45.6017765232645],[-0.150060203804065,45.60225445585285],[-0.150417906432875,45.60380350042392],[-0.151273604864293,45.604423875172046],[-0.151354827537161,45.604903738247124],[-0.152154859547703,45.60562840363561],[-0.1523643258116,45.606195691809525],[-0.152380793687014,45.60673324416155],[-0.151747372398503,45.60787659457941],[-0.151510226757031,45.60880876958691],[-0.151247596893241,45.60913515335959],[-0.150782749278447,45.610127779240955],[-0.149580873414742,45.611956630252514],[-0.149163127915237,45.61312366203327],[-0.148764249202893,45.61385488640811],[-0.148783198570588,45.61403008886126],[-0.149010607931245,45.61425803185486],[-0.148259752422459,45.61500992401775],[-0.147386167968566,45.61536511513751],[-0.147377294044925,45.61597727462181],[-0.147259247740009,45.61620497574731],[-0.149348348861429,45.617013441609416],[-0.149481726407608,45.61714578699539],[-0.148601804239234,45.617525496662054],[-0.147929576195557,45.61826076501802],[-0.147674311374258,45.61831116709279],[-0.147144685123202,45.61791774796673],[-0.146830424636387,45.618059918507335],[-0.146281274913625,45.61870161291719],[-0.146094005497096,45.61879606998245],[-0.145139307197144,45.62039265241103],[-0.144226598059763,45.62227733479568],[-0.141759815753491,45.621695606986215],[-0.141363269220988,45.621768865661736],[-0.140914874414851,45.6221734072002],[-0.140424574616754,45.62238265698719],[-0.139620927069941,45.623272039711765],[-0.138530240434851,45.62378822202808],[-0.137694534538737,45.62467938542772],[-0.13733503385538,45.62522562211302],[-0.135991702149522,45.62441145857852],[-0.135238896551345,45.62422697391885],[-0.133764753300485,45.6254350954273],[-0.131340260174159,45.627077894788734],[-0.131516416243424,45.627285671186186],[-0.130638706169543,45.628027448829265],[-0.129165373562858,45.62957162528401],[-0.125554350494762,45.63279643014746],[-0.125297741444879,45.63280175714689],[-0.124379480535694,45.63232710638682],[-0.124433478370359,45.63210031024476],[-0.124739053486702,45.63177911118598],[-0.124731462789891,45.63159908489976],[-0.123103805215689,45.631049503189004],[-0.122320392977483,45.63207697248964],[-0.121457289646796,45.63180533681082],[-0.119906680184159,45.63130043313644],[-0.119751905265318,45.63092442626875],[-0.121879773596426,45.63004891999314],[-0.122103226143394,45.62988861580789],[-0.121974462487772,45.62924513925789],[-0.121527497189332,45.62869880938756],[-0.121522749223859,45.62834117111029],[-0.122124175484767,45.627891010018544],[-0.122429158282019,45.6277644893334],[-0.122730892421825,45.627329852898875],[-0.122190378916109,45.6264454754348],[-0.122055399146198,45.62582830625717],[-0.122118768505301,45.625630990399806],[-0.122924073066705,45.62456055719402],[-0.122956936225175,45.623662966425336],[-0.122658587565068,45.62363340012492],[-0.122472073503264,45.62283111733052],[-0.120657016550201,45.62079705538927],[-0.119858414697314,45.62013971936058],[-0.118610898068202,45.61949212353569],[-0.117369725464382,45.61897951607559],[-0.115201740357705,45.617811279066764],[-0.11537399296741,45.61735771985414],[-0.115109947582511,45.617183896723546],[-0.113822335657735,45.61707716849891],[-0.11259630925377,45.6169236622626],[-0.112246767633782,45.616256550629046],[-0.111581564045795,45.61573064570122],[-0.11112511510725,45.615560334762804],[-0.108938558657928,45.61286680587563],[-0.110031745826167,45.61170830398858],[-0.109470547797112,45.61150123261261],[-0.109085830307746,45.61151006765291],[-0.109093428070651,45.61025001234516],[-0.106655567851586,45.61021285353291],[-0.106371481637817,45.60958897761645],[-0.105056498379594,45.60885298938156],[-0.104617641646868,45.60908679591554],[-0.104295800961384,45.60904882026891],[-0.103443451652049,45.60861725468471],[-0.103301455119266,45.60830576269657],[-0.102904201973511,45.60804457099229],[-0.102123491366223,45.6077912539673],[-0.102108513905443,45.60743209896696],[-0.101213884515073,45.60707017328885],[-0.101138460725988,45.60716777780635],[-0.10036130531991,45.606817024447984],[-0.100728197078457,45.6061003882028],[-0.09904686349259,45.60565199743474],[-0.097812569745995,45.605207487913965],[-0.096206846464392,45.60487052044899],[-0.095935783194311,45.604752721650314]]]]}}]}