{"type":"FeatureCollection","name":"COM_33189","crs":{"type":"name","properties":{"name":"urn:ogc:def:crs:OGC:1.3:CRS84"}},"features":[{"type":"Feature","properties":{"fid":4047,"ID":"COMMUNE_0000000009756327","NOM":"Gornac","NOM_M":"GORNAC","INSEE_COM":"33189","STATUT":"Commune simple","POPULATION":436,"INSEE_CAN":"12","INSEE_ARR":"3","INSEE_DEP":"33","INSEE_REG":"75","SIREN_EPCI":"200069599"},"geometry":{"type":"MultiPolygon","coordinates":[[[[-0.198121129934558,44.683089305577624],[-0.196888237681275,44.68268434410307],[-0.1967585954577,44.68293677214468],[-0.196557334222033,44.68426348337777],[-0.195010546345767,44.6843586259744],[-0.192618425344306,44.68413485877715],[-0.192387827926093,44.68405501598422],[-0.192270156277783,44.6836502505902],[-0.192403923160287,44.6834256408898],[-0.192229777390723,44.681356524085174],[-0.190374276714211,44.68081628580362],[-0.190317214764406,44.681035076463225],[-0.189690795248362,44.68090086980699],[-0.189509397626679,44.67979424716588],[-0.18902884807246,44.67904674489804],[-0.187700966430147,44.67932559152734],[-0.185702415185488,44.67960301610439],[-0.183720638760616,44.67977540375903],[-0.183412308712837,44.67970498867418],[-0.182535479881621,44.679921234523285],[-0.180854804749948,44.68005877742995],[-0.18034732082016,44.67903360278173],[-0.17934554327128,44.67779738309196],[-0.178189448159445,44.67391572396875],[-0.178015829636495,44.67379276964098],[-0.172240423320822,44.673125137132956],[-0.170282651739299,44.672733472923014],[-0.169760489987597,44.672542109144054],[-0.170650955637242,44.67001269549176],[-0.171542555876031,44.6678859906123],[-0.170746699447657,44.6677214027647],[-0.170045621159058,44.66704232333313],[-0.170013436988516,44.6667621332371],[-0.169523507696461,44.6666040845061],[-0.169256268029584,44.66634234390104],[-0.168543352750394,44.66603570897041],[-0.166650065132772,44.66579801474347],[-0.165571284662108,44.665900079079385],[-0.165681139115245,44.663901220757076],[-0.165536522268766,44.6637990427209],[-0.165493007868394,44.663451601772394],[-0.166485093926951,44.662886202870915],[-0.166773274883394,44.661702146791846],[-0.166507075774033,44.66024564738323],[-0.166370511851217,44.66001710046718],[-0.166381195765223,44.65939870993344],[-0.165467219502427,44.658365305557176],[-0.165209069208704,44.65781497845936],[-0.166094038341077,44.65759142267892],[-0.167031216604354,44.65674737907688],[-0.166849312373911,44.65665528146871],[-0.167683390984763,44.65590878946902],[-0.168377539908568,44.655569947460236],[-0.168738367353473,44.65525236700965],[-0.169683402685884,44.654280132600014],[-0.169397529605935,44.65406758325609],[-0.17021869930216,44.65318268724184],[-0.165486438060878,44.65122706614353],[-0.164979951390903,44.65092892140411],[-0.162706135528578,44.649974066394066],[-0.163035149919027,44.649629484406276],[-0.16425323792908,44.64868732777225],[-0.164819591996753,44.648344055767055],[-0.164986625027771,44.648284313408524],[-0.165428255496554,44.64850682867886],[-0.165994867689592,44.64670843842903],[-0.165853865144949,44.64529971938678],[-0.1660703368526,44.645266490124364],[-0.168702909276518,44.64560101483429],[-0.170188598024284,44.6457169950181],[-0.172245722927045,44.64607424415923],[-0.173054137301865,44.64608618239643],[-0.17399739480735,44.64598251972532],[-0.174161137739294,44.64593186751742],[-0.174865314257085,44.64530347350799],[-0.175580568954576,44.6452973454864],[-0.176259099102827,44.645199465266764],[-0.177232191529719,44.64417049353753],[-0.177719885276801,44.6440681776946],[-0.178326338172521,44.64374440371905],[-0.178969317523889,44.64353129962592],[-0.180937251812216,44.64304671485909],[-0.181400696144133,44.64285047524292],[-0.181731026516762,44.643783413244755],[-0.181740998936066,44.64445166794873],[-0.181845598076196,44.64482887926641],[-0.182274871210253,44.645613907980284],[-0.182150469130196,44.64750058039382],[-0.182454206454327,44.64905687657079],[-0.18298695635518,44.6493046320075],[-0.183901692015761,44.65019190875539],[-0.184071085331297,44.65004016685635],[-0.184957206164275,44.650599393814964],[-0.185450107985562,44.65074467078694],[-0.186654315291144,44.65157132813638],[-0.187497276502483,44.6518353498289],[-0.189842499795152,44.653284104529895],[-0.19116494217568,44.65378925018254],[-0.192178475857688,44.654344746305085],[-0.193602750641378,44.65455229439038],[-0.196286006690101,44.65579113331579],[-0.196051652564022,44.65602135834865],[-0.198931417020645,44.65722832772916],[-0.199164605978225,44.65706660692914],[-0.200243710875143,44.657618334603356],[-0.200946086204006,44.65809356079957],[-0.201818974407595,44.65976940244042],[-0.202420544012669,44.65960331424753],[-0.202583606951429,44.65962922604285],[-0.203548363488161,44.66049959156292],[-0.203025532460956,44.664226021332524],[-0.203513488409402,44.664347940189245],[-0.203699454762092,44.66455429167271],[-0.20315171728517,44.66531259643966],[-0.20353511478067,44.665438445075964],[-0.202744557287231,44.66658941689223],[-0.203102862411574,44.667095322303105],[-0.202751418503946,44.66739833161795],[-0.202309305061025,44.668504969695825],[-0.202726673166148,44.6686505616039],[-0.202366743108732,44.66944847404177],[-0.200730085785478,44.67093207502844],[-0.199499876819656,44.67054779737591],[-0.197965343888563,44.672608655380074],[-0.197959902164692,44.67289083102358],[-0.197468216097588,44.67341592340071],[-0.19784131347848,44.67360426133526],[-0.197758175389508,44.67369676680667],[-0.198751281972732,44.67408522041016],[-0.199170316636733,44.67445963734668],[-0.199979880108111,44.674839874191775],[-0.197126148496987,44.67768852575344],[-0.196749665670368,44.67795259330973],[-0.196037270047226,44.678238980324444],[-0.19656426854439,44.67857965386225],[-0.196680057894344,44.67921783269384],[-0.197619520565173,44.679505133962195],[-0.198075953801956,44.679803691016296],[-0.198350867889128,44.68021922148754],[-0.198539195310637,44.680844489805594],[-0.199608747368845,44.68117576779873],[-0.198121129934558,44.683089305577624]]]]}}]}