{"type":"FeatureCollection","name":"COM_16079","crs":{"type":"name","properties":{"name":"urn:ogc:def:crs:OGC:1.3:CRS84"}},"features":[{"type":"Feature","properties":{"fid":3962,"ID":"COMMUNE_0000000009753914","NOM":"Chantillac","NOM_M":"CHANTILLAC","INSEE_COM":"16079","STATUT":"Commune simple","POPULATION":372,"INSEE_CAN":"09","INSEE_ARR":"2","INSEE_DEP":"16","INSEE_REG":"75","SIREN_EPCI":"200029734"},"geometry":{"type":"MultiPolygon","coordinates":[[[[-0.257543374533905,45.29891820300334],[-0.259793529651577,45.298681399879975],[-0.26035328566483,45.29871104186297],[-0.26190173930168,45.29935710810098],[-0.263795950505344,45.300019197851654],[-0.264165055790944,45.300129185908155],[-0.264514022749021,45.300135220560904],[-0.264681853887817,45.300798116146346],[-0.265053066802236,45.300965717304784],[-0.265614246555428,45.30108451183255],[-0.265603485843349,45.30155435588639],[-0.265986492027094,45.30227134738186],[-0.269624780014098,45.302446206812455],[-0.273989418588317,45.30244197315083],[-0.275770926250283,45.30344151777924],[-0.276597004990679,45.304067993431026],[-0.278036395022048,45.304569243042174],[-0.279262985400618,45.30522992182233],[-0.279878478810726,45.306031077601894],[-0.280639788893515,45.3073776955984],[-0.281095745519452,45.307746435607875],[-0.28140240236851,45.30792218800305],[-0.283178852689158,45.30833237630103],[-0.283986728226149,45.30866914445882],[-0.284383968252738,45.30895127675705],[-0.283600253010866,45.30995571659115],[-0.282643054744138,45.3098810764115],[-0.282578595590266,45.310065915655116],[-0.282638766865405,45.31132495428578],[-0.282498296319971,45.31240873695416],[-0.282051866393413,45.312419134371765],[-0.281897922710321,45.31318788493342],[-0.282093265208286,45.31327317600403],[-0.281776747404512,45.31494611319729],[-0.282103635851254,45.31511766665124],[-0.282111691920808,45.31529767406151],[-0.281869918804462,45.31557333147613],[-0.281880625606579,45.31579832207298],[-0.282988986915613,45.31631193517285],[-0.282995668813591,45.31644692199891],[-0.282698195387982,45.316904459974744],[-0.282659833703233,45.31744541634009],[-0.282730273812683,45.31757853205626],[-0.284180695710763,45.31806497247482],[-0.283271783268567,45.31894150539837],[-0.282730216355474,45.319245790451966],[-0.2830249221257,45.31954265501255],[-0.28381834127599,45.319956457867086],[-0.284428022690175,45.320503623809614],[-0.28522480929817,45.320995724868844],[-0.28536953137429,45.321369987595965],[-0.285002391378666,45.32179443029713],[-0.28480766376097,45.322391349731745],[-0.284399802046815,45.32292693494748],[-0.284313221329224,45.32321336164177],[-0.284335038229849,45.323539864497604],[-0.284677455962361,45.324428328972765],[-0.284607978982417,45.32480978326575],[-0.284702983105925,45.32494758444361],[-0.285671911331635,45.32523816375054],[-0.286143657635673,45.32595790279064],[-0.286993035232306,45.32668997751363],[-0.287626046543343,45.32702465679053],[-0.288366092117604,45.32720297864346],[-0.288762527174729,45.32720934996179],[-0.290551352090087,45.32669352051175],[-0.290373886749124,45.32734401717614],[-0.288719074791495,45.329068951808864],[-0.286920949933267,45.33014288016925],[-0.285684288942191,45.331205698047405],[-0.283406207004919,45.33257123674293],[-0.277922443006631,45.33658925071952],[-0.27787075046926,45.33675298472483],[-0.278457792778141,45.33708726236681],[-0.279758057506638,45.33755474322662],[-0.281578925744611,45.338355716395874],[-0.282686614612688,45.338893700434646],[-0.281693178754883,45.33992499938288],[-0.282282194440809,45.34022675690736],[-0.282225039464011,45.34036271561022],[-0.281367888302182,45.34114848576197],[-0.279727133494596,45.343427111161304],[-0.279041719205728,45.34315970686535],[-0.278298945050873,45.3438492740682],[-0.278127890299957,45.344112935541716],[-0.277449320046409,45.34446085527295],[-0.276997617745912,45.34614404656484],[-0.277600885427061,45.347468299946215],[-0.277989114319377,45.34807066194587],[-0.276608426362475,45.34823816517577],[-0.274548406660384,45.34828584015669],[-0.274123985313223,45.34778456154696],[-0.272922742364137,45.34667875301567],[-0.270888632982059,45.34392641947894],[-0.269444449623647,45.34235904613874],[-0.268643261716692,45.34196879207326],[-0.266323374177142,45.34148228166654],[-0.266246298752124,45.34121416661548],[-0.265537705457783,45.34105099876891],[-0.265282454565662,45.341056644686965],[-0.265045851963013,45.34146729276117],[-0.264659023710174,45.34138665465389],[-0.265128255827986,45.339125334054614],[-0.263667160738533,45.33883360728678],[-0.263471823601911,45.33931604659606],[-0.263470494401927,45.34051379909562],[-0.262371188424677,45.34022502109712],[-0.260687033419858,45.34275695015161],[-0.259266685777353,45.341962000949536],[-0.258113294141058,45.34151343917076],[-0.256831549837531,45.34116413010381],[-0.254572273361388,45.341230761739695],[-0.253692726423052,45.34104996147951],[-0.252983378967942,45.34104805374338],[-0.251133302629744,45.34149114102554],[-0.250528695213499,45.34144471897775],[-0.250134025102495,45.34151385965327],[-0.249628904697651,45.342033205519606],[-0.248782616750087,45.343757455437505],[-0.247841384975799,45.3435054014347],[-0.246485928374369,45.347062142714606],[-0.246166587043775,45.34763466029976],[-0.244514560821043,45.34729234257527],[-0.242524393486963,45.3470904732683],[-0.241134795760505,45.34682071046656],[-0.240438517060904,45.34649571145168],[-0.239676708212395,45.34585718391201],[-0.238327762884342,45.34529692455263],[-0.236586022515008,45.34494807732832],[-0.234947141423775,45.344345696408666],[-0.233133873323197,45.343864585711664],[-0.230802356049947,45.343745371296606],[-0.229628167074428,45.34344131377167],[-0.22739450827928,45.34320204925532],[-0.225512853083418,45.34288410467642],[-0.224600497373548,45.3428193765947],[-0.223014164366686,45.3429002213519],[-0.221670823879015,45.342564905869764],[-0.219379713115613,45.34172874468652],[-0.216550286284631,45.34141628564261],[-0.215341623345046,45.3413536912148],[-0.214743199939714,45.34123660621055],[-0.218622962878427,45.33852063593117],[-0.219448075113024,45.337807487094686],[-0.219929097756538,45.33724301737087],[-0.225168263226014,45.328822767732],[-0.226001129735877,45.32710090493192],[-0.227904610717455,45.323948593729604],[-0.22845055803124,45.32265674751559],[-0.228749241304429,45.32166131875228],[-0.229838643486116,45.31714282020836],[-0.230270063791807,45.31592636603045],[-0.230463564915064,45.31459421914127],[-0.230682442173514,45.31455815801214],[-0.23176475861324,45.314015914121214],[-0.233901281813671,45.31477965796351],[-0.235227435255316,45.31557671772173],[-0.23683874701861,45.31571935272062],[-0.237519600194145,45.31567621701911],[-0.240632451991004,45.31506247820247],[-0.240129646558127,45.314675109629604],[-0.241680263559866,45.314126410028244],[-0.241468868898983,45.313676529473646],[-0.242428059323308,45.3131494628234],[-0.242419556436251,45.31289376853805],[-0.244105890194134,45.312417701009934],[-0.244728586468219,45.312429377806424],[-0.245081484874058,45.3123263158751],[-0.245680917127422,45.312399042805495],[-0.246223466080316,45.3122409075323],[-0.246894750832986,45.31220970671552],[-0.247242901267389,45.311981508567705],[-0.247539411831595,45.311459214393345],[-0.248530571113912,45.310890610515166],[-0.248908975616903,45.31083095415334],[-0.250049871457999,45.310880717725205],[-0.250493750938131,45.31078310518538],[-0.252134208622039,45.31096702647838],[-0.252524840040311,45.31113861177837],[-0.25285957706745,45.31149025991479],[-0.253313967471666,45.311659988301635],[-0.253827303994175,45.31170183137607],[-0.254329652122387,45.31155563993857],[-0.25501822758243,45.31083716830868],[-0.255483392792398,45.3107542367264],[-0.255904341599681,45.30987141842071],[-0.256789278189001,45.309431999401646],[-0.256971790072664,45.30890578742339],[-0.257417296785306,45.30831243583929],[-0.257829798934274,45.30724240439571],[-0.258739932629568,45.30686351654946],[-0.258874946226349,45.306704574835194],[-0.258742978521658,45.30532236481271],[-0.258481376821019,45.30469283468484],[-0.25852277086082,45.3040688951998],[-0.258319907217874,45.302980742235654],[-0.25769188144552,45.30202483616264],[-0.257746975074924,45.29986664743501],[-0.257543374533905,45.29891820300334]]]]}}]}