{"type":"FeatureCollection","name":"COM_24308","crs":{"type":"name","properties":{"name":"urn:ogc:def:crs:OGC:1.3:CRS84"}},"features":[{"type":"Feature","properties":{"fid":4239,"ID":"COMMUNE_0000000009753869","NOM":"Négrondes","NOM_M":"NEGRONDES","INSEE_COM":"24308","STATUT":"Commune simple","POPULATION":782,"INSEE_CAN":"21","INSEE_ARR":"2","INSEE_DEP":"24","INSEE_REG":"75","SIREN_EPCI":"242400752"},"geometry":{"type":"MultiPolygon","coordinates":[[[[0.922108236000201,45.34897488380308],[0.922090803636611,45.34862056239011],[0.922549756617696,45.34813186129726],[0.922900565452059,45.347528557480814],[0.923634160460523,45.34566949139715],[0.924327007971616,45.34421680845943],[0.924306304203197,45.34384711440614],[0.924027559943401,45.34347804002609],[0.92365410320803,45.34184704994049],[0.922950771113583,45.34118455674993],[0.922727738781697,45.340692208211145],[0.922000783461473,45.3403211154724],[0.921727412741245,45.339945829442215],[0.921139569441104,45.3379019062189],[0.921255090666567,45.335731427462235],[0.921168144018319,45.33546048661081],[0.920690412995781,45.334778748070235],[0.920410454084336,45.33461501383619],[0.91961654858537,45.33443181916651],[0.918374788890997,45.33434027453878],[0.91841548240103,45.33403747633145],[0.918283338690496,45.33388279081735],[0.916666380951008,45.3328970023621],[0.916469817998897,45.332552857281634],[0.916368061205524,45.331927639136936],[0.916011554002849,45.3315237677771],[0.9157121792551,45.33082190786651],[0.91484898157819,45.329762752602925],[0.914422470474946,45.32873965226079],[0.91391435701727,45.32825908642207],[0.912748737947061,45.32644664802729],[0.910961174144691,45.32691952019445],[0.907350195231587,45.327729396503024],[0.903678584603347,45.326890532503704],[0.901457293160397,45.326502109093646],[0.901136100343414,45.32658796332255],[0.89938898578446,45.32757664671087],[0.89732910514965,45.328256772320216],[0.897092409790028,45.32843788205556],[0.896319027097753,45.32795224875023],[0.895930318514872,45.32783054464065],[0.895299246909285,45.32787092255178],[0.894729136611778,45.327683649943985],[0.89410246139702,45.32727011925616],[0.89350404503,45.326582384102615],[0.89264147860731,45.327071473130246],[0.890431499710053,45.32780179157178],[0.890224835775393,45.32833565206368],[0.889919427650807,45.32854337541954],[0.88904946542669,45.3283837480766],[0.889074965108995,45.328923787099306],[0.888880582640798,45.32916693013652],[0.888657500066821,45.329055530839796],[0.888407303209066,45.329187726813856],[0.887388041115642,45.32794795447895],[0.885697128368283,45.32872671151361],[0.884207186209323,45.32750864187827],[0.883440274084415,45.327359926196756],[0.882936497477047,45.32660456292402],[0.882422996153958,45.32664258835636],[0.882316990512777,45.326307298922536],[0.882743465134891,45.32516599061172],[0.88242069448289,45.32475543952797],[0.882535877172631,45.324278411486894],[0.88287016234287,45.32398297962644],[0.883015948229412,45.323574087662294],[0.882062850483164,45.32321916689168],[0.880647609751979,45.32182230739762],[0.879520644213881,45.322446807419],[0.879055916638266,45.32177503599057],[0.878609243272157,45.321769271366655],[0.875213076672154,45.32239932890694],[0.875370087873403,45.32370572132038],[0.87347755392178,45.324112051413366],[0.873720388299652,45.32454092768495],[0.871693425834992,45.32498881189952],[0.87161292958562,45.32345327083085],[0.867638298313198,45.324279275919814],[0.863097858442458,45.324772763900654],[0.862245365170926,45.32432771454663],[0.861087250445866,45.32342913349615],[0.860682685196472,45.32295840298988],[0.859117264998877,45.323090604419775],[0.856207945871654,45.32423383754847],[0.854906976667162,45.323400011949836],[0.854589655494315,45.32335069163727],[0.851157317415228,45.32388204926081],[0.849338792879202,45.32458214811308],[0.848630845421626,45.325951232426114],[0.848300312973967,45.32683844840949],[0.847253682092312,45.32808121006882],[0.847081718714423,45.32909397925607],[0.846808706565477,45.32987960997208],[0.846617732731522,45.330095725481996],[0.845698641541692,45.33071308648465],[0.844916838255151,45.330158468675464],[0.844173395735473,45.329965796368796],[0.843831604110627,45.33031682127178],[0.843206544918479,45.32917790288166],[0.842969335785701,45.32900488558352],[0.842682296041989,45.32922815078722],[0.84184416940055,45.32887600108226],[0.841675927913596,45.32873583816314],[0.840854541013315,45.3286110000926],[0.839820076400784,45.3281523578795],[0.838333798599648,45.3272273833749],[0.838093881004877,45.32781546233544],[0.837744356559534,45.32826630625273],[0.837109688391545,45.32915392221927],[0.836276683647157,45.33208878006104],[0.83608581423886,45.33253097684441],[0.835849196634294,45.33280294183654],[0.835276005213676,45.333026961224526],[0.831184770711279,45.334026895967305],[0.83073143114463,45.33432077385088],[0.829515597363076,45.335565506924],[0.829433083860583,45.336044024853315],[0.82967004800856,45.336517928500875],[0.830568743328407,45.3374145159011],[0.831232892788593,45.337840846111405],[0.831551986615614,45.33912524088404],[0.833192971408346,45.33959209696573],[0.835358883009204,45.34002764470128],[0.834971408869461,45.34043361061096],[0.834970386912224,45.341510927799966],[0.835746110602327,45.34150070636585],[0.837034628520793,45.34173819585416],[0.839663389503506,45.3423951851933],[0.841187493589751,45.343310957206775],[0.84195192926896,45.343922013965084],[0.841858553220216,45.34405713267804],[0.841988469283021,45.346109816726035],[0.841870737970558,45.34693896911983],[0.842004802131474,45.34733609604347],[0.840920784209577,45.34936447592986],[0.840464096397046,45.34957816117782],[0.840229453090858,45.350752760136636],[0.840623773055015,45.351356684665134],[0.840354892414501,45.35143797364948],[0.840421052980294,45.351840098438416],[0.839503009402588,45.352189005849766],[0.840094574012393,45.35274719520521],[0.840272405749721,45.353037074857276],[0.840322906282683,45.353579419978765],[0.840178183514403,45.35470801288182],[0.841101979651918,45.354310567666914],[0.843104436842199,45.35363934356382],[0.846028205598804,45.35415052384584],[0.846827093349501,45.35450368296896],[0.849049441677148,45.35574443678449],[0.849847586458127,45.355952533613404],[0.850257744649046,45.356447731676],[0.851404456473293,45.356231935586244],[0.851917756911,45.356372397302756],[0.853166245930813,45.356035128941826],[0.854789141757582,45.355662684190435],[0.856698903544697,45.35540470216704],[0.857579951772398,45.3551855596801],[0.857788317647331,45.355016596910886],[0.860937873370611,45.354611108996004],[0.861511308481131,45.35375191180557],[0.863420546889994,45.35243989863067],[0.864970200695968,45.351740732119474],[0.865942416765217,45.35160703630867],[0.866621222935868,45.352395540296975],[0.867264777752969,45.35267082730678],[0.869221788797134,45.3531431624248],[0.870463657548404,45.353875698760596],[0.873573171006585,45.35374473365959],[0.875589479082695,45.35356952552031],[0.876475193064721,45.35339266126249],[0.877537467072297,45.35344342948433],[0.877990221277708,45.353262849035765],[0.879095602717291,45.35322163999459],[0.884174959296247,45.353395206946715],[0.885514089953544,45.35352319240138],[0.887319987536815,45.353908582414554],[0.888429914898539,45.354353782148564],[0.889019291197904,45.35437660550999],[0.889216853810872,45.3545235523212],[0.889068605269724,45.356343913915765],[0.889856895075803,45.35678213369348],[0.890124202188618,45.35684211773658],[0.892290492023251,45.356283904900415],[0.89284423118018,45.35620244858414],[0.893434946426223,45.35595414241466],[0.89367177854485,45.356211713530776],[0.894261345548026,45.356365123783284],[0.895153648510411,45.35601348707001],[0.896051024814771,45.35542593788846],[0.898791736938094,45.35433613273005],[0.900342632523815,45.35569295473358],[0.900959538891812,45.35651070629385],[0.901396030675733,45.357437668752326],[0.904374671984778,45.356780949678125],[0.90519918952188,45.35673512592675],[0.90677832934164,45.35690517672089],[0.908177811705953,45.35648455122828],[0.910444002609883,45.35666287955119],[0.910854616962666,45.3566155948837],[0.911412088404621,45.356399903250136],[0.912048768325996,45.35642258641534],[0.912982522128535,45.35625713961376],[0.914499146339656,45.35642501535401],[0.915698897681869,45.35618433225095],[0.916434086570113,45.35589626015749],[0.91802423788288,45.355054803324485],[0.918768502628842,45.3547966102992],[0.91895609917979,45.35442628178274],[0.919173810110562,45.35437808388253],[0.920455792565053,45.353678591293715],[0.921441222714074,45.35305104508681],[0.922035758852416,45.35077955869059],[0.922065228145114,45.349955911871156],[0.921775525861048,45.34888764010489],[0.922108236000201,45.34897488380308]]]]}}]}