{"type":"FeatureCollection","name":"COM_16320","crs":{"type":"name","properties":{"name":"urn:ogc:def:crs:OGC:1.3:CRS84"}},"features":[{"type":"Feature","properties":{"fid":4271,"ID":"COMMUNE_0000000009752154","NOM":"Saint-Genis-d'Hiersac","NOM_M":"SAINT-GENIS-D'HIERSAC","INSEE_COM":"16320","STATUT":"Commune simple","POPULATION":915,"INSEE_CAN":"18","INSEE_ARR":"2","INSEE_DEP":"16","INSEE_REG":"75","SIREN_EPCI":"241600303"},"geometry":{"type":"MultiPolygon","coordinates":[[[[0.019957803218635,45.72819123984502],[0.019752236955039,45.72863907136923],[0.019346429141722,45.728934722614945],[0.01908121741189,45.729390887990725],[0.018788397965064,45.72966699785802],[0.018554364465365,45.7303799077027],[0.01857022941013,45.730634445864204],[0.018434801332846,45.73071196465502],[0.018121066081846,45.73073159896003],[0.017830826386765,45.73138895276083],[0.017525898927844,45.73157913210773],[0.017400828705494,45.73184616113365],[0.017173027022765,45.73191853045101],[0.017113661778963,45.73211250442262],[0.016951199997484,45.73214244731317],[0.017087139978581,45.73238935049444],[0.01695598923973,45.732554390512135],[0.016163177143295,45.73305786103815],[0.015939997973202,45.73337816132572],[0.015579345948056,45.73350378130636],[0.015537234800285,45.734140666749475],[0.015338786008751,45.73459859283575],[0.015091199445306,45.734560496408335],[0.014937599863709,45.73461680412928],[0.014725170929293,45.735524023514074],[0.014467565911465,45.736052472051085],[0.014246182822896,45.736196195439035],[0.014066049228836,45.73698171575154],[0.013824573261692,45.737211414783104],[0.013640179360342,45.737551662738845],[0.013617034299384,45.73781327884326],[0.013166132774984,45.73836994528575],[0.013113136498215,45.738636177120036],[0.012869711466388,45.73885410805815],[0.012412194696445,45.73972328957514],[0.011947607293431,45.740318337898664],[0.011773944934339,45.74126893480598],[0.011419923032477,45.741532592263425],[0.0112596168266,45.74192664267745],[0.011381157531206,45.74227319688957],[0.010996593785202,45.74243511656951],[0.011303871496674,45.74282174003577],[0.010542718567564,45.743711701119075],[0.010494300179175,45.74403572622472],[0.009951729373032,45.744120460404645],[0.009645715241388,45.744733224123735],[0.010121409245331,45.745242366818694],[0.010134601744921,45.74535535843648],[0.009768947783083,45.74576198344422],[0.009982769236139,45.74652010180598],[0.009735439864585,45.746856873449374],[0.009623557184583,45.74725941591418],[0.009196666479371,45.74739407487097],[0.009012791586949,45.7478424670048],[0.007928939898622,45.74805791279485],[0.007216775163206,45.74827871069972],[0.007094962372086,45.74846020951546],[0.006569721321031,45.748580533095414],[0.006111384648719,45.74879634920246],[0.006098175772895,45.7491113958817],[0.007259851831528,45.74964597511808],[0.006827854371469,45.7503734372749],[0.006816747713984,45.75091112022733],[0.007071375618677,45.75108188688735],[0.007160495971426,45.751385231955766],[0.006706609152939,45.7520174938038],[0.006301357800854,45.75206080168803],[0.006136460007987,45.75215825124049],[0.006352999548284,45.752295567103374],[0.006591973471349,45.752612804165224],[0.006259559839432,45.752879725301995],[0.006401705010418,45.75367740027136],[0.005066217909472,45.753735650440504],[0.004884180480073,45.75386418283794],[0.003852730481884,45.75384668957527],[0.003747375362994,45.753914178420956],[0.003764446502609,45.75407413332538],[0.003593403869182,45.75416600932607],[0.00356312609242,45.75441572071739],[0.003185190627402,45.75445343595511],[0.002915411118738,45.75489413003087],[0.002575237121115,45.75513740531618],[0.002023172282501,45.755252490903764],[0.001955541275575,45.75562106016893],[0.00148824858617,45.755644679072056],[0.001437980813326,45.75581185500009],[0.001204273470281,45.75565875375264],[0.000898051938037,45.75575063499299],[0.000204637547103,45.756263859741615],[7.703202973e-06,45.756168506081856],[-0.000436163099731,45.756187333646636],[-0.000597763193204,45.75598658480507],[-0.000815946976465,45.75590328007258],[-0.001321066735894,45.75624398278986],[-0.00233745967031,45.756754001562314],[-0.002412143599023,45.75687276555387],[-0.002005764845489,45.75707012211743],[-0.001779828317364,45.757295114378465],[-0.001217798269052,45.7581346183375],[-0.001290565975428,45.75831290926462],[-0.002550746081756,45.75899666575935],[-0.002555182596531,45.75910198098466],[0.000921503237814,45.763049578584145],[0.003008836355349,45.76515606403002],[0.004316650357493,45.766657865322045],[0.004936680672037,45.76757096570813],[0.018989051351252,45.76839025920532],[0.022747601304743,45.76870041195462],[0.029031189228814,45.76932209264639],[0.035346463963529,45.77036327534821],[0.040518876574212,45.770388287138964],[0.041951374304229,45.77030421734814],[0.042610139982669,45.77033771415717],[0.042685323492306,45.770208122003545],[0.04406409272398,45.77028571948232],[0.044278492602166,45.77077884473728],[0.045696719739117,45.77067272640563],[0.045830165230687,45.77058520889015],[0.046919777458977,45.77065249318268],[0.047298577908646,45.770840832772734],[0.048223142413881,45.77180400054956],[0.048912834680333,45.77222304693707],[0.05024679330387,45.772610280441256],[0.051653387058838,45.772819173055204],[0.053901811523665,45.77286531191914],[0.054619835663058,45.772609225081055],[0.055343715598241,45.77221902051514],[0.057170157730754,45.771580943773024],[0.058199144004872,45.77160238174128],[0.061581664135783,45.77221050230243],[0.062725123312026,45.772549369264205],[0.063606810709411,45.77301657609776],[0.065839988844728,45.77342252414001],[0.066725209720738,45.77379968641951],[0.06697072701772,45.774074602361786],[0.068622911945307,45.77448610909808],[0.067749244061489,45.776995519511146],[0.067944816314497,45.77697447135015],[0.068244750833142,45.776612812478604],[0.068595118731022,45.7765867755305],[0.069016932640553,45.77620935898092],[0.069143995985293,45.77595043775862],[0.069315795581294,45.775940484032105],[0.070514308937694,45.776166258457934],[0.071479105932645,45.77647696398707],[0.071942116351812,45.77643942353461],[0.072475582954337,45.77623880704998],[0.072740256749374,45.7762745118169],[0.073226016784735,45.77646373472855],[0.073437967742746,45.776473739823906],[0.073729964061837,45.77684446220402],[0.074092333952725,45.77681060962022],[0.074403298238327,45.77706648034703],[0.075665595856043,45.77681806868576],[0.076425577112711,45.77696032025012],[0.0775323062215,45.77685293373625],[0.078328018146984,45.77709882420997],[0.078865807376758,45.77703525799967],[0.079791594262732,45.777061933468644],[0.080705629677557,45.77726221045019],[0.080698360544278,45.77752154057518],[0.080920700243786,45.77752999814154],[0.08129520325985,45.77733964418353],[0.08147107408192,45.777008983956634],[0.081998267137248,45.776755896814244],[0.08338634031442,45.77673412741748],[0.085577333906314,45.77657810039348],[0.08582768177937,45.776617008452874],[0.086650890603281,45.776488691128215],[0.086626356998328,45.77592847277803],[0.087189589501081,45.77577271109684],[0.087509668037147,45.775588140702965],[0.088236127249343,45.77570691921545],[0.08852321490863,45.77539083462204],[0.088841958671318,45.77523145701334],[0.087225944850376,45.77408228109922],[0.087071719076101,45.773783637663946],[0.087047745072378,45.773432489725934],[0.086639102600487,45.772879471339856],[0.086427758952667,45.77273614327202],[0.085188924237057,45.77256716619748],[0.084586560515802,45.77231821142422],[0.084489758146905,45.77144434227777],[0.085033830574162,45.77145570226803],[0.086492161459287,45.77117349320075],[0.087184492242609,45.77120579367458],[0.088780694741414,45.77099469880761],[0.089928487362173,45.77093601275874],[0.090069631920374,45.770872072003804],[0.090211363079089,45.770479244435386],[0.089768049824297,45.77016864043491],[0.087265898553182,45.77002835358639],[0.083363809565831,45.76869930384083],[0.081642029835041,45.7679005378939],[0.080742830817841,45.76727622844762],[0.079755968762485,45.766410848517886],[0.079118168109502,45.76607894403287],[0.075342935482469,45.764770011587444],[0.07387111472057,45.76472552264395],[0.073492121175121,45.764564301808846],[0.072396134765346,45.76372035130561],[0.072087531782607,45.76356726065999],[0.071893534899455,45.76355952015835],[0.071531416854142,45.763347367406276],[0.069030174051011,45.76130354768915],[0.067373916740498,45.76053959712138],[0.066846348458696,45.75966171044615],[0.066877229371917,45.759249805312194],[0.066590484497805,45.75878277974701],[0.066264782592843,45.75863733723321],[0.063768942662458,45.75802539723084],[0.061125368988086,45.75706983067936],[0.060395816226425,45.75684535900668],[0.060150279660926,45.75683895727557],[0.05933127988859,45.756432824775516],[0.057341294402368,45.75570416982307],[0.05426711882171,45.75519946969223],[0.053448124898186,45.75493927362923],[0.051012955771566,45.753630263675504],[0.050189340257709,45.7534573304218],[0.049225957003075,45.75250306886315],[0.048968633771804,45.75230800023742],[0.048527629825958,45.75212974938824],[0.053422098759652,45.745893197326765],[0.053616194307133,45.74551169214749],[0.053593819148922,45.74506235203915],[0.053143172281125,45.74426930558419],[0.053828672620537,45.74384387507523],[0.05381696425942,45.74372552302029],[0.053120475982949,45.74380193460207],[0.053060517032939,45.74364717755424],[0.052697551399805,45.743551181008705],[0.052045064230077,45.743164661836545],[0.049115666908958,45.74001070064892],[0.050181314995805,45.739671839336594],[0.051533388633664,45.738715987956894],[0.051752457795644,45.738445075824956],[0.051666658550505,45.73788233773307],[0.051558201912569,45.737744333371616],[0.050996683958606,45.73739082382484],[0.050396618119287,45.73684346371637],[0.048757714345677,45.735628209717156],[0.046220804381919,45.73327922209911],[0.045434206901207,45.73343071748675],[0.043650397217619,45.73199351438634],[0.043429479056206,45.731913827373965],[0.043057330946324,45.73196714224338],[0.042838887339325,45.73188932121156],[0.041702384626088,45.73102956384923],[0.041510336415572,45.730987576622006],[0.041403226364753,45.73118571444656],[0.040403139730666,45.731792041847214],[0.038368077880226,45.73024452311373],[0.037799968134818,45.72968080939116],[0.034485493603792,45.72747329952176],[0.034313196703913,45.72732728914807],[0.034341757229233,45.72713069498703],[0.033702752500976,45.726954377979304],[0.032010534718871,45.725929399811115],[0.029550418498544,45.72483008777022],[0.028542685578807,45.723711356030286],[0.028187118043848,45.7236244824825],[0.027467297336377,45.72241601132188],[0.027161524830186,45.722049296841774],[0.026351216628854,45.721447590882725],[0.026117730153662,45.7209809537264],[0.025887143587854,45.720986582324976],[0.025644608922136,45.72135775208478],[0.025545240502404,45.721889496607574],[0.025776071617739,45.722190257789606],[0.025647050809447,45.72262750268244],[0.025161232469638,45.723741986557954],[0.02391912227099,45.72590343149258],[0.023906624940523,45.72618335184354],[0.023655631823408,45.72625692316104],[0.023215953170109,45.725844307976345],[0.022859970859661,45.72588446572658],[0.022047503477121,45.72649288611393],[0.0217024248573,45.726569373593364],[0.021359283081288,45.72689642477704],[0.021159482374955,45.72692718855823],[0.021136111832566,45.72707435576519],[0.020913521106303,45.72724148816147],[0.020662956604588,45.727259194437885],[0.020574615903303,45.72741816078872],[0.020349647629684,45.727533864983094],[0.019957803218635,45.72819123984502]]]]}}]}