{"type":"FeatureCollection","name":"COM_16101","crs":{"type":"name","properties":{"name":"urn:ogc:def:crs:OGC:1.3:CRS84"}},"features":[{"type":"Feature","properties":{"fid":3988,"ID":"COMMUNE_0000000009752929","NOM":"Claix","NOM_M":"CLAIX","INSEE_COM":"16101","STATUT":"Commune simple","POPULATION":1058,"INSEE_CAN":"04","INSEE_ARR":"1","INSEE_DEP":"16","INSEE_REG":"75","SIREN_EPCI":"200071827"},"geometry":{"type":"MultiPolygon","coordinates":[[[[0.075503587694042,45.55641104808527],[0.077478337996769,45.55532616027503],[0.078259940799584,45.55480583606333],[0.080550420728749,45.5536660320483],[0.081114418803074,45.55311210051483],[0.08170192089161,45.55240378990018],[0.081916318927844,45.551692994275555],[0.082178377870619,45.54895508810382],[0.082366264683941,45.54847968867136],[0.082994148775126,45.548075187494675],[0.08381618722588,45.547075599913],[0.084323650235393,45.54693648945987],[0.084833225205706,45.54665956540723],[0.085251644068346,45.54584773205193],[0.085749580237652,45.545255122262084],[0.086090285624547,45.54501886599973],[0.087275169981804,45.54433593849653],[0.087591177081073,45.54422789267319],[0.087731582585069,45.54428920255164],[0.088454055008537,45.5441331217643],[0.089390542260226,45.54383300244522],[0.089680765885576,45.54362966900217],[0.090227285727101,45.54298964158596],[0.09012955448553,45.54248160186834],[0.089698676284378,45.54191987617148],[0.090087942962269,45.54102617515157],[0.089762334051365,45.54114659373492],[0.086864034013376,45.54166527361972],[0.083693001211744,45.54017548697693],[0.083310215704568,45.5401394156412],[0.080183001511206,45.54028073047483],[0.077379831225108,45.539601389760044],[0.0775148040749,45.53942468423314],[0.078070962356101,45.53909043339784],[0.077105323250116,45.53872739891983],[0.076922165711364,45.538626215645216],[0.076637993815091,45.53820341737432],[0.075563732269054,45.53771229022157],[0.075354034737054,45.53716617619187],[0.074969250951907,45.53668218235269],[0.074295619054896,45.5361807506492],[0.073789435876417,45.53593237850216],[0.073067272931426,45.53528189568424],[0.072229575836807,45.5338570627124],[0.064756844920105,45.535076712096945],[0.064688564550551,45.53677889536854],[0.063474151451279,45.53670930248873],[0.063271587055729,45.53697523517938],[0.060811679226085,45.53705956501532],[0.059732417028269,45.537318764235195],[0.059397480193743,45.53664678840158],[0.05910289905955,45.53630206492701],[0.057775431645268,45.53655114092085],[0.057595357524223,45.536295918319006],[0.056775701215498,45.5363987918626],[0.054252155370755,45.536160518990165],[0.053308236241931,45.53628533866608],[0.049448762645952,45.53708150295153],[0.046076030866856,45.53721091021361],[0.043912111369246,45.53761083280837],[0.043086121525951,45.534560482359915],[0.041911163636676,45.532574146121576],[0.041410066322824,45.53206533872892],[0.040701133615603,45.53105454417494],[0.040677540030779,45.53043937001865],[0.040361424060787,45.530476995126705],[0.036342190997159,45.53066745507477],[0.035969987304439,45.53223456559412],[0.036016961246582,45.53303508594541],[0.036702513415844,45.534818443307614],[0.037548176541672,45.53598155340398],[0.037724814356603,45.5365394912498],[0.036259286139804,45.536922543229515],[0.03553335869414,45.53699800003101],[0.033029014898206,45.53642544490493],[0.028457580203702,45.53592881782652],[0.027255410845945,45.53565550501315],[0.026255253673172,45.53556054151358],[0.025925118287134,45.5356914712763],[0.025364913337762,45.5356892498714],[0.025046761413151,45.535883572273775],[0.025007850022787,45.536011400303224],[0.024363740425602,45.53601956684374],[0.022230248339738,45.53651900320845],[0.020339108863156,45.536778826608035],[0.021018191306296,45.53826835825922],[0.021116633042571,45.53899005712383],[0.020638471252028,45.5399424652819],[0.01935151431102,45.54048232742901],[0.017839914889693,45.54097836428434],[0.016890198456865,45.541708277496845],[0.018959787700601,45.543738468271876],[0.020282240446175,45.545260396390404],[0.02178403028064,45.54609500758333],[0.021730437370759,45.546185500117325],[0.022102982553674,45.54665134056213],[0.022248161544324,45.547434651982975],[0.022936848901005,45.54889198365108],[0.023046328278473,45.54957612635219],[0.023031175990725,45.55052729997345],[0.023398821281915,45.55223203563205],[0.02391396790754,45.55314859928294],[0.024477330483484,45.55381232353793],[0.025098437858335,45.55483441433652],[0.025540440419698,45.55513086946416],[0.025517401809883,45.55536905424564],[0.026130553709628,45.55527264777543],[0.027286874973541,45.55710277107269],[0.026080883194327,45.5582314866364],[0.027046911723999,45.560070992126846],[0.028646659171166,45.56248593816855],[0.02851145664737,45.56350061897098],[0.02806107687445,45.56422041029782],[0.030140162076677,45.564851192530554],[0.031287001651234,45.56528339420351],[0.032822152580244,45.56622685572811],[0.033863795971339,45.56654000881639],[0.034453014891783,45.56679705827591],[0.036596213509543,45.56791150206367],[0.03822394031822,45.56861402790357],[0.039912885971737,45.569083853809666],[0.041211016633978,45.56930457071345],[0.042807906889574,45.570466681132864],[0.044371248626589,45.57076732881009],[0.044475102894231,45.57072049946008],[0.047902159605401,45.5720667199568],[0.04805173446664,45.57142635949152],[0.048514187672992,45.570644633725706],[0.049701063723558,45.569895444623896],[0.050205264797911,45.569750987902665],[0.050852646079312,45.5696643529146],[0.051845806050643,45.569685907705654],[0.053345955356663,45.57001721163633],[0.055266022926667,45.5702450598165],[0.05605243182279,45.57017375233362],[0.057162412521467,45.56971082498303],[0.057357786679541,45.5695348201366],[0.057831903874729,45.568627211519015],[0.058252901248115,45.568309332128464],[0.059530624387084,45.56627925754904],[0.060010704828541,45.566153050309495],[0.060055664962368,45.565595545492805],[0.060667690083683,45.56368230556854],[0.060803872015722,45.56348492307508],[0.061235456643043,45.563619662252385],[0.062931119860324,45.560355170468334],[0.064206329330502,45.56052186070885],[0.065454277463558,45.56086443905102],[0.066392336495533,45.560930385998766],[0.066825057897385,45.56077678303708],[0.068453935328412,45.56065980110711],[0.070361910718883,45.56021306444849],[0.072013509336684,45.56041831422263],[0.072354401461067,45.55974416899731],[0.072835940747617,45.55924849937645],[0.073846466785196,45.557673581765755],[0.0749127041934,45.55671915715353],[0.075503587694042,45.55641104808527]]]]}}]}