{"type":"FeatureCollection","name":"COM_64195","crs":{"type":"name","properties":{"name":"urn:ogc:def:crs:OGC:1.3:CRS84"}},"features":[{"type":"Feature","properties":{"fid":4222,"ID":"COMMUNE_0000000009760282","NOM":"Coublucq","NOM_M":"COUBLUCQ","INSEE_COM":"64195","STATUT":"Commune simple","POPULATION":89,"INSEE_CAN":"02","INSEE_ARR":"3","INSEE_DEP":"64","INSEE_REG":"75","SIREN_EPCI":"200067239"},"geometry":{"type":"MultiPolygon","coordinates":[[[[-0.38459075629002,43.53123892486888],[-0.383007665805394,43.53239418582013],[-0.38203534036833,43.53297114038808],[-0.380121879462512,43.534445545782546],[-0.38243336173976,43.53668069801955],[-0.382881341228626,43.536993627887355],[-0.38143652440994,43.53762043201716],[-0.380971464590297,43.5371225152549],[-0.377401401053928,43.539373433857236],[-0.377449879692606,43.539524117353345],[-0.376597001171078,43.54017745053295],[-0.372536150304177,43.54223545074685],[-0.370734093945647,43.54336040904499],[-0.369945135542063,43.54364968099423],[-0.368615982450474,43.54395302029854],[-0.367895951902313,43.54427795961402],[-0.367281256071222,43.54500577172798],[-0.366382444770908,43.54576581081746],[-0.365493772119961,43.545199921367626],[-0.365370140175788,43.54520285600015],[-0.363545978239792,43.54665167222104],[-0.362865705837157,43.547423816791444],[-0.361969131189641,43.54807568262791],[-0.360698878100591,43.548647260411975],[-0.359627171901001,43.54979803056957],[-0.358345654261311,43.550135786182786],[-0.354601577228868,43.55229765201002],[-0.354827523453836,43.553155191139155],[-0.351940693017674,43.55416296749052],[-0.351465442328576,43.55370035840415],[-0.351518098591835,43.55339344693202],[-0.351784869088386,43.55329695302337],[-0.352577912756294,43.553328286207666],[-0.35306600473503,43.55316281273665],[-0.353182988293905,43.55300340304986],[-0.353092469544855,43.552746843100635],[-0.352359392190012,43.55217333388588],[-0.35237833994403,43.55203136284663],[-0.352842953971252,43.551697313079615],[-0.352871085949418,43.550885953221446],[-0.352685418608838,43.55078092357762],[-0.352371862149722,43.55079691596456],[-0.350348447127632,43.55104672863827],[-0.35036121985511,43.55090494888273],[-0.350685070341388,43.55059866938783],[-0.350644173022365,43.55044954161322],[-0.349731579458544,43.55021476173241],[-0.349013874653775,43.54945794833327],[-0.34846238472375,43.54910934999047],[-0.347904115291192,43.54921753271331],[-0.347198997565886,43.54869716273991],[-0.346984234354885,43.548071608833396],[-0.347003656540484,43.54757661321014],[-0.346450737058337,43.546905657090946],[-0.345938367440738,43.545528326844625],[-0.345767824953283,43.54394053564333],[-0.34691181151331,43.54256164763306],[-0.346654721601183,43.54231382656551],[-0.345301470983719,43.54167385935671],[-0.345407350616619,43.541069036825036],[-0.344982383189799,43.540213125487355],[-0.344886887192542,43.540125116098224],[-0.344546882205615,43.54015360994214],[-0.344336969802713,43.540056520117915],[-0.34413128638647,43.53943699014415],[-0.345032952302165,43.537618030011565],[-0.346238096385369,43.53822474208815],[-0.346361714284903,43.53822182925936],[-0.346898823895529,43.537964816356734],[-0.347775889214171,43.53710565888004],[-0.348765508329002,43.53554510606368],[-0.348674655943382,43.535366903706965],[-0.349541388685468,43.534777309806884],[-0.350260931860299,43.53444440420907],[-0.352010814982656,43.533886943955686],[-0.352926709904856,43.5338010020697],[-0.354309127085064,43.53311978186193],[-0.35707771475291,43.532479399385736],[-0.357758543810979,43.53195132393065],[-0.358170678257986,43.531379332388205],[-0.358202537464248,43.53095059194117],[-0.358522153272346,43.529876263864686],[-0.358462242083373,43.52925404898285],[-0.358091605584104,43.52829204860636],[-0.359803739394098,43.52764377137769],[-0.361066640966922,43.5273984194686],[-0.361314457731833,43.52736102175522],[-0.361347372572844,43.527458159849665],[-0.367894081723005,43.526563450952395],[-0.36714899729267,43.525507743714236],[-0.370749549739781,43.52462773934939],[-0.375543655119074,43.52413732469677],[-0.375718906004821,43.524360606724244],[-0.376292637166914,43.52428871448145],[-0.3763055790441,43.5244035806024],[-0.375963244879418,43.52462226220652],[-0.375964473412986,43.52485366258238],[-0.376093299731157,43.52487666849228],[-0.376607796033682,43.52457608051253],[-0.376755847263919,43.524715557216425],[-0.37675855909457,43.524972126631404],[-0.377749045064402,43.5251682185233],[-0.378015193891727,43.525148221952925],[-0.37845299892347,43.525479491717576],[-0.378397717080905,43.525612692805986],[-0.378112676064105,43.52573233822942],[-0.378064714356142,43.52590583548286],[-0.378141706970159,43.525994391985115],[-0.37837702410478,43.52603929341594],[-0.378875557981706,43.52586706851493],[-0.378937437316309,43.526098380921475],[-0.378742539733526,43.526256644420826],[-0.378744281593855,43.526349345953726],[-0.378935957988669,43.52636768900263],[-0.379238790464509,43.52623487947164],[-0.379375313647422,43.526304470009556],[-0.379491057542053,43.52654671144363],[-0.379973449951749,43.526709986248875],[-0.380001824810161,43.52681356489521],[-0.379703808302199,43.52696513788905],[-0.379703715855816,43.52706870317521],[-0.380004369655128,43.527214227131125],[-0.380187006747609,43.527436372530914],[-0.38037730949611,43.52749437989122],[-0.380389922692964,43.527687603583026],[-0.380523960054966,43.52784102092759],[-0.380881593436263,43.52781906664274],[-0.381002609368847,43.527877431720384],[-0.38091850759023,43.52817273021349],[-0.380699288651036,43.52831734686545],[-0.380858085803594,43.52866000698614],[-0.38125554037662,43.528620600500126],[-0.381811339952492,43.52870593378054],[-0.382216383175435,43.528648276245356],[-0.382505192421831,43.52890763195143],[-0.382831168037699,43.52878939981773],[-0.383192868783298,43.52892040393621],[-0.38330605723892,43.52916092103798],[-0.383726398227262,43.52950982752749],[-0.383228624559749,43.529716271663524],[-0.38322123559884,43.53001098075403],[-0.383905191166808,43.53025440467085],[-0.384184457364133,43.53070857260955],[-0.384557925606808,43.53078697391358],[-0.384669017658762,43.53090778279156],[-0.384470189744303,43.531209366820946],[-0.38459075629002,43.53123892486888]]]]}}]}