{"type":"FeatureCollection","name":"COM_64234","crs":{"type":"name","properties":{"name":"urn:ogc:def:crs:OGC:1.3:CRS84"}},"features":[{"type":"Feature","properties":{"fid":4160,"ID":"COMMUNE_0000000009760551","NOM":"Garos","NOM_M":"GAROS","INSEE_COM":"64234","STATUT":"Commune simple","POPULATION":263,"INSEE_CAN":"02","INSEE_ARR":"3","INSEE_DEP":"64","INSEE_REG":"75","SIREN_EPCI":"200067239"},"geometry":{"type":"MultiPolygon","coordinates":[[[[-0.462002305766858,43.49370925280323],[-0.462497058114535,43.49348271792797],[-0.463977448183826,43.49218543721055],[-0.467953676228707,43.49082271593176],[-0.469692691674022,43.49030867318464],[-0.470918013052967,43.49075124252992],[-0.471477550412189,43.490758538499136],[-0.472219717709779,43.490942795809694],[-0.473826134400661,43.49095706280631],[-0.474838246553891,43.491268635982145],[-0.475668983806402,43.49081062814112],[-0.476160301444795,43.49075344563455],[-0.476849414536397,43.490960086334134],[-0.477421007079049,43.491268655287236],[-0.478236362233213,43.49151716625944],[-0.478409181897068,43.49187905228533],[-0.479608448090498,43.49211433171421],[-0.48329824585643,43.490092908357894],[-0.484743026839862,43.4894818080038],[-0.485370899133169,43.48939227488026],[-0.489638142628785,43.486864846864556],[-0.489860077673808,43.48664966864398],[-0.490818729781348,43.48746533277992],[-0.490808207312992,43.487617868432004],[-0.490238012279165,43.488127044262946],[-0.490810989289621,43.4886408294865],[-0.490775142906507,43.48880408720228],[-0.49188700937127,43.48929060325346],[-0.49205908880044,43.489638984729275],[-0.492394902169048,43.48995417249095],[-0.492486064654316,43.49027364078877],[-0.493518418006655,43.49144534077635],[-0.493530962948051,43.49152959060066],[-0.493414927904237,43.49159456977747],[-0.493694814310825,43.492291600530486],[-0.494573790234204,43.493055773056035],[-0.495552601048933,43.49422017943219],[-0.495771871495234,43.49530280916594],[-0.495611278979519,43.49589606703641],[-0.495430712948992,43.49620178316693],[-0.495585451620998,43.497037034951376],[-0.495276850099137,43.497393709971966],[-0.495477544351473,43.49770334239822],[-0.496182252301694,43.49822456699975],[-0.49595634181209,43.49859838993215],[-0.49646628411269,43.49896829264295],[-0.496561405249376,43.499148943331136],[-0.497658957993689,43.49809587632477],[-0.498110223036123,43.4987819682309],[-0.499203819448839,43.498903373423694],[-0.50064534097918,43.49919184829601],[-0.502024721172403,43.49957687362093],[-0.502284897528285,43.500455545462124],[-0.502420266807813,43.50194524583795],[-0.502942558573196,43.5025164540453],[-0.503978526375262,43.50221910127893],[-0.508933144740157,43.50223265446676],[-0.509904592153918,43.50189230285692],[-0.510704715614568,43.50182586707456],[-0.511517617001124,43.50202918906933],[-0.512022091321532,43.50238839379012],[-0.511886921128125,43.503010579523966],[-0.513975421371066,43.50398218739025],[-0.514024010697047,43.50483707828787],[-0.512632322223603,43.506742809584225],[-0.511673632274122,43.50787979875886],[-0.511259530522166,43.50825074768847],[-0.508952788235599,43.509075626964645],[-0.508865797308429,43.510973296492104],[-0.508021792368424,43.51236951490813],[-0.50864097913736,43.51304564152304],[-0.509448834130638,43.512981671148296],[-0.51199874956464,43.51222545830606],[-0.514457182386105,43.513190494694456],[-0.51428560228553,43.51344011895136],[-0.513073939793693,43.51392247999453],[-0.512765046130622,43.51447645070109],[-0.51065745074598,43.515020227495846],[-0.509750709076047,43.51567369756995],[-0.507564290855104,43.51519147964365],[-0.50250858470747,43.5143300300128],[-0.499878884844339,43.513577392023116],[-0.498947244880992,43.513376908396125],[-0.49863838100431,43.51338507391414],[-0.495226395743418,43.51459924173687],[-0.494578902677333,43.515245122782474],[-0.493865462650394,43.51580396613176],[-0.492965271575371,43.516893865914845],[-0.493187120494508,43.51734692207769],[-0.493121021524909,43.517603018627604],[-0.492066927505535,43.518136799256446],[-0.490985383695791,43.51821935554519],[-0.486885705250264,43.51899878832133],[-0.482081743759513,43.5183291193668],[-0.48074801789009,43.518069342399855],[-0.480116475350673,43.519328820789795],[-0.479614404341917,43.51984565932999],[-0.478676881273392,43.52048813821807],[-0.477287497586447,43.5210469350032],[-0.476876642675585,43.521374413681194],[-0.4768496383213,43.52152117462866],[-0.476614960219906,43.52161065203913],[-0.4766243811906,43.5219093449925],[-0.476433597904808,43.522090175216874],[-0.476428918556055,43.52221730805891],[-0.47698774336911,43.522493884228425],[-0.477183293670474,43.522698351806596],[-0.477359600612808,43.523014208543096],[-0.477576919312877,43.52316934577479],[-0.477570270512079,43.523447840919296],[-0.477498408569297,43.52371221670641],[-0.476565301383107,43.524817437526856],[-0.476156102714422,43.52496834478294],[-0.476529038909448,43.52636491254902],[-0.476290280883224,43.52655088285156],[-0.475367422478145,43.52662008622846],[-0.47488005616619,43.526768089702806],[-0.473798237037478,43.527380925115374],[-0.473199823150485,43.52780085327544],[-0.473205260387176,43.52789073809732],[-0.472668659041501,43.528309584219414],[-0.470971737866837,43.529333840153875],[-0.470576493677656,43.5292249090924],[-0.470431243105964,43.52905394215631],[-0.470682755813178,43.52862802057134],[-0.470630144215907,43.528433375869824],[-0.469814893908358,43.52811273505472],[-0.468092539503727,43.527917462192114],[-0.466520638613641,43.528061377432365],[-0.466037739441473,43.52801737261252],[-0.46586623354643,43.52792378912157],[-0.46631645942614,43.5265450130321],[-0.466757784985246,43.526433643268696],[-0.467015084115937,43.5259598154938],[-0.466893217168421,43.525704342868465],[-0.466771100410239,43.52564970858172],[-0.466435324544206,43.525766710691734],[-0.465748101833579,43.52576165701694],[-0.465168136500729,43.52548299677011],[-0.464850830890818,43.52522926381035],[-0.464939568279097,43.523336104837576],[-0.464876785767609,43.52315709372584],[-0.464653457906657,43.52304535208607],[-0.464273037212832,43.52311964544244],[-0.464021347589002,43.52309166208684],[-0.463624423006818,43.52219475300145],[-0.46330087306301,43.52177550949418],[-0.462725567042125,43.521573239160006],[-0.462408147402882,43.52154284827118],[-0.461548828276101,43.52190529734781],[-0.461101784581514,43.52192136741448],[-0.460757026896855,43.52178647638986],[-0.459368542828811,43.52197306987626],[-0.45977200973917,43.521377523931385],[-0.459697708077372,43.52110972090051],[-0.45751807362837,43.519502363435336],[-0.457289369060995,43.51837583037092],[-0.457258900172842,43.51774639914016],[-0.456348397543248,43.51682621959529],[-0.457497370950317,43.51630147850139],[-0.458152122219219,43.51578978607128],[-0.459372697613658,43.515488784937666],[-0.459673218707968,43.51530088296944],[-0.459479592173301,43.51490090169195],[-0.459649715417452,43.51458207390908],[-0.459114026976174,43.51374181855878],[-0.458603131365888,43.51339518516889],[-0.460045320051348,43.51128956262427],[-0.459898517426881,43.51076290981876],[-0.461082349484184,43.50962822911397],[-0.460629360507326,43.509071726562276],[-0.461594278513705,43.50781614639475],[-0.460585515342344,43.506927066699454],[-0.459551667780932,43.506278330924594],[-0.458666927675,43.505372670545036],[-0.458245073803354,43.50479805746669],[-0.457876123399764,43.503786782240574],[-0.45717295533338,43.50320402808581],[-0.456893927130748,43.503069736024386],[-0.457168226827554,43.50248822938485],[-0.457150292321278,43.50212857530305],[-0.457014287821943,43.50186274301601],[-0.456176713436885,43.5012662590299],[-0.457407025742097,43.50037149144804],[-0.458632575896709,43.4992544219242],[-0.458856955729465,43.4988717276211],[-0.459085074525083,43.49801701833642],[-0.459558158787026,43.49740935035533],[-0.45983563177566,43.496840344213986],[-0.460506030877621,43.49612010751064],[-0.460909791898136,43.49553265784918],[-0.461578290650512,43.49502770938788],[-0.462002305766858,43.49370925280323]]]]}}]}