{"type":"FeatureCollection","name":"COM_33404","crs":{"type":"name","properties":{"name":"urn:ogc:def:crs:OGC:1.3:CRS84"}},"features":[{"type":"Feature","properties":{"fid":4155,"ID":"COMMUNE_0000000009756529","NOM":"Sainte-Gemme","NOM_M":"SAINTE-GEMME","INSEE_COM":"33404","STATUT":"Commune simple","POPULATION":193,"INSEE_CAN":"27","INSEE_ARR":"3","INSEE_DEP":"33","INSEE_REG":"75","SIREN_EPCI":"200069599"},"geometry":{"type":"MultiPolygon","coordinates":[[[[0.088661368570995,44.63074932815635],[0.088796536808797,44.63025740673003],[0.089094306564455,44.62971931874161],[0.089637901787535,44.62928229538445],[0.090966548162292,44.62754255096367],[0.091267696060045,44.625031635344065],[0.090965987171106,44.62400931156551],[0.089693718332751,44.62116509289997],[0.089538332999703,44.620216886871475],[0.089159420915573,44.61917630954479],[0.088394019535591,44.61861021734054],[0.087797735016098,44.61799362333865],[0.087148512118884,44.6171080715761],[0.087039892956045,44.61547553179919],[0.086543548232343,44.614146273450366],[0.086514627304218,44.61333923151675],[0.086641382904297,44.612619174644344],[0.087097975274539,44.611153785784865],[0.088971008989015,44.6088780072211],[0.088954028755596,44.60757040061689],[0.089102650831211,44.60615725215149],[0.089309394854124,44.605865413001005],[0.089878960695888,44.60538494039778],[0.090768501644787,44.60427507849153],[0.090904339380705,44.60249764473956],[0.090619321654193,44.601887460467026],[0.089315278403114,44.60211165867348],[0.088954294712146,44.602094039423484],[0.088060652810577,44.60089035380993],[0.087149704515697,44.60021771493773],[0.08431454319702,44.599327637743166],[0.08261139598061,44.599297086163595],[0.079788559337495,44.59994860151136],[0.078612632904321,44.600303983269896],[0.077428155663724,44.600532104077786],[0.074391480147474,44.60175438554891],[0.072100903695918,44.60232611430331],[0.070035522227439,44.603101061059235],[0.068024242449628,44.603513453267304],[0.066906868176366,44.60370991297693],[0.066054942786989,44.603748551160585],[0.063847913293426,44.603535866886894],[0.062343265390165,44.603226505010554],[0.061903107018467,44.60402649064767],[0.061230257282738,44.60394373123139],[0.061960323146048,44.60619552506208],[0.063032481106378,44.607885251507724],[0.062878604576581,44.608079354298006],[0.059724371923737,44.60958280875605],[0.057373276952673,44.61048325963042],[0.055510741732674,44.61096245794189],[0.05495470947975,44.61064584283418],[0.05475978984259,44.611214509824606],[0.053066450150414,44.612557621959624],[0.051639308405331,44.61324656431121],[0.049650758412614,44.614540310618956],[0.048878987221862,44.61523680727311],[0.048560814012612,44.615941812189135],[0.047602196272098,44.616689165504795],[0.047363304055588,44.61677106953105],[0.047333051197713,44.617083770375906],[0.04769839306481,44.61776649566149],[0.047644467072287,44.61848306332267],[0.047951176335149,44.61908133952328],[0.04819001013168,44.61986788942085],[0.048471006459175,44.62004205937751],[0.048412425404289,44.6201972494543],[0.048696941796029,44.62052106042476],[0.049340504284481,44.62085355705453],[0.050146938829786,44.621689489940216],[0.050854405182571,44.62219935640774],[0.051183039559418,44.62230722370575],[0.052195727814219,44.621781095436475],[0.052663248741483,44.62178996168641],[0.053317824296544,44.62164705930328],[0.054025026096065,44.62114880470413],[0.054775670525787,44.62119493856507],[0.055448526738467,44.621039898716624],[0.055501726045255,44.6213737433581],[0.055385771718307,44.62265171494074],[0.055724795121801,44.623454429269174],[0.056217174074582,44.623784658184064],[0.056752393897119,44.623970982924604],[0.061245803097231,44.625033786848455],[0.061340680025574,44.62614169634526],[0.061904281538997,44.62730891370671],[0.063145921546763,44.627327500080334],[0.063332394897736,44.628009920912895],[0.062997319431785,44.628823526112186],[0.063070775404347,44.628963313617426],[0.0638031927046,44.62921610276626],[0.063881070102609,44.62941636650079],[0.063723383849024,44.63050585326032],[0.063487311029507,44.630750928859506],[0.063500115458883,44.63205485218746],[0.065617288121136,44.63333628456744],[0.066334419185886,44.63410215501288],[0.067259521988876,44.634799665904445],[0.067947362053974,44.63513502535809],[0.06870550894196,44.63533170660371],[0.069579070339178,44.6351287464447],[0.070403471831604,44.63875954722939],[0.071575650755756,44.63820142627684],[0.072613796524406,44.63738119023702],[0.073242048341682,44.63714017292133],[0.073591820724227,44.63711069512581],[0.075429055716768,44.637326882185704],[0.075884062720155,44.637311892739675],[0.077763898571804,44.63624450887929],[0.079264347999613,44.634778791658455],[0.081356342339023,44.63582411670352],[0.082143860378848,44.63611246882387],[0.082582953237379,44.63711142349427],[0.082856585138282,44.638187089433174],[0.083430523796203,44.638312141105324],[0.085079160675517,44.63951686080001],[0.085782114639798,44.63995340273311],[0.085992827612276,44.639953552021865],[0.086990719699764,44.63739432804274],[0.087602143652977,44.636354609022035],[0.087777795933321,44.63515296112167],[0.088391532428781,44.6330664815104],[0.088661368570995,44.63074932815635]]]]}}]}