{"type":"FeatureCollection","name":"COM_64448","crs":{"type":"name","properties":{"name":"urn:ogc:def:crs:OGC:1.3:CRS84"}},"features":[{"type":"Feature","properties":{"fid":4195,"ID":"COMMUNE_0000000009761067","NOM":"Poey-de-Lescar","NOM_M":"POEY-DE-LESCAR","INSEE_COM":"64448","STATUT":"Commune simple","POPULATION":1860,"INSEE_CAN":"11","INSEE_ARR":"3","INSEE_DEP":"64","INSEE_REG":"75","SIREN_EPCI":"200067254"},"geometry":{"type":"MultiPolygon","coordinates":[[[[-0.476318928169326,43.33481058486873],[-0.476535384467013,43.33416609649422],[-0.478466397258861,43.33666580056979],[-0.477666270091928,43.3375118659425],[-0.478080089552906,43.33770476012351],[-0.477511469833826,43.338401102661855],[-0.477285535929159,43.3383165222802],[-0.476766352981901,43.33899416180212],[-0.477070870231784,43.33913384588335],[-0.476979853271009,43.33926103741733],[-0.477397610626483,43.339478120750904],[-0.477553957067579,43.339370438670436],[-0.478825469294773,43.340302937439],[-0.479556106727927,43.340511746035965],[-0.479129276516065,43.341308889741946],[-0.478451111295127,43.341376634397676],[-0.477720747250072,43.34131548593287],[-0.476741811097696,43.34267516055967],[-0.477312646480432,43.342872915508174],[-0.477010609931699,43.3431833856847],[-0.478598385760946,43.343958044180845],[-0.479453880091028,43.34455814520622],[-0.478485268151029,43.34559873937948],[-0.479300139349451,43.34593451071715],[-0.479427016892323,43.345849385437575],[-0.481541147267098,43.34677725625963],[-0.482291133678403,43.34624343680505],[-0.483196843384665,43.346754548346446],[-0.482703690859552,43.34720986520491],[-0.482894807583815,43.347350486686516],[-0.481792993089815,43.348514266298636],[-0.481721820491701,43.348622814097105],[-0.481794569747219,43.34866279391878],[-0.48076877427253,43.34967643698421],[-0.480482267116233,43.34950916615781],[-0.478373115659703,43.35187234411782],[-0.477809268041929,43.35168967376563],[-0.476902634015699,43.351735937738916],[-0.475721912904383,43.3516775444276],[-0.474945578504931,43.35294244772921],[-0.475032434258809,43.35301169461389],[-0.474611550126306,43.35352138051369],[-0.474715178063774,43.35374587096696],[-0.472712989262875,43.3558632688716],[-0.47106472559918,43.3587157644012],[-0.469499581755698,43.35852646034516],[-0.469416732792918,43.35860565862296],[-0.469087687301812,43.35859280159073],[-0.467659348502854,43.36036752200305],[-0.466664677490817,43.360142773999094],[-0.466701970415136,43.36008574913597],[-0.465731859657409,43.359366745556315],[-0.46542560629089,43.35932253075462],[-0.46503718425552,43.35897928900628],[-0.465700088522692,43.358633877264005],[-0.464845549248436,43.35794808342846],[-0.464488611172768,43.3573895193237],[-0.463879838061787,43.35760892459316],[-0.462549506790905,43.35787574359755],[-0.461937730074719,43.358209593689025],[-0.461307148087505,43.35894925433608],[-0.461705077415848,43.359286801599595],[-0.461322343699212,43.359838434539306],[-0.461634076063951,43.360014855081374],[-0.461259692459304,43.361485603891126],[-0.460535522602166,43.361223327160026],[-0.459381947041875,43.362379519230366],[-0.459225015370357,43.36291041506774],[-0.458546386751507,43.36426932129078],[-0.458523198481895,43.364499683691896],[-0.457913820851854,43.3648955657239],[-0.457377001424265,43.365040593995644],[-0.457243723669515,43.36534921442835],[-0.457038829136021,43.365410692382234],[-0.456956377578148,43.36559972582139],[-0.456267225767705,43.36538672599068],[-0.456169322909287,43.3652772952051],[-0.453381788852174,43.36559595243477],[-0.453355374208191,43.36708977997076],[-0.449150460240056,43.36888621950592],[-0.450542614254456,43.37119025512159],[-0.448820128683588,43.37146940456983],[-0.448520915825548,43.37096657422573],[-0.448419294583793,43.37058891358094],[-0.447847847810539,43.37054859870862],[-0.447427445002628,43.37084564685989],[-0.446778667379695,43.372049543256125],[-0.446013473513682,43.3724845381112],[-0.445389333380852,43.37300778361161],[-0.44512430780254,43.37311707740067],[-0.442737742710864,43.375131775674035],[-0.442461005875297,43.37488034549103],[-0.441946606884586,43.37474183210717],[-0.441092351821768,43.37420441263718],[-0.437746025839934,43.373318488080095],[-0.436628448740398,43.37341432943184],[-0.435236084456132,43.37306324843791],[-0.434042824105266,43.372283510474496],[-0.432992231691316,43.37118407002419],[-0.431459758429963,43.370344835599774],[-0.430421142792119,43.36915494819791],[-0.429556259709512,43.36856015344178],[-0.434878223910668,43.363114569200235],[-0.436974167729284,43.36405020101033],[-0.438016983243359,43.36462757304719],[-0.438679177488209,43.364886566801765],[-0.44088946966632,43.365998585942705],[-0.44196253618278,43.364438153319995],[-0.44233639696893,43.36342493733723],[-0.442837299688308,43.36170891580183],[-0.442965757744547,43.36158686573063],[-0.443771460177627,43.359375787661754],[-0.444812653192278,43.35549135001609],[-0.445556861093414,43.35318317219832],[-0.448132716427783,43.34861767992151],[-0.449012924896287,43.34685352472795],[-0.44982259857118,43.345519330514165],[-0.451433647342586,43.34588482885651],[-0.452710086195176,43.3458548823505],[-0.453025990946171,43.346287820136695],[-0.45286009075052,43.346504725906804],[-0.453295605362284,43.346771760963634],[-0.453580017036749,43.3464736297515],[-0.454115267535522,43.346428618283504],[-0.454393252910276,43.3465376979422],[-0.454893598864053,43.345602342468766],[-0.455011031023839,43.34537977847553],[-0.454653014626016,43.34529396826799],[-0.455312244613908,43.344333724542466],[-0.455441499074365,43.34434940395793],[-0.455679910858492,43.34421031743092],[-0.455821192649362,43.343932962819096],[-0.45759387244876,43.34452462087266],[-0.457762227445945,43.344225687049516],[-0.458458226725076,43.34472119163466],[-0.459220798388741,43.343921500490005],[-0.459861265858681,43.34427289814068],[-0.459826698831747,43.34431362454528],[-0.460918557384686,43.34472350880227],[-0.461116546814482,43.34419940562575],[-0.461394078864184,43.34395189883432],[-0.461704266982345,43.34410405126367],[-0.46217554439671,43.34363152690294],[-0.462802859383028,43.343989631926355],[-0.463587831567826,43.343255824988425],[-0.462904710844813,43.34266719309145],[-0.463277815525016,43.341978095482354],[-0.463916046578772,43.34290763695831],[-0.46458820546663,43.34331382028919],[-0.466426636986723,43.34188078776287],[-0.466607209046253,43.34203167876748],[-0.467556450982689,43.340933289898295],[-0.468717053519215,43.3416038246954],[-0.469241392494996,43.34133757269306],[-0.469500993452804,43.34148952496178],[-0.470298830683688,43.34056165432855],[-0.471433666719526,43.340947540296305],[-0.471810282258038,43.34046180276774],[-0.471792490938066,43.33975731058429],[-0.474507864507471,43.33769175898627],[-0.4752414669456,43.336805535138964],[-0.476318928169326,43.33481058486873]]]]}}]}