{"type":"FeatureCollection","name":"COM_64209","crs":{"type":"name","properties":{"name":"urn:ogc:def:crs:OGC:1.3:CRS84"}},"features":[{"type":"Feature","properties":{"fid":4280,"ID":"COMMUNE_0000000009761830","NOM":"Escout","NOM_M":"ESCOUT","INSEE_COM":"64209","STATUT":"Commune simple","POPULATION":426,"INSEE_CAN":"15","INSEE_ARR":"2","INSEE_DEP":"64","INSEE_REG":"75","SIREN_EPCI":"200067262"},"geometry":{"type":"MultiPolygon","coordinates":[[[[-0.552951379278389,43.20581585811825],[-0.551953176875027,43.20753700143745],[-0.550858921703135,43.20917845969712],[-0.550217922554244,43.21054477254544],[-0.549572705633921,43.21130254154941],[-0.548921082663199,43.212436890096335],[-0.548667016294845,43.21266945044891],[-0.548364839584823,43.212439879694024],[-0.547312780892177,43.2120269724198],[-0.547409737336346,43.21192203774843],[-0.547393598139493,43.211759593823245],[-0.547126508146293,43.21168013556468],[-0.546910643742437,43.21149274392368],[-0.546316546313287,43.21142043284656],[-0.54556238109593,43.21146773152874],[-0.545200285219118,43.21134456963469],[-0.544672140531179,43.211424052477696],[-0.544285450221218,43.21126117722601],[-0.544133966568637,43.211320178483746],[-0.543807170545591,43.211791923899085],[-0.543606819290159,43.21185703165549],[-0.543543200354244,43.21180329587877],[-0.54361641727022,43.21149205027113],[-0.543209211164718,43.211436093473274],[-0.54294464555953,43.211277306175376],[-0.542633833367954,43.21120737666216],[-0.541911371022223,43.21112935232135],[-0.541264184685377,43.211475645981245],[-0.541085480418071,43.21149231675004],[-0.540830520235751,43.21126928015941],[-0.540719197341561,43.210819128115304],[-0.540362599207747,43.21040403799759],[-0.540212555524596,43.210406260723374],[-0.540211837554207,43.21053504256614],[-0.53971400441216,43.210627012523645],[-0.539304587832533,43.21055490656011],[-0.537791942828664,43.21021734741142],[-0.5365285983861,43.20966900425086],[-0.536262030472684,43.20857294620954],[-0.536047067637352,43.2059481142376],[-0.535667688712917,43.20598395999229],[-0.535379016570201,43.205169553771405],[-0.534663947667022,43.204788707142285],[-0.534477719193146,43.20444095188212],[-0.534580971232537,43.20417735300123],[-0.534004968943103,43.20413769943184],[-0.533371379705848,43.20382080534439],[-0.532504103088422,43.20294340956538],[-0.533061174297341,43.20237232031336],[-0.532233785864459,43.201200988733916],[-0.532267504562216,43.20096758218834],[-0.531897781430204,43.200979689033694],[-0.531256509098642,43.20045594538497],[-0.530405698531216,43.2000678135482],[-0.529013524109832,43.19984325300023],[-0.528376922801643,43.1974420222151],[-0.529545711546822,43.197456003803005],[-0.53061720029784,43.19775047897088],[-0.530861731640945,43.19774427502904],[-0.535134937096503,43.195697265387565],[-0.535377881092748,43.19564518283774],[-0.537120806617715,43.19422393902886],[-0.538030306647698,43.19480727602366],[-0.539854198794491,43.19627360129214],[-0.54024889379797,43.19640831168728],[-0.540948488737781,43.19713987946204],[-0.541353793706678,43.1977082300674],[-0.542532107989254,43.197395813958934],[-0.542520779546757,43.19717108623412],[-0.541929703443166,43.1964233587321],[-0.541659827933712,43.19593610170986],[-0.541346362611543,43.19188920948051],[-0.541064421878677,43.19158603022092],[-0.541158402296016,43.191332634798265],[-0.540294277876868,43.190786553914364],[-0.540889988748018,43.19002597283886],[-0.541512530813587,43.1888404223327],[-0.541310031638629,43.18832754583357],[-0.541259207370577,43.18701734425442],[-0.541397622340745,43.18660582208461],[-0.54128938916246,43.1861852923954],[-0.541737400030093,43.18600670804368],[-0.542092387453004,43.1861571188006],[-0.543263557732264,43.18619337588152],[-0.5436167162806,43.18521114950425],[-0.544783049453441,43.18396629179688],[-0.544706029724916,43.18365368693582],[-0.545664273370138,43.182908173227304],[-0.545468692726596,43.18268860611228],[-0.545991804440462,43.18209065332773],[-0.547766662378121,43.180739311798284],[-0.547259711167392,43.18043815296237],[-0.547192494040566,43.18030530583659],[-0.548336415530479,43.17959957887271],[-0.548074598514241,43.17928315402012],[-0.548787709475197,43.17881489382314],[-0.549186638951218,43.17837948073178],[-0.548456164376803,43.177944325043946],[-0.549432448791216,43.17695417771352],[-0.549545465276754,43.17677127996874],[-0.549348357146249,43.17650675208156],[-0.550184875686455,43.175585126273084],[-0.55104684312375,43.17461763625073],[-0.550915474650553,43.17444188554118],[-0.551998871291713,43.173614758170515],[-0.550731841391124,43.17261564755582],[-0.549805252782517,43.172311216875116],[-0.548435467031392,43.17128035091194],[-0.548165512586687,43.17067067266807],[-0.548908314331438,43.1699466259497],[-0.548646486780682,43.16936909583311],[-0.549077760759082,43.16817990063089],[-0.549052303871286,43.1676855290546],[-0.548531104469454,43.16707061924488],[-0.547487850811132,43.16632702689061],[-0.548036011311395,43.16589931429958],[-0.549339300956405,43.16575016661046],[-0.551291045787447,43.16588487176468],[-0.553361415398677,43.1662281220125],[-0.555118455143753,43.16625662863505],[-0.556521015002643,43.166501189228455],[-0.556666991230365,43.16637482134005],[-0.557936575579778,43.16609792639735],[-0.55835471079174,43.16645598404999],[-0.560484160882847,43.166220002224456],[-0.560986486253906,43.16600802634086],[-0.5616639134959,43.165503940156434],[-0.564194022640023,43.165323074638536],[-0.565201104544931,43.16543743608124],[-0.566523883091625,43.165724122835734],[-0.567977514065622,43.166197345581736],[-0.568456289638433,43.16626163274035],[-0.568994796564792,43.166237502824046],[-0.569752365607156,43.1663942979584],[-0.570582064592973,43.166424444886104],[-0.570780403801653,43.16710577441622],[-0.570979861042883,43.167387292941356],[-0.571468336379905,43.16774747504521],[-0.572118146744725,43.16783219155358],[-0.573547006476881,43.16774431837117],[-0.574826513677913,43.16780724274579],[-0.575405960299293,43.16792758752678],[-0.575811522222694,43.16814013505376],[-0.575879751404329,43.16850703395686],[-0.575726378304414,43.1689902312564],[-0.576094416479105,43.16939130516907],[-0.576155512999036,43.16972242512141],[-0.575979986670756,43.17080152045043],[-0.575592149711907,43.17174989698403],[-0.575600655595087,43.17220521616864],[-0.575850536967035,43.17252557379809],[-0.575280282342673,43.173091027996136],[-0.575040194629427,43.17318722855317],[-0.575246078742504,43.173631501029945],[-0.575573239193391,43.1740276318524],[-0.575825954934672,43.17415521075962],[-0.57547955232485,43.17483929764433],[-0.573710473746511,43.17750370816953],[-0.573603361746951,43.177820597864454],[-0.57285539974369,43.17905462427718],[-0.572733271076571,43.17958630647595],[-0.571499866398318,43.18170529587255],[-0.569137125502303,43.18496375162735],[-0.568381554447891,43.185838738460404],[-0.567372832612482,43.18654021301248],[-0.566682617703165,43.18745804567448],[-0.565790187076433,43.18950536560341],[-0.563664315478218,43.1926640274817],[-0.563541351427946,43.19388183933218],[-0.562712499790668,43.19423066812544],[-0.562679918061218,43.19471976529536],[-0.562175124527243,43.19517493754631],[-0.561963308503897,43.195731182045435],[-0.561486042132471,43.196014364321584],[-0.56102288717394,43.19656630050196],[-0.560306885474723,43.19698971932822],[-0.559279450733503,43.197332469785735],[-0.554035118968011,43.199847362042746],[-0.554765209364839,43.201250449439954],[-0.554793959550467,43.201457496293976],[-0.554649119200411,43.20168377009621],[-0.554724944997515,43.20217559569406],[-0.555003667959035,43.20256439085503],[-0.553982962227191,43.20439794481522],[-0.552951379278389,43.20581585811825]]]]}}]}