{"type":"FeatureCollection","name":"COM_23053","crs":{"type":"name","properties":{"name":"urn:ogc:def:crs:OGC:1.3:CRS84"}},"features":[{"type":"Feature","properties":{"fid":4044,"ID":"COMMUNE_0000000009751296","NOM":"Chard","NOM_M":"CHARD","INSEE_COM":"23053","STATUT":"Commune simple","POPULATION":206,"INSEE_CAN":"03","INSEE_ARR":"1","INSEE_DEP":"23","INSEE_REG":"75","SIREN_EPCI":"200067593"},"geometry":{"type":"MultiPolygon","coordinates":[[[[2.522776341599903,45.943412346140924],[2.522237997343917,45.94089135064341],[2.521048752742908,45.94035142171575],[2.51956548731548,45.938599947775685],[2.519512651974986,45.93785049961586],[2.518974850532315,45.93736013891232],[2.518592836572413,45.93735761405213],[2.518169254269766,45.937533211821105],[2.517670737933262,45.93697997643688],[2.517373028996022,45.9360466797996],[2.517084999849147,45.93577709922785],[2.517096638499156,45.93547998071973],[2.516351884352639,45.934899573614764],[2.515831274397795,45.934662314427676],[2.514965592320641,45.93462708956583],[2.514775233311504,45.934553332230884],[2.514503239972609,45.93437026269692],[2.513800354295773,45.93358380148139],[2.513279013896336,45.933577958353155],[2.513768997300731,45.93274979464013],[2.513754053372616,45.93239583006047],[2.514893389493251,45.93168751620981],[2.512045146947282,45.931692379948984],[2.511738595029011,45.93162532043454],[2.511492028562395,45.931488279277],[2.511482042994523,45.9313045321289],[2.511675967310754,45.93111986408954],[2.511689688358239,45.93088218866371],[2.511364210948519,45.93062143679179],[2.50848291925174,45.92985252964537],[2.507547773208563,45.9295125734673],[2.506392475000179,45.93012438933459],[2.504463368016969,45.93096513925848],[2.500850133605292,45.932794405329375],[2.50062119238709,45.93413245478842],[2.500243146758017,45.93526002646189],[2.499510328350799,45.93580069647067],[2.498633039547314,45.93689813811814],[2.498205407596781,45.936944870420476],[2.497907192500415,45.937236213826615],[2.49786952691252,45.937828582940014],[2.497224502996308,45.937794201348176],[2.498023324548607,45.94063885943326],[2.496316653876761,45.941378701252106],[2.495629655644298,45.941272083055104],[2.494784294400015,45.94126290960243],[2.494028713927709,45.94187818553656],[2.493448047015726,45.94087602066153],[2.491975945350898,45.940106689295234],[2.491146344599891,45.94048928182041],[2.490808800507572,45.94028154657625],[2.490311013995906,45.940373859636],[2.489103326451487,45.93976957423944],[2.489492815908405,45.93938501230644],[2.488026198520072,45.93803572434033],[2.488016781868418,45.93766016836119],[2.486615541543435,45.93747551925635],[2.486075709250404,45.937649569442875],[2.485394666871759,45.93760325016297],[2.484608514698155,45.937755461296206],[2.484087998952186,45.93793319205687],[2.482540509909985,45.93916613225374],[2.482495368156838,45.93861301141165],[2.482277105877136,45.93835266567665],[2.48222328008684,45.93803724018731],[2.481793417905488,45.93735808757039],[2.480813414487831,45.936303598688525],[2.480423276897505,45.935521064054214],[2.480379347684418,45.935115631836645],[2.479927223381322,45.93474884747015],[2.480233892675828,45.934254074129534],[2.479886868728527,45.9339652163008],[2.479589598893731,45.933328087936125],[2.478706329785366,45.9324280127305],[2.478587928103946,45.93239324776542],[2.477248250039501,45.93226639836278],[2.475780456842666,45.93231273858518],[2.475482708693137,45.93213846045236],[2.473199954426846,45.93252048013824],[2.472669715229917,45.93304120845273],[2.471034305108651,45.93360630201171],[2.470539380127599,45.93394077935833],[2.470040655394118,45.93453548504669],[2.470007750321603,45.935138674694265],[2.469805694266946,45.935481724225696],[2.468375078682679,45.93527689982101],[2.46704653075531,45.9349284558832],[2.466619472102142,45.93518128913524],[2.466293326910702,45.935275205891756],[2.465764075111531,45.93528531585048],[2.465274320675107,45.93548111573461],[2.463751614505938,45.93559007685562],[2.463313674823181,45.93576540200126],[2.462969662880923,45.935705236665],[2.462084012376575,45.935337222904664],[2.461548394410321,45.935338277757324],[2.460579211792596,45.93506711015697],[2.459934464222525,45.93501000424493],[2.459775052108425,45.93560448302498],[2.459234384286631,45.9357252711793],[2.458392094797285,45.936856791335224],[2.458137090094789,45.938113588681304],[2.457670692041349,45.938291457454305],[2.457183020375641,45.938270208681885],[2.456876670785783,45.93831646616276],[2.456325682576463,45.93856416354156],[2.455947404183337,45.9388361020102],[2.455166498823491,45.9397526708781],[2.454475748065929,45.941077602026944],[2.454764961005074,45.94185163687905],[2.455049317740201,45.941943057795704],[2.455185625297527,45.94212561788367],[2.455765635148689,45.94299470297154],[2.455789217887764,45.94335141997066],[2.456296529602485,45.94413370330899],[2.456920156224836,45.944117786473925],[2.459245915298561,45.945201433910846],[2.459071578366702,45.94547165556587],[2.45987097425718,45.945698800491165],[2.46035170360688,45.94828016497029],[2.461784260792337,45.949374806072214],[2.462784558879402,45.950320594476814],[2.464021217121428,45.951126112617025],[2.465925331447194,45.95206804400668],[2.465525886920752,45.952520918020156],[2.466405844418382,45.95270787341199],[2.466371537141709,45.9530508072653],[2.466843755611469,45.95308184867752],[2.468072664604774,45.95349916430372],[2.469933738838536,45.95396535443071],[2.470990350499869,45.953641609664],[2.471567439420796,45.953911757267],[2.472140070028374,45.9550517765305],[2.471701630243444,45.95553510779812],[2.471639175838725,45.955854498408314],[2.472107147508488,45.95606199843711],[2.472590437958394,45.95655773198032],[2.47254595293367,45.9567538365257],[2.472754157011918,45.95685386276565],[2.473201040160607,45.95656777900435],[2.472958722171392,45.95760404190493],[2.475076013325359,45.9569456983397],[2.475558175798942,45.95742790613262],[2.476100843300634,45.9582012573843],[2.477483609711957,45.95820764766554],[2.477848484990318,45.9581264839333],[2.478726127284261,45.9588446345442],[2.479347044784789,45.959541786665156],[2.479614114302688,45.960520070323135],[2.478543252710067,45.960840228258625],[2.477645936074881,45.961376399383575],[2.477833588669789,45.96174017146671],[2.477637904157618,45.961950889237386],[2.476602863337389,45.96257376644466],[2.47678962474405,45.9627592346822],[2.477610859577561,45.9630322798473],[2.478213718839314,45.96345830047894],[2.477857652879498,45.96369619532232],[2.477534578951114,45.96345066614644],[2.476896449490546,45.96374759042071],[2.476905691265112,45.96440590770841],[2.47625403893504,45.9639508380284],[2.475820810369208,45.96388309582389],[2.475830927684705,45.96458374139939],[2.476476680082193,45.96457322127119],[2.477440577457466,45.9649198685784],[2.477110640400237,45.96526054012752],[2.475656594794801,45.965804929714444],[2.47441272753845,45.966514169835854],[2.475331064064366,45.96798536366062],[2.475778932974139,45.96868893718511],[2.476344245135732,45.96913010241312],[2.478149777158555,45.969796712035546],[2.478885922862486,45.97020263107685],[2.479460273998722,45.96969198076134],[2.480432734565178,45.96914263187961],[2.481738670766449,45.96732507950041],[2.482399094108931,45.96713088815376],[2.483738004135513,45.96701813296796],[2.485068527665065,45.96890626104662],[2.484575727291559,45.970092694621286],[2.485972396447456,45.97002520118165],[2.485918492918689,45.97178725789277],[2.486083062131117,45.97269662114509],[2.48725712309679,45.972686634383116],[2.488033692250173,45.97292338031503],[2.48815590458229,45.9731139406859],[2.489742098620666,45.97350741820633],[2.489931927985094,45.97337049512605],[2.491816490278763,45.97390306518896],[2.492796437955046,45.97365711624524],[2.492912955066332,45.972925522456904],[2.493148975051029,45.97225930028932],[2.494364725983831,45.97248986293004],[2.494685549175371,45.97200952153935],[2.495416173383796,45.9720478993047],[2.495462841989712,45.97132409639711],[2.495768699540239,45.97134797147451],[2.495808808823883,45.97091680530378],[2.496760026415606,45.97098047020317],[2.496716567983284,45.97149626981831],[2.49699631907247,45.971550642915325],[2.497320329008466,45.97085958879404],[2.49773551651385,45.97079029070576],[2.497856408933564,45.96928787425535],[2.499465624338044,45.968706965252274],[2.499925838682068,45.96936547088036],[2.50024809088193,45.969574010986456],[2.500180579775827,45.969897896863145],[2.499978805651563,45.97007440668816],[2.499741869646768,45.970140898524704],[2.499913988770408,45.97052797784925],[2.503254711310205,45.9698384825329],[2.503581089473746,45.97030727869721],[2.504029568456361,45.97055508318037],[2.504497589720478,45.970640879517404],[2.503681031103648,45.967529642107],[2.503969550095035,45.96775603395792],[2.504096850505199,45.96738648175493],[2.503613219049685,45.96617047459004],[2.503192456178159,45.96557429233383],[2.503061714982031,45.96518019553045],[2.503135749021115,45.964846431030644],[2.503645215208184,45.96405351475868],[2.504748098958357,45.96289128264613],[2.505120256382625,45.96199870307489],[2.505673763157364,45.96161570259276],[2.508219614626906,45.96022109277367],[2.509446618274484,45.958730668507314],[2.510404169145714,45.957769466680595],[2.511582672417743,45.95693077918105],[2.5128373158363,45.95521621113299],[2.514308360650537,45.953987932914856],[2.514647640115628,45.953578755579805],[2.515547923040951,45.95206255147972],[2.516066061638205,45.950836472506005],[2.516382015278285,45.950874743674845],[2.516550782134188,45.95062062033822],[2.517636437315734,45.950921519363376],[2.518032159810109,45.95128611024644],[2.519374826821127,45.951429596814556],[2.521349345723593,45.95136141964607],[2.521543768820476,45.95097502257376],[2.521569515422835,45.950240315820935],[2.52108491676123,45.94970246360074],[2.52080205390248,45.94957069266024],[2.520053346610607,45.94897318448569],[2.519493405651473,45.94878800555962],[2.519851656576686,45.94811954674233],[2.519816874767601,45.94781502701919],[2.519515373940565,45.94745354383733],[2.521174616722115,45.944581646584076],[2.52146681879544,45.944378466724295],[2.522430390461496,45.94400972561118],[2.522776341599903,45.943412346140924]]]]}}]}