{"type":"FeatureCollection","name":"COM_33137","crs":{"type":"name","properties":{"name":"urn:ogc:def:crs:OGC:1.3:CRS84"}},"features":[{"type":"Feature","properties":{"fid":4095,"ID":"COMMUNE_0000000009757368","NOM":"Cours-les-Bains","NOM_M":"COURS-LES-BAINS","INSEE_COM":"33137","STATUT":"Commune simple","POPULATION":224,"INSEE_CAN":"29","INSEE_ARR":"3","INSEE_DEP":"33","INSEE_REG":"75","SIREN_EPCI":"200043982"},"geometry":{"type":"MultiPolygon","coordinates":[[[[-0.03606434661067,44.36098392850833],[-0.035534710543492,44.361691278771296],[-0.03549106761434,44.36228252384345],[-0.035278927153373,44.362611773468345],[-0.035301108338188,44.36316607033139],[-0.035581104071032,44.36375108874],[-0.034728943937425,44.364697044413354],[-0.034640729859846,44.36520664304111],[-0.034722897069484,44.36601331919335],[-0.034224981023396,44.366657631049215],[-0.033297998348322,44.36763806828896],[-0.032981076765757,44.36891877328762],[-0.033033482491843,44.369381254914856],[-0.033298480142532,44.37010812447898],[-0.033352372005152,44.37090297104905],[-0.033088577670462,44.371253458759746],[-0.03264349127336,44.37222871276046],[-0.031755308402579,44.37330265394675],[-0.03280778814722,44.373912338350486],[-0.031725204773075,44.374827686303114],[-0.03208275608217,44.3750781743642],[-0.033459269655221,44.37575729723447],[-0.031680719958688,44.377139540703006],[-0.030541866061175,44.378530263196204],[-0.030103348433236,44.37836307349727],[-0.029543686633808,44.37931174256572],[-0.029073179905564,44.38044802999316],[-0.029302393808457,44.38064711008919],[-0.029090624891084,44.38145467872905],[-0.028001750802254,44.38134051121691],[-0.027272828030469,44.38337662391168],[-0.02713740931798,44.38469646332583],[-0.027580760426247,44.38474192117577],[-0.027822061741436,44.385190203035016],[-0.027883409248015,44.38675956701506],[-0.026671023800173,44.3878847232796],[-0.025651290852541,44.389277521985576],[-0.025394507225941,44.38987913022425],[-0.023935872500985,44.38966608009882],[-0.020567109543088,44.386970511611224],[-0.01903411170483,44.385479362769686],[-0.018666515975188,44.38555880951516],[-0.018357524399986,44.386313169829954],[-0.01859927313088,44.38681821034044],[-0.016230228481491,44.38854248490536],[-0.01519277384932,44.388287149879424],[-0.014660706164409,44.388038682901595],[-0.01429365303981,44.38841176940108],[-0.014136978065817,44.38884305234293],[-0.013849760568804,44.389229265014464],[-0.012535345770906,44.39056784516563],[-0.012044108795091,44.39224331628197],[-0.010929565197751,44.392287321894734],[-0.010527986441081,44.39260278576085],[-0.009883013952439,44.39273573007152],[-0.009542010783996,44.39298557500055],[-0.008254096996702,44.393408136271304],[-0.007553001769343,44.393525484664885],[-0.006402429960228,44.393577634701565],[-0.005208550582418,44.39385526064689],[-0.003136383687052,44.394557705952685],[-0.001686265737931,44.395453042500556],[-0.00068726750089,44.39580547704416],[-8.1890929699e-05,44.39564361441069],[0.000666802231953,44.396025247233965],[0.002214075829517,44.39629800583096],[0.004308879455397,44.39633881856543],[0.00520007934744,44.39588022718481],[0.005968412212247,44.39574888882029],[0.006756616890043,44.39735577059172],[0.008129740266856,44.39647966592794],[0.008466296678639,44.39634017722628],[0.012373268400477,44.395302243460094],[0.012088073524779,44.39487382024422],[0.013839749946147,44.39396378404176],[0.015602647735787,44.39207754130913],[0.016191984293011,44.39167013508261],[0.016531217104961,44.39124063336102],[0.016557613628249,44.39093056758292],[0.017004543686228,44.39041210073376],[0.017387359689729,44.39032338520858],[0.018157566222992,44.389987530916976],[0.018461495783158,44.3897507428209],[0.018671863926106,44.38940602458338],[0.019280543890382,44.38824875036441],[0.019371140955441,44.387840433207586],[0.019339227540568,44.387468434166294],[0.018834012555551,44.38678094331185],[0.0177739060878,44.386254074473406],[0.016965737117546,44.38602408549323],[0.016015288761615,44.38551458415786],[0.015356866319934,44.38542286406546],[0.014483211887112,44.385529786446035],[0.014289996338464,44.38547770272378],[0.013311315586445,44.384694464718166],[0.013207846261372,44.38403676508302],[0.013019263693298,44.3837541964047],[0.012743929076755,44.38356836221418],[0.009312312207698,44.38304277272042],[0.00881682232993,44.38286355690346],[0.007327579342184,44.38195108098383],[0.009661527241631,44.38018947411829],[0.010293654677894,44.38006432037985],[0.011894063072353,44.37996545859484],[0.012892894175641,44.37972233114636],[0.015131553022924,44.37969119064328],[0.017508916191329,44.379268308288204],[0.024081105597413,44.3774644544651],[0.023565474923271,44.376426292348526],[0.023694528257145,44.376169449963555],[0.022988890024044,44.375711669753905],[0.021681292332885,44.37454487398572],[0.019888076774785,44.372583911983135],[0.01949245269804,44.37177328067841],[0.018937288758487,44.37196542687619],[0.018431503270068,44.37093381182518],[0.017927129064834,44.37030489293853],[0.016480364175422,44.36797041901556],[0.015750674871262,44.36825780492607],[0.014967114111907,44.3666610398852],[0.014027551338246,44.36657068679436],[0.013006632195909,44.36659432096453],[0.012404716509902,44.3666734636703],[0.0110826407576,44.3671447106457],[0.009742271751366,44.36708216676368],[0.009181780138338,44.36735158773074],[0.007906068653147,44.36739617379535],[0.007449378936678,44.367317093450396],[0.006496054678799,44.36746321466903],[0.005672194049125,44.36744079645017],[0.005187164247674,44.36751767635739],[0.004945264333814,44.36767503924844],[0.004205230661787,44.3678008233327],[0.003231638935145,44.36844811690404],[0.002648038827139,44.36870246359571],[0.002604420173941,44.371827095071154],[0.002214318790681,44.37241100465043],[0.001752294424432,44.37233716091568],[0.001188305601769,44.37241007151205],[-0.002568442272134,44.37303277985486],[-0.00271799027688,44.37215851084866],[-0.003541809175145,44.37189731028255],[-0.004134314879456,44.372389195652225],[-0.006787496659695,44.37261579832889],[-0.007904164524741,44.37257176647445],[-0.007873627328009,44.3715952138003],[-0.009108865587158,44.37085249628139],[-0.00979644050364,44.37067514646465],[-0.010391641318833,44.37083902733556],[-0.012379692803864,44.37204306225807],[-0.012665034260191,44.37181184675278],[-0.013069528480914,44.37164853249329],[-0.013577802688477,44.37114636851492],[-0.013890643070938,44.371125188415924],[-0.014308560997285,44.37128489622386],[-0.014705830832137,44.37093890712013],[-0.015164532892704,44.37115694841934],[-0.015653223421022,44.370594055186125],[-0.014945875555415,44.370022501427144],[-0.016767576970779,44.368221374217455],[-0.017159254757008,44.36760618385769],[-0.017674570775724,44.3670254354657],[-0.018403217605768,44.36634784929402],[-0.019945822607058,44.36551009331544],[-0.019932791499205,44.36519516388276],[-0.024100715927624,44.3639276277337],[-0.024585048803872,44.36392061933901],[-0.025276281077146,44.36411961285015],[-0.02581197266651,44.36356979262881],[-0.026387229776406,44.36192798587554],[-0.028039220122458,44.362459054936224],[-0.028351849568334,44.36177753515093],[-0.028395764954664,44.36114304812194],[-0.028811321009394,44.36020286022088],[-0.029518923328971,44.36035633407928],[-0.031104460107648,44.360701815032684],[-0.034511747744483,44.36111324487942],[-0.035031306135468,44.36115476356469],[-0.03606434661067,44.36098392850833]]]]}}]}