{"type":"FeatureCollection","name":"COM_17053","crs":{"type":"name","properties":{"name":"urn:ogc:def:crs:OGC:1.3:CRS84"}},"features":[{"type":"Feature","properties":{"fid":3955,"ID":"COMMUNE_0000000009751395","NOM":"Bords","NOM_M":"BORDS","INSEE_COM":"17053","STATUT":"Commune simple","POPULATION":1313,"INSEE_CAN":"18","INSEE_ARR":"5","INSEE_DEP":"17","INSEE_REG":"75","SIREN_EPCI":"200041689"},"geometry":{"type":"MultiPolygon","coordinates":[[[[-0.826130829675704,45.908490792366855],[-0.826210431794137,45.909636673472534],[-0.82500480903577,45.90964592531662],[-0.823019737666934,45.910315319738295],[-0.822403566584997,45.91057416778047],[-0.821683531827845,45.91101142443956],[-0.821411288960724,45.9114434550056],[-0.820915123961164,45.911440394309004],[-0.820261627654802,45.91036079192081],[-0.816158741997566,45.90946982456427],[-0.816377028100639,45.90892964103235],[-0.814298618994926,45.90877441355939],[-0.813284056768211,45.90906198102613],[-0.812526914118761,45.90907580263516],[-0.812512380985561,45.90914571168476],[-0.810912338753035,45.90907255348493],[-0.810859670909262,45.90879665419888],[-0.809229828322618,45.90866587717366],[-0.807985137055238,45.908072232579656],[-0.807604065825408,45.908089578425006],[-0.807139515102578,45.90800155007519],[-0.805611624369116,45.90745798889646],[-0.804944611601135,45.90808447688445],[-0.80415640772889,45.908284103929354],[-0.801419921691725,45.90718163650096],[-0.800026297199858,45.90687960599572],[-0.798150114649664,45.906639754563066],[-0.795960396957169,45.908895933046196],[-0.79511913108623,45.90935691937709],[-0.793480104029626,45.909223519902845],[-0.793231871167357,45.90925709375413],[-0.792863760080339,45.90912520170773],[-0.792216802338928,45.90912617435837],[-0.790559218908741,45.90872289624301],[-0.790468590169051,45.90922628537943],[-0.789450823255007,45.910032122199624],[-0.788111737598711,45.90939635319355],[-0.785512326017615,45.90945729658146],[-0.784504403523118,45.90935491802017],[-0.784060389844989,45.909302169240235],[-0.783319834268311,45.9088617714722],[-0.782672676696284,45.908822127611955],[-0.780590956415812,45.90916223410107],[-0.779628939671904,45.90950272906525],[-0.778646750385499,45.909436400659004],[-0.778262924065416,45.90935727601512],[-0.778184821451376,45.90872701657249],[-0.777596505693142,45.908340093195065],[-0.776792478657071,45.90746273415768],[-0.777140228623845,45.90622504100926],[-0.775595949906528,45.90628475253866],[-0.774678727960426,45.9065813380959],[-0.773868368215835,45.9064398141995],[-0.773647909787596,45.905992808024834],[-0.773428154300943,45.90583877266557],[-0.770826475050438,45.904543572656834],[-0.770095301408048,45.904407494728844],[-0.769572711220401,45.904186924760616],[-0.769169362729573,45.90382173884975],[-0.768900725188264,45.903349286247],[-0.768047988900461,45.90266281546479],[-0.765638154380702,45.90241317979895],[-0.764918456148293,45.90244436961088],[-0.764457180719835,45.9025913566432],[-0.763966743798575,45.90259507026269],[-0.761462818288685,45.90314181341985],[-0.761048776958308,45.9034134261064],[-0.760848768432329,45.90337771065251],[-0.760458031704763,45.903574621316054],[-0.759916251742718,45.90394243419602],[-0.760052887644538,45.904033449068365],[-0.759391949707921,45.90430154924747],[-0.759274083666929,45.90408820486597],[-0.758941239320199,45.90382791978102],[-0.757757693676044,45.90347692219959],[-0.756744908076328,45.9026757909927],[-0.75563048989957,45.90205021792265],[-0.752433108535022,45.9006445919045],[-0.750960914234929,45.90183657844169],[-0.749697281357181,45.90235631073653],[-0.747995640443884,45.902872524416416],[-0.747274314753881,45.90299380615193],[-0.747295958772982,45.9030652091185],[-0.747087906704498,45.90311988711135],[-0.746108955469543,45.903269535568285],[-0.740946086579207,45.903759677661334],[-0.73918931284664,45.9036366107903],[-0.738964109432761,45.90191678140455],[-0.738649287935876,45.90093103564742],[-0.739380933181111,45.89961136936532],[-0.739464527008316,45.89911187502118],[-0.739338409997082,45.89850933642947],[-0.739713383198884,45.8978514519506],[-0.740994456660531,45.8959916184795],[-0.741409735474339,45.895832727731204],[-0.741271489851576,45.89554611891371],[-0.742281800798253,45.89489062702972],[-0.742561960882159,45.89508058120216],[-0.742762822811995,45.89497746755789],[-0.743043300321681,45.89513405440188],[-0.743237053129762,45.89500232720247],[-0.743500518920274,45.89426247856902],[-0.743465208614847,45.89343877088222],[-0.743759783567415,45.893365906314635],[-0.743857297294022,45.89318598044086],[-0.744287184431765,45.892862520089494],[-0.744214830597618,45.892747721829956],[-0.744289565275063,45.89265058732505],[-0.745475811894942,45.89179270552872],[-0.745960563797776,45.89123212625323],[-0.74600653546159,45.89078796238471],[-0.747345673659963,45.88967346927458],[-0.747836396275975,45.88948590690135],[-0.748002665666463,45.88919731825263],[-0.747992730886266,45.88882352206265],[-0.747683692514703,45.887943083304954],[-0.747778698248131,45.8861702724771],[-0.747482755441882,45.885558048639666],[-0.747119261788609,45.88545200722189],[-0.747414570286638,45.88444153950932],[-0.747376030467947,45.88355212851291],[-0.747578118114928,45.88316408761668],[-0.748480407328344,45.883448780439245],[-0.74967875911734,45.88362627771819],[-0.750415262424276,45.88365592177939],[-0.755519984245952,45.88326908600057],[-0.757794192823071,45.88322772275038],[-0.764976086628493,45.884148865103086],[-0.766809303884748,45.884132834752734],[-0.769123059464451,45.88391412973996],[-0.776407473872802,45.88378356504618],[-0.778408626143508,45.883524631656215],[-0.779795310011908,45.88313386415097],[-0.782295778367144,45.88210087182686],[-0.78408841762862,45.88126913359231],[-0.784919852312303,45.880951890505045],[-0.787132757059819,45.88037647881446],[-0.790735790945853,45.87998878218974],[-0.794259924604558,45.879805562463886],[-0.795733112252592,45.87984893100937],[-0.797253675115127,45.8800178043786],[-0.799738691302634,45.88015241904579],[-0.800947500698418,45.880329925806684],[-0.803055650346212,45.88093242426918],[-0.805820737102907,45.88155152196577],[-0.807199361999664,45.88194411998117],[-0.809261582218677,45.88286990514415],[-0.811027303751286,45.88381918038385],[-0.813472982095768,45.88571373856359],[-0.815166025227922,45.88732623996824],[-0.817210077920912,45.889568761705455],[-0.818547141760658,45.891276188176576],[-0.818872760441483,45.89185749950275],[-0.819275418122034,45.89308441836791],[-0.819733095512608,45.89510464114871],[-0.81996754542994,45.896884483998605],[-0.819983708206191,45.899445233585595],[-0.820071931643248,45.899935397765695],[-0.820416331088321,45.900786536411566],[-0.821268744918833,45.902296659104586],[-0.823245612490277,45.90478749383851],[-0.823495272251536,45.905258672181546],[-0.82362641071622,45.9057897559809],[-0.823731971462383,45.907291772306536],[-0.823914573335826,45.90765252517856],[-0.824174477441269,45.907954766274834],[-0.824922617363548,45.908369407071206],[-0.825454784512825,45.908482121447086],[-0.826130829675704,45.908490792366855]]]]}}]}