{"type":"FeatureCollection","name":"COM_17086","crs":{"type":"name","properties":{"name":"urn:ogc:def:crs:OGC:1.3:CRS84"}},"features":[{"type":"Feature","properties":{"fid":4087,"ID":"COMMUNE_0000000009752177","NOM":"Chaniers","NOM_M":"CHANIERS","INSEE_COM":"17086","STATUT":"Commune simple","POPULATION":3634,"INSEE_CAN":"02","INSEE_ARR":"4","INSEE_DEP":"17","INSEE_REG":"75","SIREN_EPCI":"200036473"},"geometry":{"type":"MultiPolygon","coordinates":[[[[-0.513047370163269,45.75217943791614],[-0.513387028393545,45.75172987944885],[-0.513570927513166,45.75047122870771],[-0.512863860831677,45.750204825310746],[-0.512400258879961,45.74987945259835],[-0.512717495552255,45.74889517504975],[-0.512298139999746,45.74738220796734],[-0.51233400747857,45.74711608469776],[-0.512757427511636,45.74676937860574],[-0.512704588644682,45.74662680465381],[-0.512905826402574,45.745721857132345],[-0.513523739142688,45.74491118450536],[-0.513403399091628,45.74449669569716],[-0.512945601031421,45.74436313965476],[-0.513068706039817,45.743970807831175],[-0.513361874091633,45.74339830679923],[-0.514337104774131,45.742356552371525],[-0.513366810038608,45.741087015318044],[-0.513060561505463,45.74044125932516],[-0.512940290335877,45.73919749937824],[-0.512495125676286,45.73786471496268],[-0.511980661507699,45.73679819329074],[-0.511728442765729,45.73655637157053],[-0.511001998478351,45.73616437345689],[-0.510094492148788,45.735394024131374],[-0.509866137001088,45.73538581355411],[-0.509344748510345,45.735648128116175],[-0.509738262965179,45.73521673191136],[-0.509837157223586,45.734726907825674],[-0.509593790374292,45.733468953947856],[-0.509893736137889,45.732962952509],[-0.51088122315657,45.73213627246225],[-0.511008373601598,45.73180781456906],[-0.511537477210116,45.731120701434094],[-0.512386554538161,45.73036502195707],[-0.513001504277826,45.73007723992924],[-0.513575271573959,45.72966815099892],[-0.513636547097486,45.72885049207509],[-0.5137097229002,45.72874635426788],[-0.514226844524395,45.728600427986485],[-0.514335083841745,45.727934538084575],[-0.514800637695638,45.727524310338325],[-0.515469427289003,45.72719337046677],[-0.51605160857509,45.72651268952371],[-0.516574559853762,45.72639811803987],[-0.516783580751675,45.72606259001221],[-0.517078520260144,45.725924485982105],[-0.517331886159903,45.72555782691392],[-0.517470758828664,45.72500995869146],[-0.517857833495633,45.72476261288298],[-0.518311611337192,45.72424907792661],[-0.518562451292895,45.724166429647305],[-0.518805246465487,45.72383615214249],[-0.518900209729057,45.723185092807284],[-0.51925047463358,45.72280458550892],[-0.519219497728319,45.72249998478189],[-0.519322592878686,45.72225970092412],[-0.519815077032615,45.72166743094438],[-0.520246195446621,45.721465571712024],[-0.520408315241238,45.721263103112214],[-0.520436634827654,45.720818738142995],[-0.520205043629695,45.72039511436687],[-0.52021284457146,45.72007307724029],[-0.520662377583992,45.719837289444904],[-0.521462517754191,45.718499867747546],[-0.521236617773267,45.71800395771585],[-0.52121907435553,45.71758716605893],[-0.520900685945578,45.71731588657312],[-0.52096858460312,45.717109150598446],[-0.521257287872041,45.716470060257734],[-0.521549337933166,45.716105786003126],[-0.521959444537578,45.71605961341761],[-0.522367649082682,45.71574128118325],[-0.522254699690199,45.715543804622264],[-0.522457751962344,45.71515617037893],[-0.522379086678129,45.71489091956496],[-0.522649187237585,45.71446513294942],[-0.522563299086361,45.71408653392173],[-0.522360611820478,45.71381344353235],[-0.522580292379852,45.71372725214873],[-0.522553418633697,45.713345906254354],[-0.52302594349023,45.71300753182635],[-0.523158508581631,45.71167564837886],[-0.523336835382814,45.71150601870501],[-0.523567502585375,45.71078490767821],[-0.523757187279903,45.71063204819351],[-0.52368005988006,45.71045148027912],[-0.523923212839203,45.71018878176466],[-0.523944836585589,45.709700456891234],[-0.524385529916478,45.70934774799398],[-0.524838650549496,45.70852412603066],[-0.525186103489679,45.70745592866939],[-0.525136561965928,45.70708250363845],[-0.525856732899768,45.70713838125969],[-0.526695426624648,45.70709589775983],[-0.527780870248764,45.7068879370881],[-0.529469026697796,45.70636722799107],[-0.531570962718197,45.70598044469417],[-0.532103669474557,45.705981767289245],[-0.532983081507819,45.70611372990035],[-0.534490646711125,45.706472053599256],[-0.535558671098842,45.706817114828596],[-0.537685367306593,45.70723978910281],[-0.541336264048995,45.70773619784502],[-0.542539847942796,45.70774612157561],[-0.543825107740179,45.70764529540482],[-0.544178771680303,45.707502563497776],[-0.544408279399554,45.706928364600806],[-0.544979756274294,45.706530891845446],[-0.545729932652955,45.70659290959088],[-0.546199182441614,45.706788160517824],[-0.548133522886117,45.707740407285584],[-0.548913818792586,45.708251252179636],[-0.549891821550385,45.708735128886985],[-0.550849772041646,45.70938728967689],[-0.551182103829583,45.709733765344225],[-0.551529066368739,45.710207777268764],[-0.5517451926254,45.710848165663755],[-0.551747384463248,45.71144301894156],[-0.55140863624805,45.71307982116468],[-0.551543252852552,45.713412699459866],[-0.551917156315964,45.71350457041716],[-0.552379540923241,45.71351162253051],[-0.554287861864221,45.71313322907429],[-0.555144775593707,45.7130926653011],[-0.557436060355971,45.71338719404441],[-0.558973776492671,45.71380824893174],[-0.559616885932811,45.71414398123463],[-0.56024844696055,45.714599961616244],[-0.561888299400436,45.716465403622145],[-0.563101952069258,45.717406847005634],[-0.564573109553115,45.718249990298425],[-0.56627179613225,45.71892906848638],[-0.567251558661531,45.719195511109575],[-0.571063095387583,45.719930185277754],[-0.572676378041375,45.720440610718626],[-0.574614681351465,45.72141935003195],[-0.575336884548913,45.721542460316186],[-0.576777864837003,45.721417394719005],[-0.577123993876027,45.72131716496721],[-0.577618952321712,45.72103102407625],[-0.577978215824141,45.72053735897357],[-0.578058136785946,45.71938642212381],[-0.578195197108002,45.71901879978201],[-0.578588985039419,45.71862138806076],[-0.578971936059536,45.71845417916561],[-0.579431982280753,45.71838457597841],[-0.580839102476706,45.71853275822031],[-0.581953186142413,45.71880562223194],[-0.582759762999407,45.71915856632349],[-0.583938408119213,45.7198710512926],[-0.584766656946466,45.72059737976452],[-0.587360396201091,45.72173713472681],[-0.587981182977874,45.72227984907924],[-0.588204834499935,45.72263239123018],[-0.588218977774481,45.72322687604607],[-0.58769335620175,45.72401162324191],[-0.586885219946094,45.72450879647217],[-0.585302540624902,45.72512886906571],[-0.585022367585691,45.72537305423422],[-0.584885852111541,45.72604624850216],[-0.585016778545495,45.72675510223123],[-0.585351995558707,45.72718072042828],[-0.585951283807415,45.72749066480108],[-0.588110398674426,45.72807635317018],[-0.59132955820631,45.72847497658105],[-0.592110929818738,45.728734014750195],[-0.592597237330931,45.72900786505803],[-0.594223844177336,45.72963655985901],[-0.595734947720517,45.72993358976328],[-0.596404284312764,45.72999335496089],[-0.597361554070065,45.7299285414985],[-0.598414679089882,45.72953704774801],[-0.598903454148985,45.72917619146885],[-0.599751138730655,45.72819991271231],[-0.600203030714174,45.72798445637009],[-0.600642408017144,45.727932555770636],[-0.600975374510512,45.72796608407524],[-0.601516645530593,45.7281939705954],[-0.602782459440002,45.72942721434399],[-0.603947387425017,45.730119211624874],[-0.602995158461228,45.731228671796295],[-0.60162895124195,45.73092440098206],[-0.601598709957833,45.731586111829984],[-0.601776871759095,45.73167326357426],[-0.601869333993094,45.73265736796155],[-0.601270785309503,45.734158441600094],[-0.601472799719551,45.73520394759381],[-0.601457788771595,45.735625392693265],[-0.601277644977729,45.73604129831318],[-0.600619471778494,45.736568931454784],[-0.60055889512056,45.73670608068365],[-0.60024669365465,45.736794479708],[-0.599590018015472,45.73681185254258],[-0.598603266387301,45.73717689526538],[-0.598252683501359,45.7372097246191],[-0.597553230861336,45.73708422370088],[-0.596323888295475,45.73672864132604],[-0.593998268636648,45.73647922852205],[-0.592337116753725,45.73803486446743],[-0.592159666682949,45.73811714186656],[-0.591316630691101,45.73804034879429],[-0.59037373293475,45.73779365878293],[-0.589732340193443,45.73778885275472],[-0.588887978769988,45.73794915702556],[-0.588098278451326,45.73849532407816],[-0.587552005211654,45.7387263523713],[-0.586063883427642,45.73878633754883],[-0.584684406942883,45.74105672525961],[-0.584107248201586,45.74154652303713],[-0.585479813475829,45.74176787900597],[-0.58595166714232,45.741659118432814],[-0.586312916095071,45.74133392986544],[-0.586500312619985,45.74126576838924],[-0.588866611033848,45.74108857628595],[-0.588806817111766,45.74276441454398],[-0.589121905545592,45.74341331735967],[-0.589222840372348,45.74387703778219],[-0.589077969840587,45.74570972867737],[-0.590013685206035,45.74576466022705],[-0.589955755282657,45.74584402753354],[-0.589593630787745,45.74633421517888],[-0.589210932313052,45.74660691328557],[-0.587594182268862,45.74728667673396],[-0.588322206397695,45.750229167692815],[-0.588009617772225,45.75035269749781],[-0.586864791266173,45.750965140921544],[-0.585162644092945,45.752474181657895],[-0.582632031807535,45.75628019484813],[-0.581174217418713,45.755742400271004],[-0.579418808152981,45.7553213062474],[-0.579277490410061,45.755465512734865],[-0.578430744265648,45.7558917221176],[-0.577364004821426,45.756301469689575],[-0.576547836898598,45.756742919119134],[-0.575927979081816,45.75691492265196],[-0.574401206198272,45.7575195154324],[-0.572775470638473,45.75848598456652],[-0.571874372778591,45.758212566892595],[-0.570491922692337,45.758022896345175],[-0.570024522181507,45.758103502222156],[-0.567508373952949,45.75874383326053],[-0.563443124557919,45.7605445172997],[-0.562425608478897,45.760682139726086],[-0.561640142742751,45.7609034638934],[-0.560335066230614,45.76107539085576],[-0.560175606789844,45.761638396096046],[-0.560348062743715,45.76199621604502],[-0.559859083392029,45.76178270049005],[-0.558862615513871,45.760548589754784],[-0.557984139393815,45.75986601232015],[-0.558198626063251,45.759677159231224],[-0.55802580236526,45.75939326339588],[-0.558070791064413,45.759152070161925],[-0.557585964311746,45.75888252779656],[-0.556760113302665,45.75893653030202],[-0.556229788365391,45.75888024744012],[-0.554363645144506,45.7583775277298],[-0.554064009600774,45.75802370994571],[-0.553707455293869,45.75810616116576],[-0.55367444182608,45.75763306488282],[-0.553426634470669,45.75678364412283],[-0.552950301923456,45.75654536450538],[-0.551838563450961,45.7562982605111],[-0.551525458794159,45.75567444130431],[-0.551542991847362,45.7549257269951],[-0.551319828638181,45.75451901535301],[-0.550763330838015,45.754094860506555],[-0.550220258012933,45.7541399093266],[-0.548188887443468,45.753086135515154],[-0.547618333246344,45.75252269221049],[-0.547207546507921,45.75161980023371],[-0.546856088038436,45.75123965356747],[-0.546261525366927,45.75112405285607],[-0.545196379023499,45.751239586122196],[-0.545026472937075,45.75116019864052],[-0.544843611503531,45.75075851849874],[-0.545128169476733,45.75021684375481],[-0.54515838151586,45.74988508105606],[-0.544875033502813,45.74960284173964],[-0.544209458964792,45.74844023949291],[-0.544254784354088,45.74828377415136],[-0.544093365879088,45.74781471576259],[-0.543789175319453,45.74746822915761],[-0.543022397361429,45.74709572151936],[-0.542823888081893,45.74687120438938],[-0.542583127195182,45.74638931467847],[-0.542545873852901,45.745868578006224],[-0.541294169048101,45.74612515011199],[-0.541055758441902,45.746282272213485],[-0.540928219656515,45.74746620395287],[-0.539074651401468,45.74721163755202],[-0.538278088907355,45.74727811085333],[-0.537059212304755,45.74766610841989],[-0.535875562335473,45.748343235258844],[-0.53393421990096,45.74893053229233],[-0.532946011897904,45.74952397898602],[-0.532455045915018,45.75042363031461],[-0.531989451272799,45.75075370716987],[-0.530077924312379,45.750963219223955],[-0.529026629597124,45.75087264852579],[-0.526243343605975,45.75104087981859],[-0.523611676650889,45.7515071678339],[-0.522167888220876,45.751561305521115],[-0.520362702063555,45.75226849738374],[-0.517944245563421,45.75272799093208],[-0.516710776488649,45.753315421329425],[-0.516394357182007,45.75328022340425],[-0.515237740352126,45.75272859765689],[-0.513047370163269,45.75217943791614]]]]}}]}