{"type":"FeatureCollection","features":[{"type":"Feature","properties":{"fid":193,"ID":"COMMUNE_0000000009755409","NOM":"Saint-Sulpice-et-Cameyrac","NOM_M":"SAINT-SULPICE-ET-CAMEYRAC","INSEE_COM":"33483","STATUT":"Commune simple","POPULATION":4879,"INSEE_CAN":"26","INSEE_ARR":"2","INSEE_DEP":"33","INSEE_REG":"75","SIREN_EPCI":"243301249"},"geometry":{"type":"MultiPolygon","coordinates":[[[[-0.352379083276993,44.89871026948371],[-0.351651877829125,44.89863489863102],[-0.350982634458875,44.898468559004236],[-0.350985713382159,44.897543877027196],[-0.35031074126948,44.897047882798766],[-0.350946566347622,44.89644294154065],[-0.350514822653119,44.89624059460215],[-0.351170212532599,44.89541157417906],[-0.349827906601819,44.89488615548264],[-0.34989250513463,44.89431197140072],[-0.349103306461277,44.89400415550898],[-0.349937806758116,44.892926427056146],[-0.350323967446813,44.88960662793319],[-0.350408779665204,44.88958334170658],[-0.357278250370111,44.888013252298784],[-0.359205322878182,44.88784771668948],[-0.36547078626114,44.887605674961726],[-0.369019515497761,44.887129453903924],[-0.369113429185811,44.887173464190845],[-0.37023748884618,44.88704111585786],[-0.371156001036665,44.88671584084484],[-0.372490664462463,44.88681858579705],[-0.373257155281433,44.88698003553744],[-0.373153537071321,44.88770231525729],[-0.373569822918148,44.888026701476775],[-0.37402619037124,44.88783710385947],[-0.374830370501122,44.88729719057086],[-0.37683791675863,44.88632145335141],[-0.377308349406157,44.886239553929734],[-0.379168802172496,44.88463292358673],[-0.380167360520741,44.884017661698536],[-0.380844833071798,44.88331214064135],[-0.384970923009371,44.88148678168625],[-0.387193357007638,44.882586000911715],[-0.388716835214475,44.882709821839555],[-0.389078434555001,44.88282044016349],[-0.389620945097422,44.88332385163127],[-0.390129593944893,44.88471414921074],[-0.392601984655084,44.884241193386124],[-0.394113302577929,44.884121095034985],[-0.39500895100817,44.883902655328534],[-0.396873455620288,44.883628428757724],[-0.39812674820572,44.88332962720171],[-0.399407835344262,44.88317595079166],[-0.400291091087557,44.882920898669816],[-0.401911186641467,44.88265136925074],[-0.403174426458366,44.88216205549012],[-0.405071384651591,44.88179747650993],[-0.406106861820997,44.8815241891647],[-0.406779223395285,44.88151256613896],[-0.408033860252956,44.88171736948667],[-0.408523918514853,44.88173025814406],[-0.40901618158834,44.88159167823643],[-0.409569851527601,44.88125385072808],[-0.409743594867404,44.881463896195996],[-0.410341553253255,44.8816879436743],[-0.410830413890352,44.88197301641884],[-0.410903642243552,44.88378214590654],[-0.411571602640013,44.88734563102117],[-0.411243896471225,44.887793678137264],[-0.411106999574198,44.88816917332788],[-0.411068104578293,44.88863447909796],[-0.411172923424324,44.88921162183555],[-0.410872534214809,44.889692172152536],[-0.411090337051638,44.89016761433932],[-0.411327083781794,44.89028740674433],[-0.411368524451592,44.89040599106661],[-0.411176462376432,44.89087510267261],[-0.411495199715435,44.892384708947525],[-0.411103137483152,44.89285906509082],[-0.411072091638192,44.89305737893099],[-0.41109304253384,44.895882858645535],[-0.410637454291958,44.89666827193431],[-0.408711996917993,44.898762285209514],[-0.408108959388079,44.90125365582385],[-0.407824557417022,44.90131014798274],[-0.407546977613514,44.901499805781576],[-0.407369261915165,44.90210184575832],[-0.407409457102903,44.902304280677384],[-0.407632779402785,44.902390249561655],[-0.407448139750964,44.90244007412609],[-0.407094551427358,44.90277715437036],[-0.407022343647423,44.90344624892624],[-0.406773632897995,44.90352687617708],[-0.406579410171664,44.90371127015756],[-0.40682772386493,44.90391633208928],[-0.40698472433781,44.90468473429682],[-0.407336552724078,44.90502810577721],[-0.407366080341475,44.90586890980041],[-0.407568387941905,44.9062348927161],[-0.407778722489632,44.90702508912609],[-0.408167054486366,44.90778098457613],[-0.408572710756612,44.90996923979968],[-0.408518741852006,44.910604433192326],[-0.408641749411578,44.91087552077272],[-0.408581197533329,44.911318962787504],[-0.408687944709556,44.911656336451095],[-0.408609378826384,44.91255453178137],[-0.408735838894008,44.91273629566378],[-0.409147150430413,44.912847133333145],[-0.409290022895607,44.91300676425538],[-0.409337166732758,44.91378214423296],[-0.409423203701027,44.9146131055327],[-0.409691204609549,44.91530780779948],[-0.409398793169199,44.91540059568437],[-0.409375843946388,44.916107835008575],[-0.408863533636016,44.91746543618946],[-0.408776669108584,44.91803945837699],[-0.409093773446017,44.91803963863281],[-0.408683020174011,44.91933644547274],[-0.40832858057591,44.92003673523916],[-0.407916437496863,44.92035128126955],[-0.407407955108458,44.92093823781753],[-0.406216921628101,44.920938721789],[-0.40586774683411,44.92109992841718],[-0.404930650446427,44.922733681960025],[-0.403553897580724,44.92308138072887],[-0.403000991792487,44.92308390227432],[-0.402039171057458,44.92322511280312],[-0.398110921835566,44.927352045775564],[-0.395793094812079,44.929297398077786],[-0.3956725677544,44.92931820493293],[-0.395195124432036,44.9291642757198],[-0.394788512567738,44.92896492292697],[-0.39142932317734,44.92781307502654],[-0.39144228748432,44.92691599844429],[-0.391659803305476,44.92573060537083],[-0.392211784819359,44.924873844445386],[-0.393558004798721,44.92326556075034],[-0.395565624417876,44.920557419767405],[-0.39226023467488,44.920160965484435],[-0.39139565268457,44.92029460871246],[-0.390813980439957,44.92053405913555],[-0.390370075797345,44.921164020020434],[-0.388404359916172,44.92095995713472],[-0.387752920658199,44.92098974123426],[-0.387510579497703,44.92088358341072],[-0.387215382510246,44.92051138568035],[-0.387471072136439,44.92008273553083],[-0.387371755179228,44.91967752873362],[-0.386737925830689,44.9192426613816],[-0.385599115006283,44.918216689733285],[-0.384657921057356,44.91769024826293],[-0.384348511467705,44.917838458679824],[-0.382813411126846,44.91720122922447],[-0.3809038536307,44.916179761854835],[-0.379917188746602,44.915444692697875],[-0.38044433732159,44.91486901733216],[-0.380774348610233,44.91432637582148],[-0.381125779220316,44.91407596397689],[-0.381441400444948,44.91367344097319],[-0.381539260795483,44.91323519232693],[-0.381307291672698,44.91308995614287],[-0.379239298295464,44.91288795405061],[-0.378557128596775,44.912679810186035],[-0.377986771751931,44.91232767789216],[-0.376234135872096,44.912117830791246],[-0.376060598977261,44.911784264610404],[-0.371301697022444,44.91080416928777],[-0.368978662016964,44.91091431806708],[-0.369721359714843,44.911434290049385],[-0.370515617903465,44.91253755358645],[-0.370589074384431,44.91316884850131],[-0.370453049994923,44.9140074626534],[-0.36899051333979,44.913686863636606],[-0.368182565936827,44.91336892470876],[-0.36801288581644,44.913119940307965],[-0.366338395702848,44.91288053241526],[-0.3663552028277,44.91324499703597],[-0.366205739363383,44.91341714514152],[-0.365564990895741,44.91326444098676],[-0.364838142256258,44.9129449220262],[-0.363781219564675,44.91236594704462],[-0.363875359519407,44.911884574822395],[-0.363562855753133,44.91174895193758],[-0.363561950914825,44.91186072427986],[-0.363391685422028,44.91170727531129],[-0.363013033503061,44.91156824727233],[-0.362631863178519,44.91123914775648],[-0.36249602072377,44.91070796701328],[-0.362244009725955,44.910438938629106],[-0.361922697999392,44.909331218488646],[-0.361889175527612,44.909068191310745],[-0.3620083850035,44.908750976128545],[-0.361844748989435,44.908454039072375],[-0.362519912407033,44.90664387944959],[-0.363175017233656,44.905366912520314],[-0.363425973537886,44.90521692710084],[-0.363789392476507,44.90480670171113],[-0.363896346088477,44.90413749931229],[-0.363829011952541,44.90379709574347],[-0.364006048870595,44.90351417308824],[-0.363863411120344,44.90310215530495],[-0.364002258897694,44.902816784900764],[-0.363926461192313,44.902652365433184],[-0.364090135701543,44.90235813227526],[-0.364234282269368,44.90228797981456],[-0.364328238516311,44.90203641108745],[-0.362775013960675,44.90155087290254],[-0.362334665065941,44.90152365579981],[-0.362021658029578,44.901399761259476],[-0.361752513157735,44.90158453869422],[-0.361394782340557,44.901539496665094],[-0.360999118845762,44.90168664864802],[-0.360805442562075,44.90167088300665],[-0.359390132779518,44.9010738857974],[-0.358137395033203,44.90065038511207],[-0.357897595706626,44.90013946870752],[-0.35697010736384,44.899535799438254],[-0.356323674991008,44.900153713560556],[-0.355478298075667,44.89975661968978],[-0.353925947188252,44.89917721524519],[-0.353281454357274,44.899128193397864],[-0.353009512411844,44.89877864546345],[-0.35264334409133,44.89852836639465],[-0.352379083276993,44.89871026948371]]]]}},{"type":"Feature","properties":{"fid":1264,"ID":"COMMUNE_0000000009755410","NOM":"Saint-Loubès","NOM_M":"SAINT-LOUBES","INSEE_COM":"33433","STATUT":"Commune simple","POPULATION":10057,"INSEE_CAN":"26","INSEE_ARR":"2","INSEE_DEP":"33","INSEE_REG":"75","SIREN_EPCI":"243301249"},"geometry":{"type":"MultiPolygon","coordinates":[[[[-0.399498889603857,44.94718629879877],[-0.397059817209719,44.946537229278476],[-0.39377450506785,44.945429114922064],[-0.39177824102181,44.94444107900684],[-0.390837206962905,44.94384166919024],[-0.386629705953391,44.941452965894115],[-0.383433090750455,44.939136072466475],[-0.384493650880478,44.938040371569606],[-0.385505740240235,44.936710025818044],[-0.38642568225216,44.934527252870886],[-0.387265461221845,44.93211080501931],[-0.387505175877846,44.931689851463034],[-0.387512426837339,44.93128499789195],[-0.387735156029908,44.93110788190284],[-0.388121043835317,44.93096454047503],[-0.388457068515468,44.93094077395778],[-0.388844483361281,44.931032593008524],[-0.389163968158617,44.93096607194744],[-0.389486608109975,44.93028033846551],[-0.390500495506511,44.92999075836587],[-0.391452304699072,44.92926238334589],[-0.391580403239271,44.9286537758878],[-0.39142932317734,44.92781307502654],[-0.394788512567738,44.92896492292697],[-0.395195124432036,44.9291642757198],[-0.3956725677544,44.92931820493293],[-0.395793094812079,44.929297398077786],[-0.398110921835566,44.927352045775564],[-0.402039171057458,44.92322511280312],[-0.403000991792487,44.92308390227432],[-0.403553897580724,44.92308138072887],[-0.404930650446427,44.922733681960025],[-0.40586774683411,44.92109992841718],[-0.406216921628101,44.920938721789],[-0.407407955108458,44.92093823781753],[-0.407916437496863,44.92035128126955],[-0.40832858057591,44.92003673523916],[-0.408683020174011,44.91933644547274],[-0.409093773446017,44.91803963863281],[-0.408776669108584,44.91803945837699],[-0.408863533636016,44.91746543618946],[-0.409375843946388,44.916107835008575],[-0.409398793169199,44.91540059568437],[-0.409691204609549,44.91530780779948],[-0.409423203701027,44.9146131055327],[-0.409337166732758,44.91378214423296],[-0.409290022895607,44.91300676425538],[-0.409147150430413,44.912847133333145],[-0.408735838894008,44.91273629566378],[-0.408609378826384,44.91255453178137],[-0.408687944709556,44.911656336451095],[-0.408581197533329,44.911318962787504],[-0.408641749411578,44.91087552077272],[-0.408518741852006,44.910604433192326],[-0.408572710756612,44.90996923979968],[-0.408167054486366,44.90778098457613],[-0.407778722489632,44.90702508912609],[-0.407568387941905,44.9062348927161],[-0.407366080341475,44.90586890980041],[-0.407336552724078,44.90502810577721],[-0.40698472433781,44.90468473429682],[-0.40682772386493,44.90391633208928],[-0.406579410171664,44.90371127015756],[-0.406773632897995,44.90352687617708],[-0.407022343647423,44.90344624892624],[-0.407094551427358,44.90277715437036],[-0.407448139750964,44.90244007412609],[-0.407632779402785,44.902390249561655],[-0.408255357066543,44.90213953580437],[-0.408790211364625,44.90175993809403],[-0.409507458016444,44.90141889528336],[-0.410115694890897,44.900911772180876],[-0.411441609104021,44.90013386895984],[-0.412336043393615,44.89982971853248],[-0.413839971029785,44.89901927833893],[-0.415707581256617,44.898747355010926],[-0.416212686314023,44.89860925263184],[-0.416658344417714,44.89832788549102],[-0.416833798288254,44.89796110841265],[-0.417228278264187,44.89767230187677],[-0.417700446170189,44.897618115740165],[-0.418327116925398,44.89708244033788],[-0.419027877192578,44.896868007401615],[-0.419296536634994,44.8966785940204],[-0.420430212255211,44.896411165755076],[-0.420716897637919,44.89660059549505],[-0.422036974733199,44.89670771080572],[-0.423010505607139,44.896953465128405],[-0.423716728894096,44.896891135413696],[-0.424267873136777,44.89703004472072],[-0.425245292110592,44.897069286367284],[-0.425933476713272,44.89689845440523],[-0.426831812287587,44.89713748423792],[-0.427776889233994,44.89704162133284],[-0.427942945516715,44.89708245537703],[-0.428042195335613,44.897295678083914],[-0.428953540562299,44.89729096638753],[-0.429170732045102,44.89679941431901],[-0.429851421259715,44.89648549878676],[-0.430925509014115,44.896198173871454],[-0.431555671152744,44.895866883708095],[-0.432687853230327,44.895990494375525],[-0.433367743007648,44.89568469197155],[-0.433699610642419,44.89524455654325],[-0.433993636873203,44.895139034073566],[-0.435801287292217,44.893808810267714],[-0.436626565518128,44.89366250549039],[-0.439715702036241,44.893425347117585],[-0.441504435216228,44.89404220777071],[-0.441948289120192,44.89352737905048],[-0.442702732885861,44.89309483980004],[-0.443177617579261,44.892920599280735],[-0.443480554502869,44.892692210885855],[-0.443865066565639,44.89216119044575],[-0.444129135313893,44.89138246970207],[-0.448891702858123,44.89157977160962],[-0.450048004689209,44.89191063290475],[-0.45142251221463,44.89282048323396],[-0.452496357220685,44.893232288997154],[-0.451849582973282,44.894197767742575],[-0.455006054417173,44.89569201593804],[-0.455217521170912,44.896119817838276],[-0.455408801269828,44.89630221748076],[-0.456117364088529,44.896525291259714],[-0.456938911531304,44.896668239819434],[-0.457555935272944,44.89690767318434],[-0.459381954454572,44.89709592046308],[-0.46118108933506,44.89771125002751],[-0.461320839977,44.89769517743572],[-0.461550606803968,44.89747352515702],[-0.462985247787673,44.897996550734014],[-0.463517802368058,44.898058344109906],[-0.46338223340942,44.89960004522346],[-0.46262686416486,44.902460629632564],[-0.461457349067115,44.90376961060384],[-0.45882513023612,44.906427306320595],[-0.45837720959128,44.90718385825056],[-0.45828884030064,44.90766335284241],[-0.458085529504385,44.90773907797619],[-0.457853391464333,44.908067139181355],[-0.45538604643476,44.91180106816398],[-0.455304539879298,44.9120631538856],[-0.455885003789057,44.913888075733155],[-0.45551973609271,44.914958369224166],[-0.455511178416112,44.916157251735285],[-0.455625444443839,44.91628257023033],[-0.455479369310603,44.91654666528151],[-0.457906156204589,44.91733449888261],[-0.46010803394305,44.917456980173256],[-0.461291775837861,44.91774994088555],[-0.462897121187099,44.91835869001963],[-0.464129329083539,44.919107029262186],[-0.46504691074818,44.919094628119446],[-0.465370133531363,44.91900884109907],[-0.46656630342823,44.91892735286205],[-0.466456175937648,44.919649063818575],[-0.465837054939171,44.91942145055309],[-0.464251323929762,44.92247739569942],[-0.464202292134448,44.92268981077942],[-0.465258215451009,44.922862351562905],[-0.464346802079284,44.92418673912421],[-0.464268084251481,44.92521208131741],[-0.464695706368152,44.92693810365431],[-0.4646210401069,44.92718736760606],[-0.464078241712237,44.92768284541277],[-0.463868192929811,44.92802014429181],[-0.464769445194104,44.92862379468382],[-0.465523589623679,44.92963847992878],[-0.465980997112395,44.93010095704009],[-0.467690017798046,44.93102545089666],[-0.468037608012297,44.93155803928184],[-0.467904674263932,44.93176766865989],[-0.465874084627349,44.93302966830251],[-0.465311548397052,44.93355550778162],[-0.465165691227558,44.93390522653593],[-0.464708792407792,44.933779786969716],[-0.463587616364105,44.93631204082421],[-0.464008549722026,44.936389039662636],[-0.46357966620285,44.93959184765254],[-0.463395121498315,44.93993195520022],[-0.463932510031625,44.94004497900398],[-0.464225279729967,44.9420717216459],[-0.46397337880107,44.94212283406893],[-0.464086435693524,44.942596959539316],[-0.464328299013854,44.942609245764444],[-0.46435545795185,44.94290490266019],[-0.463888805242497,44.94420369988272],[-0.463702282257412,44.94504585322321],[-0.463140681952183,44.94495250703531],[-0.462520890808346,44.94498534067271],[-0.461842826166625,44.94510199796794],[-0.461787465312922,44.9452740545119],[-0.461774046948096,44.94550879142169],[-0.461986449226334,44.945701345050225],[-0.462976049942937,44.94596430858066],[-0.463123058632474,44.94639231608001],[-0.463045511894118,44.94686246988153],[-0.462700747769542,44.947321123903855],[-0.461363883979879,44.94794947336607],[-0.460716100796333,44.94843378115151],[-0.459932044331566,44.94921883145689],[-0.458799899552628,44.949793008909516],[-0.459701531891212,44.95196033035779],[-0.45826146239015,44.95256391378735],[-0.457346380179953,44.952851939381326],[-0.454995619471661,44.9532395750469],[-0.453358845348613,44.95013796746299],[-0.451718274985946,44.945364696092454],[-0.450542678112446,44.94263626401132],[-0.449301287824389,44.940259540710166],[-0.448022323227482,44.938734724060595],[-0.446923616140219,44.937684651799444],[-0.444772093415355,44.93630853498683],[-0.442957948116819,44.93558972519769],[-0.441142963065202,44.93514578347741],[-0.440021807613048,44.93500837283465],[-0.439252453880341,44.9350006499802],[-0.435508715789543,44.93577346435016],[-0.433032558984557,44.93667281099405],[-0.429123066496764,44.938638318611716],[-0.425544562806189,44.94014828112021],[-0.424457129133662,44.94070900795857],[-0.422804067881624,44.9414205278976],[-0.421774516989684,44.941953309047484],[-0.417167997035224,44.94471577496235],[-0.413870707779837,44.946353677199255],[-0.412184207372008,44.94702099837855],[-0.409339889187848,44.94780673198542],[-0.407247272131837,44.94787001371688],[-0.40251417270408,44.947647348780585],[-0.399982788467257,44.94731838917998],[-0.399498889603857,44.94718629879877]]]]}},{"type":"Feature","properties":{"fid":2171,"ID":"COMMUNE_0000000009755412","NOM":"Yvrac","NOM_M":"YVRAC","INSEE_COM":"33554","STATUT":"Commune simple","POPULATION":2901,"INSEE_CAN":"17","INSEE_ARR":"2","INSEE_DEP":"33","INSEE_REG":"75","SIREN_EPCI":"243301249"},"geometry":{"type":"MultiPolygon","coordinates":[[[[-0.459589606084362,44.86469464220221],[-0.466823097110863,44.86560169166631],[-0.468771105673571,44.86564715447963],[-0.472003579396013,44.865561377353714],[-0.472892595214233,44.86551102601176],[-0.472868103518909,44.865852449903905],[-0.471453001178631,44.8670881294353],[-0.470469545406034,44.868091296718084],[-0.470167334887026,44.86924978994825],[-0.470698181306013,44.86937017212607],[-0.472247699033998,44.870141799759146],[-0.473569213909552,44.87058709600782],[-0.476065102486564,44.871576879962646],[-0.479777869846156,44.871995842200334],[-0.483101084193083,44.87271259533201],[-0.485824287854773,44.8736031097895],[-0.48933381427775,44.87433726165493],[-0.492150696413499,44.875630231680546],[-0.495548056274898,44.87616765180072],[-0.496773326745461,44.87681218142308],[-0.496393180944882,44.878258007464105],[-0.496707589959521,44.87854370406805],[-0.495680773058206,44.87931505487325],[-0.495148118464672,44.88038896739841],[-0.495245449475156,44.88050666651557],[-0.494719723959803,44.881305484812785],[-0.494057146136193,44.88261419598352],[-0.492769723888152,44.88321257455203],[-0.490158938855042,44.8842608116031],[-0.489220527822482,44.88341973308992],[-0.488676249821612,44.88335122538021],[-0.489677566930775,44.88186156940493],[-0.48825009661688,44.881737011170785],[-0.487679470392274,44.88197844636739],[-0.48723650901992,44.88205094392951],[-0.485447013592786,44.882587503759645],[-0.483413221169565,44.882334121182026],[-0.482331885975332,44.882353633003234],[-0.481428416154005,44.88246128225325],[-0.48086615786005,44.88324675507367],[-0.479846224888842,44.88380685004316],[-0.478842963794483,44.8847178877168],[-0.478453253265924,44.88522036383504],[-0.478402684391732,44.88657197377168],[-0.476732584446054,44.88889536590023],[-0.475890176130697,44.888660393810305],[-0.474358750347183,44.88960234382191],[-0.474725136242686,44.890216321052506],[-0.475103453299881,44.89137065489898],[-0.47162107927437,44.89166255958883],[-0.471607905207868,44.89155212192729],[-0.470996215689855,44.891542410344016],[-0.470285568699321,44.89124469616551],[-0.469456433063226,44.89112191186338],[-0.468191904595914,44.89291789342803],[-0.467456052694201,44.8935455949267],[-0.466435475103986,44.89420290984232],[-0.466262389449794,44.8951771201286],[-0.466621136267257,44.8956273408455],[-0.466728228847635,44.89600611211901],[-0.466971385790965,44.89628871045095],[-0.467029561801273,44.89657348030343],[-0.46733565988305,44.89701272646563],[-0.467071250678243,44.89765814358468],[-0.467410333823698,44.898466759763345],[-0.467112591966616,44.89879869353526],[-0.466659156742792,44.898745261242766],[-0.465347363951272,44.89881595284285],[-0.465096661431225,44.898616497955445],[-0.464146185729277,44.89817302031765],[-0.463628074154671,44.898160346115894],[-0.463517802368058,44.898058344109906],[-0.462985247787673,44.897996550734014],[-0.461550606803968,44.89747352515702],[-0.461320839977,44.89769517743572],[-0.46118108933506,44.89771125002751],[-0.459381954454572,44.89709592046308],[-0.457555935272944,44.89690767318434],[-0.456938911531304,44.896668239819434],[-0.456117364088529,44.896525291259714],[-0.455408801269828,44.89630221748076],[-0.455217521170912,44.896119817838276],[-0.455006054417173,44.89569201593804],[-0.451849582973282,44.894197767742575],[-0.452496357220685,44.893232288997154],[-0.45142251221463,44.89282048323396],[-0.450048004689209,44.89191063290475],[-0.448891702858123,44.89157977160962],[-0.444129135313893,44.89138246970207],[-0.444366036236301,44.8906775886609],[-0.444949596667314,44.889796128469825],[-0.445719516220504,44.88928648443584],[-0.446168918947938,44.888821932384374],[-0.447230293055572,44.88798059790796],[-0.446943558071614,44.886615167239064],[-0.447484626526784,44.88518798165772],[-0.447953714396854,44.884487596173784],[-0.448854012841524,44.88379093385963],[-0.449957914484918,44.8827157385588],[-0.450769600872222,44.882186733932535],[-0.451264393568514,44.880648315869756],[-0.451178981097651,44.87991919471345],[-0.451382256156465,44.87939107716713],[-0.451380896558098,44.87807085722655],[-0.449401391161001,44.87784941955487],[-0.448956911296939,44.877526183607436],[-0.448850767694279,44.877222172430834],[-0.448849564033979,44.87637778443355],[-0.448941901240825,44.876168539955835],[-0.448860691472716,44.87470300771412],[-0.449243595153396,44.87128276869424],[-0.449389353489996,44.8662937062332],[-0.451971326676312,44.86560330137129],[-0.456733512852359,44.864759322150846],[-0.458030588454251,44.864647711920966],[-0.459589606084362,44.86469464220221]]]]}},{"type":"Feature","properties":{"fid":2607,"ID":"COMMUNE_0000000009755633","NOM":"Beychac-et-Caillau","NOM_M":"BEYCHAC-ET-CAILLAU","INSEE_COM":"33049","STATUT":"Commune simple","POPULATION":2608,"INSEE_CAN":"26","INSEE_ARR":"2","INSEE_DEP":"33","INSEE_REG":"75","SIREN_EPCI":"243301249"},"geometry":{"type":"MultiPolygon","coordinates":[[[[-0.331345295547645,44.86998582748372],[-0.332878545673649,44.868469126818574],[-0.333220970001331,44.867727114926545],[-0.335263823618853,44.86740981063703],[-0.335441197906611,44.86743061256965],[-0.335777658844277,44.86784673966437],[-0.336282404494421,44.86738459889527],[-0.33717436406159,44.866913515091085],[-0.337308651721988,44.86678511878147],[-0.337301231966266,44.8666177292441],[-0.338248188178262,44.8661981497755],[-0.339295276966242,44.86503390710813],[-0.34012030508064,44.86429086445667],[-0.340571665208755,44.8636780162643],[-0.341089966413683,44.863253291901906],[-0.341809159072115,44.86288289157362],[-0.343296968114178,44.862483022184],[-0.344497017184867,44.86225130895336],[-0.344922542999445,44.862056450703136],[-0.34509445505281,44.861900776851556],[-0.344794148598062,44.86162416662958],[-0.345197536265214,44.8614831421328],[-0.34531406098769,44.86122730824297],[-0.345666463018184,44.86127255402211],[-0.345919271499469,44.861071184520476],[-0.346114560032287,44.8610526793903],[-0.346339769664868,44.86117475148747],[-0.346603347421347,44.86119653984763],[-0.347184587213306,44.86085099016763],[-0.347160713389047,44.86059938933715],[-0.347391859783852,44.86035361241488],[-0.347482870622184,44.8600525872186],[-0.347709544026607,44.85996554630242],[-0.347574293841415,44.8598434664405],[-0.347756670092172,44.85962979906541],[-0.348138030115631,44.85960837929621],[-0.348345660227806,44.85945702909061],[-0.34857924562288,44.859528379552074],[-0.348644596651982,44.85943449027667],[-0.348957528819605,44.85939170298147],[-0.349098692377355,44.85923064253749],[-0.349453979562126,44.85917576155692],[-0.349732095711694,44.8589105385194],[-0.350812350087186,44.85890225083748],[-0.351880535080006,44.85828874568764],[-0.352110404616945,44.857873580946865],[-0.353365330438723,44.85686602359234],[-0.353360683703757,44.856767037716956],[-0.353627449672631,44.85673644585442],[-0.353964758099941,44.85646581765057],[-0.35452339795785,44.8562948321327],[-0.355024942634544,44.85601653124345],[-0.355197309219663,44.85605998083085],[-0.355433384625189,44.856279029795296],[-0.356414906999285,44.85572216843161],[-0.357081167129827,44.855190157342605],[-0.357496478780747,44.85499555747343],[-0.357719509494244,44.855102352651876],[-0.358002167201719,44.855062257523215],[-0.358120073355735,44.8549577599617],[-0.358198317064938,44.85423266928099],[-0.35858410018623,44.853904687519496],[-0.358731140426935,44.85363079219698],[-0.359001332823517,44.85361540273209],[-0.359057915069606,44.85352357456282],[-0.359120007145946,44.85312158389015],[-0.358952837786101,44.852974351013366],[-0.359164849812806,44.85262189015465],[-0.359643743948661,44.852558726608436],[-0.359799630032209,44.852369269960874],[-0.360605249784708,44.85200783870522],[-0.360864560666842,44.852466779340546],[-0.361858390043504,44.8526673621841],[-0.363559873249641,44.85336644848222],[-0.364023546555768,44.85362003208762],[-0.36478364143203,44.85446479213128],[-0.365441311701285,44.85480530535884],[-0.366411938860538,44.85510387781133],[-0.369309225325525,44.856979546126624],[-0.371142576152133,44.85771867604883],[-0.372365636786094,44.85814740607522],[-0.373190883252743,44.858217842319455],[-0.374977350064905,44.858533891260144],[-0.376263205833789,44.858952559311454],[-0.379517609048359,44.859511328485176],[-0.379789921362022,44.8599094578983],[-0.380935591332827,44.860061094184196],[-0.381328844503734,44.86032126170817],[-0.382470424996536,44.8603837919893],[-0.382618511997288,44.86088573144931],[-0.384141443313739,44.86094743234423],[-0.38535838331877,44.86194394569209],[-0.38585293013966,44.86176123898205],[-0.386777712370973,44.86163208487697],[-0.387551397948727,44.86233751043354],[-0.389122275636383,44.863423209273826],[-0.389938087829872,44.864573411912595],[-0.390400277018749,44.86496661920563],[-0.390653351133286,44.86496068877056],[-0.391980339634341,44.86362334997547],[-0.39585992438384,44.863994022054875],[-0.397001281567169,44.86403027862939],[-0.396791254984182,44.863428417442556],[-0.396683041627892,44.86224759107479],[-0.401496341842185,44.86259578523679],[-0.402823516979051,44.86256230129614],[-0.404020023305965,44.86244269275756],[-0.405853940976988,44.86370213245814],[-0.406185560235188,44.864009167152524],[-0.406440093423116,44.86404821458294],[-0.407181194268217,44.863669495916234],[-0.409020736252119,44.863767997564],[-0.409709655085037,44.863615257871615],[-0.410968198062042,44.86349456947345],[-0.411399895513251,44.863258706865224],[-0.412916586817768,44.86352838032757],[-0.412972494313365,44.86323918446465],[-0.413330238709988,44.86312093972259],[-0.413698081515381,44.86341872814091],[-0.413928429472885,44.86451829030183],[-0.413604129043567,44.86493650209846],[-0.41306422241782,44.865289250388884],[-0.41181636574391,44.867024546911885],[-0.411792412448875,44.86727671258539],[-0.412141283471699,44.86828341817755],[-0.411485547748526,44.86933723294993],[-0.410857660053053,44.8698071238549],[-0.410635764688926,44.87234896455103],[-0.410358406283642,44.87489611529629],[-0.409829011398553,44.87550716142402],[-0.410143351785355,44.87667534766367],[-0.410118325039079,44.87697260546804],[-0.409854141200416,44.877422301486],[-0.409807121710437,44.87769139708905],[-0.409328036414019,44.87798367873202],[-0.409186543499356,44.87832506701062],[-0.409610383279809,44.87954306220117],[-0.409569851527601,44.88125385072808],[-0.40901618158834,44.88159167823643],[-0.408523918514853,44.88173025814406],[-0.408033860252956,44.88171736948667],[-0.406779223395285,44.88151256613896],[-0.406106861820997,44.8815241891647],[-0.405071384651591,44.88179747650993],[-0.403174426458366,44.88216205549012],[-0.401911186641467,44.88265136925074],[-0.400291091087557,44.882920898669816],[-0.399407835344262,44.88317595079166],[-0.39812674820572,44.88332962720171],[-0.396873455620288,44.883628428757724],[-0.39500895100817,44.883902655328534],[-0.394113302577929,44.884121095034985],[-0.392601984655084,44.884241193386124],[-0.390129593944893,44.88471414921074],[-0.389620945097422,44.88332385163127],[-0.389078434555001,44.88282044016349],[-0.388716835214475,44.882709821839555],[-0.387193357007638,44.882586000911715],[-0.384970923009371,44.88148678168625],[-0.380844833071798,44.88331214064135],[-0.380167360520741,44.884017661698536],[-0.379168802172496,44.88463292358673],[-0.377308349406157,44.886239553929734],[-0.37683791675863,44.88632145335141],[-0.374830370501122,44.88729719057086],[-0.37402619037124,44.88783710385947],[-0.373569822918148,44.888026701476775],[-0.373153537071321,44.88770231525729],[-0.373257155281433,44.88698003553744],[-0.372490664462463,44.88681858579705],[-0.371156001036665,44.88671584084484],[-0.37023748884618,44.88704111585786],[-0.369113429185811,44.887173464190845],[-0.369019515497761,44.887129453903924],[-0.36547078626114,44.887605674961726],[-0.359205322878182,44.88784771668948],[-0.357278250370111,44.888013252298784],[-0.350408779665204,44.88958334170658],[-0.350214604035479,44.88845464638841],[-0.348085026759163,44.88769163485169],[-0.347604579378948,44.88603448333748],[-0.34755399377841,44.88531418464049],[-0.346952796114205,44.881993541615515],[-0.344952387045189,44.8822016311669],[-0.345220503790227,44.88140504349724],[-0.345223316672815,44.881112084510164],[-0.343300324842967,44.88142775214211],[-0.343153067152676,44.88125375974206],[-0.342700567885608,44.881189888878694],[-0.342459341603829,44.88022571358866],[-0.342513153997738,44.878958878994354],[-0.342430250037198,44.878652281360935],[-0.340683849212172,44.875780633476346],[-0.339139087445593,44.87459074658264],[-0.335533859958602,44.87312575846555],[-0.335917445378922,44.87275647479363],[-0.335518899401155,44.87251162766558],[-0.335036880355086,44.87203499028177],[-0.334762351066838,44.871829668753165],[-0.333199248636249,44.87107370850083],[-0.331345295547645,44.86998582748372]]]]}},{"type":"Feature","properties":{"fid":3574,"ID":"COMMUNE_0000000009755411","NOM":"Montussan","NOM_M":"MONTUSSAN","INSEE_COM":"33293","STATUT":"Commune simple","POPULATION":3506,"INSEE_CAN":"17","INSEE_ARR":"2","INSEE_DEP":"33","INSEE_REG":"75","SIREN_EPCI":"243301249"},"geometry":{"type":"MultiPolygon","coordinates":[[[[-0.410635764688926,44.87234896455103],[-0.412144609693313,44.872464795851165],[-0.413029159381272,44.87244300269318],[-0.413081315131254,44.872217004333486],[-0.41333168374462,44.87216604722645],[-0.418860837557904,44.87264019461035],[-0.419871074149686,44.87310021386992],[-0.420738768083149,44.873259116147835],[-0.423145119605956,44.87352286303362],[-0.423099470422819,44.87312774867236],[-0.424421614170197,44.87298692756323],[-0.425264368089545,44.87134599066715],[-0.425514721759649,44.87129500610636],[-0.426856037602922,44.87153116078754],[-0.427046135886648,44.87115760548231],[-0.429619493197863,44.86984167404185],[-0.429854394149762,44.869206284956434],[-0.432002018731513,44.86911645451022],[-0.433259095320093,44.8689496001685],[-0.434258892961316,44.86869967357424],[-0.436816221827829,44.86826452880893],[-0.437029403253103,44.8684760147568],[-0.438636217025928,44.869529296275765],[-0.440055851297298,44.87073255053315],[-0.445064701745078,44.86834400062122],[-0.447424491436915,44.86768583685795],[-0.446895698753543,44.86720570397277],[-0.449389353489996,44.8662937062332],[-0.449243595153396,44.87128276869424],[-0.448860691472716,44.87470300771412],[-0.448941901240825,44.876168539955835],[-0.448849564033979,44.87637778443355],[-0.448850767694279,44.877222172430834],[-0.448956911296939,44.877526183607436],[-0.449401391161001,44.87784941955487],[-0.451380896558098,44.87807085722655],[-0.451382256156465,44.87939107716713],[-0.451178981097651,44.87991919471345],[-0.451264393568514,44.880648315869756],[-0.450769600872222,44.882186733932535],[-0.449957914484918,44.8827157385588],[-0.448854012841524,44.88379093385963],[-0.447953714396854,44.884487596173784],[-0.447484626526784,44.88518798165772],[-0.446943558071614,44.886615167239064],[-0.447230293055572,44.88798059790796],[-0.446168918947938,44.888821932384374],[-0.445719516220504,44.88928648443584],[-0.444949596667314,44.889796128469825],[-0.444366036236301,44.8906775886609],[-0.444129135313893,44.89138246970207],[-0.443865066565639,44.89216119044575],[-0.443480554502869,44.892692210885855],[-0.443177617579261,44.892920599280735],[-0.442702732885861,44.89309483980004],[-0.441948289120192,44.89352737905048],[-0.441504435216228,44.89404220777071],[-0.439715702036241,44.893425347117585],[-0.436626565518128,44.89366250549039],[-0.435801287292217,44.893808810267714],[-0.433993636873203,44.895139034073566],[-0.433699610642419,44.89524455654325],[-0.433367743007648,44.89568469197155],[-0.432687853230327,44.895990494375525],[-0.431555671152744,44.895866883708095],[-0.430925509014115,44.896198173871454],[-0.429851421259715,44.89648549878676],[-0.429170732045102,44.89679941431901],[-0.428953540562299,44.89729096638753],[-0.428042195335613,44.897295678083914],[-0.427942945516715,44.89708245537703],[-0.427776889233994,44.89704162133284],[-0.426831812287587,44.89713748423792],[-0.425933476713272,44.89689845440523],[-0.425245292110592,44.897069286367284],[-0.424267873136777,44.89703004472072],[-0.423716728894096,44.896891135413696],[-0.423010505607139,44.896953465128405],[-0.422036974733199,44.89670771080572],[-0.420716897637919,44.89660059549505],[-0.420430212255211,44.896411165755076],[-0.419296536634994,44.8966785940204],[-0.419027877192578,44.896868007401615],[-0.418327116925398,44.89708244033788],[-0.417700446170189,44.897618115740165],[-0.417228278264187,44.89767230187677],[-0.416833798288254,44.89796110841265],[-0.416658344417714,44.89832788549102],[-0.416212686314023,44.89860925263184],[-0.415707581256617,44.898747355010926],[-0.413839971029785,44.89901927833893],[-0.412336043393615,44.89982971853248],[-0.411441609104021,44.90013386895984],[-0.410115694890897,44.900911772180876],[-0.409507458016444,44.90141889528336],[-0.408790211364625,44.90175993809403],[-0.408255357066543,44.90213953580437],[-0.407632779402785,44.902390249561655],[-0.407409457102903,44.902304280677384],[-0.407369261915165,44.90210184575832],[-0.407546977613514,44.901499805781576],[-0.407824557417022,44.90131014798274],[-0.408108959388079,44.90125365582385],[-0.408711996917993,44.898762285209514],[-0.410637454291958,44.89666827193431],[-0.41109304253384,44.895882858645535],[-0.411072091638192,44.89305737893099],[-0.411103137483152,44.89285906509082],[-0.411495199715435,44.892384708947525],[-0.411176462376432,44.89087510267261],[-0.411368524451592,44.89040599106661],[-0.411327083781794,44.89028740674433],[-0.411090337051638,44.89016761433932],[-0.410872534214809,44.889692172152536],[-0.411172923424324,44.88921162183555],[-0.411068104578293,44.88863447909796],[-0.411106999574198,44.88816917332788],[-0.411243896471225,44.887793678137264],[-0.411571602640013,44.88734563102117],[-0.410903642243552,44.88378214590654],[-0.410830413890352,44.88197301641884],[-0.410341553253255,44.8816879436743],[-0.409743594867404,44.881463896195996],[-0.409569851527601,44.88125385072808],[-0.409610383279809,44.87954306220117],[-0.409186543499356,44.87832506701062],[-0.409328036414019,44.87798367873202],[-0.409807121710437,44.87769139708905],[-0.409854141200416,44.877422301486],[-0.410118325039079,44.87697260546804],[-0.410143351785355,44.87667534766367],[-0.409829011398553,44.87550716142402],[-0.410358406283642,44.87489611529629],[-0.410635764688926,44.87234896455103]]]]}},{"type":"Feature","properties":{"fid":3854,"ID":"COMMUNE_0000000009755413","NOM":"Sainte-Eulalie","NOM_M":"SAINTE-EULALIE","INSEE_COM":"33397","STATUT":"Commune simple","POPULATION":4922,"INSEE_CAN":"26","INSEE_ARR":"2","INSEE_DEP":"33","INSEE_REG":"75","SIREN_EPCI":"243301249"},"geometry":{"type":"MultiPolygon","coordinates":[[[[-0.463517802368058,44.898058344109906],[-0.463628074154671,44.898160346115894],[-0.464146185729277,44.89817302031765],[-0.465096661431225,44.898616497955445],[-0.465347363951272,44.89881595284285],[-0.466659156742792,44.898745261242766],[-0.467112591966616,44.89879869353526],[-0.467410333823698,44.898466759763345],[-0.467071250678243,44.89765814358468],[-0.46733565988305,44.89701272646563],[-0.467029561801273,44.89657348030343],[-0.466971385790965,44.89628871045095],[-0.466728228847635,44.89600611211901],[-0.466621136267257,44.8956273408455],[-0.466262389449794,44.8951771201286],[-0.466435475103986,44.89420290984232],[-0.467456052694201,44.8935455949267],[-0.468191904595914,44.89291789342803],[-0.469456433063226,44.89112191186338],[-0.470285568699321,44.89124469616551],[-0.470996215689855,44.891542410344016],[-0.471607905207868,44.89155212192729],[-0.47162107927437,44.89166255958883],[-0.475103453299881,44.89137065489898],[-0.474725136242686,44.890216321052506],[-0.474358750347183,44.88960234382191],[-0.475890176130697,44.888660393810305],[-0.476732584446054,44.88889536590023],[-0.478402684391732,44.88657197377168],[-0.478453253265924,44.88522036383504],[-0.478842963794483,44.8847178877168],[-0.479846224888842,44.88380685004316],[-0.48086615786005,44.88324675507367],[-0.481428416154005,44.88246128225325],[-0.482331885975332,44.882353633003234],[-0.483413221169565,44.882334121182026],[-0.485447013592786,44.882587503759645],[-0.48723650901992,44.88205094392951],[-0.487679470392274,44.88197844636739],[-0.48825009661688,44.881737011170785],[-0.489677566930775,44.88186156940493],[-0.488676249821612,44.88335122538021],[-0.489220527822482,44.88341973308992],[-0.490158938855042,44.8842608116031],[-0.492769723888152,44.88321257455203],[-0.494057146136193,44.88261419598352],[-0.49431928452412,44.88248788304861],[-0.495681735294469,44.88396895543221],[-0.496001137536017,44.884029191479875],[-0.495931512001155,44.884234160455215],[-0.496542962978438,44.88481061176591],[-0.498868383405139,44.886363150619545],[-0.499548861127467,44.88670399323236],[-0.50299856808649,44.88745855951103],[-0.504495323783271,44.8882629794],[-0.504788325423669,44.88842766655008],[-0.503503565531808,44.88973896056172],[-0.497037229486681,44.8956070857701],[-0.495919286567185,44.89701667093094],[-0.495205290698924,44.898296367608324],[-0.492663594208866,44.9045777186679],[-0.491621773784322,44.90682751182987],[-0.490865150759232,44.907874197793],[-0.489678365297364,44.90903984109619],[-0.488330788643358,44.91000684361848],[-0.487267077790339,44.910624249861954],[-0.487452350362794,44.910809492299265],[-0.487815227797867,44.91181107844771],[-0.487765700029557,44.912197459377495],[-0.485979797327577,44.913500836532855],[-0.484708341178584,44.913899429545665],[-0.484570718229161,44.914276856810964],[-0.484757559209972,44.91448728926403],[-0.484733662706454,44.91459258173121],[-0.484504341372498,44.91473946775603],[-0.484551975502943,44.91499572484318],[-0.484205038875035,44.91520938653031],[-0.484287301036824,44.915880024237495],[-0.483552808473445,44.915796720297436],[-0.482986159844227,44.91561802490776],[-0.483038632666903,44.91540098551445],[-0.482907981478866,44.91529873796738],[-0.482030207480835,44.9165843778193],[-0.481348244836429,44.916713904512974],[-0.48097200312245,44.916680636315164],[-0.479520205276537,44.91724073165217],[-0.47939345482376,44.91744657763757],[-0.478289903460156,44.91777314232118],[-0.47700139256316,44.91863540761072],[-0.476272507439461,44.9198703737009],[-0.475922549578669,44.92333032260757],[-0.474163512062321,44.92352144109148],[-0.47386567013118,44.923628089059235],[-0.473645458538866,44.92353403864247],[-0.473204946117977,44.92359017168043],[-0.473674671205059,44.9228590077086],[-0.473545924497644,44.92258275269757],[-0.472757997522255,44.922027001322256],[-0.472754955355298,44.921711667484274],[-0.472661469297329,44.921615455602634],[-0.469904239245478,44.92242260677317],[-0.469118617117871,44.921718958124195],[-0.468048752142658,44.92125939952445],[-0.468249292813444,44.92052314696614],[-0.467179920943793,44.920440276646175],[-0.46746936361968,44.91995179046236],[-0.466456175937648,44.919649063818575],[-0.46656630342823,44.91892735286205],[-0.465370133531363,44.91900884109907],[-0.46504691074818,44.919094628119446],[-0.464129329083539,44.919107029262186],[-0.462897121187099,44.91835869001963],[-0.461291775837861,44.91774994088555],[-0.46010803394305,44.917456980173256],[-0.457906156204589,44.91733449888261],[-0.455479369310603,44.91654666528151],[-0.455625444443839,44.91628257023033],[-0.455511178416112,44.916157251735285],[-0.45551973609271,44.914958369224166],[-0.455885003789057,44.913888075733155],[-0.455304539879298,44.9120631538856],[-0.45538604643476,44.91180106816398],[-0.457853391464333,44.908067139181355],[-0.458085529504385,44.90773907797619],[-0.45828884030064,44.90766335284241],[-0.45837720959128,44.90718385825056],[-0.45882513023612,44.906427306320595],[-0.461457349067115,44.90376961060384],[-0.46262686416486,44.902460629632564],[-0.46338223340942,44.89960004522346],[-0.463517802368058,44.898058344109906]]]]}}]}